{"nodes": [{"id": 418657516, "lat": 51.1593379, "lon": 20.9013382, "way_id": 444764458, "landuse": "meadow", "closest_distance_restriction": 3.3941048262185736}, {"id": 418669965, "lat": 51.151097, "lon": 20.8845449, "way_id": 444764458, "landuse": "meadow", "closest_distance_restriction": 3.6139936088648916}, {"id": 418689158, "lat": 51.1442052, "lon": 20.8921654, "way_id": 444764458, "landuse": "meadow", "closest_distance_restriction": 4.54390862943297}, {"id": 418707363, "lat": 51.1499764, "lon": 20.8834257, "way_id": 444764458, "landuse": "meadow", "closest_distance_restriction": 3.685534174548987}, {"id": 418711931, "lat": 51.1597884, "lon": 20.9002108, "way_id": 444764458, "landuse": "meadow", "closest_distance_restriction": 3.3617154602449304}, {"id": 1490702799, "lat": 51.1492859, "lon": 20.8770005, "way_id": 444764458, "landuse": "meadow", "closest_distance_restriction": 3.5705445782045553}, {"id": 1838084571, "lat": 51.1544479, "lon": 20.879715, "way_id": 444764458, "landuse": "meadow", "closest_distance_restriction": 3.1250095155694386}, {"id": 1839021582, "lat": 51.1397959, "lon": 20.8867768, "way_id": 444764458, "landuse": "meadow", "closest_distance_restriction": 4.8066000727154385}, {"id": 1868543820, "lat": 51.155764, "lon": 21.0442831, "way_id": 796230232, "landuse": "meadow", "closest_distance_restriction": 2.023130299404937}, {"id": 1868543935, "lat": 51.1570291, "lon": 21.0377171, "way_id": 796230232, "landuse": "meadow", "closest_distance_restriction": 1.5874666069258576}, {"id": 1868543961, "lat": 51.1621865, "lon": 21.0593757, "way_id": 863352261, "landuse": "farmland", "closest_distance_restriction": 2.075482978768777}, {"id": 1868544029, "lat": 51.1602085, "lon": 21.0589203, "way_id": 863352262, "landuse": "farmland", "closest_distance_restriction": 2.2951856037937786}, {"id": 1868544073, "lat": 51.1630931, "lon": 21.060056, "way_id": 863352261, "landuse": "farmland", "closest_distance_restriction": 1.9760146455926255}, {"id": 1868544258, "lat": 51.1564638, "lon": 21.0422661, "way_id": 796230232, "landuse": "meadow", "closest_distance_restriction": 1.8648716458584635}, {"id": 1868544269, "lat": 51.1629391, "lon": 21.0610293, "way_id": 863352261, "landuse": "farmland", "closest_distance_restriction": 1.996967825418235}, {"id": 1868544386, "lat": 51.1571435, "lon": 21.0566728, "way_id": 796230232, "landuse": "meadow", "closest_distance_restriction": 2.6406590184578245}, {"id": 1887135034, "lat": 51.143583, "lon": 20.8843887, "way_id": 444764458, "landuse": "meadow", "closest_distance_restriction": 4.354171770585163}, {"id": 1887135042, "lat": 51.1480791, "lon": 20.8797566, "way_id": 444764458, "landuse": "meadow", "closest_distance_restriction": 3.7667209980575187}, {"id": 1887135048, "lat": 51.1398627, "lon": 20.8860137, "way_id": 444764458, "landuse": "meadow", "closest_distance_restriction": 4.7783945695083005}, {"id": 1887214322, "lat": 51.1427683, "lon": 20.8953721, "way_id": 444764458, "landuse": "meadow", "closest_distance_restriction": 4.797024622961744}, {"id": 1887214324, "lat": 51.1503978, "lon": 20.8914413, "way_id": 444764458, "landuse": "meadow", "closest_distance_restriction": 3.9389512990422326}, {"id": 1887214327, "lat": 51.1502748, "lon": 20.8917486, "way_id": 444764458, "landuse": "meadow", "closest_distance_restriction": 3.9625182741488274}, {"id": 1895052516, "lat": 51.1536294, "lon": 20.8770877, "way_id": 444764458, "landuse": "meadow", "closest_distance_restriction": 3.1264766643091315}, {"id": 1895052537, "lat": 51.149879, "lon": 20.8770243, "way_id": 444764458, "landuse": "meadow", "closest_distance_restriction": 3.5096021072896137}, {"id": 1895052543, "lat": 51.1484758, "lon": 20.8899513, "way_id": 444764458, "landuse": "meadow", "closest_distance_restriction": 4.058512662051362}, {"id": 1898009318, "lat": 51.324991, "lon": 20.8882396, "way_id": 860348579, "landuse": "farmland", "closest_distance_restriction": 1.9263682140227218}, {"id": 1898009324, "lat": 51.3251671, "lon": 20.8792628, "way_id": 860351562, "landuse": "farmland", "closest_distance_restriction": 1.8133796764914076}, {"id": 2472951839, "lat": 51.1373053, "lon": 21.0520596, "way_id": 322660690, "landuse": "farmland", "closest_distance_restriction": 3.672620064458451}, {"id": 2472951856, "lat": 51.1380739, "lon": 21.0522315, "way_id": 322660690, "landuse": "farmland", "closest_distance_restriction": 3.6274382236312848}, {"id": 2472951857, "lat": 51.1380803, "lon": 21.0511907, "way_id": 322660690, "landuse": "farmland", "closest_distance_restriction": 3.5708258373857675}, {"id": 2472951858, "lat": 51.138106, "lon": 21.0516358, "way_id": 322660690, "landuse": "farmland", "closest_distance_restriction": 3.592960093235746}, {"id": 2472951859, "lat": 51.1381125, "lon": 21.0519473, "way_id": 322660690, "landuse": "farmland", "closest_distance_restriction": 3.609335815402373}, {"id": 2472951861, "lat": 51.1381404, "lon": 21.0512113, "way_id": 322660690, "landuse": "farmland", "closest_distance_restriction": 3.567667795932889}, {"id": 2472951862, "lat": 51.1381447, "lon": 21.0503074, "way_id": 322660690, "landuse": "farmland", "closest_distance_restriction": 3.5190000321063994}, {"id": 2472951863, "lat": 51.1381705, "lon": 21.0503143, "way_id": 322660690, "landuse": "farmland", "closest_distance_restriction": 3.5175146051011517}, {"id": 2472951864, "lat": 51.1381812, "lon": 21.0498966, "way_id": 322660690, "landuse": "farmland", "closest_distance_restriction": 3.4945374102348543}, {"id": 2472951865, "lat": 51.1382242, "lon": 21.0519644, "way_id": 322660690, "landuse": "farmland", "closest_distance_restriction": 3.6024390570124605}, {"id": 2472951866, "lat": 51.1382564, "lon": 21.0516666, "way_id": 322660690, "landuse": "farmland", "closest_distance_restriction": 3.5840462460103533}, {"id": 2472951868, "lat": 51.1384197, "lon": 21.0495097, "way_id": 322660690, "landuse": "farmland", "closest_distance_restriction": 3.4567888703304277}, {"id": 2472951869, "lat": 51.1384433, "lon": 21.0487155, "way_id": 322660690, "landuse": "farmland", "closest_distance_restriction": 3.4130963965652814}, {"id": 2472951870, "lat": 51.1384755, "lon": 21.0499582, "way_id": 322660690, "landuse": "farmland", "closest_distance_restriction": 3.476660042902207}, {"id": 2472951871, "lat": 51.1385034, "lon": 21.0482054, "way_id": 322660690, "landuse": "farmland", "closest_distance_restriction": 3.3819123266898456}, {"id": 2472951872, "lat": 51.1385099, "lon": 21.0487429, "way_id": 322660690, "landuse": "farmland", "closest_distance_restriction": 3.4096838160756517}, {"id": 2472951873, "lat": 51.1385185, "lon": 21.04952, "way_id": 322660690, "landuse": "farmland", "closest_distance_restriction": 3.4502176704025453}, {"id": 2472951874, "lat": 51.1385915, "lon": 21.0482122, "way_id": 322660690, "landuse": "farmland", "closest_distance_restriction": 3.375806428538629}, {"id": 2472951875, "lat": 51.1386989, "lon": 21.0476097, "way_id": 322660690, "landuse": "farmland", "closest_distance_restriction": 3.336368123498384}, {"id": 2472951877, "lat": 51.1387762, "lon": 21.0470995, "way_id": 322660690, "landuse": "farmland", "closest_distance_restriction": 3.304067168086789}, {"id": 2472951878, "lat": 51.1388665, "lon": 21.0471304, "way_id": 322660690, "landuse": "farmland", "closest_distance_restriction": 3.2989892625331674}, {"id": 2472951879, "lat": 51.1388944, "lon": 21.0463464, "way_id": 322660690, "landuse": "farmland", "closest_distance_restriction": 3.256248406560902}, {"id": 2472951880, "lat": 51.1389395, "lon": 21.0463566, "way_id": 322660690, "landuse": "farmland", "closest_distance_restriction": 3.253404374328233}, {"id": 2472951881, "lat": 51.1389674, "lon": 21.0456822, "way_id": 322660690, "landuse": "farmland", "closest_distance_restriction": 3.21168567063295}, {"id": 2472951884, "lat": 51.1391973, "lon": 21.0457164, "way_id": 322660690, "landuse": "farmland", "closest_distance_restriction": 3.2010725118297394}, {"id": 2472951888, "lat": 51.1392767, "lon": 21.0448537, "way_id": 322660690, "landuse": "farmland", "closest_distance_restriction": 3.1481138306724596}, {"id": 2472951890, "lat": 51.1394099, "lon": 21.0448605, "way_id": 322660690, "landuse": "farmland", "closest_distance_restriction": 3.1411006819871514}, {"id": 2472951891, "lat": 51.1394164, "lon": 21.0442956, "way_id": 322660690, "landuse": "farmland", "closest_distance_restriction": 3.106871801882651}, {"id": 2472951893, "lat": 51.1394464, "lon": 21.0438437, "way_id": 322660690, "landuse": "farmland", "closest_distance_restriction": 3.075305835405721}, {"id": 2472951894, "lat": 51.1394744, "lon": 21.0443162, "way_id": 322660690, "landuse": "farmland", "closest_distance_restriction": 3.1070183302201313}, {"id": 2472951901, "lat": 51.1396355, "lon": 21.043878, "way_id": 322660690, "landuse": "farmland", "closest_distance_restriction": 3.0735651007258538}, {"id": 2472951903, "lat": 51.1396806, "lon": 21.0433405, "way_id": 322660690, "landuse": "farmland", "closest_distance_restriction": 3.0357991273614973}, {"id": 2472951907, "lat": 51.1397663, "lon": 21.0407061, "way_id": 322660690, "landuse": "farmland", "closest_distance_restriction": 2.853707588471583}, {"id": 2472951912, "lat": 51.1399641, "lon": 21.0433952, "way_id": 322660690, "landuse": "farmland", "closest_distance_restriction": 3.0243060060253057}, {"id": 2472951913, "lat": 51.1400522, "lon": 21.042577, "way_id": 322660690, "landuse": "farmland", "closest_distance_restriction": 2.9757521732067014}, {"id": 2472951924, "lat": 51.1402745, "lon": 21.0370449, "way_id": 322660690, "landuse": "farmland", "closest_distance_restriction": 2.5921403586068954}, {"id": 2472951925, "lat": 51.140304, "lon": 21.0408272, "way_id": 322660690, "landuse": "farmland", "closest_distance_restriction": 2.850625822933729}, {"id": 2472951935, "lat": 51.1407818, "lon": 21.0356456, "way_id": 322660690, "landuse": "farmland", "closest_distance_restriction": 2.4855030959938977}, {"id": 2472951936, "lat": 51.1408031, "lon": 21.0353503, "way_id": 322660690, "landuse": "farmland", "closest_distance_restriction": 2.4648192535794164}, {"id": 2472951937, "lat": 51.1408031, "lon": 21.0371659, "way_id": 322660690, "landuse": "farmland", "closest_distance_restriction": 2.589393354498279}, {"id": 2472951941, "lat": 51.1409459, "lon": 21.0356941, "way_id": 322660690, "landuse": "farmland", "closest_distance_restriction": 2.4855246387950416}, {"id": 2472951943, "lat": 51.1410097, "lon": 21.0354036, "way_id": 322660690, "landuse": "farmland", "closest_distance_restriction": 2.4643229692263438}, {"id": 2472951944, "lat": 51.1410674, "lon": 21.0349969, "way_id": 322660690, "landuse": "farmland", "closest_distance_restriction": 2.4352636732585555}, {"id": 2472951945, "lat": 51.141119, "lon": 21.0350307, "way_id": 322660690, "landuse": "farmland", "closest_distance_restriction": 2.4365849749493083}, {"id": 2472951947, "lat": 51.1411919, "lon": 21.0345224, "way_id": 322660690, "landuse": "farmland", "closest_distance_restriction": 2.4002566024101246}, {"id": 2472951949, "lat": 51.1414167, "lon": 21.0337622, "way_id": 322660690, "landuse": "farmland", "closest_distance_restriction": 2.343757898561509}, {"id": 2472951950, "lat": 51.1414683, "lon": 21.0345805, "way_id": 322660690, "landuse": "farmland", "closest_distance_restriction": 2.3991504322058397}, {"id": 2472951951, "lat": 51.1415413, "lon": 21.0326293, "way_id": 322660690, "landuse": "farmland", "closest_distance_restriction": 2.263519450147313}, {"id": 2472951952, "lat": 51.1415747, "lon": 21.0338252, "way_id": 322660690, "landuse": "farmland", "closest_distance_restriction": 2.345247227101941}, {"id": 2472951982, "lat": 51.1456136, "lon": 21.0428346, "way_id": 322660690, "landuse": "farmland", "closest_distance_restriction": 2.6015126015923506}, {"id": 2472951983, "lat": 51.1456179, "lon": 21.0420849, "way_id": 322660690, "landuse": "farmland", "closest_distance_restriction": 2.557893811328414}, {"id": 2472951984, "lat": 51.1457296, "lon": 21.0424649, "way_id": 322660690, "landuse": "farmland", "closest_distance_restriction": 2.5729022853581798}, {"id": 2472951985, "lat": 51.1457317, "lon": 21.0417185, "way_id": 322660690, "landuse": "farmland", "closest_distance_restriction": 2.529653904166628}, {"id": 2472951987, "lat": 51.1458048, "lon": 21.0425094, "way_id": 322660690, "landuse": "farmland", "closest_distance_restriction": 2.570849320288093}, {"id": 2472951988, "lat": 51.1458412, "lon": 21.0601234, "way_id": 322660690, "landuse": "farmland", "closest_distance_restriction": 3.579254155634395}, {"id": 2472951989, "lat": 51.1458735, "lon": 21.0422697, "way_id": 322660690, "landuse": "farmland", "closest_distance_restriction": 2.5526952848488262}, {"id": 2472951990, "lat": 51.1459292, "lon": 21.059336, "way_id": 322660690, "landuse": "farmland", "closest_distance_restriction": 3.531707189553893}, {"id": 2472951993, "lat": 51.1460432, "lon": 21.0419685, "way_id": 322660690, "landuse": "farmland", "closest_distance_restriction": 2.524752939760761}, {"id": 2472951995, "lat": 51.1462127, "lon": 21.0594387, "way_id": 322660690, "landuse": "farmland", "closest_distance_restriction": 3.516109113550638}, {"id": 2472951996, "lat": 51.1462385, "lon": 21.0592436, "way_id": 322660690, "landuse": "farmland", "closest_distance_restriction": 3.5040126070358686}, {"id": 2472951998, "lat": 51.1463245, "lon": 21.0406881, "way_id": 322660690, "landuse": "farmland", "closest_distance_restriction": 2.4331403101000872}, {"id": 2472951999, "lat": 51.1463566, "lon": 21.0603083, "way_id": 322660690, "landuse": "farmland", "closest_distance_restriction": 3.5513917490747806}, {"id": 2472952000, "lat": 51.1464104, "lon": 21.0407771, "way_id": 322660690, "landuse": "farmland", "closest_distance_restriction": 2.432953552043545}, {"id": 2472952002, "lat": 51.146464, "lon": 21.0593121, "way_id": 322660690, "landuse": "farmland", "closest_distance_restriction": 3.4910324844385126}, {"id": 2472952003, "lat": 51.1465328, "lon": 21.039726, "way_id": 322660690, "landuse": "farmland", "closest_distance_restriction": 2.3646522874060407}, {"id": 2472952004, "lat": 51.146608, "lon": 21.0397911, "way_id": 322660690, "landuse": "farmland", "closest_distance_restriction": 2.3636704832980096}, {"id": 2472952007, "lat": 51.1467906, "lon": 21.0389078, "way_id": 322660690, "landuse": "farmland", "closest_distance_restriction": 2.3014023321256896}, {"id": 2472952010, "lat": 51.1468765, "lon": 21.0389557, "way_id": 322660690, "landuse": "farmland", "closest_distance_restriction": 2.2987223615907046}, {"id": 2472952015, "lat": 51.1470478, "lon": 21.0364786, "way_id": 322660690, "landuse": "farmland", "closest_distance_restriction": 2.1471287729992454}, {"id": 2472952016, "lat": 51.1470569, "lon": 21.0385723, "way_id": 322660690, "landuse": "farmland", "closest_distance_restriction": 2.2653199287784154}, {"id": 2472952018, "lat": 51.1471664, "lon": 21.038206, "way_id": 322660690, "landuse": "farmland", "closest_distance_restriction": 2.237368886767324}, {"id": 2472952019, "lat": 51.1472938, "lon": 21.0374179, "way_id": 322660690, "landuse": "farmland", "closest_distance_restriction": 2.1841592000694305}, {"id": 2472952020, "lat": 51.1473241, "lon": 21.0357088, "way_id": 322660690, "landuse": "farmland", "closest_distance_restriction": 2.0857290484003013}, {"id": 2472952021, "lat": 51.1473318, "lon": 21.0383189, "way_id": 322660690, "landuse": "farmland", "closest_distance_restriction": 2.233495748122184}, {"id": 2472952024, "lat": 51.147437, "lon": 21.0379595, "way_id": 322660690, "landuse": "farmland", "closest_distance_restriction": 2.2061818721358444}, {"id": 2472952026, "lat": 51.1474699, "lon": 21.0368079, "way_id": 322660690, "landuse": "farmland", "closest_distance_restriction": 2.138104859052277}, {"id": 2472952030, "lat": 51.1477615, "lon": 21.0360332, "way_id": 322660690, "landuse": "farmland", "closest_distance_restriction": 2.075273385970063}, {"id": 2472952031, "lat": 51.147962, "lon": 21.0353747, "way_id": 322660690, "landuse": "farmland", "closest_distance_restriction": 2.0249446020397994}, {"id": 2472952036, "lat": 51.1484977, "lon": 21.0611716, "way_id": 322660690, "landuse": "farmland", "closest_distance_restriction": 3.4492707441967547}, {"id": 2472952037, "lat": 51.1485772, "lon": 21.0604663, "way_id": 322660690, "landuse": "farmland", "closest_distance_restriction": 3.40470527169115}, {"id": 2472952040, "lat": 51.1487404, "lon": 21.0612743, "way_id": 322660690, "landuse": "farmland", "closest_distance_restriction": 3.438881695290766}, {"id": 2472952042, "lat": 51.1488263, "lon": 21.0605382, "way_id": 322660690, "landuse": "farmland", "closest_distance_restriction": 3.392000870053155}, {"id": 2472952067, "lat": 51.151719, "lon": 21.0624417, "way_id": 322660690, "landuse": "farmland", "closest_distance_restriction": 3.2484580001940504}, {"id": 2472952068, "lat": 51.1518288, "lon": 21.0614981, "way_id": 322660690, "landuse": "farmland", "closest_distance_restriction": 3.2319605677979966}, {"id": 2472952071, "lat": 51.1530356, "lon": 21.0627856, "way_id": 322660690, "landuse": "farmland", "closest_distance_restriction": 3.1044852594339427}, {"id": 2472952072, "lat": 51.1530629, "lon": 21.0629793, "way_id": 322660690, "landuse": "farmland", "closest_distance_restriction": 3.1026633324253163}, {"id": 2472952078, "lat": 51.153561, "lon": 21.0626597, "way_id": 322660690, "landuse": "farmland", "closest_distance_restriction": 3.0455241721286623}, {"id": 2472952079, "lat": 51.1535792, "lon": 21.0628292, "way_id": 322660690, "landuse": "farmland", "closest_distance_restriction": 3.0445425743974703}, {"id": 2472952080, "lat": 51.1542382, "lon": 21.0627227, "way_id": 322660690, "landuse": "farmland", "closest_distance_restriction": 2.9708945621182905}, {"id": 2602113593, "lat": 51.1602179, "lon": 21.0635715, "way_id": 863352262, "landuse": "farmland", "closest_distance_restriction": 2.3169282265447038}, {"id": 2602113597, "lat": 51.1603679, "lon": 21.063057, "way_id": 863352262, "landuse": "farmland", "closest_distance_restriction": 2.29563425448131}, {"id": 2602113601, "lat": 51.1604512, "lon": 21.0601097, "way_id": 863352262, "landuse": "farmland", "closest_distance_restriction": 2.2697093457433537}, {"id": 2602113605, "lat": 51.160736, "lon": 21.0633142, "way_id": 863352262, "landuse": "farmland", "closest_distance_restriction": 2.2573955908885774}, {"id": 2602113613, "lat": 51.1608292, "lon": 21.0630352, "way_id": 863352262, "landuse": "farmland", "closest_distance_restriction": 2.244560472542455}, {"id": 2602113785, "lat": 51.162097, "lon": 21.0604164, "way_id": 863352261, "landuse": "farmland", "closest_distance_restriction": 2.0877948711887555}, {"id": 3294350124, "lat": 51.1371352, "lon": 21.0527662, "way_id": 322660690, "landuse": "farmland", "closest_distance_restriction": 3.7225436685975026}, {"id": 3294350191, "lat": 51.1383639, "lon": 21.0527662, "way_id": 322660690, "landuse": "farmland", "closest_distance_restriction": 3.6364780321265595}, {"id": 3294350194, "lat": 51.1384844, "lon": 21.0527736, "way_id": 322660690, "landuse": "farmland", "closest_distance_restriction": 3.628611156718117}, {"id": 3294350199, "lat": 51.1386003, "lon": 21.0526849, "way_id": 322660690, "landuse": "farmland", "closest_distance_restriction": 3.6158010344069194}, {"id": 3294350214, "lat": 51.1388414, "lon": 21.0524041, "way_id": 322660690, "landuse": "farmland", "closest_distance_restriction": 3.5838785594321734}, {"id": 3294350216, "lat": 51.1389184, "lon": 21.0524593, "way_id": 322660690, "landuse": "farmland", "closest_distance_restriction": 3.5816859279183872}, {"id": 3294350224, "lat": 51.139066, "lon": 21.0525011, "way_id": 322660690, "landuse": "farmland", "closest_distance_restriction": 3.5739998444271084}, {"id": 3294350235, "lat": 51.1394581, "lon": 21.048022, "way_id": 322660690, "landuse": "farmland", "closest_distance_restriction": 3.302953197185456}, {"id": 3294350239, "lat": 51.1395323, "lon": 21.0476008, "way_id": 322660690, "landuse": "farmland", "closest_distance_restriction": 3.2751862859435277}, {"id": 3294350246, "lat": 51.1396062, "lon": 21.0417266, "way_id": 322660690, "landuse": "farmland", "closest_distance_restriction": 2.927029923889214}, {"id": 3294350249, "lat": 51.1396583, "lon": 21.0413279, "way_id": 322660690, "landuse": "farmland", "closest_distance_restriction": 2.8986172389256515}, {"id": 3294350253, "lat": 51.1397131, "lon": 21.0471648, "way_id": 322660690, "landuse": "farmland", "closest_distance_restriction": 3.2389890413085762}, {"id": 3294350258, "lat": 51.1397734, "lon": 21.0461302, "way_id": 322660690, "landuse": "farmland", "closest_distance_restriction": 3.1799495244551106}, {"id": 3294350259, "lat": 51.1398058, "lon": 21.0451843, "way_id": 322660690, "landuse": "farmland", "closest_distance_restriction": 3.128153727166768}, {"id": 3294350261, "lat": 51.139829, "lon": 21.046847, "way_id": 322660690, "landuse": "farmland", "closest_distance_restriction": 3.213755161048961}, {"id": 3294350262, "lat": 51.1398299, "lon": 21.0523653, "way_id": 322660690, "landuse": "farmland", "closest_distance_restriction": 3.5154078711761514}, {"id": 3294350266, "lat": 51.1398627, "lon": 21.0521301, "way_id": 322660690, "landuse": "farmland", "closest_distance_restriction": 3.500043678427313}, {"id": 3294350275, "lat": 51.1399635, "lon": 21.0451178, "way_id": 322660690, "landuse": "farmland", "closest_distance_restriction": 3.1130062522827324}, {"id": 3294350276, "lat": 51.1399774, "lon": 21.0481328, "way_id": 322660690, "landuse": "farmland", "closest_distance_restriction": 3.272037251727329}, {"id": 3294350277, "lat": 51.1400377, "lon": 21.0421324, "way_id": 322660690, "landuse": "farmland", "closest_distance_restriction": 2.9455527472385397}, {"id": 3294350278, "lat": 51.1400655, "lon": 21.0472461, "way_id": 322660690, "landuse": "farmland", "closest_distance_restriction": 3.21808530774135}, {"id": 3294350281, "lat": 51.1400939, "lon": 21.0527823, "way_id": 322660690, "landuse": "farmland", "closest_distance_restriction": 3.521635310095876}, {"id": 3294350284, "lat": 51.1401282, "lon": 21.0524646, "way_id": 322660690, "landuse": "farmland", "closest_distance_restriction": 3.501431529022226}, {"id": 3294350290, "lat": 51.1401768, "lon": 21.0460046, "way_id": 322660690, "landuse": "farmland", "closest_distance_restriction": 3.1439584927250865}, {"id": 3294350293, "lat": 51.1401927, "lon": 21.0375082, "way_id": 322660690, "landuse": "farmland", "closest_distance_restriction": 2.6256275624229715}, {"id": 3294350303, "lat": 51.1404132, "lon": 21.0500172, "way_id": 322660690, "landuse": "farmland", "closest_distance_restriction": 3.345372615840351}, {"id": 3294350304, "lat": 51.1404457, "lon": 21.0496403, "way_id": 322660690, "landuse": "farmland", "closest_distance_restriction": 3.3222637530528374}, {"id": 3294350310, "lat": 51.1405216, "lon": 21.0518271, "way_id": 322660690, "landuse": "farmland", "closest_distance_restriction": 3.4397662743567947}, {"id": 3294350312, "lat": 51.1405806, "lon": 21.0513881, "way_id": 322660690, "landuse": "farmland", "closest_distance_restriction": 3.411100074719401}, {"id": 3294350313, "lat": 51.1405894, "lon": 21.0500689, "way_id": 322660690, "landuse": "farmland", "closest_distance_restriction": 3.3364542273658344}, {"id": 3294350315, "lat": 51.1406582, "lon": 21.0415526, "way_id": 322660690, "landuse": "farmland", "closest_distance_restriction": 2.877953698528394}, {"id": 3294350316, "lat": 51.1407107, "lon": 21.0409151, "way_id": 322660690, "landuse": "farmland", "closest_distance_restriction": 2.8419642650942962}, {"id": 3294350318, "lat": 51.1408583, "lon": 21.0497438, "way_id": 322660690, "landuse": "farmland", "closest_distance_restriction": 3.300385281176188}, {"id": 3294350349, "lat": 51.1416702, "lon": 21.0548894, "way_id": 322660690, "landuse": "farmland", "closest_distance_restriction": 3.545901024331093}, {"id": 3294350352, "lat": 51.1418139, "lon": 21.0535666, "way_id": 322660690, "landuse": "farmland", "closest_distance_restriction": 3.4593893248185505}, {"id": 3294350355, "lat": 51.1418262, "lon": 21.0322941, "way_id": 322660690, "landuse": "farmland", "closest_distance_restriction": 2.2353783907315043}, {"id": 3294350561, "lat": 51.1420828, "lon": 21.0550224, "way_id": 322660690, "landuse": "farmland", "closest_distance_restriction": 3.52968617965003}, {"id": 3294350563, "lat": 51.1421663, "lon": 21.0536331, "way_id": 322660690, "landuse": "farmland", "closest_distance_restriction": 3.4423427186392517}, {"id": 3294350564, "lat": 51.1422126, "lon": 21.0531232, "way_id": 322660690, "landuse": "farmland", "closest_distance_restriction": 3.4094916692875192}, {"id": 3294350565, "lat": 51.1422249, "lon": 21.0321094, "way_id": 322660690, "landuse": "farmland", "closest_distance_restriction": 2.2162340297795917}, {"id": 3294350567, "lat": 51.1422434, "lon": 21.0320281, "way_id": 322660690, "landuse": "farmland", "closest_distance_restriction": 2.21033710277515}, {"id": 3294350568, "lat": 51.1423007, "lon": 21.0548968, "way_id": 322660690, "landuse": "farmland", "closest_distance_restriction": 3.5096359703650943}, {"id": 3294350569, "lat": 51.1423095, "lon": 21.0478446, "way_id": 322660690, "landuse": "farmland", "closest_distance_restriction": 3.0981314635775927}, {"id": 3294350571, "lat": 51.142361, "lon": 21.0554805, "way_id": 322660690, "landuse": "farmland", "closest_distance_restriction": 3.5411495664405925}, {"id": 3294350572, "lat": 51.1423741, "lon": 21.0423917, "way_id": 322660690, "landuse": "farmland", "closest_distance_restriction": 2.793647105164359}, {"id": 3294350573, "lat": 51.1423918, "lon": 21.0317842, "way_id": 322660690, "landuse": "farmland", "closest_distance_restriction": 2.1913054781508934}, {"id": 3294350574, "lat": 51.1423934, "lon": 21.0549707, "way_id": 322660690, "landuse": "farmland", "closest_distance_restriction": 3.508748546324752}, {"id": 3294350575, "lat": 51.1424067, "lon": 21.0478663, "way_id": 322660690, "landuse": "farmland", "closest_distance_restriction": 3.0930583013122215}, {"id": 3294350576, "lat": 51.1424243, "lon": 21.0419093, "way_id": 322660690, "landuse": "farmland", "closest_distance_restriction": 2.764395890369056}, {"id": 3294350577, "lat": 51.1424398, "lon": 21.0587911, "way_id": 322660690, "landuse": "farmland", "closest_distance_restriction": 3.7354539496381722}, {"id": 3294350579, "lat": 51.142514, "lon": 21.0534188, "way_id": 322660690, "landuse": "farmland", "closest_distance_restriction": 3.409244539397317}, {"id": 3294350580, "lat": 51.142528, "lon": 21.0527729, "way_id": 322660690, "landuse": "farmland", "closest_distance_restriction": 3.3701375157900872}, {"id": 3294350581, "lat": 51.1425372, "lon": 21.0531823, "way_id": 322660690, "landuse": "farmland", "closest_distance_restriction": 3.393850338520527}, {"id": 3294350582, "lat": 51.1425378, "lon": 21.0523339, "way_id": 322660690, "landuse": "farmland", "closest_distance_restriction": 3.3436265105864367}, {"id": 3294350584, "lat": 51.1425928, "lon": 21.0534779, "way_id": 322660690, "landuse": "farmland", "closest_distance_restriction": 3.408172796437773}, {"id": 3294350585, "lat": 51.1426004, "lon": 21.0316586, "way_id": 322660690, "landuse": "farmland", "closest_distance_restriction": 2.1797581542443587}, {"id": 3294350586, "lat": 51.1426113, "lon": 21.0573354, "way_id": 322660690, "landuse": "farmland", "closest_distance_restriction": 3.639023328067439}, {"id": 3294350587, "lat": 51.1426392, "lon": 21.0533375, "way_id": 322660690, "landuse": "farmland", "closest_distance_restriction": 3.397125473302619}, {"id": 3294350589, "lat": 51.1426657, "lon": 21.0519368, "way_id": 322660690, "landuse": "farmland", "closest_distance_restriction": 3.3126111243017813}, {"id": 3294350592, "lat": 51.1426984, "lon": 21.0523182, "way_id": 322660690, "landuse": "farmland", "closest_distance_restriction": 3.3331963356480356}, {"id": 3294350593, "lat": 51.1427024, "lon": 21.0313409, "way_id": 322660690, "landuse": "farmland", "closest_distance_restriction": 2.156429093989439}, {"id": 3294350594, "lat": 51.1427083, "lon": 21.0519786, "way_id": 322660690, "landuse": "farmland", "closest_distance_restriction": 3.3125472806647123}, {"id": 3294350595, "lat": 51.1427968, "lon": 21.0589463, "way_id": 322660690, "landuse": "farmland", "closest_distance_restriction": 3.720263762625276}, {"id": 3294350596, "lat": 51.1428525, "lon": 21.0530655, "way_id": 322660690, "landuse": "farmland", "closest_distance_restriction": 3.3685725902633665}, {"id": 3294350597, "lat": 51.1428849, "lon": 21.0581704, "way_id": 322660690, "landuse": "farmland", "closest_distance_restriction": 3.6710605386368234}, {"id": 3294350598, "lat": 51.1429075, "lon": 21.0429009, "way_id": 322660690, "landuse": "farmland", "closest_distance_restriction": 2.783328895274026}, {"id": 3294350599, "lat": 51.1429683, "lon": 21.0575275, "way_id": 322660690, "landuse": "farmland", "closest_distance_restriction": 3.629716249576817}, {"id": 3294350600, "lat": 51.1430038, "lon": 21.0234634, "way_id": 322660690, "landuse": "farmland", "closest_distance_restriction": 1.6069089532435323}, {"id": 3294350601, "lat": 51.1430373, "lon": 21.0420659, "way_id": 322660690, "landuse": "farmland", "closest_distance_restriction": 2.7290041324806764}, {"id": 3294350602, "lat": 51.1430722, "lon": 21.0480805, "way_id": 322660690, "landuse": "farmland", "closest_distance_restriction": 3.0629248197395005}, {"id": 3294350603, "lat": 51.1431028, "lon": 21.057424, "way_id": 322660690, "landuse": "farmland", "closest_distance_restriction": 3.6149154333887576}, {"id": 3294350604, "lat": 51.1431289, "lon": 21.0314443, "way_id": 322660690, "landuse": "farmland", "closest_distance_restriction": 2.158723052922156}, {"id": 3294350605, "lat": 51.143144, "lon": 21.046751, "way_id": 322660690, "landuse": "farmland", "closest_distance_restriction": 2.9821529616287425}, {"id": 3294350606, "lat": 51.1431445, "lon": 21.0590867, "way_id": 322660690, "landuse": "farmland", "closest_distance_restriction": 3.705241778021137}, {"id": 3294350607, "lat": 51.143177, "lon": 21.0568329, "way_id": 322660690, "landuse": "farmland", "closest_distance_restriction": 3.5771275185422087}, {"id": 3294350608, "lat": 51.1431771, "lon": 21.0469205, "way_id": 322660690, "landuse": "farmland", "closest_distance_restriction": 2.9897146242663615}, {"id": 3294350609, "lat": 51.143195, "lon": 21.0466697, "way_id": 322660690, "landuse": "farmland", "closest_distance_restriction": 2.9742505319065065}, {"id": 3294350610, "lat": 51.1432233, "lon": 21.0582738, "way_id": 322660690, "landuse": "farmland", "closest_distance_restriction": 3.654333494681185}, {"id": 3294350611, "lat": 51.1432356, "lon": 21.0311487, "way_id": 322660690, "landuse": "farmland", "closest_distance_restriction": 2.1371218904487956}, {"id": 3294350612, "lat": 51.1433016, "lon": 21.0467115, "way_id": 322660690, "landuse": "farmland", "closest_distance_restriction": 2.9698332295266976}, {"id": 3294350613, "lat": 51.1433763, "lon": 21.0569363, "way_id": 322660690, "landuse": "farmland", "closest_distance_restriction": 3.569430689191092}, {"id": 3294350615, "lat": 51.1433943, "lon": 21.0463667, "way_id": 322660690, "landuse": "farmland", "closest_distance_restriction": 2.944215360137641}, {"id": 3294350616, "lat": 51.1434787, "lon": 21.0463823, "way_id": 322660690, "landuse": "farmland", "closest_distance_restriction": 2.9397313533248273}, {"id": 3294350617, "lat": 51.1434912, "lon": 21.0384536, "way_id": 322660690, "landuse": "farmland", "closest_distance_restriction": 2.5049947645313475}, {"id": 3294350618, "lat": 51.1434969, "lon": 21.0556431, "way_id": 322660690, "landuse": "farmland", "closest_distance_restriction": 3.487466441594288}, {"id": 3294350619, "lat": 51.1435961, "lon": 21.0390284, "way_id": 322660690, "landuse": "farmland", "closest_distance_restriction": 2.5271848822467966}, {"id": 3294350620, "lat": 51.1436223, "lon": 21.0381506, "way_id": 322660690, "landuse": "farmland", "closest_distance_restriction": 2.479539502537777}, {"id": 3294350623, "lat": 51.1436668, "lon": 21.0423601, "way_id": 322660690, "landuse": "farmland", "closest_distance_restriction": 2.7013528612482043}, {"id": 3294350624, "lat": 51.1437224, "lon": 21.0298999, "way_id": 322660690, "landuse": "farmland", "closest_distance_restriction": 2.046139160573339}, {"id": 3294350626, "lat": 51.1437919, "lon": 21.03123, "way_id": 322660690, "landuse": "farmland", "closest_distance_restriction": 2.131682795034418}, {"id": 3294350627, "lat": 51.1437993, "lon": 21.0380356, "way_id": 322660690, "landuse": "farmland", "closest_distance_restriction": 2.46039907780546}, {"id": 3294350628, "lat": 51.1438012, "lon": 21.0307423, "way_id": 322660690, "landuse": "farmland", "closest_distance_restriction": 2.1042529775138434}, {"id": 3294350629, "lat": 51.1438013, "lon": 21.0402909, "way_id": 322660690, "landuse": "farmland", "closest_distance_restriction": 2.579413281717122}, {"id": 3294350631, "lat": 51.1438321, "lon": 21.0374922, "way_id": 322660690, "landuse": "farmland", "closest_distance_restriction": 2.42987286801413}, {"id": 3294350632, "lat": 51.1439032, "lon": 21.0328557, "way_id": 322660690, "landuse": "farmland", "closest_distance_restriction": 2.196305923390601}, {"id": 3294350633, "lat": 51.1439174, "lon": 21.0394151, "way_id": 322660690, "landuse": "farmland", "closest_distance_restriction": 2.5242808257006164}, {"id": 3294350634, "lat": 51.143931, "lon": 21.0326341, "way_id": 322660690, "landuse": "farmland", "closest_distance_restriction": 2.183690567679088}, {"id": 3294350635, "lat": 51.1440026, "lon": 21.0374817, "way_id": 322660690, "landuse": "farmland", "closest_distance_restriction": 2.416566342556541}, {"id": 3294350636, "lat": 51.1440091, "lon": 21.0385582, "way_id": 322660690, "landuse": "farmland", "closest_distance_restriction": 2.4722707067487075}, {"id": 3294350637, "lat": 51.144055, "lon": 21.0371055, "way_id": 322660690, "landuse": "farmland", "closest_distance_restriction": 2.393239235914432}, {"id": 3294350640, "lat": 51.1441075, "lon": 21.0384118, "way_id": 322660690, "landuse": "farmland", "closest_distance_restriction": 2.457385642185215}, {"id": 3294350641, "lat": 51.1441303, "lon": 21.0307497, "way_id": 322660690, "landuse": "farmland", "closest_distance_restriction": 2.081337225122446}, {"id": 3294350642, "lat": 51.1441665, "lon": 21.0371369, "way_id": 322660690, "landuse": "farmland", "closest_distance_restriction": 2.386505365326062}, {"id": 3294350643, "lat": 51.1442045, "lon": 21.0304984, "way_id": 322660690, "landuse": "farmland", "closest_distance_restriction": 2.063847492526125}, {"id": 3294350644, "lat": 51.1442386, "lon": 21.036468, "way_id": 322660690, "landuse": "farmland", "closest_distance_restriction": 2.3467013739475937}, {"id": 3294350645, "lat": 51.144337, "lon": 21.0375549, "way_id": 322660690, "landuse": "farmland", "closest_distance_restriction": 2.39559302411809}, {"id": 3294350646, "lat": 51.14439, "lon": 21.0442974, "way_id": 322660690, "landuse": "farmland", "closest_distance_restriction": 2.762469751731856}, {"id": 3294350647, "lat": 51.144396, "lon": 21.0372518, "way_id": 322660690, "landuse": "farmland", "closest_distance_restriction": 2.375414753922763}, {"id": 3294350649, "lat": 51.1444549, "lon": 21.0292052, "way_id": 322660690, "landuse": "farmland", "closest_distance_restriction": 1.9859468633289492}, {"id": 3294350650, "lat": 51.1444688, "lon": 21.0281337, "way_id": 322660690, "landuse": "farmland", "closest_distance_restriction": 1.9192825353068748}, {"id": 3294350651, "lat": 51.1444812, "lon": 21.0366039, "way_id": 322660690, "landuse": "farmland", "closest_distance_restriction": 2.3354551947425666}, {"id": 3294350654, "lat": 51.1445927, "lon": 21.0371682, "way_id": 322660690, "landuse": "farmland", "closest_distance_restriction": 2.356556642698984}, {"id": 3294350655, "lat": 51.1446582, "lon": 21.0363008, "way_id": 322660690, "landuse": "farmland", "closest_distance_restriction": 2.306571210841942}, {"id": 3294350656, "lat": 51.1447303, "lon": 21.0367815, "way_id": 322660690, "landuse": "farmland", "closest_distance_restriction": 2.326205039979861}, {"id": 3294350657, "lat": 51.1447619, "lon": 21.0432113, "way_id": 322660690, "landuse": "farmland", "closest_distance_restriction": 2.67668138898651}, {"id": 3294350658, "lat": 51.1447697, "lon": 21.0384223, "way_id": 322660690, "landuse": "farmland", "closest_distance_restriction": 2.4103364895290764}, {"id": 3294350660, "lat": 51.1448942, "lon": 21.036792, "way_id": 322660690, "landuse": "farmland", "closest_distance_restriction": 2.3147226198090545}, {"id": 3294350861, "lat": 51.1449014, "lon": 21.0433203, "way_id": 322660690, "landuse": "farmland", "closest_distance_restriction": 2.674047613696106}, {"id": 3294350862, "lat": 51.1449074, "lon": 21.0380461, "way_id": 322660690, "landuse": "farmland", "closest_distance_restriction": 2.3803620010496473}, {"id": 3294350863, "lat": 51.1449598, "lon": 21.0375967, "way_id": 322660690, "landuse": "farmland", "closest_distance_restriction": 2.3525796672974395}, {"id": 3294350864, "lat": 51.1449637, "lon": 21.0436808, "way_id": 322660690, "landuse": "farmland", "closest_distance_restriction": 2.6908533918825106}, {"id": 3294350865, "lat": 51.1449926, "lon": 21.0294713, "way_id": 322660690, "landuse": "farmland", "closest_distance_restriction": 1.95065249941336}, {"id": 3294350866, "lat": 51.1449926, "lon": 21.0364785, "way_id": 322660690, "landuse": "farmland", "closest_distance_restriction": 2.291062766939192}, {"id": 3294350867, "lat": 51.1449926, "lon": 21.0374713, "way_id": 322660690, "landuse": "farmland", "closest_distance_restriction": 2.343541314150707}, {"id": 3294350868, "lat": 51.1449965, "lon": 21.0440936, "way_id": 322660690, "landuse": "farmland", "closest_distance_restriction": 2.712663283262309}, {"id": 3294350869, "lat": 51.1450385, "lon": 21.0412231, "way_id": 322660690, "landuse": "farmland", "closest_distance_restriction": 2.5460743033700224}, {"id": 3294350870, "lat": 51.1450807, "lon": 21.0292865, "way_id": 322660690, "landuse": "farmland", "closest_distance_restriction": 1.934917532421261}, {"id": 3294350871, "lat": 51.1451177, "lon": 21.0434718, "way_id": 322660690, "landuse": "farmland", "closest_distance_restriction": 2.669168732842203}, {"id": 3294350872, "lat": 51.145121, "lon": 21.0444124, "way_id": 322660690, "landuse": "farmland", "closest_distance_restriction": 2.723518332438862}, {"id": 3294350874, "lat": 51.1451866, "lon": 21.0446841, "way_id": 322660690, "landuse": "farmland", "closest_distance_restriction": 2.7353855318000333}, {"id": 3294350876, "lat": 51.1453592, "lon": 21.0426406, "way_id": 322660690, "landuse": "farmland", "closest_distance_restriction": 2.606129115899153}, {"id": 3294350877, "lat": 51.145386, "lon": 21.0389135, "way_id": 322660690, "landuse": "farmland", "closest_distance_restriction": 2.3942034731758803}, {"id": 3294350878, "lat": 51.1454843, "lon": 21.0384536, "way_id": 322660690, "landuse": "farmland", "closest_distance_restriction": 2.362185528835236}, {"id": 3294350879, "lat": 51.1454909, "lon": 21.0394674, "way_id": 322660690, "landuse": "farmland", "closest_distance_restriction": 2.4177937503203255}, {"id": 3294350885, "lat": 51.1457597, "lon": 21.0386836, "way_id": 322660690, "landuse": "farmland", "closest_distance_restriction": 2.356164773202963}, {"id": 3294350888, "lat": 51.1459104, "lon": 21.0381401, "way_id": 322660690, "landuse": "farmland", "closest_distance_restriction": 2.3158658294499235}, {"id": 3294350890, "lat": 51.1461989, "lon": 21.0383596, "way_id": 322660690, "landuse": "farmland", "closest_distance_restriction": 2.3087434252836814}, {"id": 3294350894, "lat": 51.1462817, "lon": 21.0324564, "way_id": 322660690, "landuse": "farmland", "closest_distance_restriction": 1.9871763549115937}, {"id": 3294350898, "lat": 51.1463976, "lon": 21.03389, "way_id": 322660690, "landuse": "farmland", "closest_distance_restriction": 2.0522987781053925}, {"id": 3294350901, "lat": 51.1464713, "lon": 21.0402235, "way_id": 322660690, "landuse": "farmland", "closest_distance_restriction": 2.397156566262164}, {"id": 3294350902, "lat": 51.1464743, "lon": 21.0372727, "way_id": 322660690, "landuse": "farmland", "closest_distance_restriction": 2.229727875983256}, {"id": 3294350905, "lat": 51.1466155, "lon": 21.0373632, "way_id": 322660690, "landuse": "farmland", "closest_distance_restriction": 2.2253314100938244}, {"id": 3294350910, "lat": 51.1469155, "lon": 21.0388373, "way_id": 322660690, "landuse": "farmland", "closest_distance_restriction": 2.289460170561292}, {"id": 3294350911, "lat": 51.1469353, "lon": 21.0363065, "way_id": 322660690, "landuse": "farmland", "closest_distance_restriction": 2.145051136497402}, {"id": 3294350912, "lat": 51.1470049, "lon": 21.036336, "way_id": 322660690, "landuse": "farmland", "closest_distance_restriction": 2.142028045303823}, {"id": 3294350919, "lat": 51.1471977, "lon": 21.0377683, "way_id": 322660690, "landuse": "farmland", "closest_distance_restriction": 2.210306680173659}, {"id": 3294350921, "lat": 51.1473757, "lon": 21.0346364, "way_id": 322660690, "landuse": "farmland", "closest_distance_restriction": 2.0228750381073075}, {"id": 3294350922, "lat": 51.1474221, "lon": 21.0349763, "way_id": 322660690, "landuse": "farmland", "closest_distance_restriction": 2.0384495301887986}, {"id": 3294350932, "lat": 51.1480293, "lon": 21.0351167, "way_id": 322660690, "landuse": "farmland", "closest_distance_restriction": 2.00596829099729}, {"id": 3294350933, "lat": 51.1480479, "lon": 21.0362917, "way_id": 322660690, "landuse": "farmland", "closest_distance_restriction": 2.0718019974750996}, {"id": 3294350935, "lat": 51.1481447, "lon": 21.0398433, "way_id": 322660690, "landuse": "farmland", "closest_distance_restriction": 2.2748654422280024}, {"id": 3294350936, "lat": 51.1482426, "lon": 21.0356118, "way_id": 322660690, "landuse": "farmland", "closest_distance_restriction": 2.0204682965148346}, {"id": 3294350937, "lat": 51.1482561, "lon": 21.0394775, "way_id": 322660690, "landuse": "farmland", "closest_distance_restriction": 2.2466028754684806}, {"id": 3294350940, "lat": 51.1488267, "lon": 21.0356414, "way_id": 322660690, "landuse": "farmland", "closest_distance_restriction": 1.9859296386595173}, {"id": 3294350941, "lat": 51.1488313, "lon": 21.0349246, "way_id": 322660690, "landuse": "farmland", "closest_distance_restriction": 1.9439693747819646}, {"id": 3294350946, "lat": 51.1491756, "lon": 21.061427, "way_id": 322660690, "landuse": "farmland", "closest_distance_restriction": 3.418962742097456}, {"id": 3294350947, "lat": 51.1492346, "lon": 21.0609149, "way_id": 322660690, "landuse": "farmland", "closest_distance_restriction": 3.3861722525196294}, {"id": 3294350949, "lat": 51.149451, "lon": 21.0615733, "way_id": 322660690, "landuse": "farmland", "closest_distance_restriction": 3.409499665350168}, {"id": 3294350950, "lat": 51.1495165, "lon": 21.0610194, "way_id": 322660690, "landuse": "farmland", "closest_distance_restriction": 3.3737754068486607}, {"id": 3294350951, "lat": 51.1495452, "lon": 21.0342891, "way_id": 322660690, "landuse": "farmland", "closest_distance_restriction": 1.8633343578367416}, {"id": 3294350952, "lat": 51.1496008, "lon": 21.0350059, "way_id": 322660690, "landuse": "farmland", "closest_distance_restriction": 1.9023597800712246}, {"id": 3294351165, "lat": 51.1508342, "lon": 21.0621167, "way_id": 322660690, "landuse": "farmland", "closest_distance_restriction": 3.34498510228126}, {"id": 3294351167, "lat": 51.1513324, "lon": 21.0567765, "way_id": 322660690, "landuse": "farmland", "closest_distance_restriction": 3.0155972625978635}, {"id": 3294351169, "lat": 51.1514766, "lon": 21.0586785, "way_id": 322660690, "landuse": "farmland", "closest_distance_restriction": 3.115386658455664}, {"id": 3294351172, "lat": 51.1516536, "lon": 21.0568705, "way_id": 322660690, "landuse": "farmland", "closest_distance_restriction": 3.0002979174052267}, {"id": 3294351173, "lat": 51.1516667, "lon": 21.0600893, "way_id": 322660690, "landuse": "farmland", "closest_distance_restriction": 3.1860027743526107}, {"id": 3294351174, "lat": 51.1517847, "lon": 21.0587516, "way_id": 322660690, "landuse": "farmland", "closest_distance_restriction": 3.10062814364422}, {"id": 3294351176, "lat": 51.1519814, "lon": 21.0601729, "way_id": 322660690, "landuse": "farmland", "closest_distance_restriction": 3.172189331506732}, {"id": 3294351177, "lat": 51.1521846, "lon": 21.0601729, "way_id": 322660690, "landuse": "farmland", "closest_distance_restriction": 3.1602466503479256}, {"id": 3294351178, "lat": 51.1522173, "lon": 21.0571736, "way_id": 322660690, "landuse": "farmland", "closest_distance_restriction": 2.9823316567019136}, {"id": 3294351179, "lat": 51.1522239, "lon": 21.0615315, "way_id": 322660690, "landuse": "farmland", "closest_distance_restriction": 3.1882282923586933}, {"id": 3294351180, "lat": 51.1522436, "lon": 21.034663, "way_id": 796230232, "landuse": "meadow", "closest_distance_restriction": 1.7374825423154558}, {"id": 3294351181, "lat": 51.1522501, "lon": 21.058877, "way_id": 322660690, "landuse": "farmland", "closest_distance_restriction": 3.079820365280737}, {"id": 3294351182, "lat": 51.1522895, "lon": 21.0359275, "way_id": 796230232, "landuse": "meadow", "closest_distance_restriction": 1.8052891100589206}, {"id": 3294351183, "lat": 51.1523485, "lon": 21.0601938, "way_id": 322660690, "landuse": "farmland", "closest_distance_restriction": 3.151942456576703}, {"id": 3294351184, "lat": 51.152355, "lon": 21.0340986, "way_id": 796230232, "landuse": "meadow", "closest_distance_restriction": 1.696710466018528}, {"id": 3294351185, "lat": 51.1525713, "lon": 21.0336493, "way_id": 796230232, "landuse": "meadow", "closest_distance_restriction": 1.657955344142}, {"id": 3294351186, "lat": 51.1526041, "lon": 21.0572885, "way_id": 322660690, "landuse": "farmland", "closest_distance_restriction": 2.965346407040713}, {"id": 3294351187, "lat": 51.1527352, "lon": 21.0590024, "way_id": 322660690, "landuse": "farmland", "closest_distance_restriction": 3.058624117162464}, {"id": 3294351188, "lat": 51.152799, "lon": 21.045079, "way_id": 322660690, "landuse": "farmland", "closest_distance_restriction": 2.283318085982878}, {"id": 3294351189, "lat": 51.1528843, "lon": 21.0447028, "way_id": 322660690, "landuse": "farmland", "closest_distance_restriction": 2.2579355412111006}, {"id": 3294351190, "lat": 51.1532268, "lon": 21.0364082, "way_id": 796230232, "landuse": "meadow", "closest_distance_restriction": 1.7666762379255845}, {"id": 3294351191, "lat": 51.1534038, "lon": 21.0412991, "way_id": 796230232, "landuse": "meadow", "closest_distance_restriction": 2.038513601384568}, {"id": 3294351192, "lat": 51.1534366, "lon": 21.0406721, "way_id": 796230232, "landuse": "meadow", "closest_distance_restriction": 1.9993285730879966}, {"id": 3294351193, "lat": 51.153548, "lon": 21.0545714, "way_id": 322660690, "landuse": "farmland", "closest_distance_restriction": 2.7492932840326145}, {"id": 3294351194, "lat": 51.1538758, "lon": 21.0589502, "way_id": 322660690, "landuse": "farmland", "closest_distance_restriction": 2.9903997317114075}, {"id": 3294351195, "lat": 51.1539086, "lon": 21.0390104, "way_id": 796230232, "landuse": "meadow", "closest_distance_restriction": 1.8732456835560387}, {"id": 3294351196, "lat": 51.1542101, "lon": 21.0402749, "way_id": 796230232, "landuse": "meadow", "closest_distance_restriction": 1.9313457007717165}, {"id": 3294351197, "lat": 51.1542822, "lon": 21.0410796, "way_id": 796230232, "landuse": "meadow", "closest_distance_restriction": 1.9699247239118274}, {"id": 3294351198, "lat": 51.1542887, "lon": 21.0625348, "way_id": 322660690, "landuse": "farmland", "closest_distance_restriction": 2.9641595668380827}, {"id": 3294351199, "lat": 51.1543674, "lon": 21.0418007, "way_id": 796230232, "landuse": "meadow", "closest_distance_restriction": 1.9981489165780375}, {"id": 3294351200, "lat": 51.1544133, "lon": 21.0592428, "way_id": 322660690, "landuse": "farmland", "closest_distance_restriction": 2.9396674829086527}, {"id": 3294351201, "lat": 51.1547017, "lon": 21.0625138, "way_id": 322660690, "landuse": "farmland", "closest_distance_restriction": 2.9182786803195055}, {"id": 3294351202, "lat": 51.1547804, "lon": 21.0592115, "way_id": 322660690, "landuse": "farmland", "closest_distance_restriction": 2.8988330098901853}, {"id": 3294351203, "lat": 51.1550491, "lon": 21.0596817, "way_id": 322660690, "landuse": "farmland", "closest_distance_restriction": 2.869373525784337}, {"id": 3294351204, "lat": 51.1550688, "lon": 21.0602879, "way_id": 322660690, "landuse": "farmland", "closest_distance_restriction": 2.868275423241847}, {"id": 3294351205, "lat": 51.1551343, "lon": 21.0599744, "way_id": 322660690, "landuse": "farmland", "closest_distance_restriction": 2.8603520501697894}, {"id": 3294351206, "lat": 51.1554817, "lon": 21.0526798, "way_id": 796230232, "landuse": "meadow", "closest_distance_restriction": 2.523133177328454}, {"id": 3294351207, "lat": 51.1556456, "lon": 21.0537876, "way_id": 796230232, "landuse": "meadow", "closest_distance_restriction": 2.5801925708906905}, {"id": 3294351208, "lat": 51.1556456, "lon": 21.0555224, "way_id": 322660690, "landuse": "farmland", "closest_distance_restriction": 2.685494414732459}, {"id": 3294351209, "lat": 51.1556784, "lon": 21.0546863, "way_id": 796230232, "landuse": "meadow", "closest_distance_restriction": 2.632782894295339}, {"id": 3294427639, "lat": 51.1507342, "lon": 20.8917677, "way_id": 444764458, "landuse": "meadow", "closest_distance_restriction": 3.9218148160506203}, {"id": 3294427640, "lat": 51.150886, "lon": 20.8917129, "way_id": 444764458, "landuse": "meadow", "closest_distance_restriction": 3.90591005691892}, {"id": 3294427641, "lat": 51.1510789, "lon": 20.8908907, "way_id": 444764458, "landuse": "meadow", "closest_distance_restriction": 3.8549787049139175}, {"id": 3294427642, "lat": 51.151167, "lon": 20.8909789, "way_id": 444764458, "landuse": "meadow", "closest_distance_restriction": 3.8505960859512607}, {"id": 3294427647, "lat": 51.151567, "lon": 20.8926114, "way_id": 444764458, "landuse": "meadow", "closest_distance_restriction": 3.88270173532174}, {"id": 3294427648, "lat": 51.15164, "lon": 20.8924175, "way_id": 444764458, "landuse": "meadow", "closest_distance_restriction": 3.868039840631528}, {"id": 3294427651, "lat": 51.1517809, "lon": 20.8928213, "way_id": 444764458, "landuse": "meadow", "closest_distance_restriction": 3.8728025899036074}, {"id": 3294427654, "lat": 51.1518742, "lon": 20.8925811, "way_id": 444764458, "landuse": "meadow", "closest_distance_restriction": 3.8543404783953386}, {"id": 3294427655, "lat": 51.1518781, "lon": 20.892971, "way_id": 444764458, "landuse": "meadow", "closest_distance_restriction": 3.8706958897098267}, {"id": 3294427657, "lat": 51.1519872, "lon": 20.8930767, "way_id": 444764458, "landuse": "meadow", "closest_distance_restriction": 3.865707315058639}, {"id": 3294427658, "lat": 51.151988, "lon": 20.8926969, "way_id": 444764458, "landuse": "meadow", "closest_distance_restriction": 3.8492980140375983}, {"id": 3294428663, "lat": 51.1522228, "lon": 20.8928347, "way_id": 444764458, "landuse": "meadow", "closest_distance_restriction": 3.8346848106297613}, {"id": 3294428665, "lat": 51.1522809, "lon": 20.8932923, "way_id": 444764458, "landuse": "meadow", "closest_distance_restriction": 3.849496208026675}, {"id": 3294428666, "lat": 51.1522874, "lon": 20.8928988, "way_id": 444764458, "landuse": "meadow", "closest_distance_restriction": 3.831824240242342}, {"id": 3294428670, "lat": 51.1525116, "lon": 20.8935183, "way_id": 444764458, "landuse": "meadow", "closest_distance_restriction": 3.8394430909154837}, {"id": 3294428671, "lat": 51.152523, "lon": 20.8923039, "way_id": 444764458, "landuse": "meadow", "closest_distance_restriction": 3.7855550014717294}, {"id": 3294428672, "lat": 51.152627, "lon": 20.8924095, "way_id": 444764458, "landuse": "meadow", "closest_distance_restriction": 3.7810338959226053}, {"id": 3294428674, "lat": 51.1526849, "lon": 20.893082, "way_id": 444764458, "landuse": "meadow", "closest_distance_restriction": 3.805306657354457}, {"id": 3294428675, "lat": 51.15279, "lon": 20.8936282, "way_id": 444764458, "landuse": "meadow", "closest_distance_restriction": 3.820354766598197}, {"id": 3294428676, "lat": 51.1529147, "lon": 20.8933106, "way_id": 444764458, "landuse": "meadow", "closest_distance_restriction": 3.7955716255916125}, {"id": 3294428677, "lat": 51.1530178, "lon": 20.8938481, "way_id": 444764458, "landuse": "meadow", "closest_distance_restriction": 3.810676618322336}, {"id": 3294428678, "lat": 51.1531721, "lon": 20.8934724, "way_id": 444764458, "landuse": "meadow", "closest_distance_restriction": 3.7807105064434827}, {"id": 3294428679, "lat": 51.1533726, "lon": 20.8942191, "way_id": 444764458, "landuse": "meadow", "closest_distance_restriction": 3.797307510432422}, {"id": 3294428680, "lat": 51.1535252, "lon": 20.8938347, "way_id": 444764458, "landuse": "meadow", "closest_distance_restriction": 3.766984765758579}, {"id": 3294428681, "lat": 51.1541094, "lon": 20.894958, "way_id": 444764458, "landuse": "meadow", "closest_distance_restriction": 3.7698047712041487}, {"id": 3294428682, "lat": 51.1541727, "lon": 20.8950552, "way_id": 444764458, "landuse": "meadow", "closest_distance_restriction": 3.7691270026157278}, {"id": 3294428684, "lat": 51.1542313, "lon": 20.8946316, "way_id": 444764458, "landuse": "meadow", "closest_distance_restriction": 3.744504003159159}, {"id": 3294428685, "lat": 51.1543072, "lon": 20.8947039, "way_id": 444764458, "landuse": "meadow", "closest_distance_restriction": 3.7416024102279444}, {"id": 3294428687, "lat": 51.154551, "lon": 20.895579, "way_id": 444764458, "landuse": "meadow", "closest_distance_restriction": 3.762884535845518}, {"id": 3294428688, "lat": 51.1545961, "lon": 20.8954655, "way_id": 444764458, "landuse": "meadow", "closest_distance_restriction": 3.7538183616244973}, {"id": 3294428689, "lat": 51.1547135, "lon": 20.8957302, "way_id": 444764458, "landuse": "meadow", "closest_distance_restriction": 3.7569199999058536}, {"id": 3294428692, "lat": 51.154876, "lon": 20.8953124, "way_id": 444764458, "landuse": "meadow", "closest_distance_restriction": 3.723793063962698}, {"id": 3294428701, "lat": 51.1557037, "lon": 20.8961405, "way_id": 444764458, "landuse": "meadow", "closest_distance_restriction": 3.697702935218227}, {"id": 3294428702, "lat": 51.155884, "lon": 20.8956829, "way_id": 444764458, "landuse": "meadow", "closest_distance_restriction": 3.6609973995006753}, {"id": 3294428703, "lat": 51.1559196, "lon": 20.8961878, "way_id": 444764458, "landuse": "meadow", "closest_distance_restriction": 3.6830475012146175}, {"id": 3294428704, "lat": 51.1560192, "lon": 20.8965773, "way_id": 444764458, "landuse": "meadow", "closest_distance_restriction": 3.6945763159495737}, {"id": 3294428705, "lat": 51.1560488, "lon": 20.8958468, "way_id": 444764458, "landuse": "meadow", "closest_distance_restriction": 3.6560654742616006}, {"id": 3294428706, "lat": 51.156101, "lon": 20.8963712, "way_id": 444764458, "landuse": "meadow", "closest_distance_restriction": 3.6779487149719956}, {"id": 3294428707, "lat": 51.1561298, "lon": 20.8968823, "way_id": 444764458, "landuse": "meadow", "closest_distance_restriction": 3.701216774653541}, {"id": 3294428708, "lat": 51.156184, "lon": 20.8967418, "way_id": 444764458, "landuse": "meadow", "closest_distance_restriction": 3.689986923789812}, {"id": 3294428711, "lat": 51.1566371, "lon": 20.8974527, "way_id": 444764458, "landuse": "meadow", "closest_distance_restriction": 3.691155182387221}, {"id": 3294428712, "lat": 51.1566608, "lon": 20.897396, "way_id": 444764458, "landuse": "meadow", "closest_distance_restriction": 3.6864665830458327}, {"id": 3294428714, "lat": 51.1571956, "lon": 20.8979954, "way_id": 444764458, "landuse": "meadow", "closest_distance_restriction": 3.6771164074606615}, {"id": 3294428717, "lat": 51.157326, "lon": 20.8981939, "way_id": 444764458, "landuse": "meadow", "closest_distance_restriction": 3.6608185364717243}, {"id": 3294428718, "lat": 51.1574399, "lon": 20.8973752, "way_id": 444764458, "landuse": "meadow", "closest_distance_restriction": 3.62679706805875}, {"id": 3294428719, "lat": 51.1574707, "lon": 20.89833, "way_id": 444764458, "landuse": "meadow", "closest_distance_restriction": 3.6429047692887093}, {"id": 3294428721, "lat": 51.1575893, "lon": 20.8975283, "way_id": 444764458, "landuse": "meadow", "closest_distance_restriction": 3.6236437428761357}, {"id": 3294428723, "lat": 51.1577719, "lon": 20.89833, "way_id": 444764458, "landuse": "meadow", "closest_distance_restriction": 3.610419475682537}, {"id": 3294428724, "lat": 51.1577968, "lon": 20.8975321, "way_id": 444764458, "landuse": "meadow", "closest_distance_restriction": 3.6085153288070297}, {"id": 3294428725, "lat": 51.158009, "lon": 20.897749, "way_id": 444764458, "landuse": "meadow", "closest_distance_restriction": 3.5950489308453357}, {"id": 3294428726, "lat": 51.1581822, "lon": 20.8987403, "way_id": 444764458, "landuse": "meadow", "closest_distance_restriction": 3.5592248568327944}, {"id": 3294428727, "lat": 51.1582392, "lon": 20.8989256, "way_id": 444764458, "landuse": "meadow", "closest_distance_restriction": 3.5499888233161894}, {"id": 3294428728, "lat": 51.1583186, "lon": 20.8984132, "way_id": 444764458, "landuse": "meadow", "closest_distance_restriction": 3.550066820354838}, {"id": 3294428729, "lat": 51.1584087, "lon": 20.8985097, "way_id": 444764458, "landuse": "meadow", "closest_distance_restriction": 3.5386988982519085}, {"id": 3294428730, "lat": 51.1588333, "lon": 20.8995288, "way_id": 444764458, "landuse": "meadow", "closest_distance_restriction": 3.4759347273739065}, {"id": 3294428731, "lat": 51.158921, "lon": 20.8997311, "way_id": 444764458, "landuse": "meadow", "closest_distance_restriction": 3.463220496508008}, {"id": 3294428732, "lat": 51.1589427, "lon": 20.899252, "way_id": 444764458, "landuse": "meadow", "closest_distance_restriction": 3.4685994372763096}, {"id": 3294428733, "lat": 51.1590645, "lon": 20.89937, "way_id": 444764458, "landuse": "meadow", "closest_distance_restriction": 3.453500310741216}, {"id": 3294428734, "lat": 51.1592447, "lon": 20.9000431, "way_id": 444764458, "landuse": "meadow", "closest_distance_restriction": 3.423257243695944}, {"id": 3294428735, "lat": 51.1592981, "lon": 20.8999107, "way_id": 444764458, "landuse": "meadow", "closest_distance_restriction": 3.4195425325286095}, {"id": 3294428736, "lat": 51.1595459, "lon": 20.9001546, "way_id": 444764458, "landuse": "meadow", "closest_distance_restriction": 3.3888747582025434}, {"id": 3294428737, "lat": 51.1595981, "lon": 20.9000261, "way_id": 444764458, "landuse": "meadow", "closest_distance_restriction": 3.3852284343067063}, {"id": 3296870122, "lat": 51.1430235, "lon": 20.8955953, "way_id": 444764458, "landuse": "meadow", "closest_distance_restriction": 4.781367697053785}, {"id": 3296870123, "lat": 51.1433252, "lon": 20.8948349, "way_id": 444764458, "landuse": "meadow", "closest_distance_restriction": 4.724653666491823}, {"id": 3296870124, "lat": 51.1434071, "lon": 20.8937469, "way_id": 444764458, "landuse": "meadow", "closest_distance_restriction": 4.67691679442032}, {"id": 3296870125, "lat": 51.1435063, "lon": 20.8938408, "way_id": 444764458, "landuse": "meadow", "closest_distance_restriction": 4.670935601097566}, {"id": 3296870126, "lat": 51.1435868, "lon": 20.893653, "way_id": 444764458, "landuse": "meadow", "closest_distance_restriction": 4.6564540995709205}, {"id": 3296870127, "lat": 51.143821, "lon": 20.8938866, "way_id": 444764458, "landuse": "meadow", "closest_distance_restriction": 4.642844043864755}, {"id": 3296870128, "lat": 51.1440796, "lon": 20.8955815, "way_id": 444764458, "landuse": "meadow", "closest_distance_restriction": 4.68220857720566}, {"id": 3296870129, "lat": 51.1441543, "lon": 20.8922925, "way_id": 444764458, "landuse": "meadow", "closest_distance_restriction": 4.553315477316269}, {"id": 3296870131, "lat": 51.1443598, "lon": 20.8925124, "way_id": 444764458, "landuse": "meadow", "closest_distance_restriction": 4.5416515439992935}, {"id": 3296870133, "lat": 51.1444166, "lon": 20.8923603, "way_id": 444764458, "landuse": "meadow", "closest_distance_restriction": 4.530755626659986}, {"id": 3296870135, "lat": 51.144546, "lon": 20.8920414, "way_id": 444764458, "landuse": "meadow", "closest_distance_restriction": 4.506952135332106}, {"id": 3296870136, "lat": 51.1445637, "lon": 20.8907657, "way_id": 444764458, "landuse": "meadow", "closest_distance_restriction": 4.460082387409318}, {"id": 3296870139, "lat": 51.1446622, "lon": 20.8905148, "way_id": 444764458, "landuse": "meadow", "closest_distance_restriction": 4.441852750108641}, {"id": 3296870145, "lat": 51.1447343, "lon": 20.8916615, "way_id": 444764458, "landuse": "meadow", "closest_distance_restriction": 4.47537407376453}, {"id": 3296870152, "lat": 51.1448829, "lon": 20.8907188, "way_id": 444764458, "landuse": "meadow", "closest_distance_restriction": 4.427739028762662}, {"id": 3296870153, "lat": 51.1449432, "lon": 20.8905663, "way_id": 444764458, "landuse": "meadow", "closest_distance_restriction": 4.416595175177668}, {"id": 3296870154, "lat": 51.1449432, "lon": 20.8911549, "way_id": 444764458, "landuse": "meadow", "closest_distance_restriction": 4.437353236611598}, {"id": 3296870156, "lat": 51.1451246, "lon": 20.8907434, "way_id": 444764458, "landuse": "meadow", "closest_distance_restriction": 4.405403481924498}, {"id": 3296870160, "lat": 51.1455263, "lon": 20.8885086, "way_id": 444764458, "landuse": "meadow", "closest_distance_restriction": 4.28942736821331}, {"id": 3296873062, "lat": 51.1456234, "lon": 20.8891242, "way_id": 444764458, "landuse": "meadow", "closest_distance_restriction": 4.300954190233042}, {"id": 3296873063, "lat": 51.1457027, "lon": 20.8891928, "way_id": 444764458, "landuse": "meadow", "closest_distance_restriction": 4.29564252774741}, {"id": 3296873064, "lat": 51.145737, "lon": 20.8879928, "way_id": 444764458, "landuse": "meadow", "closest_distance_restriction": 4.251569068384696}, {"id": 3296873065, "lat": 51.145766, "lon": 20.8887537, "way_id": 444764458, "landuse": "meadow", "closest_distance_restriction": 4.274455283498702}, {"id": 3296873066, "lat": 51.1457751, "lon": 20.8878965, "way_id": 444764458, "landuse": "meadow", "closest_distance_restriction": 4.2446324588080175}, {"id": 3296873075, "lat": 51.1468066, "lon": 20.8883696, "way_id": 444764458, "landuse": "meadow", "closest_distance_restriction": 4.160563751360096}, {"id": 3296873076, "lat": 51.1468407, "lon": 20.8884099, "way_id": 444764458, "landuse": "meadow", "closest_distance_restriction": 4.1586688342768285}, {"id": 3296873077, "lat": 51.1469725, "lon": 20.8879619, "way_id": 444764458, "landuse": "meadow", "closest_distance_restriction": 4.130465407978352}, {"id": 3296873080, "lat": 51.1470471, "lon": 20.8880199, "way_id": 444764458, "landuse": "meadow", "closest_distance_restriction": 4.125249373546133}, {"id": 3296873093, "lat": 51.1473524, "lon": 20.8872262, "way_id": 444764458, "landuse": "meadow", "closest_distance_restriction": 4.068484220592487}, {"id": 3296873096, "lat": 51.1474982, "lon": 20.8873701, "way_id": 444764458, "landuse": "meadow", "closest_distance_restriction": 4.059262933606866}, {"id": 3296873100, "lat": 51.1478716, "lon": 20.8895356, "way_id": 444764458, "landuse": "meadow", "closest_distance_restriction": 4.100146030466485}, {"id": 3296873101, "lat": 51.147935, "lon": 20.8891821, "way_id": 444764458, "landuse": "meadow", "closest_distance_restriction": 4.081271177425083}, {"id": 3296873102, "lat": 51.1480438, "lon": 20.8859944, "way_id": 444764458, "landuse": "meadow", "closest_distance_restriction": 3.959633676063718}, {"id": 3296873103, "lat": 51.1481626, "lon": 20.8861118, "way_id": 444764458, "landuse": "meadow", "closest_distance_restriction": 3.9519920885801385}, {"id": 3296873104, "lat": 51.1482314, "lon": 20.8884773, "way_id": 444764458, "landuse": "meadow", "closest_distance_restriction": 4.0276400475070835}, {"id": 3296873105, "lat": 51.1482944, "lon": 20.8854398, "way_id": 444764458, "landuse": "meadow", "closest_distance_restriction": 3.9166835775752964}, {"id": 3296873106, "lat": 51.148376, "lon": 20.8852379, "way_id": 444764458, "landuse": "meadow", "closest_distance_restriction": 3.902018345149226}, {"id": 3296873107, "lat": 51.1483822, "lon": 20.8886308, "way_id": 444764458, "landuse": "meadow", "closest_distance_restriction": 4.018808371085816}, {"id": 3296873108, "lat": 51.1483881, "lon": 20.8855449, "way_id": 444764458, "landuse": "meadow", "closest_distance_restriction": 3.9110132306781424}, {"id": 3296873110, "lat": 51.1485254, "lon": 20.8882592, "way_id": 444764458, "landuse": "meadow", "closest_distance_restriction": 3.991781884018124}, {"id": 3296873112, "lat": 51.1487255, "lon": 20.8884551, "way_id": 444764458, "landuse": "meadow", "closest_distance_restriction": 3.979820690899915}, {"id": 3296873113, "lat": 51.1487403, "lon": 20.8856002, "way_id": 444764458, "landuse": "meadow", "closest_distance_restriction": 3.878508534766812}, {"id": 3296873114, "lat": 51.1488079, "lon": 20.8877704, "way_id": 444764458, "landuse": "meadow", "closest_distance_restriction": 3.947314060722425}, {"id": 3296873115, "lat": 51.1488852, "lon": 20.8875947, "way_id": 444764458, "landuse": "meadow", "closest_distance_restriction": 3.933657704475045}, {"id": 3296873116, "lat": 51.148912, "lon": 20.8847871, "way_id": 444764458, "landuse": "meadow", "closest_distance_restriction": 3.834633424798222}, {"id": 3296873117, "lat": 51.1489472, "lon": 20.8878936, "way_id": 444764458, "landuse": "meadow", "closest_distance_restriction": 3.938445967260976}, {"id": 3296873118, "lat": 51.1490282, "lon": 20.8851107, "way_id": 444764458, "landuse": "meadow", "closest_distance_restriction": 3.834021187338633}, {"id": 3296873119, "lat": 51.1490511, "lon": 20.8872635, "way_id": 444764458, "landuse": "meadow", "closest_distance_restriction": 3.9060085774021607}, {"id": 3296873120, "lat": 51.1490959, "lon": 20.8849586, "way_id": 444764458, "landuse": "meadow", "closest_distance_restriction": 3.822334148469928}, {"id": 3296873121, "lat": 51.1491233, "lon": 20.8870918, "way_id": 444764458, "landuse": "meadow", "closest_distance_restriction": 3.893008573547051}, {"id": 3296873122, "lat": 51.1492104, "lon": 20.883963, "way_id": 444764458, "landuse": "meadow", "closest_distance_restriction": 3.778361485430706}, {"id": 3296873123, "lat": 51.1494022, "lon": 20.8869351, "way_id": 444764458, "landuse": "meadow", "closest_distance_restriction": 3.86074432990467}, {"id": 3296873124, "lat": 51.1494255, "lon": 20.8841566, "way_id": 444764458, "landuse": "meadow", "closest_distance_restriction": 3.763539021920802}, {"id": 3296873125, "lat": 51.1494527, "lon": 20.887415, "way_id": 444764458, "landuse": "meadow", "closest_distance_restriction": 3.873072076068424}, {"id": 3296873126, "lat": 51.1495756, "lon": 20.887106, "way_id": 444764458, "landuse": "meadow", "closest_distance_restriction": 3.850263557967364}, {"id": 3296873127, "lat": 51.1495881, "lon": 20.8864613, "way_id": 444764458, "landuse": "meadow", "closest_distance_restriction": 3.8261752852023005}, {"id": 3296873128, "lat": 51.1496111, "lon": 20.8836865, "way_id": 444764458, "landuse": "meadow", "closest_distance_restriction": 3.7299497733803246}, {"id": 3296873129, "lat": 51.1496985, "lon": 20.8865627, "way_id": 444764458, "landuse": "meadow", "closest_distance_restriction": 3.8191683145577677}, {"id": 3296873131, "lat": 51.1498193, "lon": 20.8838828, "way_id": 444764458, "landuse": "meadow", "closest_distance_restriction": 3.7159163597670832}, {"id": 3296873133, "lat": 51.1500646, "lon": 20.8855994, "way_id": 444764458, "landuse": "meadow", "closest_distance_restriction": 3.7501738526702115}, {"id": 3296873134, "lat": 51.1501381, "lon": 20.885662, "way_id": 444764458, "landuse": "meadow", "closest_distance_restriction": 3.7452783666215006}, {"id": 3296873135, "lat": 51.1502547, "lon": 20.8828015, "way_id": 444764458, "landuse": "meadow", "closest_distance_restriction": 3.637927187132035}, {"id": 3296873136, "lat": 51.1502997, "lon": 20.8852451, "way_id": 444764458, "landuse": "meadow", "closest_distance_restriction": 3.7151970037146502}, {"id": 3296873137, "lat": 51.1503484, "lon": 20.8825748, "way_id": 444764458, "landuse": "meadow", "closest_distance_restriction": 3.621405836080874}, {"id": 3296873139, "lat": 51.1506436, "lon": 20.8821438, "way_id": 444764458, "landuse": "meadow", "closest_distance_restriction": 3.578469747082373}, {"id": 3296873140, "lat": 51.1507057, "lon": 20.8832523, "way_id": 444764458, "landuse": "meadow", "closest_distance_restriction": 3.6082687393680346}, {"id": 3296873141, "lat": 51.1507981, "lon": 20.88175, "way_id": 444764458, "landuse": "meadow", "closest_distance_restriction": 3.550700806889597}, {"id": 3296873142, "lat": 51.1508254, "lon": 20.8830587, "way_id": 444764458, "landuse": "meadow", "closest_distance_restriction": 3.5901571459598314}, {"id": 3296873143, "lat": 51.1508277, "lon": 20.8852144, "way_id": 444764458, "landuse": "meadow", "closest_distance_restriction": 3.6632899190920836}, {"id": 3296873145, "lat": 51.1511098, "lon": 20.8825922, "way_id": 444764458, "landuse": "meadow", "closest_distance_restriction": 3.5469476654395096}, {"id": 3296873147, "lat": 51.1513188, "lon": 20.8822489, "way_id": 444764458, "landuse": "meadow", "closest_distance_restriction": 3.515213092830298}, {"id": 3296873149, "lat": 51.1514087, "lon": 20.8833213, "way_id": 444764458, "landuse": "meadow", "closest_distance_restriction": 3.5419258281559767}, {"id": 3296873150, "lat": 51.151524, "lon": 20.8830082, "way_id": 444764458, "landuse": "meadow", "closest_distance_restriction": 3.5201679869343683}, {"id": 3296873271, "lat": 51.1542471, "lon": 20.8818995, "way_id": 444764458, "landuse": "meadow", "closest_distance_restriction": 3.218380860950807}, {"id": 3296873272, "lat": 51.154346, "lon": 20.881953, "way_id": 444764458, "landuse": "meadow", "closest_distance_restriction": 3.2107479074770464}, {"id": 3296873273, "lat": 51.1546613, "lon": 20.8819709, "way_id": 444764458, "landuse": "meadow", "closest_distance_restriction": 3.1811439682989455}, {"id": 3296873274, "lat": 51.1547285, "lon": 20.8819144, "way_id": 444764458, "landuse": "meadow", "closest_distance_restriction": 3.1727062491442046}, {"id": 3296873275, "lat": 51.1547826, "lon": 20.8816348, "way_id": 444764458, "landuse": "meadow", "closest_distance_restriction": 3.157634487359521}, {"id": 3296873276, "lat": 51.1549001, "lon": 20.8815247, "way_id": 444764458, "landuse": "meadow", "closest_distance_restriction": 3.142479710237674}, {"id": 3296873277, "lat": 51.1549246, "lon": 20.8801914, "way_id": 444764458, "landuse": "meadow", "closest_distance_restriction": 3.0941633045648866}, {"id": 3296873278, "lat": 51.1549692, "lon": 20.8814533, "way_id": 444764458, "landuse": "meadow", "closest_distance_restriction": 3.1333331103472144}, {"id": 3296873279, "lat": 51.1553173, "lon": 20.8805837, "way_id": 444764458, "landuse": "meadow", "closest_distance_restriction": 3.0694719002556456}, {"id": 3668727533, "lat": 51.3073677, "lon": 20.8955102, "way_id": 860363033, "landuse": "farmland", "closest_distance_restriction": 1.5957303654203094}, {"id": 3668727588, "lat": 51.3071901, "lon": 20.8953748, "way_id": 860369214, "landuse": "farmland", "closest_distance_restriction": 1.6126943935786857}, {"id": 3668727594, "lat": 51.3065676, "lon": 20.8940666, "way_id": 860369215, "landuse": "farmland", "closest_distance_restriction": 1.6417450880545388}, {"id": 3668727595, "lat": 51.3063018, "lon": 20.8940409, "way_id": 860369215, "landuse": "farmland", "closest_distance_restriction": 1.6457269682644147}, {"id": 3845584896, "lat": 51.1594571, "lon": 20.9017094, "way_id": 444764458, "landuse": "meadow", "closest_distance_restriction": 3.3760585944070867}, {"id": 3845584897, "lat": 51.1594682, "lon": 20.9020935, "way_id": 444764458, "landuse": "meadow", "closest_distance_restriction": 3.369815014155831}, {"id": 3845584899, "lat": 51.1598029, "lon": 20.900712, "way_id": 444764458, "landuse": "meadow", "closest_distance_restriction": 3.3525012067692117}, {"id": 3845584901, "lat": 51.1598955, "lon": 20.9007473, "way_id": 444764458, "landuse": "meadow", "closest_distance_restriction": 3.341916360793544}, {"id": 3845584904, "lat": 51.160163, "lon": 20.900792, "way_id": 444764458, "landuse": "meadow", "closest_distance_restriction": 3.31219417036628}, {"id": 3845584906, "lat": 51.1599823, "lon": 20.9007844, "way_id": 444764458, "landuse": "meadow", "closest_distance_restriction": 3.331934776419369}, {"id": 3845584907, "lat": 51.1602658, "lon": 20.9006952, "way_id": 444764458, "landuse": "meadow", "closest_distance_restriction": 3.3024908768995496}, {"id": 3845584911, "lat": 51.1605172, "lon": 20.9004286, "way_id": 444764458, "landuse": "meadow", "closest_distance_restriction": 3.279333670317629}, {"id": 3845584925, "lat": 51.1608893, "lon": 20.8998302, "way_id": 444764458, "landuse": "meadow", "closest_distance_restriction": 3.248766065398858}, {"id": 3845584934, "lat": 51.1611337, "lon": 20.8997018, "way_id": 444764458, "landuse": "meadow", "closest_distance_restriction": 3.224560358526112}, {"id": 3845584936, "lat": 51.1611739, "lon": 20.897418, "way_id": 444764458, "landuse": "meadow", "closest_distance_restriction": 3.2627941742751605}, {"id": 3845584943, "lat": 51.1614092, "lon": 20.8996906, "way_id": 444764458, "landuse": "meadow", "closest_distance_restriction": 3.1950533954824927}, {"id": 3845584950, "lat": 51.1617685, "lon": 20.8995894, "way_id": 444764458, "landuse": "meadow", "closest_distance_restriction": 3.1581177816830346}, {"id": 3845588158, "lat": 51.1619502, "lon": 20.8982956, "way_id": 444764458, "landuse": "meadow", "closest_distance_restriction": 3.1626154292484197}, {"id": 3845588160, "lat": 51.1620212, "lon": 20.8992443, "way_id": 444764458, "landuse": "meadow", "closest_distance_restriction": 3.1371252899426527}, {"id": 3845588168, "lat": 51.1623829, "lon": 20.8940406, "way_id": 444764458, "landuse": "meadow", "closest_distance_restriction": 3.0961847750025755}, {"id": 3845588190, "lat": 51.1631408, "lon": 20.8919078, "way_id": 444764458, "landuse": "meadow", "closest_distance_restriction": 2.9269421796726944}, {"id": 3845588199, "lat": 51.1634668, "lon": 20.8915395, "way_id": 444764458, "landuse": "meadow", "closest_distance_restriction": 2.8844488149506584}, {"id": 3845588203, "lat": 51.163616, "lon": 20.8887867, "way_id": 444764458, "landuse": "meadow", "closest_distance_restriction": 2.724220646184671}, {"id": 3845588205, "lat": 51.1636655, "lon": 20.8906045, "way_id": 444764458, "landuse": "meadow", "closest_distance_restriction": 2.819399131117616}, {"id": 4251688463, "lat": 51.139584, "lon": 20.8902847, "way_id": 444764458, "landuse": "meadow", "closest_distance_restriction": 4.932230516509376}, {"id": 4251688464, "lat": 51.1395973, "lon": 20.890175, "way_id": 444764458, "landuse": "meadow", "closest_distance_restriction": 4.927499904534153}, {"id": 4251688473, "lat": 51.1394263, "lon": 20.8920295, "way_id": 444764458, "landuse": "meadow", "closest_distance_restriction": 5.0031959907972805}, {"id": 4251688474, "lat": 51.1394907, "lon": 20.8912792, "way_id": 444764458, "landuse": "meadow", "closest_distance_restriction": 4.972768872784928}, {"id": 4251688476, "lat": 51.1395329, "lon": 20.8908545, "way_id": 444764458, "landuse": "meadow", "closest_distance_restriction": 4.955142393263278}, {"id": 4268762424, "lat": 51.1546905, "lon": 20.8793106, "way_id": 444764458, "landuse": "meadow", "closest_distance_restriction": 3.0880009860436113}, {"id": 4282054867, "lat": 51.1440004, "lon": 20.8962242, "way_id": 444764458, "landuse": "meadow", "closest_distance_restriction": 4.714268502781479}, {"id": 4422213609, "lat": 51.1591485, "lon": 20.884412, "way_id": 444764458, "landuse": "meadow", "closest_distance_restriction": 2.8662981220382453}, {"id": 4422213610, "lat": 51.1614964, "lon": 20.8867584, "way_id": 444764458, "landuse": "meadow", "closest_distance_restriction": 2.7796377118094537}, {"id": 4422213611, "lat": 51.1593123, "lon": 20.9020627, "way_id": 444764458, "landuse": "meadow", "closest_distance_restriction": 3.3872496675249106}, {"id": 4422213612, "lat": 51.159341, "lon": 20.9014537, "way_id": 444764458, "landuse": "meadow", "closest_distance_restriction": 3.3921793378322156}, {"id": 4422213613, "lat": 51.1518302, "lon": 20.8938192, "way_id": 444764458, "landuse": "meadow", "closest_distance_restriction": 3.911585881245705}, {"id": 4422213614, "lat": 51.1517313, "lon": 20.8937111, "way_id": 444764458, "landuse": "meadow", "closest_distance_restriction": 3.9154807308329898}, {"id": 4422213615, "lat": 51.1483205, "lon": 20.8903356, "way_id": 444764458, "landuse": "meadow", "closest_distance_restriction": 4.087478484703992}, {"id": 4422213616, "lat": 51.147765, "lon": 20.8898013, "way_id": 444764458, "landuse": "meadow", "closest_distance_restriction": 4.119957003007802}, {"id": 4422213617, "lat": 51.1473021, "lon": 20.8889789, "way_id": 444764458, "landuse": "meadow", "closest_distance_restriction": 4.134315850314986}, {"id": 4422213618, "lat": 51.1474631, "lon": 20.8887197, "way_id": 444764458, "landuse": "meadow", "closest_distance_restriction": 4.109703542981703}, {"id": 4422213619, "lat": 51.1484429, "lon": 20.8871296, "way_id": 444764458, "landuse": "meadow", "closest_distance_restriction": 3.959704910867251}, {"id": 4422213620, "lat": 51.1486186, "lon": 20.8868244, "way_id": 444764458, "landuse": "meadow", "closest_distance_restriction": 3.932155335099064}, {"id": 4422213621, "lat": 51.1498531, "lon": 20.8848164, "way_id": 444764458, "landuse": "meadow", "closest_distance_restriction": 3.7437669769060347}, {"id": 4422213622, "lat": 51.1500606, "lon": 20.8844576, "way_id": 444764458, "landuse": "meadow", "closest_distance_restriction": 3.7114634174756644}, {"id": 4422213623, "lat": 51.1504237, "lon": 20.8838725, "way_id": 444764458, "landuse": "meadow", "closest_distance_restriction": 3.6564390982960977}, {"id": 4422213624, "lat": 51.1509709, "lon": 20.8829329, "way_id": 444764458, "landuse": "meadow", "closest_distance_restriction": 3.5717523437615686}, {"id": 4422213625, "lat": 51.1511345, "lon": 20.8826471, "way_id": 444764458, "landuse": "meadow", "closest_distance_restriction": 3.5463182557216886}, {"id": 4422213626, "lat": 51.1513595, "lon": 20.8822943, "way_id": 444764458, "landuse": "meadow", "closest_distance_restriction": 3.5126874808793995}, {"id": 4422213627, "lat": 51.1503329, "lon": 20.8837818, "way_id": 444764458, "landuse": "meadow", "closest_distance_restriction": 3.662287865333202}, {"id": 4422213628, "lat": 51.1467068, "lon": 20.8887329, "way_id": 444764458, "landuse": "meadow", "closest_distance_restriction": 4.182805675007039}, {"id": 4422213629, "lat": 51.1458025, "lon": 20.8878258, "way_id": 444764458, "landuse": "meadow", "closest_distance_restriction": 4.239597926186771}, {"id": 4422213630, "lat": 51.1452017, "lon": 20.8921243, "way_id": 444764458, "landuse": "meadow", "closest_distance_restriction": 4.447627666955902}, {"id": 4422213631, "lat": 51.1449966, "lon": 20.8924988, "way_id": 444764458, "landuse": "meadow", "closest_distance_restriction": 4.480741193872621}, {"id": 4422213632, "lat": 51.1439853, "lon": 20.8964238, "way_id": 444764458, "landuse": "meadow", "closest_distance_restriction": 4.723392989815114}, {"id": 4422213633, "lat": 51.1426569, "lon": 20.8960806, "way_id": 444764458, "landuse": "meadow", "closest_distance_restriction": 4.833941277169785}, {"id": 4422213634, "lat": 51.1399873, "lon": 20.8953911, "way_id": 444764458, "landuse": "meadow", "closest_distance_restriction": 5.062187686610432}, {"id": 4422213635, "lat": 51.1392672, "lon": 20.8952051, "way_id": 444764458, "landuse": "meadow", "closest_distance_restriction": 5.125035139846581}, {"id": 4422213636, "lat": 51.1387233, "lon": 20.8950633, "way_id": 444764458, "landuse": "meadow", "closest_distance_restriction": 5.172796672236504}, {"id": 4422213637, "lat": 51.1387286, "lon": 20.8923882, "way_id": 444764458, "landuse": "meadow", "closest_distance_restriction": 5.08355626521577}, {"id": 4422213638, "lat": 51.1394089, "lon": 20.8923541, "way_id": 444764458, "landuse": "meadow", "closest_distance_restriction": 5.015446078947361}, {"id": 4422213639, "lat": 51.1397265, "lon": 20.8885738, "way_id": 444764458, "landuse": "meadow", "closest_distance_restriction": 4.865876111408874}, {"id": 4422262189, "lat": 51.1627134, "lon": 20.8879746, "way_id": 444764458, "landuse": "meadow", "closest_distance_restriction": 2.74726187530404}, {"id": 4422262215, "lat": 51.1584413, "lon": 20.8991308, "way_id": 444764458, "landuse": "meadow", "closest_distance_restriction": 3.524776473170015}, {"id": 4422262452, "lat": 51.1553022, "lon": 20.8957388, "way_id": 444764458, "landuse": "meadow", "closest_distance_restriction": 3.709984165356348}, {"id": 4856288649, "lat": 51.146485, "lon": 20.8885058, "way_id": 444764458, "landuse": "meadow", "closest_distance_restriction": 4.196336211438314}, {"id": 4856288650, "lat": 51.146252, "lon": 20.8882692, "way_id": 444764458, "landuse": "meadow", "closest_distance_restriction": 4.210789869770709}, {"id": 4881946332, "lat": 51.1581343, "lon": 20.8975539, "way_id": 496492270, "landuse": "farmland", "closest_distance_restriction": 3.5849115166484546}, {"id": 4881946333, "lat": 51.1583035, "lon": 20.8971344, "way_id": 496492270, "landuse": "farmland", "closest_distance_restriction": 3.550494556775686}, {"id": 4881946334, "lat": 51.1584481, "lon": 20.896766, "way_id": 496492270, "landuse": "farmland", "closest_distance_restriction": 3.520568026260499}, {"id": 4881946335, "lat": 51.1586412, "lon": 20.8962847, "way_id": 496492270, "landuse": "farmland", "closest_distance_restriction": 3.4811731276921125}, {"id": 4881946336, "lat": 51.1588349, "lon": 20.895782, "way_id": 496492270, "landuse": "farmland", "closest_distance_restriction": 3.4406248415835825}, {"id": 4881946337, "lat": 51.1590481, "lon": 20.895233, "way_id": 496492270, "landuse": "farmland", "closest_distance_restriction": 3.39623607810384}, {"id": 4881946338, "lat": 51.1592009, "lon": 20.894817, "way_id": 496492270, "landuse": "farmland", "closest_distance_restriction": 3.363258608591925}, {"id": 4881946339, "lat": 51.1593902, "lon": 20.8943238, "way_id": 496492270, "landuse": "farmland", "closest_distance_restriction": 3.323574913278127}, {"id": 4881946340, "lat": 51.1596034, "lon": 20.8937855, "way_id": 496492270, "landuse": "farmland", "closest_distance_restriction": 3.279791086277862}, {"id": 4881946341, "lat": 51.1598217, "lon": 20.8932567, "way_id": 496492270, "landuse": "farmland", "closest_distance_restriction": 3.236136901651334}, {"id": 4881946342, "lat": 51.1600729, "lon": 20.8926137, "way_id": 496492270, "landuse": "farmland", "closest_distance_restriction": 3.184136516442571}, {"id": 4881946343, "lat": 51.16033, "lon": 20.8919684, "way_id": 496492270, "landuse": "farmland", "closest_distance_restriction": 3.131603592288471}, {"id": 4881946344, "lat": 51.1605335, "lon": 20.8914527, "way_id": 496492270, "landuse": "farmland", "closest_distance_restriction": 3.089788004492281}, {"id": 4881946345, "lat": 51.1607303, "lon": 20.8909357, "way_id": 496492270, "landuse": "farmland", "closest_distance_restriction": 3.048428775687345}, {"id": 4881946346, "lat": 51.1609948, "lon": 20.8902833, "way_id": 496492270, "landuse": "farmland", "closest_distance_restriction": 2.9950493394404822}, {"id": 4881946347, "lat": 51.1611834, "lon": 20.8897972, "way_id": 496492270, "landuse": "farmland", "closest_distance_restriction": 2.955937537448812}, {"id": 4881946348, "lat": 51.161448, "lon": 20.88914, "way_id": 496492270, "landuse": "farmland", "closest_distance_restriction": 2.9023603405235403}, {"id": 4881946349, "lat": 51.1617356, "lon": 20.888446, "way_id": 496492270, "landuse": "farmland", "closest_distance_restriction": 2.845195138551474}, {"id": 4881946350, "lat": 51.1621157, "lon": 20.8874561, "way_id": 496492270, "landuse": "farmland", "closest_distance_restriction": 2.7660291798302885}, {"id": 4881946351, "lat": 51.1622469, "lon": 20.8875963, "way_id": 496492270, "landuse": "farmland", "closest_distance_restriction": 2.763081551226079}, {"id": 4881946352, "lat": 51.1616969, "lon": 20.8889677, "way_id": 496492270, "landuse": "farmland", "closest_distance_restriction": 2.8746955230062556}, {"id": 4881946353, "lat": 51.1613004, "lon": 20.8899874, "way_id": 496492270, "landuse": "farmland", "closest_distance_restriction": 2.9568428816068906}, {"id": 4881946354, "lat": 51.1606967, "lon": 20.8914943, "way_id": 496492270, "landuse": "farmland", "closest_distance_restriction": 3.0797148799282583}, {"id": 4881946355, "lat": 51.160102, "lon": 20.893032, "way_id": 496492270, "landuse": "farmland", "closest_distance_restriction": 3.2036629287397096}, {"id": 4881946356, "lat": 51.1594148, "lon": 20.8947457, "way_id": 496492270, "landuse": "farmland", "closest_distance_restriction": 3.343772958136981}, {"id": 4881946357, "lat": 51.1588797, "lon": 20.896129, "way_id": 496492270, "landuse": "farmland", "closest_distance_restriction": 3.4555411723738927}, {"id": 4881946358, "lat": 51.1585063, "lon": 20.8970572, "way_id": 496492270, "landuse": "farmland", "closest_distance_restriction": 3.5316384988505707}, {"id": 4881946359, "lat": 51.1581604, "lon": 20.8979342, "way_id": 496492270, "landuse": "farmland", "closest_distance_restriction": 3.575471787902196}, {"id": 4881946360, "lat": 51.1580337, "lon": 20.8977987, "way_id": 496492270, "landuse": "farmland", "closest_distance_restriction": 3.591505624263576}, {"id": 4882344456, "lat": 51.1571078, "lon": 20.8897468, "way_id": 496531707, "landuse": "farmland", "closest_distance_restriction": 3.279157275267197}, {"id": 4882344466, "lat": 51.1571643, "lon": 20.8898084, "way_id": 496531707, "landuse": "farmland", "closest_distance_restriction": 3.277269721659803}, {"id": 4882344538, "lat": 51.1586128, "lon": 20.8852956, "way_id": 496531706, "landuse": "farmland", "closest_distance_restriction": 2.9513165498754903}, {"id": 4882344539, "lat": 51.1583162, "lon": 20.8860514, "way_id": 496531706, "landuse": "farmland", "closest_distance_restriction": 3.0101230667940397}, {"id": 4882344540, "lat": 51.1580531, "lon": 20.8867145, "way_id": 496531706, "landuse": "farmland", "closest_distance_restriction": 3.0620733784799445}, {"id": 4882344541, "lat": 51.1577274, "lon": 20.8875476, "way_id": 496531706, "landuse": "farmland", "closest_distance_restriction": 3.1270625545687785}, {"id": 4882344542, "lat": 51.1574143, "lon": 20.888345, "way_id": 496531706, "landuse": "farmland", "closest_distance_restriction": 3.1895180583428555}, {"id": 4882344543, "lat": 51.1570849, "lon": 20.8891828, "way_id": 496531706, "landuse": "farmland", "closest_distance_restriction": 3.2553084015640428}, {"id": 4882344544, "lat": 51.1567577, "lon": 20.8900028, "way_id": 496531706, "landuse": "farmland", "closest_distance_restriction": 3.3202282305277517}, {"id": 4882344545, "lat": 51.1564074, "lon": 20.8908941, "way_id": 496531706, "landuse": "farmland", "closest_distance_restriction": 3.390473356426944}, {"id": 4882344546, "lat": 51.1560824, "lon": 20.8917177, "way_id": 496531706, "landuse": "farmland", "closest_distance_restriction": 3.455606480078649}, {"id": 4882344547, "lat": 51.1557194, "lon": 20.8926185, "way_id": 496531706, "landuse": "farmland", "closest_distance_restriction": 3.527585384588861}, {"id": 4882344548, "lat": 51.1553132, "lon": 20.8936334, "way_id": 496531706, "landuse": "farmland", "closest_distance_restriction": 3.608584393102312}, {"id": 4882344549, "lat": 51.1553996, "lon": 20.8937225, "way_id": 496531706, "landuse": "farmland", "closest_distance_restriction": 3.605689088175799}, {"id": 4882344550, "lat": 51.1555554, "lon": 20.8933268, "way_id": 496531706, "landuse": "farmland", "closest_distance_restriction": 3.574277183666124}, {"id": 4882344551, "lat": 51.1557626, "lon": 20.8927967, "way_id": 496531706, "landuse": "farmland", "closest_distance_restriction": 3.532354495847955}, {"id": 4882344552, "lat": 51.1559959, "lon": 20.8922097, "way_id": 496531706, "landuse": "farmland", "closest_distance_restriction": 3.4856598619400776}, {"id": 4882344553, "lat": 51.156262, "lon": 20.8915406, "way_id": 496531706, "landuse": "farmland", "closest_distance_restriction": 3.4324801810137693}, {"id": 4882344554, "lat": 51.1564804, "lon": 20.8909999, "way_id": 496531706, "landuse": "farmland", "closest_distance_restriction": 3.3892741658229157}, {"id": 4882344555, "lat": 51.1566891, "lon": 20.8904663, "way_id": 496531706, "landuse": "farmland", "closest_distance_restriction": 3.3472484074475135}, {"id": 4882344556, "lat": 51.1568978, "lon": 20.8899256, "way_id": 496531706, "landuse": "farmland", "closest_distance_restriction": 3.304944664241841}, {"id": 4882344557, "lat": 51.157073, "lon": 20.8894764, "way_id": 496531706, "landuse": "farmland", "closest_distance_restriction": 3.26968683089713}, {"id": 4882344558, "lat": 51.1572519, "lon": 20.8890283, "way_id": 496531706, "landuse": "farmland", "closest_distance_restriction": 3.2342037057072037}, {"id": 4882344559, "lat": 51.1574732, "lon": 20.888465, "way_id": 496531706, "landuse": "farmland", "closest_distance_restriction": 3.1899525988365736}, {"id": 4882344560, "lat": 51.1576916, "lon": 20.8879053, "way_id": 496531706, "landuse": "farmland", "closest_distance_restriction": 3.146170441028566}, {"id": 4882344561, "lat": 51.1578206, "lon": 20.8875773, "way_id": 496531706, "landuse": "farmland", "closest_distance_restriction": 3.1204560730528534}, {"id": 4882344562, "lat": 51.1580546, "lon": 20.8869688, "way_id": 496531706, "landuse": "farmland", "closest_distance_restriction": 3.073264040314151}, {"id": 4882344563, "lat": 51.1582372, "lon": 20.8865172, "way_id": 496531706, "landuse": "farmland", "closest_distance_restriction": 3.037527762883587}, {"id": 4882344564, "lat": 51.1584638, "lon": 20.8859385, "way_id": 496531706, "landuse": "farmland", "closest_distance_restriction": 2.9924318836157915}, {"id": 4882344565, "lat": 51.1586747, "lon": 20.8854132, "way_id": 496531706, "landuse": "farmland", "closest_distance_restriction": 2.9511146952236595}, {"id": 4882344566, "lat": 51.1590697, "lon": 20.8844245, "way_id": 496531706, "landuse": "farmland", "closest_distance_restriction": 2.873693005799698}, {"id": 4882344567, "lat": 51.15899, "lon": 20.8843377, "way_id": 496531706, "landuse": "farmland", "closest_distance_restriction": 2.87687630959256}, {"id": 4882344568, "lat": 51.1589169, "lon": 20.8850912, "way_id": 496531707, "landuse": "farmland", "closest_distance_restriction": 2.9160531631150097}, {"id": 4882344569, "lat": 51.1583296, "lon": 20.8865909, "way_id": 496531707, "landuse": "farmland", "closest_distance_restriction": 3.032901661427521}, {"id": 4882344570, "lat": 51.1578124, "lon": 20.8879314, "way_id": 496531707, "landuse": "farmland", "closest_distance_restriction": 3.1371075797735517}, {"id": 4882344571, "lat": 51.1570909, "lon": 20.8897283, "way_id": 496531707, "landuse": "farmland", "closest_distance_restriction": 3.279721668458132}, {"id": 4882344572, "lat": 51.1571758, "lon": 20.889821, "way_id": 496531707, "landuse": "farmland", "closest_distance_restriction": 3.276890415224787}, {"id": 4882344573, "lat": 51.1576111, "lon": 20.88873, "way_id": 496531707, "landuse": "farmland", "closest_distance_restriction": 3.1903793812035754}, {"id": 4882344574, "lat": 51.1581478, "lon": 20.88738, "way_id": 496531707, "landuse": "farmland", "closest_distance_restriction": 3.0837861652845677}, {"id": 4882344575, "lat": 51.1584817, "lon": 20.886503, "way_id": 496531707, "landuse": "farmland", "closest_distance_restriction": 3.0159877755571287}, {"id": 4882344576, "lat": 51.1588707, "lon": 20.8855356, "way_id": 496531707, "landuse": "farmland", "closest_distance_restriction": 2.9396300664436836}, {"id": 4882344577, "lat": 51.1592359, "lon": 20.8846063, "way_id": 496531707, "landuse": "farmland", "closest_distance_restriction": 2.8672074145881132}, {"id": 4882344578, "lat": 51.1591703, "lon": 20.8845184, "way_id": 496531707, "landuse": "farmland", "closest_distance_restriction": 2.8690433304593124}, {"id": 4882344579, "lat": 51.159139, "lon": 20.884516, "way_id": 496531707, "landuse": "farmland", "closest_distance_restriction": 2.8716536106430586}, {"id": 4882344580, "lat": 51.1591077, "lon": 20.8845469, "way_id": 496531707, "landuse": "farmland", "closest_distance_restriction": 2.875717105857013}, {"id": 4882354735, "lat": 51.1636543, "lon": 20.890193, "way_id": 444764458, "landuse": "meadow", "closest_distance_restriction": 2.7976328638157595}, {"id": 4882354746, "lat": 51.1636264, "lon": 20.889171, "way_id": 444764458, "landuse": "meadow", "closest_distance_restriction": 2.7441332347562732}, {"id": 4883027215, "lat": 51.1627411, "lon": 20.8930527, "way_id": 444764458, "landuse": "meadow", "closest_distance_restriction": 3.0172839481391955}, {"id": 6978064934, "lat": 51.1361822, "lon": 20.8926487, "way_id": 444764458, "landuse": "meadow", "closest_distance_restriction": 5.344398823551288}, {"id": 6978064935, "lat": 51.1375235, "lon": 20.8947569, "way_id": 444764458, "landuse": "meadow", "closest_distance_restriction": 5.279354246385055}, {"id": 6978064936, "lat": 51.1363926, "lon": 20.8923805, "way_id": 444764458, "landuse": "meadow", "closest_distance_restriction": 5.315144980391823}, {"id": 6978064937, "lat": 51.1362882, "lon": 20.8924985, "way_id": 444764458, "landuse": "meadow", "closest_distance_restriction": 5.329195188371509}, {"id": 6978064938, "lat": 51.1361166, "lon": 20.8928177, "way_id": 444764458, "landuse": "meadow", "closest_distance_restriction": 5.3561596162328895}, {"id": 6978064939, "lat": 51.1360778, "lon": 20.892984, "way_id": 444764458, "landuse": "meadow", "closest_distance_restriction": 5.365177450454651}, {"id": 6978064940, "lat": 51.1360341, "lon": 20.89322, "way_id": 444764458, "landuse": "meadow", "closest_distance_restriction": 5.376867507609434}, {"id": 6978064941, "lat": 51.1359735, "lon": 20.8935606, "way_id": 444764458, "landuse": "meadow", "closest_distance_restriction": 5.393545284355596}, {"id": 6978064942, "lat": 51.1358919, "lon": 20.8939657, "way_id": 444764458, "landuse": "meadow", "closest_distance_restriction": 5.414405053349968}, {"id": 6978064943, "lat": 51.1358237, "lon": 20.8943157, "way_id": 444764458, "landuse": "meadow", "closest_distance_restriction": 5.432265932752111}, {"id": 6978064944, "lat": 51.1365137, "lon": 20.8922893, "way_id": 444764458, "landuse": "meadow", "closest_distance_restriction": 5.300253278356665}, {"id": 6978064945, "lat": 51.1366316, "lon": 20.8922303, "way_id": 444764458, "landuse": "meadow", "closest_distance_restriction": 5.286672222579774}, {"id": 6978064946, "lat": 51.1367864, "lon": 20.8921981, "way_id": 444764458, "landuse": "meadow", "closest_distance_restriction": 5.270238171069414}, {"id": 6978064947, "lat": 51.137086, "lon": 20.8922142, "way_id": 444764458, "landuse": "meadow", "closest_distance_restriction": 5.240881399568655}, {"id": 6978064948, "lat": 51.1381227, "lon": 20.8923322, "way_id": 444764458, "landuse": "meadow", "closest_distance_restriction": 5.141649893873035}, {"id": 6978064949, "lat": 51.1384761, "lon": 20.8923697, "way_id": 444764458, "landuse": "meadow", "closest_distance_restriction": 5.107892692718044}, {"id": 6978064950, "lat": 51.1393276, "lon": 20.8924395, "way_id": 444764458, "landuse": "meadow", "closest_distance_restriction": 5.02622242608116}, {"id": 7299233363, "lat": 51.333844, "lon": 20.8914629, "way_id": 844613102, "landuse": "farmland", "closest_distance_restriction": 1.7132896009912975}, {"id": 7310110050, "lat": 51.3250136, "lon": 20.8765019, "way_id": 860351540, "landuse": "farmland", "closest_distance_restriction": 1.7130943701822183}, {"id": 7310110051, "lat": 51.3250348, "lon": 20.8767568, "way_id": 860351540, "landuse": "farmland", "closest_distance_restriction": 1.72240845602511}, {"id": 7310110052, "lat": 51.3249593, "lon": 20.8770308, "way_id": 860351540, "landuse": "farmland", "closest_distance_restriction": 1.7226414662840686}, {"id": 7310110058, "lat": 51.3236504, "lon": 20.8772971, "way_id": 860351562, "landuse": "farmland", "closest_distance_restriction": 1.600151854694358}, {"id": 7310110059, "lat": 51.3252083, "lon": 20.8785596, "way_id": 860351562, "landuse": "farmland", "closest_distance_restriction": 1.7943159170519094}, {"id": 7310110090, "lat": 51.3236236, "lon": 20.8881449, "way_id": 860348579, "landuse": "farmland", "closest_distance_restriction": 1.9623777480369653}, {"id": 7310110091, "lat": 51.32361, "lon": 20.8864644, "way_id": 860348579, "landuse": "farmland", "closest_distance_restriction": 1.917303538309826}, {"id": 7310110103, "lat": 51.3241217, "lon": 20.8912175, "way_id": 860348577, "landuse": "farmland", "closest_distance_restriction": 1.741871697942841}, {"id": 7310110105, "lat": 51.3246288, "lon": 20.8890438, "way_id": 860348578, "landuse": "farmland", "closest_distance_restriction": 1.8784293105887169}, {"id": 7310110106, "lat": 51.3241805, "lon": 20.8921087, "way_id": 860348577, "landuse": "farmland", "closest_distance_restriction": 1.680081370454282}, {"id": 7427611691, "lat": 51.1606565, "lon": 20.9830889, "way_id": 794162058, "landuse": "farmland", "closest_distance_restriction": 1.6109647867245362}, {"id": 7427611692, "lat": 51.1606088, "lon": 20.9831745, "way_id": 794162058, "landuse": "farmland", "closest_distance_restriction": 1.6133874453895591}, {"id": 7427611693, "lat": 51.16057, "lon": 20.9833361, "way_id": 794162058, "landuse": "farmland", "closest_distance_restriction": 1.6128268214561383}, {"id": 7427611941, "lat": 51.1608681, "lon": 20.9839065, "way_id": 794162058, "landuse": "farmland", "closest_distance_restriction": 1.5667831850679605}, {"id": 7427611942, "lat": 51.1607221, "lon": 20.9837496, "way_id": 794162058, "landuse": "farmland", "closest_distance_restriction": 1.5859767312154864}, {"id": 7427611943, "lat": 51.1606088, "lon": 20.9836308, "way_id": 794162058, "landuse": "farmland", "closest_distance_restriction": 1.6007979431558896}, {"id": 7427611944, "lat": 51.1605337, "lon": 20.9835957, "way_id": 794162058, "landuse": "farmland", "closest_distance_restriction": 1.6094452599277613}, {"id": 7427612044, "lat": 51.1606923, "lon": 20.9831127, "way_id": 794162058, "landuse": "farmland", "closest_distance_restriction": 1.606653293632696}, {"id": 7427612045, "lat": 51.1607966, "lon": 20.9832458, "way_id": 794162058, "landuse": "farmland", "closest_distance_restriction": 1.592280946017627}, {"id": 7427612046, "lat": 51.1610276, "lon": 20.9835191, "way_id": 794162058, "landuse": "farmland", "closest_distance_restriction": 1.5610835789579443}, {"id": 7435307297, "lat": 51.159731, "lon": 20.9007709, "way_id": 444764458, "landuse": "meadow", "closest_distance_restriction": 3.359438507761115}, {"id": 7435307298, "lat": 51.1597619, "lon": 20.9007254, "way_id": 444764458, "landuse": "meadow", "closest_distance_restriction": 3.3567557077293584}, {"id": 7435307299, "lat": 51.1596445, "lon": 20.900929, "way_id": 444764458, "landuse": "meadow", "closest_distance_restriction": 3.3665246968000138}, {"id": 7435307300, "lat": 51.1595256, "lon": 20.9011288, "way_id": 444764458, "landuse": "meadow", "closest_distance_restriction": 3.3765927874662927}, {"id": 7435307301, "lat": 51.1594375, "lon": 20.9012957, "way_id": 444764458, "landuse": "meadow", "closest_distance_restriction": 3.383840938163457}, {"id": 7435307302, "lat": 51.1594221, "lon": 20.9014382, "way_id": 444764458, "landuse": "meadow", "closest_distance_restriction": 3.3835492898561315}, {"id": 7435307303, "lat": 51.1594346, "lon": 20.9015658, "way_id": 444764458, "landuse": "meadow", "closest_distance_restriction": 3.380446001748532}, {"id": 7435307304, "lat": 51.159477, "lon": 20.9018295, "way_id": 444764458, "landuse": "meadow", "closest_distance_restriction": 3.372290898397137}, {"id": 7435307305, "lat": 51.1594802, "lon": 20.9019352, "way_id": 444764458, "landuse": "meadow", "closest_distance_restriction": 3.3705533532778635}, {"id": 7446675532, "lat": 51.157044, "lon": 21.05552, "way_id": 796230232, "landuse": "meadow", "closest_distance_restriction": 2.613840373594794}, {"id": 7446675533, "lat": 51.1556467, "lon": 21.0554949, "way_id": 796230232, "landuse": "meadow", "closest_distance_restriction": 2.6837557937129657}, {"id": 7879338686, "lat": 51.3373843, "lon": 20.8919932, "way_id": 844613102, "landuse": "farmland", "closest_distance_restriction": 1.833590410098123}, {"id": 7879338687, "lat": 51.3357339, "lon": 20.8888574, "way_id": 844613102, "landuse": "farmland", "closest_distance_restriction": 1.9531199087419946}, {"id": 7879338688, "lat": 51.3345531, "lon": 20.8908549, "way_id": 844613102, "landuse": "farmland", "closest_distance_restriction": 1.7777025796346353}, {"id": 7879338689, "lat": 51.3342176, "lon": 20.8910482, "way_id": 844613102, "landuse": "farmland", "closest_distance_restriction": 1.7531897590757322}, {"id": 7890878474, "lat": 51.1403454, "lon": 20.8834702, "way_id": 444764458, "landuse": "meadow", "closest_distance_restriction": 4.660726119841345}, {"id": 7890878475, "lat": 51.1404569, "lon": 20.8834749, "way_id": 444764458, "landuse": "meadow", "closest_distance_restriction": 4.649329918076088}, {"id": 8018508893, "lat": 51.3209051, "lon": 20.8911976, "way_id": 860348577, "landuse": "farmland", "closest_distance_restriction": 1.8567581343590767}, {"id": 8018508894, "lat": 51.320855, "lon": 20.8926619, "way_id": 860348577, "landuse": "farmland", "closest_distance_restriction": 1.7665319101089505}, {"id": 8018508895, "lat": 51.3213313, "lon": 20.8928825, "way_id": 860348577, "landuse": "farmland", "closest_distance_restriction": 1.7305105855138343}, {"id": 8018508896, "lat": 51.324133, "lon": 20.8922306, "way_id": 860348577, "landuse": "farmland", "closest_distance_restriction": 1.6730659477241114}, {"id": 8018508897, "lat": 51.3248705, "lon": 20.8886533, "way_id": 860348578, "landuse": "farmland", "closest_distance_restriction": 1.9005726444975604}, {"id": 8018508898, "lat": 51.3215695, "lon": 20.8886903, "way_id": 860348578, "landuse": "farmland", "closest_distance_restriction": 1.8432125926318752}, {"id": 8018508899, "lat": 51.3215695, "lon": 20.8891216, "way_id": 860348578, "landuse": "farmland", "closest_distance_restriction": 1.863501530664282}, {"id": 8018508900, "lat": 51.3233934, "lon": 20.8891617, "way_id": 860348578, "landuse": "farmland", "closest_distance_restriction": 1.8998753360847829}, {"id": 8018508901, "lat": 51.3247621, "lon": 20.8890256, "way_id": 860348578, "landuse": "farmland", "closest_distance_restriction": 1.877078906898132}, {"id": 8018508902, "lat": 51.3230612, "lon": 20.8864337, "way_id": 860348579, "landuse": "farmland", "closest_distance_restriction": 1.8671679771546752}, {"id": 8018508903, "lat": 51.323055, "lon": 20.8881989, "way_id": 860348579, "landuse": "farmland", "closest_distance_restriction": 1.943491850266598}, {"id": 8018508904, "lat": 51.3231991, "lon": 20.8881989, "way_id": 860348579, "landuse": "farmland", "closest_distance_restriction": 1.9557520864654596}, {"id": 8018508905, "lat": 51.3231991, "lon": 20.8864638, "way_id": 860348579, "landuse": "farmland", "closest_distance_restriction": 1.8806431221935367}, {"id": 8018508906, "lat": 51.3249244, "lon": 20.8884683, "way_id": 860348579, "landuse": "farmland", "closest_distance_restriction": 1.9122973439332547}, {"id": 8018508907, "lat": 51.3204789, "lon": 20.8885399, "way_id": 860348579, "landuse": "farmland", "closest_distance_restriction": 1.7479957645845599}, {"id": 8018508908, "lat": 51.3205228, "lon": 20.8882992, "way_id": 860348579, "landuse": "farmland", "closest_distance_restriction": 1.7397718843589454}, {"id": 8018508909, "lat": 51.3219895, "lon": 20.888239, "way_id": 860348579, "landuse": "farmland", "closest_distance_restriction": 1.8565064823311295}, {"id": 8018508910, "lat": 51.3219957, "lon": 20.8876272, "way_id": 860348579, "landuse": "farmland", "closest_distance_restriction": 1.8284798614048061}, {"id": 8018508911, "lat": 51.3206607, "lon": 20.8875871, "way_id": 860348579, "landuse": "farmland", "closest_distance_restriction": 1.7169038531670204}, {"id": 8018508912, "lat": 51.3206858, "lon": 20.8869954, "way_id": 860348579, "landuse": "farmland", "closest_distance_restriction": 1.6914109777494937}, {"id": 8018508913, "lat": 51.3219957, "lon": 20.8869552, "way_id": 860348579, "landuse": "farmland", "closest_distance_restriction": 1.7977756900488802}, {"id": 8018508914, "lat": 51.3219895, "lon": 20.8864839, "way_id": 860348579, "landuse": "farmland", "closest_distance_restriction": 1.7761275909531753}, {"id": 8018508915, "lat": 51.3221963, "lon": 20.8864538, "way_id": 860348579, "landuse": "farmland", "closest_distance_restriction": 1.792540252414059}, {"id": 8018508916, "lat": 51.32219, "lon": 20.888239, "way_id": 860348579, "landuse": "farmland", "closest_distance_restriction": 1.8729628402343947}, {"id": 8018508917, "lat": 51.3228168, "lon": 20.8882189, "way_id": 860348579, "landuse": "farmland", "closest_distance_restriction": 1.9242541013847396}, {"id": 8018508918, "lat": 51.3228105, "lon": 20.8864237, "way_id": 860348579, "landuse": "farmland", "closest_distance_restriction": 1.8446560449683085}, {"id": 8018533477, "lat": 51.3244401, "lon": 20.8735261, "way_id": 860351539, "landuse": "farmland", "closest_distance_restriction": 1.5804628809133263}, {"id": 8018533478, "lat": 51.3244714, "lon": 20.8733556, "way_id": 860351539, "landuse": "farmland", "closest_distance_restriction": 1.5802413287961536}, {"id": 8018533479, "lat": 51.324321, "lon": 20.8732753, "way_id": 860351539, "landuse": "farmland", "closest_distance_restriction": 1.5626157513121652}, {"id": 8018534291, "lat": 51.3251813, "lon": 20.87613, "way_id": 860351540, "landuse": "farmland", "closest_distance_restriction": 1.7201285215920563}, {"id": 8018534301, "lat": 51.3248976, "lon": 20.8764947, "way_id": 860351540, "landuse": "farmland", "closest_distance_restriction": 1.701079245737764}, {"id": 8018534302, "lat": 51.3249289, "lon": 20.8763844, "way_id": 860351540, "landuse": "farmland", "closest_distance_restriction": 1.701200441985614}, {"id": 8018534311, "lat": 51.3204131, "lon": 20.8862833, "way_id": 860351542, "landuse": "farmland", "closest_distance_restriction": 1.6356144283674237}, {"id": 8018534312, "lat": 51.3208456, "lon": 20.8851099, "way_id": 860351542, "landuse": "farmland", "closest_distance_restriction": 1.6173010313007656}, {"id": 8018534501, "lat": 51.3144644, "lon": 20.8917342, "way_id": 860351566, "landuse": "farmland", "closest_distance_restriction": 1.560595606755999}, {"id": 8018534507, "lat": 51.312659, "lon": 20.8931082, "way_id": 860351567, "landuse": "farmland", "closest_distance_restriction": 1.5910998597938606}, {"id": 8018597913, "lat": 51.3066372, "lon": 20.896127, "way_id": 860363033, "landuse": "farmland", "closest_distance_restriction": 1.5940274990057601}, {"id": 8018597924, "lat": 51.3064491, "lon": 20.8966886, "way_id": 860363034, "landuse": "farmland", "closest_distance_restriction": 1.5700797137808433}, {"id": 8018597925, "lat": 51.3062673, "lon": 20.8965683, "way_id": 860363034, "landuse": "farmland", "closest_distance_restriction": 1.587430953342811}, {"id": 8018597926, "lat": 51.3059852, "lon": 20.8968291, "way_id": 860363034, "landuse": "farmland", "closest_distance_restriction": 1.5879841644257418}, {"id": 8018661103, "lat": 51.3051983, "lon": 20.8976214, "way_id": 860372111, "landuse": "farmland", "closest_distance_restriction": 1.5902034596203591}, {"id": 8018661104, "lat": 51.3041825, "lon": 20.8986042, "way_id": 860372111, "landuse": "farmland", "closest_distance_restriction": 1.605080177334541}, {"id": 8018661109, "lat": 51.3039756, "lon": 20.8988149, "way_id": 860372112, "landuse": "farmland", "closest_distance_restriction": 1.6088683684801526}, {"id": 8018661110, "lat": 51.3035994, "lon": 20.8991157, "way_id": 860372112, "landuse": "farmland", "closest_distance_restriction": 1.621123080622628}, {"id": 8018661111, "lat": 51.3034552, "lon": 20.9005299, "way_id": 860372112, "landuse": "farmland", "closest_distance_restriction": 1.5615031946089775}, {"id": 8018661112, "lat": 51.3036558, "lon": 20.8989151, "way_id": 860372113, "landuse": "farmland", "closest_distance_restriction": 1.627216210199079}, {"id": 8018661113, "lat": 51.3042264, "lon": 20.8983334, "way_id": 860372113, "landuse": "farmland", "closest_distance_restriction": 1.616444893937614}, {"id": 8018661114, "lat": 51.3042515, "lon": 20.8980827, "way_id": 860372113, "landuse": "farmland", "closest_distance_restriction": 1.6281885177604543}, {"id": 8018661115, "lat": 51.3037311, "lon": 20.8980727, "way_id": 860372113, "landuse": "farmland", "closest_distance_restriction": 1.612540196138371}, {"id": 8018661116, "lat": 51.303242, "lon": 20.9006302, "way_id": 860372114, "landuse": "farmland", "closest_distance_restriction": 1.5736440121351323}, {"id": 8018661117, "lat": 51.3032984, "lon": 20.8994567, "way_id": 860372114, "landuse": "farmland", "closest_distance_restriction": 1.6268013007247486}, {"id": 8018661118, "lat": 51.302847, "lon": 20.8999181, "way_id": 860372114, "landuse": "farmland", "closest_distance_restriction": 1.6396172469772772}, {"id": 8018661119, "lat": 51.3028532, "lon": 20.9003995, "way_id": 860372114, "landuse": "farmland", "closest_distance_restriction": 1.6160553357649956}, {"id": 8018661120, "lat": 51.3030225, "lon": 20.9005499, "way_id": 860372114, "landuse": "farmland", "closest_distance_restriction": 1.5951779891012274}, {"id": 8018661121, "lat": 51.3033173, "lon": 20.899216, "way_id": 860372115, "landuse": "farmland", "closest_distance_restriction": 1.6374348489703157}, {"id": 8018661122, "lat": 51.303405, "lon": 20.8980125, "way_id": 860372115, "landuse": "farmland", "closest_distance_restriction": 1.5842490935279105}, {"id": 8018661125, "lat": 51.3028407, "lon": 20.899567, "way_id": 860372115, "landuse": "farmland", "closest_distance_restriction": 1.623241418738872}, {"id": 8018667056, "lat": 51.3078222, "lon": 20.8947029, "way_id": 860369214, "landuse": "farmland", "closest_distance_restriction": 1.6265795900432245}, {"id": 8018667057, "lat": 51.3079037, "lon": 20.8945875, "way_id": 860369214, "landuse": "farmland", "closest_distance_restriction": 1.6305299384536183}, {"id": 8018667058, "lat": 51.3079884, "lon": 20.8943468, "way_id": 860369214, "landuse": "farmland", "closest_distance_restriction": 1.6393329324387746}, {"id": 8018667059, "lat": 51.3077219, "lon": 20.8942616, "way_id": 860369214, "landuse": "farmland", "closest_distance_restriction": 1.6363519761768583}, {"id": 8018667060, "lat": 51.3077439, "lon": 20.8941061, "way_id": 860369214, "landuse": "farmland", "closest_distance_restriction": 1.6253430958347692}, {"id": 8018667061, "lat": 51.3080385, "lon": 20.8941863, "way_id": 860369214, "landuse": "farmland", "closest_distance_restriction": 1.6277304270452728}, {"id": 8018667064, "lat": 51.30713, "lon": 20.8953239, "way_id": 860369214, "landuse": "farmland", "closest_distance_restriction": 1.6187797824738817}, {"id": 8018667065, "lat": 51.3066851, "lon": 20.8941244, "way_id": 860369215, "landuse": "farmland", "closest_distance_restriction": 1.6433291561421772}, {"id": 8018958276, "lat": 51.3009092, "lon": 20.9020768, "way_id": 860412862, "landuse": "farmland", "closest_distance_restriction": 1.644387537283077}, {"id": 8018958277, "lat": 51.3008999, "lon": 20.9024106, "way_id": 860412862, "landuse": "farmland", "closest_distance_restriction": 1.6347807267521486}, {"id": 8018958278, "lat": 51.3008313, "lon": 20.9024854, "way_id": 860412862, "landuse": "farmland", "closest_distance_restriction": 1.635947029457199}, {"id": 8018958279, "lat": 51.3008095, "lon": 20.9030235, "way_id": 860412862, "landuse": "farmland", "closest_distance_restriction": 1.6098499404900175}, {"id": 8018958280, "lat": 51.3004793, "lon": 20.9030186, "way_id": 860412862, "landuse": "farmland", "closest_distance_restriction": 1.6181874309461135}, {"id": 8018958281, "lat": 51.3005198, "lon": 20.9039604, "way_id": 860412862, "landuse": "farmland", "closest_distance_restriction": 1.5852202518882836}, {"id": 8018970961, "lat": 51.3002986, "lon": 20.9022113, "way_id": 860413264, "landuse": "farmland", "closest_distance_restriction": 1.5943162526507562}, {"id": 8018976188, "lat": 51.3005229, "lon": 20.9041746, "way_id": 860412863, "landuse": "farmland", "closest_distance_restriction": 1.574498638817242}, {"id": 8018987512, "lat": 51.3003765, "lon": 20.9039504, "way_id": 860414207, "landuse": "farmland", "closest_distance_restriction": 1.59703464574575}, {"id": 8018987513, "lat": 51.3003515, "lon": 20.9034322, "way_id": 860414207, "landuse": "farmland", "closest_distance_restriction": 1.6067512810973452}, {"id": 8018987519, "lat": 51.3012177, "lon": 20.9006616, "way_id": 860414208, "landuse": "farmland", "closest_distance_restriction": 1.5781338160490954}, {"id": 8033700538, "lat": 51.2246383, "lon": 20.9962496, "way_id": 862424815, "landuse": "farmland", "closest_distance_restriction": 1.5691278334469105}, {"id": 8033700540, "lat": 51.2241142, "lon": 20.9968267, "way_id": 862423831, "landuse": "farmland", "closest_distance_restriction": 1.603951388171784}, {"id": 8033700545, "lat": 51.2231142, "lon": 20.9986831, "way_id": 862423832, "landuse": "farmland", "closest_distance_restriction": 1.6376315275662534}, {"id": 8033700547, "lat": 51.2229335, "lon": 20.9985677, "way_id": 862423832, "landuse": "farmland", "closest_distance_restriction": 1.61617164495343}, {"id": 8033875760, "lat": 51.2223491, "lon": 20.9999047, "way_id": 862424816, "landuse": "farmland", "closest_distance_restriction": 1.6086989947521495}, {"id": 8034797274, "lat": 51.225237, "lon": 20.9919253, "way_id": 862423821, "landuse": "farmland", "closest_distance_restriction": 1.6056443722512868}, {"id": 8034797277, "lat": 51.2250989, "lon": 20.9921554, "way_id": 862423821, "landuse": "farmland", "closest_distance_restriction": 1.598768703156727}, {"id": 8034817386, "lat": 51.2258132, "lon": 20.9908998, "way_id": 862423823, "landuse": "farmland", "closest_distance_restriction": 1.6198017636703421}, {"id": 8034817389, "lat": 51.2258252, "lon": 20.9913215, "way_id": 862423823, "landuse": "farmland", "closest_distance_restriction": 1.6365605756031174}, {"id": 8034817390, "lat": 51.2258432, "lon": 20.991149, "way_id": 862423823, "landuse": "farmland", "closest_distance_restriction": 1.631817250459749}, {"id": 8034817392, "lat": 51.2266896, "lon": 20.9902384, "way_id": 862423824, "landuse": "farmland", "closest_distance_restriction": 1.624117199956496}, {"id": 8034817393, "lat": 51.2264435, "lon": 20.990526, "way_id": 862423824, "landuse": "farmland", "closest_distance_restriction": 1.6307183924951656}, {"id": 8034817394, "lat": 51.2260473, "lon": 20.9907752, "way_id": 862423824, "landuse": "farmland", "closest_distance_restriction": 1.637514254818284}, {"id": 8034817395, "lat": 51.2260053, "lon": 20.990871, "way_id": 862423824, "landuse": "farmland", "closest_distance_restriction": 1.6369661058814737}, {"id": 8034817396, "lat": 51.2260653, "lon": 20.9910915, "way_id": 862423824, "landuse": "farmland", "closest_distance_restriction": 1.6366360694989321}, {"id": 8034817412, "lat": 51.2274999, "lon": 20.9887337, "way_id": 862423827, "landuse": "farmland", "closest_distance_restriction": 1.6359066220114158}, {"id": 8034817413, "lat": 51.2276139, "lon": 20.9885707, "way_id": 862423827, "landuse": "farmland", "closest_distance_restriction": 1.6209651102834315}, {"id": 8034817416, "lat": 51.2269117, "lon": 20.9881777, "way_id": 862423828, "landuse": "farmland", "closest_distance_restriction": 1.6311772464403793}, {"id": 8034817419, "lat": 51.2267376, "lon": 20.9885995, "way_id": 862423828, "landuse": "farmland", "closest_distance_restriction": 1.6317866236949223}, {"id": 8034817421, "lat": 51.2257532, "lon": 20.991772, "way_id": 862423829, "landuse": "farmland", "closest_distance_restriction": 1.633830462027148}, {"id": 8034817422, "lat": 51.2254291, "lon": 20.9919685, "way_id": 862423829, "landuse": "farmland", "closest_distance_restriction": 1.6248795553660136}, {"id": 8034817423, "lat": 51.225315, "lon": 20.9921458, "way_id": 862423829, "landuse": "farmland", "closest_distance_restriction": 1.6205237598506619}, {"id": 8034817424, "lat": 51.2247328, "lon": 20.993526, "way_id": 862423829, "landuse": "farmland", "closest_distance_restriction": 1.6033361905779553}, {"id": 8034817425, "lat": 51.2243366, "lon": 20.9946042, "way_id": 862423829, "landuse": "farmland", "closest_distance_restriction": 1.6012546939839734}, {"id": 8034817430, "lat": 51.2246067, "lon": 20.9940819, "way_id": 862423829, "landuse": "farmland", "closest_distance_restriction": 1.6092746402751348}, {"id": 8034817431, "lat": 51.2248228, "lon": 20.9935643, "way_id": 862423829, "landuse": "farmland", "closest_distance_restriction": 1.6134470406042847}, {"id": 8034817432, "lat": 51.225345, "lon": 20.9941346, "way_id": 862423829, "landuse": "farmland", "closest_distance_restriction": 1.57502220294324}, {"id": 8034817433, "lat": 51.2256242, "lon": 20.9934397, "way_id": 862423829, "landuse": "farmland", "closest_distance_restriction": 1.5765324729541796}, {"id": 8034817434, "lat": 51.2255761, "lon": 20.9933151, "way_id": 862423829, "landuse": "farmland", "closest_distance_restriction": 1.5859117977633772}, {"id": 8034817435, "lat": 51.225354, "lon": 20.9933007, "way_id": 862423829, "landuse": "farmland", "closest_distance_restriction": 1.6066853789992628}, {"id": 8034817436, "lat": 51.225255, "lon": 20.9931618, "way_id": 862423829, "landuse": "farmland", "closest_distance_restriction": 1.6212486874438694}, {"id": 8034817437, "lat": 51.2254021, "lon": 20.9928503, "way_id": 862423829, "landuse": "farmland", "closest_distance_restriction": 1.6204975033635038}, {"id": 8034817438, "lat": 51.2256302, "lon": 20.9928694, "way_id": 862423829, "landuse": "farmland", "closest_distance_restriction": 1.5991227937931634}, {"id": 8034817439, "lat": 51.2256662, "lon": 20.9930276, "way_id": 862423829, "landuse": "farmland", "closest_distance_restriction": 1.5894844232811107}, {"id": 8034817440, "lat": 51.2257772, "lon": 20.9930324, "way_id": 862423829, "landuse": "farmland", "closest_distance_restriction": 1.5792240228235874}, {"id": 8034817441, "lat": 51.2257952, "lon": 20.9932288, "way_id": 862423829, "landuse": "farmland", "closest_distance_restriction": 1.569641649631632}, {"id": 8034817450, "lat": 51.2237033, "lon": 20.9957736, "way_id": 862423831, "landuse": "farmland", "closest_distance_restriction": 1.5832221706506757}, {"id": 8034817451, "lat": 51.2235233, "lon": 20.9961761, "way_id": 862423831, "landuse": "farmland", "closest_distance_restriction": 1.5820413064490468}, {"id": 8034817455, "lat": 51.2232952, "lon": 20.997633, "way_id": 862423832, "landuse": "farmland", "closest_distance_restriction": 1.6173111930337538}, {"id": 8034817456, "lat": 51.2230851, "lon": 20.9967991, "way_id": 862423833, "landuse": "farmland", "closest_distance_restriction": 1.5653364778580774}, {"id": 8034817464, "lat": 51.2227069, "lon": 20.9976138, "way_id": 862423833, "landuse": "farmland", "closest_distance_restriction": 1.5623902582834572}, {"id": 8034817468, "lat": 51.222983, "lon": 20.9970292, "way_id": 862423833, "landuse": "farmland", "closest_distance_restriction": 1.5648815640117906}, {"id": 8034820481, "lat": 51.2248018, "lon": 20.9959653, "way_id": 862424815, "landuse": "farmland", "closest_distance_restriction": 1.5621596599105565}, {"id": 8034820482, "lat": 51.2239915, "lon": 20.9951602, "way_id": 862424815, "landuse": "farmland", "closest_distance_restriction": 1.5877822304953155}, {"id": 8034820483, "lat": 51.2238354, "lon": 20.9955244, "way_id": 862424815, "landuse": "farmland", "closest_distance_restriction": 1.5862730224325257}, {"id": 8034820484, "lat": 51.2246168, "lon": 20.9963107, "way_id": 862424815, "landuse": "farmland", "closest_distance_restriction": 1.5693286129528696}, {"id": 8034827201, "lat": 51.2218305, "lon": 21.0016106, "way_id": 862424816, "landuse": "farmland", "closest_distance_restriction": 1.5687627393072014}, {"id": 8034827202, "lat": 51.2219865, "lon": 21.0012464, "way_id": 862424816, "landuse": "farmland", "closest_distance_restriction": 1.5865861130841792}, {"id": 8042657900, "lat": 51.1622763, "lon": 21.0590045, "way_id": 863352261, "landuse": "farmland", "closest_distance_restriction": 2.065264720949056}, {"id": 8042657901, "lat": 51.161345, "lon": 21.0584969, "way_id": 863352261, "landuse": "farmland", "closest_distance_restriction": 2.1690151547719214}, {"id": 8042657902, "lat": 51.1611909, "lon": 21.0584496, "way_id": 863352261, "landuse": "farmland", "closest_distance_restriction": 2.1861959098813504}, {"id": 8042657903, "lat": 51.1612141, "lon": 21.0597406, "way_id": 863352261, "landuse": "farmland", "closest_distance_restriction": 2.1841135860475474}, {"id": 8042657904, "lat": 51.1602309, "lon": 21.0593851, "way_id": 863352262, "landuse": "farmland", "closest_distance_restriction": 2.2929220690793}, {"id": 8042657905, "lat": 51.1603553, "lon": 21.0589882, "way_id": 863352262, "landuse": "farmland", "closest_distance_restriction": 2.2788668449010085}, {"id": 8042657906, "lat": 51.1578814, "lon": 21.0572139, "way_id": 863352262, "landuse": "farmland", "closest_distance_restriction": 2.5567227606640692}, {"id": 8042657907, "lat": 51.1577951, "lon": 21.0574952, "way_id": 863352262, "landuse": "farmland", "closest_distance_restriction": 2.5654731241606483}, {"id": 8042657908, "lat": 51.1580796, "lon": 21.057722, "way_id": 863352262, "landuse": "farmland", "closest_distance_restriction": 2.5332906760773564}, {"id": 8042657909, "lat": 51.1579788, "lon": 21.0580527, "way_id": 863352262, "landuse": "farmland", "closest_distance_restriction": 2.543839221678937}, {"id": 8042657910, "lat": 51.1584115, "lon": 21.0584118, "way_id": 863352262, "landuse": "farmland", "closest_distance_restriction": 2.49525654605837}, {"id": 8042657911, "lat": 51.1583107, "lon": 21.0586859, "way_id": 863352262, "landuse": "farmland", "closest_distance_restriction": 2.506265437054739}, {"id": 8042657912, "lat": 51.1583937, "lon": 21.0587426, "way_id": 863352262, "landuse": "farmland", "closest_distance_restriction": 2.4970135156310493}, {"id": 8042657913, "lat": 51.1583344, "lon": 21.0589977, "way_id": 863352262, "landuse": "farmland", "closest_distance_restriction": 2.5035815609611105}, {"id": 8042657914, "lat": 51.1584352, "lon": 21.0591111, "way_id": 863352262, "landuse": "farmland", "closest_distance_restriction": 2.4924023980385384}, {"id": 8042657915, "lat": 51.1583759, "lon": 21.0593284, "way_id": 863352262, "landuse": "farmland", "closest_distance_restriction": 2.499121976056435}, {"id": 8042657916, "lat": 51.1587611, "lon": 21.0596403, "way_id": 863352262, "landuse": "farmland", "closest_distance_restriction": 2.45663951228905}, {"id": 8042657917, "lat": 51.15869, "lon": 21.0599048, "way_id": 863352262, "landuse": "farmland", "closest_distance_restriction": 2.4649874687938906}, {"id": 8042657918, "lat": 51.1585359, "lon": 21.059782, "way_id": 863352262, "landuse": "farmland", "closest_distance_restriction": 2.4818944589340544}, {"id": 8042657919, "lat": 51.1584766, "lon": 21.0600371, "way_id": 863352262, "landuse": "farmland", "closest_distance_restriction": 2.488978411257519}, {"id": 8042657920, "lat": 51.1582277, "lon": 21.059886, "way_id": 863352262, "landuse": "farmland", "closest_distance_restriction": 2.5163380895754064}, {"id": 8042657921, "lat": 51.1581033, "lon": 21.0603962, "way_id": 863352262, "landuse": "farmland", "closest_distance_restriction": 2.53136043738212}, {"id": 8042657922, "lat": 51.1580855, "lon": 21.0608687, "way_id": 863352262, "landuse": "farmland", "closest_distance_restriction": 2.5348882928695025}, {"id": 8042657923, "lat": 51.1588737, "lon": 21.0615018, "way_id": 863352262, "landuse": "farmland", "closest_distance_restriction": 2.450218774632155}, {"id": 8042657924, "lat": 51.1588619, "lon": 21.0616058, "way_id": 863352262, "landuse": "farmland", "closest_distance_restriction": 2.4520699750138935}, {"id": 8042657925, "lat": 51.1583581, "lon": 21.0612372, "way_id": 863352262, "landuse": "farmland", "closest_distance_restriction": 2.506144046375446}, {"id": 8042657926, "lat": 51.1582277, "lon": 21.0616436, "way_id": 863352262, "landuse": "farmland", "closest_distance_restriction": 2.522586892011484}, {"id": 8042657927, "lat": 51.1595493, "lon": 21.0626169, "way_id": 863352262, "landuse": "farmland", "closest_distance_restriction": 2.3824528405043366}, {"id": 8042657928, "lat": 51.1594604, "lon": 21.0629854, "way_id": 863352262, "landuse": "farmland", "closest_distance_restriction": 2.3951831054620336}, {"id": 8042657929, "lat": 51.1598397, "lon": 21.0632311, "way_id": 863352262, "landuse": "farmland", "closest_distance_restriction": 2.3554316039670944}, {"id": 8042657930, "lat": 51.160886, "lon": 21.0630831, "way_id": 863352262, "landuse": "farmland", "closest_distance_restriction": 2.2387267809493516}, {"id": 8042657931, "lat": 51.1609538, "lon": 21.0629287, "way_id": 863352262, "landuse": "farmland", "closest_distance_restriction": 2.2298774698543675}, {"id": 8042657932, "lat": 51.1605924, "lon": 21.0626925, "way_id": 863352262, "landuse": "farmland", "closest_distance_restriction": 2.26778468336712}, {"id": 8042657933, "lat": 51.1606398, "lon": 21.0624279, "way_id": 863352262, "landuse": "farmland", "closest_distance_restriction": 2.2604805831060313}, {"id": 8042657934, "lat": 51.1607168, "lon": 21.0624751, "way_id": 863352262, "landuse": "farmland", "closest_distance_restriction": 2.2523284858542802}, {"id": 8042657935, "lat": 51.160782, "lon": 21.0621822, "way_id": 863352262, "landuse": "farmland", "closest_distance_restriction": 2.2429614084889886}, {"id": 8042657936, "lat": 51.1606516, "lon": 21.0620594, "way_id": 863352262, "landuse": "farmland", "closest_distance_restriction": 2.2565411277873664}, {"id": 8042657937, "lat": 51.1607227, "lon": 21.0617097, "way_id": 863352262, "landuse": "farmland", "closest_distance_restriction": 2.246432019740296}, {"id": 8042657938, "lat": 51.1608175, "lon": 21.061757, "way_id": 863352262, "landuse": "farmland", "closest_distance_restriction": 2.236219487757013}, {"id": 8042657939, "lat": 51.1608531, "lon": 21.0612561, "way_id": 863352262, "landuse": "farmland", "closest_distance_restriction": 2.2294557996830857}, {"id": 8042657940, "lat": 51.160699, "lon": 21.0611333, "way_id": 863352262, "landuse": "farmland", "closest_distance_restriction": 2.2459416938600487}, {"id": 8042657941, "lat": 51.1607761, "lon": 21.060916, "way_id": 863352262, "landuse": "farmland", "closest_distance_restriction": 2.2363960419286473}, {"id": 8042657942, "lat": 51.160539, "lon": 21.0607742, "way_id": 863352262, "landuse": "farmland", "closest_distance_restriction": 2.2621241355506503}, {"id": 8042657943, "lat": 51.1605864, "lon": 21.0605191, "way_id": 863352262, "landuse": "farmland", "closest_distance_restriction": 2.2559143858232944}, {"id": 8042657944, "lat": 51.1607405, "lon": 21.0606419, "way_id": 863352262, "landuse": "farmland", "closest_distance_restriction": 2.239242396739853}, {"id": 8042657945, "lat": 51.1608549, "lon": 21.0603858, "way_id": 863352262, "landuse": "farmland", "closest_distance_restriction": 2.2256499280846973}, {"id": 8042657946, "lat": 51.1596382, "lon": 21.0594891, "way_id": 863352262, "landuse": "farmland", "closest_distance_restriction": 2.3589313263063074}, {"id": 8042657947, "lat": 51.1596975, "lon": 21.0591867, "way_id": 863352262, "landuse": "farmland", "closest_distance_restriction": 2.3520785549098804}, {"id": 8042657948, "lat": 51.1601834, "lon": 21.0595363, "way_id": 863352262, "landuse": "farmland", "closest_distance_restriction": 2.2983755425263217}, {"id": 8042886526, "lat": 51.1424042, "lon": 21.0531581, "way_id": 322660690, "landuse": "farmland", "closest_distance_restriction": 3.400221818828467}, {"id": 8042886528, "lat": 51.1408969, "lon": 21.0523795, "way_id": 322660690, "landuse": "farmland", "closest_distance_restriction": 3.447123879080508}, {"id": 8071597564, "lat": 51.147946, "lon": 20.8819276, "way_id": 444764458, "landuse": "meadow", "closest_distance_restriction": 3.8415459702309294}, {"id": 8071597565, "lat": 51.1483188, "lon": 20.8813382, "way_id": 444764458, "landuse": "meadow", "closest_distance_restriction": 3.786699515317713}, {"id": 8071597566, "lat": 51.1475643, "lon": 20.8805966, "way_id": 444764458, "landuse": "meadow", "closest_distance_restriction": 3.8423684125764104}, {"id": 8071597567, "lat": 51.1471677, "lon": 20.8812384, "way_id": 444764458, "landuse": "meadow", "closest_distance_restriction": 3.900669980443318}, {"id": 8071597649, "lat": 51.1433565, "lon": 20.8850365, "way_id": 444764458, "landuse": "meadow", "closest_distance_restriction": 4.395793366738105}, {"id": 8071597650, "lat": 51.1434102, "lon": 20.8836485, "way_id": 444764458, "landuse": "meadow", "closest_distance_restriction": 4.350848840229215}, {"id": 8071597651, "lat": 51.1431329, "lon": 20.8836294, "way_id": 444764458, "landuse": "meadow", "closest_distance_restriction": 4.378613801196442}, {"id": 8071597652, "lat": 51.1423276, "lon": 20.8852647, "way_id": 444764458, "landuse": "meadow", "closest_distance_restriction": 4.506548654417633}, {"id": 8071597653, "lat": 51.1430792, "lon": 20.885317, "way_id": 444764458, "landuse": "meadow", "closest_distance_restriction": 4.431980334991951}, {"id": 8071597654, "lat": 51.1419787, "lon": 20.8854025, "way_id": 444764458, "landuse": "meadow", "closest_distance_restriction": 4.545880330610672}, {"id": 8071597655, "lat": 51.1420175, "lon": 20.8843615, "way_id": 444764458, "landuse": "meadow", "closest_distance_restriction": 4.5127268059894465}, {"id": 8071597656, "lat": 51.1415462, "lon": 20.884333, "way_id": 444764458, "landuse": "meadow", "closest_distance_restriction": 4.560128024024407}, {"id": 8071597657, "lat": 51.1415105, "lon": 20.8852314, "way_id": 444764458, "landuse": "meadow", "closest_distance_restriction": 4.58863164908853}, {"id": 8071597658, "lat": 51.1400878, "lon": 20.8834536, "way_id": 444764458, "landuse": "meadow", "closest_distance_restriction": 4.686927297138723}, {"id": 8071597659, "lat": 51.1409289, "lon": 20.8835296, "way_id": 444764458, "landuse": "meadow", "closest_distance_restriction": 4.602056017626642}, {"id": 8071597660, "lat": 51.1408603, "lon": 20.8852266, "way_id": 444764458, "landuse": "meadow", "closest_distance_restriction": 4.654782127920502}, {"id": 8071597661, "lat": 51.1423187, "lon": 20.8854073, "way_id": 444764458, "landuse": "meadow", "closest_distance_restriction": 4.511539029145404}, {"id": 8071597662, "lat": 51.1435474, "lon": 20.8850413, "way_id": 444764458, "landuse": "meadow", "closest_distance_restriction": 4.376646963099333}, {"id": 8071597663, "lat": 51.1439589, "lon": 20.884428, "way_id": 444764458, "landuse": "meadow", "closest_distance_restriction": 4.317225664817407}, {"id": 8071597664, "lat": 51.1440007, "lon": 20.8836342, "way_id": 444764458, "landuse": "meadow", "closest_distance_restriction": 4.2903137032006935}, {"id": 8071597665, "lat": 51.1448566, "lon": 20.8849129, "way_id": 444764458, "landuse": "meadow", "closest_distance_restriction": 4.241023279622228}]}