{"nodes": [{"id": 317680626, "lat": 50.9737014, "lon": 17.1478778, "way_id": 268866517, "landuse": "farmland", "closest_distance_restriction": 1.6542278243978428}, {"id": 967158776, "lat": 50.993889, "lon": 17.1521433, "way_id": 529713510, "landuse": "farmland", "closest_distance_restriction": 2.6670436639498}, {"id": 967158922, "lat": 50.9742582, "lon": 17.1505134, "way_id": 529713510, "landuse": "farmland", "closest_distance_restriction": 1.597555946278417}, {"id": 967159202, "lat": 50.9914615, "lon": 17.1506399, "way_id": 529713510, "landuse": "farmland", "closest_distance_restriction": 2.832451191862739}, {"id": 967159245, "lat": 50.9848855, "lon": 17.1355377, "way_id": 529713510, "landuse": "farmland", "closest_distance_restriction": 3.1665909179646117}, {"id": 967159305, "lat": 50.9907361, "lon": 17.1542442, "way_id": 529713510, "landuse": "farmland", "closest_distance_restriction": 2.6162190218869354}, {"id": 967159526, "lat": 50.9852062, "lon": 17.1352715, "way_id": 529713510, "landuse": "farmland", "closest_distance_restriction": 3.2063079169493545}, {"id": 967159985, "lat": 50.9857547, "lon": 17.1354227, "way_id": 529713510, "landuse": "farmland", "closest_distance_restriction": 3.249165278371098}, {"id": 967160342, "lat": 50.9919609, "lon": 17.1479455, "way_id": 529713510, "landuse": "farmland", "closest_distance_restriction": 3.000333160092085}, {"id": 968777917, "lat": 50.8481252, "lon": 17.2498089, "way_id": 267381173, "landuse": "farmland", "closest_distance_restriction": 1.6605818317548517}, {"id": 1544126931, "lat": 50.984994, "lon": 17.1338906, "way_id": 529713510, "landuse": "farmland", "closest_distance_restriction": 3.24650988459345}, {"id": 1544126932, "lat": 50.9852361, "lon": 17.1334941, "way_id": 529713510, "landuse": "farmland", "closest_distance_restriction": 3.284846947512352}, {"id": 1544126971, "lat": 50.9871799, "lon": 17.1274861, "way_id": 529713510, "landuse": "farmland", "closest_distance_restriction": 3.7207255955068232}, {"id": 1544126973, "lat": 50.9860988, "lon": 17.129378, "way_id": 529713510, "landuse": "farmland", "closest_distance_restriction": 3.543013373611711}, {"id": 1544126974, "lat": 50.9856851, "lon": 17.1301534, "way_id": 529713510, "landuse": "farmland", "closest_distance_restriction": 3.472678508252126}, {"id": 1544126976, "lat": 50.9852727, "lon": 17.1308635, "way_id": 529713510, "landuse": "farmland", "closest_distance_restriction": 3.4054735575363626}, {"id": 1544126977, "lat": 50.9849139, "lon": 17.1317372, "way_id": 529713510, "landuse": "farmland", "closest_distance_restriction": 3.335360203466145}, {"id": 1544199993, "lat": 50.9923412, "lon": 17.1471551, "way_id": 529713510, "landuse": "farmland", "closest_distance_restriction": 3.044307703113614}, {"id": 1544199996, "lat": 50.9920629, "lon": 17.1476514, "way_id": 529713510, "landuse": "farmland", "closest_distance_restriction": 3.0176166571105494}, {"id": 1544199999, "lat": 50.9916955, "lon": 17.1499071, "way_id": 529713510, "landuse": "farmland", "closest_distance_restriction": 2.874872425688092}, {"id": 1544200001, "lat": 50.9921066, "lon": 17.14841, "way_id": 529713510, "landuse": "farmland", "closest_distance_restriction": 2.9648861963962316}, {"id": 1544200004, "lat": 50.9921119, "lon": 17.1487935, "way_id": 529713510, "landuse": "farmland", "closest_distance_restriction": 2.938685517466068}, {"id": 1544200006, "lat": 50.9922968, "lon": 17.1490081, "way_id": 529713510, "landuse": "farmland", "closest_distance_restriction": 2.9192080883665246}, {"id": 1544200008, "lat": 50.9924843, "lon": 17.149639, "way_id": 529713510, "landuse": "farmland", "closest_distance_restriction": 2.871405872312443}, {"id": 1544200022, "lat": 50.9920146, "lon": 17.1501384, "way_id": 529713510, "landuse": "farmland", "closest_distance_restriction": 2.850113649685929}, {"id": 1544200024, "lat": 50.9924502, "lon": 17.1498588, "way_id": 529713510, "landuse": "farmland", "closest_distance_restriction": 2.8573286521893473}, {"id": 1544200028, "lat": 50.9911914, "lon": 17.1518145, "way_id": 529713510, "landuse": "farmland", "closest_distance_restriction": 2.7621496781652324}, {"id": 1544200033, "lat": 50.9909749, "lon": 17.1527505, "way_id": 529713510, "landuse": "farmland", "closest_distance_restriction": 2.7068901635973615}, {"id": 1544200036, "lat": 50.9912506, "lon": 17.152971, "way_id": 529713510, "landuse": "farmland", "closest_distance_restriction": 2.6828833864722474}, {"id": 1544200039, "lat": 50.9911602, "lon": 17.1549519, "way_id": 529713510, "landuse": "farmland", "closest_distance_restriction": 2.5540998115934457}, {"id": 1544200042, "lat": 50.9917316, "lon": 17.1534824, "way_id": 529713510, "landuse": "farmland", "closest_distance_restriction": 2.63304270709081}, {"id": 1544200053, "lat": 50.9915674, "lon": 17.1539165, "way_id": 529713510, "landuse": "farmland", "closest_distance_restriction": 2.6092381791464807}, {"id": 1544200055, "lat": 50.9928487, "lon": 17.1533552, "way_id": 529713510, "landuse": "farmland", "closest_distance_restriction": 2.609087188129007}, {"id": 1544200056, "lat": 50.993434, "lon": 17.1517636, "way_id": 529713510, "landuse": "farmland", "closest_distance_restriction": 2.7031525327827373}, {"id": 1544200060, "lat": 50.992363, "lon": 17.1531713, "way_id": 529713510, "landuse": "farmland", "closest_distance_restriction": 2.6349754668522274}, {"id": 1544200062, "lat": 50.992135, "lon": 17.1535834, "way_id": 529713510, "landuse": "farmland", "closest_distance_restriction": 2.61383031743566}, {"id": 1544200065, "lat": 50.9920616, "lon": 17.1537203, "way_id": 529713510, "landuse": "farmland", "closest_distance_restriction": 2.606821881986458}, {"id": 1544200066, "lat": 50.9925336, "lon": 17.1538428, "way_id": 529713510, "landuse": "farmland", "closest_distance_restriction": 2.5846854285387475}, {"id": 1544200069, "lat": 50.9922664, "lon": 17.154396, "way_id": 529713510, "landuse": "farmland", "closest_distance_restriction": 2.5551239390210547}, {"id": 1544200093, "lat": 50.991944, "lon": 17.1541752, "way_id": 529713510, "landuse": "farmland", "closest_distance_restriction": 2.5798546274524776}, {"id": 1544279737, "lat": 50.972825, "lon": 17.1473631, "way_id": 268866517, "landuse": "farmland", "closest_distance_restriction": 1.6032301861367173}, {"id": 1544279746, "lat": 50.973848, "lon": 17.1481163, "way_id": 529713510, "landuse": "farmland", "closest_distance_restriction": 1.6566595488504068}, {"id": 1544279749, "lat": 50.9740021, "lon": 17.147836, "way_id": 529713510, "landuse": "farmland", "closest_distance_restriction": 1.6822459297292665}, {"id": 1544279755, "lat": 50.9741674, "lon": 17.1475753, "way_id": 529713510, "landuse": "farmland", "closest_distance_restriction": 1.7079755490799922}, {"id": 1544279757, "lat": 50.9744479, "lon": 17.1475025, "way_id": 529713510, "landuse": "farmland", "closest_distance_restriction": 1.7357067834345306}, {"id": 1544279760, "lat": 50.9747056, "lon": 17.1474632, "way_id": 529713510, "landuse": "farmland", "closest_distance_restriction": 1.7601308003439906}, {"id": 1544279764, "lat": 50.9743044, "lon": 17.1487342, "way_id": 529713510, "landuse": "farmland", "closest_distance_restriction": 1.6713761529080917}, {"id": 1544279768, "lat": 50.9742001, "lon": 17.1490556, "way_id": 529713510, "landuse": "farmland", "closest_distance_restriction": 1.648869364768697}, {"id": 1544279771, "lat": 50.9746175, "lon": 17.1494002, "way_id": 529713510, "landuse": "farmland", "closest_distance_restriction": 1.6734641600177307}, {"id": 1544279773, "lat": 50.9744796, "lon": 17.1498776, "way_id": 529713510, "landuse": "farmland", "closest_distance_restriction": 1.64227703512581}, {"id": 1544279775, "lat": 50.9735564, "lon": 17.149205, "way_id": 529713510, "landuse": "farmland", "closest_distance_restriction": 1.5847402418689356}, {"id": 1544279778, "lat": 50.9734513, "lon": 17.1494372, "way_id": 529713510, "landuse": "farmland", "closest_distance_restriction": 1.5656902573215776}, {"id": 1544279780, "lat": 50.9743534, "lon": 17.1502105, "way_id": 529713510, "landuse": "farmland", "closest_distance_restriction": 1.6178532976607425}, {"id": 1544279805, "lat": 50.9741854, "lon": 17.1507444, "way_id": 529713510, "landuse": "farmland", "closest_distance_restriction": 1.582121606426684}, {"id": 1544279892, "lat": 50.9738251, "lon": 17.1481372, "way_id": 529713510, "landuse": "farmland", "closest_distance_restriction": 1.653751580567654}, {"id": 1545596492, "lat": 50.8563751, "lon": 17.2389943, "way_id": 267382668, "landuse": "farmland", "closest_distance_restriction": 1.6796245759511752}, {"id": 1545596500, "lat": 50.8536849, "lon": 17.2429382, "way_id": 267382668, "landuse": "farmland", "closest_distance_restriction": 1.7536839233248787}, {"id": 1546271166, "lat": 50.9765535, "lon": 17.1240902, "way_id": 529713510, "landuse": "farmland", "closest_distance_restriction": 2.845184213958387}, {"id": 1546271168, "lat": 50.977716, "lon": 17.124307, "way_id": 529713510, "landuse": "farmland", "closest_distance_restriction": 2.9752016401788572}, {"id": 1546271169, "lat": 50.9777707, "lon": 17.1236823, "way_id": 529713510, "landuse": "farmland", "closest_distance_restriction": 2.9745045835028225}, {"id": 1546271170, "lat": 50.9778983, "lon": 17.1223071, "way_id": 529713510, "landuse": "farmland", "closest_distance_restriction": 2.97607471163767}, {"id": 1557506040, "lat": 50.8701976, "lon": 17.0658869, "way_id": 382462143, "landuse": "farmland", "closest_distance_restriction": 2.1756197924105387}, {"id": 1557506042, "lat": 50.8701688, "lon": 17.0667988, "way_id": 382462143, "landuse": "farmland", "closest_distance_restriction": 2.1220689355514106}, {"id": 1557506043, "lat": 50.8710661, "lon": 17.0678375, "way_id": 382462143, "landuse": "farmland", "closest_distance_restriction": 2.0088602907398068}, {"id": 1557506044, "lat": 50.8709039, "lon": 17.0695887, "way_id": 382462143, "landuse": "farmland", "closest_distance_restriction": 1.9123506109224189}, {"id": 1557506045, "lat": 50.8701198, "lon": 17.0687865, "way_id": 382462143, "landuse": "farmland", "closest_distance_restriction": 2.0066411167867924}, {"id": 1557506071, "lat": 50.8673162, "lon": 17.070483, "way_id": 382462143, "landuse": "farmland", "closest_distance_restriction": 2.1025193041094323}, {"id": 1557506072, "lat": 50.867081, "lon": 17.071332, "way_id": 382462143, "landuse": "farmland", "closest_distance_restriction": 2.0765973646082605}, {"id": 1557506075, "lat": 50.866901, "lon": 17.0726622, "way_id": 382462143, "landuse": "farmland", "closest_distance_restriction": 2.024397137291723}, {"id": 1557506077, "lat": 50.867305, "lon": 17.0735289, "way_id": 382462143, "landuse": "farmland", "closest_distance_restriction": 1.949843851970532}, {"id": 1557506078, "lat": 50.8667588, "lon": 17.0733815, "way_id": 382462143, "landuse": "farmland", "closest_distance_restriction": 2.0011617669398407}, {"id": 1557506081, "lat": 50.8667117, "lon": 17.0739748, "way_id": 382462143, "landuse": "farmland", "closest_distance_restriction": 1.9770266488312307}, {"id": 1557506082, "lat": 50.8666422, "lon": 17.0741195, "way_id": 382462143, "landuse": "farmland", "closest_distance_restriction": 1.9760641135843118}, {"id": 1557506084, "lat": 50.8667615, "lon": 17.0744329, "way_id": 382462143, "landuse": "farmland", "closest_distance_restriction": 1.9515821351644544}, {"id": 1557506093, "lat": 50.8675571, "lon": 17.0742003, "way_id": 382462143, "landuse": "farmland", "closest_distance_restriction": 1.8970664418418257}, {"id": 1557506094, "lat": 50.8679146, "lon": 17.0749931, "way_id": 382462143, "landuse": "farmland", "closest_distance_restriction": 1.8300231678037597}, {"id": 1557506095, "lat": 50.8670158, "lon": 17.075453, "way_id": 382462143, "landuse": "farmland", "closest_distance_restriction": 1.8834893161491628}, {"id": 1577916510, "lat": 50.9324069, "lon": 17.0804771, "way_id": 269170684, "landuse": "farmland", "closest_distance_restriction": 1.7501519039714215}, {"id": 1577916519, "lat": 50.9323704, "lon": 17.0797872, "way_id": 269170684, "landuse": "farmland", "closest_distance_restriction": 1.775005784258886}, {"id": 1577916520, "lat": 50.9315117, "lon": 17.0796071, "way_id": 269170684, "landuse": "farmland", "closest_distance_restriction": 1.7068151612839857}, {"id": 1577916521, "lat": 50.9315087, "lon": 17.0790183, "way_id": 269170684, "landuse": "farmland", "closest_distance_restriction": 1.7325616514413595}, {"id": 1577916522, "lat": 50.9323346, "lon": 17.07904, "way_id": 269170684, "landuse": "farmland", "closest_distance_restriction": 1.8033392225501372}, {"id": 1577916523, "lat": 50.9322848, "lon": 17.0778327, "way_id": 269170684, "landuse": "farmland", "closest_distance_restriction": 1.852039550135202}, {"id": 1577916524, "lat": 50.9318844, "lon": 17.0777461, "way_id": 269170684, "landuse": "farmland", "closest_distance_restriction": 1.8220686239915447}, {"id": 1577916526, "lat": 50.9318425, "lon": 17.0781886, "way_id": 269170684, "landuse": "farmland", "closest_distance_restriction": 1.7983494150559878}, {"id": 1577916528, "lat": 50.9312777, "lon": 17.0781303, "way_id": 269170684, "landuse": "farmland", "closest_distance_restriction": 1.7536215704122624}, {"id": 1577916530, "lat": 50.9313451, "lon": 17.0767169, "way_id": 269170684, "landuse": "farmland", "closest_distance_restriction": 1.8264193910825017}, {"id": 1577916537, "lat": 50.9323126, "lon": 17.076887, "way_id": 269170684, "landuse": "farmland", "closest_distance_restriction": 1.8975370406538736}, {"id": 1577916538, "lat": 50.9320477, "lon": 17.0761207, "way_id": 269170684, "landuse": "farmland", "closest_distance_restriction": 1.911847683310047}, {"id": 1577916539, "lat": 50.9307154, "lon": 17.0760259, "way_id": 269170684, "landuse": "farmland", "closest_distance_restriction": 1.8114254812237933}, {"id": 1577916542, "lat": 50.9307215, "lon": 17.0754376, "way_id": 269170684, "landuse": "farmland", "closest_distance_restriction": 1.8420153827557113}, {"id": 1577916544, "lat": 50.9307692, "lon": 17.0746237, "way_id": 269170684, "landuse": "farmland", "closest_distance_restriction": 1.8878987371472042}, {"id": 1577916546, "lat": 50.9307753, "lon": 17.0744945, "way_id": 269170684, "landuse": "farmland", "closest_distance_restriction": 1.8951312152659066}, {"id": 1577916547, "lat": 50.9317024, "lon": 17.0746596, "way_id": 269170684, "landuse": "farmland", "closest_distance_restriction": 1.9564731221799527}, {"id": 1577916549, "lat": 50.9318657, "lon": 17.0746793, "way_id": 269170684, "landuse": "farmland", "closest_distance_restriction": 1.9681168691393995}, {"id": 1577916551, "lat": 50.9319206, "lon": 17.0740051, "way_id": 269170684, "landuse": "farmland", "closest_distance_restriction": 2.006400362980888}, {"id": 1577916556, "lat": 50.9324293, "lon": 17.0740713, "way_id": 269170684, "landuse": "farmland", "closest_distance_restriction": 2.0424360721601547}, {"id": 1583782929, "lat": 50.9937919, "lon": 17.1626227, "way_id": 529713510, "landuse": "farmland", "closest_distance_restriction": 1.9549588286041304}, {"id": 1583782934, "lat": 50.993656, "lon": 17.1622544, "way_id": 529713510, "landuse": "farmland", "closest_distance_restriction": 1.9838386640230823}, {"id": 1583782937, "lat": 50.9961884, "lon": 17.1596571, "way_id": 529713510, "landuse": "farmland", "closest_distance_restriction": 2.1074622734435935}, {"id": 1583782938, "lat": 50.994029, "lon": 17.1621586, "way_id": 529713510, "landuse": "farmland", "closest_distance_restriction": 1.9795592877174868}, {"id": 1583782940, "lat": 50.9946558, "lon": 17.162233, "way_id": 529713510, "landuse": "farmland", "closest_distance_restriction": 1.9582744696647836}, {"id": 1583782942, "lat": 50.9961309, "lon": 17.1596771, "way_id": 529713510, "landuse": "farmland", "closest_distance_restriction": 2.1068505553601327}, {"id": 1583782945, "lat": 50.9959396, "lon": 17.1599849, "way_id": 529713510, "landuse": "farmland", "closest_distance_restriction": 2.088228365215379}, {"id": 1583782948, "lat": 50.9956744, "lon": 17.1604251, "way_id": 529713510, "landuse": "farmland", "closest_distance_restriction": 2.0619351603468585}, {"id": 1583782960, "lat": 50.9935457, "lon": 17.1628149, "way_id": 529713510, "landuse": "farmland", "closest_distance_restriction": 1.949495410588064}, {"id": 1583782962, "lat": 50.9932872, "lon": 17.1621241, "way_id": 529713510, "landuse": "farmland", "closest_distance_restriction": 2.004013395028554}, {"id": 1583782966, "lat": 50.9947917, "lon": 17.1610628, "way_id": 529713510, "landuse": "farmland", "closest_distance_restriction": 2.0352253021866646}, {"id": 1583783081, "lat": 50.9981853, "lon": 17.1657597, "way_id": 529713510, "landuse": "farmland", "closest_distance_restriction": 1.6654424333763347}, {"id": 1583783082, "lat": 50.9978914, "lon": 17.1662406, "way_id": 529713510, "landuse": "farmland", "closest_distance_restriction": 1.632739722096727}, {"id": 1583783108, "lat": 50.9960785, "lon": 17.1670373, "way_id": 529713510, "landuse": "farmland", "closest_distance_restriction": 1.5978942082444232}, {"id": 1583783109, "lat": 50.9958657, "lon": 17.1668399, "way_id": 529713510, "landuse": "farmland", "closest_distance_restriction": 1.6155801883998318}, {"id": 1583783112, "lat": 50.9945593, "lon": 17.1666258, "way_id": 529713510, "landuse": "farmland", "closest_distance_restriction": 1.662214074277159}, {"id": 1583783114, "lat": 50.99446, "lon": 17.1667877, "way_id": 529713510, "landuse": "farmland", "closest_distance_restriction": 1.6542157065193077}, {"id": 1583783115, "lat": 50.9939003, "lon": 17.1660214, "way_id": 529713510, "landuse": "farmland", "closest_distance_restriction": 1.7232144072843096}, {"id": 1583783117, "lat": 50.9943135, "lon": 17.165294, "way_id": 529713510, "landuse": "farmland", "closest_distance_restriction": 1.7593253009471526}, {"id": 1583783119, "lat": 50.9944512, "lon": 17.1655719, "way_id": 529713510, "landuse": "farmland", "closest_distance_restriction": 1.736568447947084}, {"id": 1583783131, "lat": 50.9948317, "lon": 17.1650693, "way_id": 529713510, "landuse": "farmland", "closest_distance_restriction": 1.7604025548901385}, {"id": 1583783133, "lat": 50.9952399, "lon": 17.1646131, "way_id": 529713510, "landuse": "farmland", "closest_distance_restriction": 1.7818118485712173}, {"id": 1583783135, "lat": 50.9959121, "lon": 17.1637847, "way_id": 529713510, "landuse": "farmland", "closest_distance_restriction": 1.8255409951274983}, {"id": 1583783136, "lat": 50.9952042, "lon": 17.1626884, "way_id": 529713510, "landuse": "farmland", "closest_distance_restriction": 1.9146967243102166}, {"id": 2323315857, "lat": 50.9083898, "lon": 17.0639186, "way_id": 382246055, "landuse": "farmland", "closest_distance_restriction": 1.5936883355554397}, {"id": 2323934963, "lat": 50.8578071, "lon": 17.0940315, "way_id": 269177076, "landuse": "farmland", "closest_distance_restriction": 1.840628321074138}, {"id": 2323934965, "lat": 50.8586359, "lon": 17.0958506, "way_id": 269177076, "landuse": "farmland", "closest_distance_restriction": 1.6879851245210797}, {"id": 2323934966, "lat": 50.8589212, "lon": 17.0941488, "way_id": 269177076, "landuse": "farmland", "closest_distance_restriction": 1.742760332035891}, {"id": 2323934967, "lat": 50.8588884, "lon": 17.0952535, "way_id": 269177076, "landuse": "farmland", "closest_distance_restriction": 1.6935626412510931}, {"id": 2323934969, "lat": 50.8592191, "lon": 17.0960553, "way_id": 269177076, "landuse": "farmland", "closest_distance_restriction": 1.6289867430153413}, {"id": 2323934971, "lat": 50.8593681, "lon": 17.0954016, "way_id": 269177076, "landuse": "farmland", "closest_distance_restriction": 1.6467178608956279}, {"id": 2323934972, "lat": 50.8592302, "lon": 17.0933179, "way_id": 269177076, "landuse": "farmland", "closest_distance_restriction": 1.758667391513641}, {"id": 2323934973, "lat": 50.8602931, "lon": 17.0936247, "way_id": 269177076, "landuse": "farmland", "closest_distance_restriction": 1.6603562672248193}, {"id": 2324214489, "lat": 50.844222, "lon": 17.1601262, "way_id": 269181042, "landuse": "farmland", "closest_distance_restriction": 2.007644443348646}, {"id": 2324214507, "lat": 50.8450473, "lon": 17.1615736, "way_id": 269181042, "landuse": "farmland", "closest_distance_restriction": 1.9789731156675838}, {"id": 2324214510, "lat": 50.8450567, "lon": 17.1602805, "way_id": 269181042, "landuse": "farmland", "closest_distance_restriction": 1.9315875515359864}, {"id": 2324214526, "lat": 50.8457323, "lon": 17.1619154, "way_id": 269181042, "landuse": "farmland", "closest_distance_restriction": 1.9279724655589776}, {"id": 2324214531, "lat": 50.8458919, "lon": 17.1613506, "way_id": 269181042, "landuse": "farmland", "closest_distance_restriction": 1.8913353248786924}, {"id": 2324214546, "lat": 50.8461922, "lon": 17.1614844, "way_id": 269181042, "landuse": "farmland", "closest_distance_restriction": 1.868642297734627}, {"id": 2324214549, "lat": 50.8462579, "lon": 17.1604886, "way_id": 269181042, "landuse": "farmland", "closest_distance_restriction": 1.8244505366688604}, {"id": 2324214567, "lat": 50.8470756, "lon": 17.1619005, "way_id": 269181042, "landuse": "farmland", "closest_distance_restriction": 1.8050338462673703}, {"id": 2324214570, "lat": 50.8472017, "lon": 17.1606499, "way_id": 269181042, "landuse": "farmland", "closest_distance_restriction": 1.7428324578961825}, {"id": 2324214582, "lat": 50.8477723, "lon": 17.1620056, "way_id": 269181042, "landuse": "farmland", "closest_distance_restriction": 1.747768707794472}, {"id": 2324214606, "lat": 50.8489041, "lon": 17.162495, "way_id": 269181042, "landuse": "farmland", "closest_distance_restriction": 1.6730881909907405}, {"id": 2324214646, "lat": 50.8506034, "lon": 17.1865019, "way_id": 269419296, "landuse": "farmland", "closest_distance_restriction": 1.6696906766470432}, {"id": 2324214652, "lat": 50.8507439, "lon": 17.1867871, "way_id": 269419296, "landuse": "farmland", "closest_distance_restriction": 1.651859579693977}, {"id": 2324214673, "lat": 50.8511303, "lon": 17.1868427, "way_id": 269419296, "landuse": "farmland", "closest_distance_restriction": 1.608725543576301}, {"id": 2324214677, "lat": 50.8511786, "lon": 17.1873852, "way_id": 269419296, "landuse": "farmland", "closest_distance_restriction": 1.5996087438350106}, {"id": 2324214687, "lat": 50.851341, "lon": 17.187413, "way_id": 269419296, "landuse": "farmland", "closest_distance_restriction": 1.5814492454130848}, {"id": 2324605306, "lat": 50.9057408, "lon": 17.3876177, "way_id": 231088568, "landuse": "farmland", "closest_distance_restriction": 2.2624268125325524}, {"id": 2324605309, "lat": 50.9067913, "lon": 17.3861545, "way_id": 268737695, "landuse": "farmland", "closest_distance_restriction": 2.3090549452650064}, {"id": 2324605311, "lat": 50.9074167, "lon": 17.3935541, "way_id": 231088568, "landuse": "farmland", "closest_distance_restriction": 2.6574420374188725}, {"id": 2324605312, "lat": 50.9078883, "lon": 17.3982925, "way_id": 231088568, "landuse": "farmland", "closest_distance_restriction": 2.9140350938509867}, {"id": 2324605314, "lat": 50.9083197, "lon": 17.3912954, "way_id": 231088568, "landuse": "farmland", "closest_distance_restriction": 2.644164638427746}, {"id": 2324605315, "lat": 50.9085931, "lon": 17.395112, "way_id": 231088568, "landuse": "farmland", "closest_distance_restriction": 2.8278142194927134}, {"id": 2324605316, "lat": 50.9091391, "lon": 17.3880383, "way_id": 268737695, "landuse": "farmland", "closest_distance_restriction": 2.601369846359083}, {"id": 2324605325, "lat": 50.9130733, "lon": 17.3785804, "way_id": 268737695, "landuse": "farmland", "closest_distance_restriction": 2.100461849574772}, {"id": 2324605329, "lat": 50.9145073, "lon": 17.3800449, "way_id": 268737695, "landuse": "farmland", "closest_distance_restriction": 2.1893309901373064}, {"id": 2373554721, "lat": 50.9875933, "lon": 17.3062744, "way_id": 228690493, "landuse": "farmland", "closest_distance_restriction": 1.6806368232185784}, {"id": 2373554730, "lat": 50.9886516, "lon": 17.3059986, "way_id": 228690493, "landuse": "farmland", "closest_distance_restriction": 1.6242987920312284}, {"id": 2373554734, "lat": 50.987465, "lon": 17.3049654, "way_id": 228690493, "landuse": "farmland", "closest_distance_restriction": 1.6002144808038181}, {"id": 2373554739, "lat": 50.9873144, "lon": 17.3068677, "way_id": 228690493, "landuse": "farmland", "closest_distance_restriction": 1.6834823812148363}, {"id": 2373554745, "lat": 50.9881248, "lon": 17.3060416, "way_id": 228690493, "landuse": "farmland", "closest_distance_restriction": 1.6452636470475182}, {"id": 2373554820, "lat": 50.988782, "lon": 17.3051049, "way_id": 228690493, "landuse": "farmland", "closest_distance_restriction": 1.560248197670425}, {"id": 2373554826, "lat": 50.9881451, "lon": 17.3048721, "way_id": 228690493, "landuse": "farmland", "closest_distance_restriction": 1.567301960296252}, {"id": 2373554832, "lat": 50.9859839, "lon": 17.3071144, "way_id": 228690493, "landuse": "farmland", "closest_distance_restriction": 1.5608285482260527}, {"id": 2373554835, "lat": 50.9873907, "lon": 17.3064353, "way_id": 228690493, "landuse": "farmland", "closest_distance_restriction": 1.6778846709080766}, {"id": 2374676907, "lat": 50.9258784, "lon": 17.3663308, "way_id": 228793430, "landuse": "farmland", "closest_distance_restriction": 1.6328673542679906}, {"id": 2394975717, "lat": 50.8767436, "lon": 17.4145478, "way_id": 231088568, "landuse": "farmland", "closest_distance_restriction": 3.1032945142616524}, {"id": 2394975718, "lat": 50.8769116, "lon": 17.4153001, "way_id": 231088568, "landuse": "farmland", "closest_distance_restriction": 3.147011494652876}, {"id": 2394975719, "lat": 50.8774744, "lon": 17.4153649, "way_id": 231088568, "landuse": "farmland", "closest_distance_restriction": 3.131672983137399}, {"id": 2394975720, "lat": 50.877493, "lon": 17.4133559, "way_id": 231088568, "landuse": "farmland", "closest_distance_restriction": 2.997076577752264}, {"id": 2394975722, "lat": 50.8782477, "lon": 17.4121217, "way_id": 231088568, "landuse": "farmland", "closest_distance_restriction": 2.8887713664911727}, {"id": 2394975723, "lat": 50.878432, "lon": 17.4155917, "way_id": 231088568, "landuse": "farmland", "closest_distance_restriction": 3.116179819743569}, {"id": 2394975726, "lat": 50.8788957, "lon": 17.4110312, "way_id": 231088568, "landuse": "farmland", "closest_distance_restriction": 2.7945114813295655}, {"id": 2394975727, "lat": 50.8790721, "lon": 17.4157015, "way_id": 231088568, "landuse": "farmland", "closest_distance_restriction": 3.105020927185059}, {"id": 2394975728, "lat": 50.8792744, "lon": 17.4103592, "way_id": 231088568, "landuse": "farmland", "closest_distance_restriction": 2.73745051855669}, {"id": 2394975730, "lat": 50.8796988, "lon": 17.415896, "way_id": 231088568, "landuse": "farmland", "closest_distance_restriction": 3.1016034115406756}, {"id": 2394975732, "lat": 50.8798496, "lon": 17.3954474, "way_id": 268751385, "landuse": "farmland", "closest_distance_restriction": 1.7290229567721498}, {"id": 2394975733, "lat": 50.8798425, "lon": 17.4094758, "way_id": 231088568, "landuse": "farmland", "closest_distance_restriction": 2.660822753126058}, {"id": 2394975736, "lat": 50.8801483, "lon": 17.3959983, "way_id": 268751683, "landuse": "farmland", "closest_distance_restriction": 1.7518295969791975}, {"id": 2394975737, "lat": 50.8801764, "lon": 17.3963884, "way_id": 268751683, "landuse": "farmland", "closest_distance_restriction": 1.7760793437452538}, {"id": 2394975738, "lat": 50.8801458, "lon": 17.4089949, "way_id": 231088568, "landuse": "farmland", "closest_distance_restriction": 2.6195898718881807}, {"id": 2394975740, "lat": 50.8801671, "lon": 17.4160212, "way_id": 231088568, "landuse": "farmland", "closest_distance_restriction": 3.098727953786811}, {"id": 2394975741, "lat": 50.8802013, "lon": 17.3958874, "way_id": 268751683, "landuse": "farmland", "closest_distance_restriction": 1.7424090189323422}, {"id": 2394975742, "lat": 50.8802784, "lon": 17.3971538, "way_id": 268751683, "landuse": "farmland", "closest_distance_restriction": 1.8220870562433114}, {"id": 2394975745, "lat": 50.8802638, "lon": 17.3977208, "way_id": 268751683, "landuse": "farmland", "closest_distance_restriction": 1.8599270772757186}, {"id": 2394975751, "lat": 50.88065, "lon": 17.3974354, "way_id": 268751683, "landuse": "farmland", "closest_distance_restriction": 1.8265790108378939}, {"id": 2394975764, "lat": 50.8807839, "lon": 17.3959294, "way_id": 268751683, "landuse": "farmland", "closest_distance_restriction": 1.722031002783681}, {"id": 2394975765, "lat": 50.8807982, "lon": 17.4079788, "way_id": 231088568, "landuse": "farmland", "closest_distance_restriction": 2.5329200089972996}, {"id": 2394975766, "lat": 50.8808889, "lon": 17.3971121, "way_id": 268751683, "landuse": "farmland", "closest_distance_restriction": 1.7965061021533653}, {"id": 2394975767, "lat": 50.8808708, "lon": 17.3963786, "way_id": 268751683, "landuse": "farmland", "closest_distance_restriction": 1.7484875549729193}, {"id": 2394975769, "lat": 50.8809436, "lon": 17.3967618, "way_id": 268751683, "landuse": "farmland", "closest_distance_restriction": 1.7712768015156195}, {"id": 2394975771, "lat": 50.8809382, "lon": 17.4163114, "way_id": 231088568, "landuse": "farmland", "closest_distance_restriction": 3.1017463160278758}, {"id": 2394975785, "lat": 50.8811969, "lon": 17.4165185, "way_id": 231088568, "landuse": "farmland", "closest_distance_restriction": 3.1109002321852763}, {"id": 2394975790, "lat": 50.8812489, "lon": 17.4072406, "way_id": 231088568, "landuse": "farmland", "closest_distance_restriction": 2.47123289142518}, {"id": 2394975796, "lat": 50.8812849, "lon": 17.4165692, "way_id": 231088568, "landuse": "farmland", "closest_distance_restriction": 3.1127187835481003}, {"id": 2394975812, "lat": 50.8813676, "lon": 17.4166453, "way_id": 231088568, "landuse": "farmland", "closest_distance_restriction": 3.116426536443221}, {"id": 2394975828, "lat": 50.8816958, "lon": 17.4065711, "way_id": 231088568, "landuse": "farmland", "closest_distance_restriction": 2.414929088696612}, {"id": 2394975836, "lat": 50.8819889, "lon": 17.4162606, "way_id": 231088568, "landuse": "farmland", "closest_distance_restriction": 3.078907521429079}, {"id": 2394975840, "lat": 50.8821809, "lon": 17.4160705, "way_id": 231088568, "landuse": "farmland", "closest_distance_restriction": 3.0626366620339156}, {"id": 2394975849, "lat": 50.8829183, "lon": 17.4046756, "way_id": 231088568, "landuse": "farmland", "closest_distance_restriction": 2.2598716989200267}, {"id": 2394975854, "lat": 50.883457, "lon": 17.4038049, "way_id": 231088568, "landuse": "farmland", "closest_distance_restriction": 2.1908371070224644}, {"id": 2394975856, "lat": 50.8836589, "lon": 17.4034309, "way_id": 231088568, "landuse": "farmland", "closest_distance_restriction": 2.1619490775292243}, {"id": 2394975858, "lat": 50.8842221, "lon": 17.4024744, "way_id": 231088568, "landuse": "farmland", "closest_distance_restriction": 2.0883337457853686}, {"id": 2394975866, "lat": 50.8847575, "lon": 17.4015719, "way_id": 231088568, "landuse": "farmland", "closest_distance_restriction": 2.0202084366151576}, {"id": 2394975887, "lat": 50.8857044, "lon": 17.400071, "way_id": 231088568, "landuse": "farmland", "closest_distance_restriction": 1.9101552898046534}, {"id": 2394975906, "lat": 50.8859798, "lon": 17.3996099, "way_id": 231088568, "landuse": "farmland", "closest_distance_restriction": 1.8774293041037369}, {"id": 2394975928, "lat": 50.8864223, "lon": 17.39883, "way_id": 231088568, "landuse": "farmland", "closest_distance_restriction": 1.8231581032936393}, {"id": 2394975991, "lat": 50.887069, "lon": 17.3977558, "way_id": 231088568, "landuse": "farmland", "closest_distance_restriction": 1.7509809282809174}, {"id": 2395025936, "lat": 50.8824446, "lon": 17.4157559, "way_id": 231088568, "landuse": "farmland", "closest_distance_restriction": 3.0367666678281293}, {"id": 2395025939, "lat": 50.8825879, "lon": 17.4156283, "way_id": 231088568, "landuse": "farmland", "closest_distance_restriction": 3.025819494004421}, {"id": 2395025941, "lat": 50.8827312, "lon": 17.4159924, "way_id": 231088568, "landuse": "farmland", "closest_distance_restriction": 3.0491800685340893}, {"id": 2395025943, "lat": 50.8832259, "lon": 17.4171499, "way_id": 231088568, "landuse": "farmland", "closest_distance_restriction": 3.1237685933354506}, {"id": 2395025944, "lat": 50.8834673, "lon": 17.4225705, "way_id": 231088568, "landuse": "farmland", "closest_distance_restriction": 3.499993210794372}, {"id": 2395025946, "lat": 50.8834596, "lon": 17.4246744, "way_id": 231088568, "landuse": "farmland", "closest_distance_restriction": 3.6471731062424184}, {"id": 2395025948, "lat": 50.8834936, "lon": 17.421011, "way_id": 231088568, "landuse": "farmland", "closest_distance_restriction": 3.390726775287743}, {"id": 2395025950, "lat": 50.8835267, "lon": 17.4188634, "way_id": 231088568, "landuse": "farmland", "closest_distance_restriction": 3.2403045403672657}, {"id": 2395025952, "lat": 50.8835556, "lon": 17.417924, "way_id": 231088568, "landuse": "farmland", "closest_distance_restriction": 3.174374309759255}, {"id": 2395025958, "lat": 50.8837951, "lon": 17.4259851, "way_id": 231088568, "landuse": "farmland", "closest_distance_restriction": 3.736134287229698}, {"id": 2395025960, "lat": 50.8838442, "lon": 17.4254538, "way_id": 231088568, "landuse": "farmland", "closest_distance_restriction": 3.6985798920731807}, {"id": 2395025968, "lat": 50.8840304, "lon": 17.4294119, "way_id": 231088568, "landuse": "farmland", "closest_distance_restriction": 3.9744402913012307}, {"id": 2395025976, "lat": 50.8842584, "lon": 17.4254997, "way_id": 231088568, "landuse": "farmland", "closest_distance_restriction": 3.699006826344462}, {"id": 2395025978, "lat": 50.884278, "lon": 17.4246035, "way_id": 231088568, "landuse": "farmland", "closest_distance_restriction": 3.6361115212875856}, {"id": 2395025981, "lat": 50.8845329, "lon": 17.4276341, "way_id": 231088568, "landuse": "farmland", "closest_distance_restriction": 3.847053537248128}, {"id": 2395025984, "lat": 50.8846812, "lon": 17.426061, "way_id": 231088568, "landuse": "farmland", "closest_distance_restriction": 3.7360948233794398}, {"id": 2395025988, "lat": 50.8847134, "lon": 17.428721, "way_id": 231088568, "landuse": "farmland", "closest_distance_restriction": 3.9224068193611914}, {"id": 2395025994, "lat": 50.8847745, "lon": 17.4260895, "way_id": 231088568, "landuse": "farmland", "closest_distance_restriction": 3.737679912184538}, {"id": 2395025997, "lat": 50.8848577, "lon": 17.4263447, "way_id": 231088568, "landuse": "farmland", "closest_distance_restriction": 3.755227282912676}, {"id": 2395026001, "lat": 50.8852492, "lon": 17.425425, "way_id": 231088568, "landuse": "farmland", "closest_distance_restriction": 3.6894256500613105}, {"id": 2395026004, "lat": 50.8853103, "lon": 17.4269168, "way_id": 231088568, "landuse": "farmland", "closest_distance_restriction": 3.7938885966975513}, {"id": 2395026012, "lat": 50.8855684, "lon": 17.4276957, "way_id": 231088568, "landuse": "farmland", "closest_distance_restriction": 3.8479962683348066}, {"id": 2395026015, "lat": 50.8856101, "lon": 17.4265252, "way_id": 231088568, "landuse": "farmland", "closest_distance_restriction": 3.76582960660645}, {"id": 2395026034, "lat": 50.8860487, "lon": 17.4245933, "way_id": 231088568, "landuse": "farmland", "closest_distance_restriction": 3.6299699750621977}, {"id": 2395026055, "lat": 50.8866234, "lon": 17.4238673, "way_id": 231088568, "landuse": "farmland", "closest_distance_restriction": 3.5795828725868835}, {"id": 2395026058, "lat": 50.8866789, "lon": 17.4235812, "way_id": 231088568, "landuse": "farmland", "closest_distance_restriction": 3.559629864245986}, {"id": 2395026065, "lat": 50.8867951, "lon": 17.4220861, "way_id": 231088568, "landuse": "farmland", "closest_distance_restriction": 3.4550519556557693}, {"id": 2395026074, "lat": 50.8871877, "lon": 17.4217687, "way_id": 231088568, "landuse": "farmland", "closest_distance_restriction": 3.4341063677814248}, {"id": 2395026077, "lat": 50.8873565, "lon": 17.4215074, "way_id": 231088568, "landuse": "farmland", "closest_distance_restriction": 3.41652811979999}, {"id": 2395026162, "lat": 50.8882226, "lon": 17.3958282, "way_id": 231088568, "landuse": "farmland", "closest_distance_restriction": 1.6300519202199302}, {"id": 2395026182, "lat": 50.8884423, "lon": 17.422107, "way_id": 231088568, "landuse": "farmland", "closest_distance_restriction": 3.4656733906238086}, {"id": 2395026187, "lat": 50.9069247, "lon": 17.3972401, "way_id": 231088568, "landuse": "farmland", "closest_distance_restriction": 2.7853909889366246}, {"id": 2395026215, "lat": 50.8889347, "lon": 17.4201258, "way_id": 231088568, "landuse": "farmland", "closest_distance_restriction": 3.331926856830681}, {"id": 2395026238, "lat": 50.8893609, "lon": 17.4212295, "way_id": 231088568, "landuse": "farmland", "closest_distance_restriction": 3.413763111338576}, {"id": 2395026271, "lat": 50.8898776, "lon": 17.4253602, "way_id": 231088568, "landuse": "farmland", "closest_distance_restriction": 3.7080914018500457}, {"id": 2395026278, "lat": 50.8907842, "lon": 17.4245181, "way_id": 231088568, "landuse": "farmland", "closest_distance_restriction": 3.6625008627661644}, {"id": 2395026283, "lat": 50.8967158, "lon": 17.420132, "way_id": 231088568, "landuse": "farmland", "closest_distance_restriction": 3.5222134580638156}, {"id": 2395056985, "lat": 50.8917136, "lon": 17.4240635, "way_id": 231088568, "landuse": "farmland", "closest_distance_restriction": 3.6473201749625472}, {"id": 2395057011, "lat": 50.892695, "lon": 17.4232047, "way_id": 231088568, "landuse": "farmland", "closest_distance_restriction": 3.6087078295929964}, {"id": 2395057049, "lat": 50.893798, "lon": 17.4220161, "way_id": 231088568, "landuse": "farmland", "closest_distance_restriction": 3.554808909350181}, {"id": 2395057077, "lat": 50.8954624, "lon": 17.4215991, "way_id": 231088568, "landuse": "farmland", "closest_distance_restriction": 3.5760863676945474}, {"id": 2395057161, "lat": 50.8985646, "lon": 17.4179358, "way_id": 231088568, "landuse": "farmland", "closest_distance_restriction": 3.4550372335669324}, {"id": 2395057189, "lat": 50.8997491, "lon": 17.4165417, "way_id": 231088568, "landuse": "farmland", "closest_distance_restriction": 3.422276158945975}, {"id": 2395057220, "lat": 50.9008706, "lon": 17.4153289, "way_id": 231088568, "landuse": "farmland", "closest_distance_restriction": 3.404850471142067}, {"id": 2395057250, "lat": 50.9024787, "lon": 17.4131955, "way_id": 231088568, "landuse": "farmland", "closest_distance_restriction": 3.3681844733964343}, {"id": 2395057264, "lat": 50.9029864, "lon": 17.4121169, "way_id": 231088568, "landuse": "farmland", "closest_distance_restriction": 3.336398852521521}, {"id": 2395057277, "lat": 50.9037807, "lon": 17.4101094, "way_id": 231088568, "landuse": "farmland", "closest_distance_restriction": 3.2735440748155322}, {"id": 2395069539, "lat": 50.9015106, "lon": 17.3792202, "way_id": 231088568, "landuse": "farmland", "closest_distance_restriction": 1.564654791486455}, {"id": 2395069548, "lat": 50.9027659, "lon": 17.3809005, "way_id": 231088568, "landuse": "farmland", "closest_distance_restriction": 1.7411826315890377}, {"id": 2395069571, "lat": 50.903823, "lon": 17.3823672, "way_id": 231088568, "landuse": "farmland", "closest_distance_restriction": 1.8924030846635698}, {"id": 2395069585, "lat": 50.9044491, "lon": 17.4029389, "way_id": 231088568, "landuse": "farmland", "closest_distance_restriction": 2.899288969415138}, {"id": 2395069623, "lat": 50.9046284, "lon": 17.4046919, "way_id": 231088568, "landuse": "farmland", "closest_distance_restriction": 3.0098740873021526}, {"id": 2395069629, "lat": 50.9047856, "lon": 17.399247, "way_id": 231088568, "landuse": "farmland", "closest_distance_restriction": 2.72191254727347}, {"id": 2395069644, "lat": 50.9050019, "lon": 17.4035982, "way_id": 231088568, "landuse": "farmland", "closest_distance_restriction": 2.973332175484837}, {"id": 2395069651, "lat": 50.9051164, "lon": 17.4053592, "way_id": 231088568, "landuse": "farmland", "closest_distance_restriction": 3.0796777175425896}, {"id": 2395069653, "lat": 50.9051363, "lon": 17.3841397, "way_id": 231088568, "landuse": "farmland", "closest_distance_restriction": 2.079630919939467}, {"id": 2395069663, "lat": 50.9052956, "lon": 17.3982911, "way_id": 231088568, "landuse": "farmland", "closest_distance_restriction": 2.710029990847658}, {"id": 2395069676, "lat": 50.9054957, "lon": 17.3881667, "way_id": 231088568, "landuse": "farmland", "closest_distance_restriction": 2.2611286486916704}, {"id": 2395069680, "lat": 50.9055882, "lon": 17.388305, "way_id": 231088568, "landuse": "farmland", "closest_distance_restriction": 2.2750920903245166}, {"id": 2395069689, "lat": 50.9057956, "lon": 17.4004743, "way_id": 231088568, "landuse": "farmland", "closest_distance_restriction": 2.860714879598266}, {"id": 2395069722, "lat": 50.906486, "lon": 17.3859602, "way_id": 231088568, "landuse": "farmland", "closest_distance_restriction": 2.272796448052673}, {"id": 2395069727, "lat": 50.9065263, "lon": 17.3894867, "way_id": 231088568, "landuse": "farmland", "closest_distance_restriction": 2.407988575281947}, {"id": 2395069735, "lat": 50.9067207, "lon": 17.3889179, "way_id": 231088568, "landuse": "farmland", "closest_distance_restriction": 2.4035573903493312}, {"id": 2395069739, "lat": 50.9070341, "lon": 17.3972679, "way_id": 231088568, "landuse": "farmland", "closest_distance_restriction": 2.795586264386482}, {"id": 2395069756, "lat": 50.9074988, "lon": 17.3936701, "way_id": 231088568, "landuse": "farmland", "closest_distance_restriction": 2.669649353606555}, {"id": 2395069758, "lat": 50.90744, "lon": 17.3900322, "way_id": 231088568, "landuse": "farmland", "closest_distance_restriction": 2.5134740705327414}, {"id": 2395069768, "lat": 50.9081276, "lon": 17.3917754, "way_id": 231088568, "landuse": "farmland", "closest_distance_restriction": 2.6458610470402366}, {"id": 2424171331, "lat": 50.8629901, "lon": 17.4101797, "way_id": 269072410, "landuse": "farmland", "closest_distance_restriction": 3.0550897010323497}, {"id": 2424171380, "lat": 50.8655492, "lon": 17.4093257, "way_id": 269072410, "landuse": "farmland", "closest_distance_restriction": 2.9485180750778115}, {"id": 2424171395, "lat": 50.8670646, "lon": 17.4096803, "way_id": 269072410, "landuse": "farmland", "closest_distance_restriction": 2.957595312171936}, {"id": 2424171398, "lat": 50.8675306, "lon": 17.4097383, "way_id": 269072410, "landuse": "farmland", "closest_distance_restriction": 2.9587722356128006}, {"id": 2424171439, "lat": 50.869415, "lon": 17.409724, "way_id": 269072410, "landuse": "farmland", "closest_distance_restriction": 2.953909859765405}, {"id": 2424171440, "lat": 50.8696208, "lon": 17.4087435, "way_id": 269072410, "landuse": "farmland", "closest_distance_restriction": 2.8854399134205924}, {"id": 2424171448, "lat": 50.8700225, "lon": 17.4085314, "way_id": 269072410, "landuse": "farmland", "closest_distance_restriction": 2.8714755343507607}, {"id": 2424171473, "lat": 50.8721733, "lon": 17.4105779, "way_id": 269072410, "landuse": "farmland", "closest_distance_restriction": 3.027949703155643}, {"id": 2424171474, "lat": 50.8722155, "lon": 17.412378, "way_id": 269072410, "landuse": "farmland", "closest_distance_restriction": 3.154198715609464}, {"id": 2510786764, "lat": 50.847143, "lon": 17.2484313, "way_id": 267381173, "landuse": "farmland", "closest_distance_restriction": 1.7184479765216192}, {"id": 2510786766, "lat": 50.8510555, "lon": 17.2397431, "way_id": 267382668, "landuse": "farmland", "closest_distance_restriction": 2.108498948855536}, {"id": 2510786771, "lat": 50.8507033, "lon": 17.2445776, "way_id": 267382668, "landuse": "farmland", "closest_distance_restriction": 1.8762210855431902}, {"id": 2510786777, "lat": 50.8483298, "lon": 17.2470666, "way_id": 267381173, "landuse": "farmland", "closest_distance_restriction": 1.8527316080233613}, {"id": 2510786778, "lat": 50.8492144, "lon": 17.2416851, "way_id": 267382668, "landuse": "farmland", "closest_distance_restriction": 2.137886523233204}, {"id": 2510799402, "lat": 50.8162395, "lon": 17.2988097, "way_id": 268635883, "landuse": "farmland", "closest_distance_restriction": 2.247267124023711}, {"id": 2510799418, "lat": 50.811482, "lon": 17.2984814, "way_id": 268635883, "landuse": "farmland", "closest_distance_restriction": 2.7518521098928352}, {"id": 2510799461, "lat": 50.8123348, "lon": 17.2978441, "way_id": 268635883, "landuse": "farmland", "closest_distance_restriction": 2.6769741871389123}, {"id": 2510799471, "lat": 50.8145855, "lon": 17.2982733, "way_id": 268635883, "landuse": "farmland", "closest_distance_restriction": 2.432095720052401}, {"id": 2510799472, "lat": 50.8129721, "lon": 17.2973935, "way_id": 268635883, "landuse": "farmland", "closest_distance_restriction": 2.6217094577425173}, {"id": 2510799474, "lat": 50.8152091, "lon": 17.298681, "way_id": 268635883, "landuse": "farmland", "closest_distance_restriction": 2.3570873470840366}, {"id": 2510799475, "lat": 50.8135551, "lon": 17.2972219, "way_id": 268635883, "landuse": "farmland", "closest_distance_restriction": 2.565813900349035}, {"id": 2510799487, "lat": 50.8107349, "lon": 17.2995393, "way_id": 268635883, "landuse": "farmland", "closest_distance_restriction": 2.808898145530929}, {"id": 2510801213, "lat": 50.8185577, "lon": 17.3059664, "way_id": 243707117, "landuse": "meadow", "closest_distance_restriction": 1.8563441774684966}, {"id": 2510801214, "lat": 50.8212296, "lon": 17.301228, "way_id": 243707117, "landuse": "meadow", "closest_distance_restriction": 1.6700250271904429}, {"id": 2510801217, "lat": 50.8213773, "lon": 17.3023293, "way_id": 243707117, "landuse": "meadow", "closest_distance_restriction": 1.6249857643282017}, {"id": 2510801220, "lat": 50.8181781, "lon": 17.3051295, "way_id": 243707117, "landuse": "meadow", "closest_distance_restriction": 1.9093324183790377}, {"id": 2619679312, "lat": 50.8080345, "lon": 17.2934667, "way_id": 268635883, "landuse": "farmland", "closest_distance_restriction": 3.2338268342367256}, {"id": 2619679320, "lat": 50.8083909, "lon": 17.2936745, "way_id": 268635883, "landuse": "farmland", "closest_distance_restriction": 3.1916173299756707}, {"id": 2619679330, "lat": 50.8097603, "lon": 17.2929324, "way_id": 268635883, "landuse": "farmland", "closest_distance_restriction": 3.07215291816124}, {"id": 2692186131, "lat": 50.968107, "lon": 17.1336277, "way_id": 265049049, "landuse": "farmland", "closest_distance_restriction": 2.1274428403853465}, {"id": 2692186133, "lat": 50.9647365, "lon": 17.1353556, "way_id": 265049049, "landuse": "farmland", "closest_distance_restriction": 1.8501899871959748}, {"id": 2697756300, "lat": 50.9652712, "lon": 17.1284051, "way_id": 265049049, "landuse": "farmland", "closest_distance_restriction": 1.7016897889040032}, {"id": 2724238127, "lat": 50.9112269, "lon": 17.379339, "way_id": 268737695, "landuse": "farmland", "closest_distance_restriction": 2.187505520044819}, {"id": 2724255249, "lat": 50.9040244, "lon": 17.3703906, "way_id": 268737695, "landuse": "farmland", "closest_distance_restriction": 1.6125714441466716}, {"id": 2724257098, "lat": 50.9047673, "lon": 17.3792929, "way_id": 268737695, "landuse": "farmland", "closest_distance_restriction": 1.9020038896127591}, {"id": 2724257099, "lat": 50.9048744, "lon": 17.3803405, "way_id": 268737695, "landuse": "farmland", "closest_distance_restriction": 1.939471962455606}, {"id": 2724257105, "lat": 50.9045619, "lon": 17.3807794, "way_id": 268737695, "landuse": "farmland", "closest_distance_restriction": 1.9192158544409532}, {"id": 2724258911, "lat": 50.9026425, "lon": 17.3743664, "way_id": 268737695, "landuse": "farmland", "closest_distance_restriction": 1.5698841391430702}, {"id": 2724258912, "lat": 50.9052461, "lon": 17.3779756, "way_id": 268737695, "landuse": "farmland", "closest_distance_restriction": 1.9232054206736209}, {"id": 2724258915, "lat": 50.9037825, "lon": 17.3820383, "way_id": 268737695, "landuse": "farmland", "closest_distance_restriction": 1.8779134913023048}, {"id": 2724259781, "lat": 50.9065539, "lon": 17.3858267, "way_id": 268737695, "landuse": "farmland", "closest_distance_restriction": 2.2747842479201337}, {"id": 2724261466, "lat": 50.9051915, "lon": 17.3670552, "way_id": 268737695, "landuse": "farmland", "closest_distance_restriction": 1.649899374569804}, {"id": 2724273040, "lat": 50.9048614, "lon": 17.3679985, "way_id": 268737695, "landuse": "farmland", "closest_distance_restriction": 1.634992838261777}, {"id": 2724273060, "lat": 50.9027978, "lon": 17.3739196, "way_id": 268737695, "landuse": "farmland", "closest_distance_restriction": 1.5715817746673837}, {"id": 2727914489, "lat": 50.8756958, "lon": 17.3904669, "way_id": 267325554, "landuse": "farmland", "closest_distance_restriction": 1.65794756195334}, {"id": 2727914490, "lat": 50.876137, "lon": 17.3919304, "way_id": 267325554, "landuse": "farmland", "closest_distance_restriction": 1.7084880205813786}, {"id": 2727914491, "lat": 50.8760868, "lon": 17.3925744, "way_id": 269072410, "landuse": "farmland", "closest_distance_restriction": 1.7483220136150779}, {"id": 2727914919, "lat": 50.8675445, "lon": 17.3918983, "way_id": 268729691, "landuse": "farmland", "closest_distance_restriction": 1.709071914730366}, {"id": 2727914920, "lat": 50.8676339, "lon": 17.3919337, "way_id": 267325554, "landuse": "farmland", "closest_distance_restriction": 1.7107823961472084}, {"id": 2727914921, "lat": 50.8676178, "lon": 17.3926026, "way_id": 269072410, "landuse": "farmland", "closest_distance_restriction": 1.7577279213542583}, {"id": 2728439073, "lat": 50.8489784, "lon": 17.2415298, "way_id": 267382668, "landuse": "farmland", "closest_distance_restriction": 2.1635625843714825}, {"id": 2728439076, "lat": 50.8502934, "lon": 17.2373519, "way_id": 267382668, "landuse": "farmland", "closest_distance_restriction": 2.2930902012165477}, {"id": 2728439078, "lat": 50.8520012, "lon": 17.2338703, "way_id": 267382668, "landuse": "farmland", "closest_distance_restriction": 2.1182798025688605}, {"id": 2728439080, "lat": 50.8536546, "lon": 17.2312021, "way_id": 267382668, "landuse": "farmland", "closest_distance_restriction": 1.937988164092757}, {"id": 2728439082, "lat": 50.8544404, "lon": 17.2301422, "way_id": 267382668, "landuse": "farmland", "closest_distance_restriction": 1.8575098366361857}, {"id": 2728439084, "lat": 50.8565137, "lon": 17.2278253, "way_id": 267382668, "landuse": "farmland", "closest_distance_restriction": 1.6568057632100437}, {"id": 2728439101, "lat": 50.8517358, "lon": 17.2447426, "way_id": 267382668, "landuse": "farmland", "closest_distance_restriction": 1.792072501319198}, {"id": 2728439103, "lat": 50.8516342, "lon": 17.2447466, "way_id": 267382668, "landuse": "farmland", "closest_distance_restriction": 1.7991123075543085}, {"id": 2728439321, "lat": 50.8517152, "lon": 17.2447673, "way_id": 267382668, "landuse": "farmland", "closest_distance_restriction": 1.7922095737000008}, {"id": 2739607973, "lat": 50.8206545, "lon": 17.3203897, "way_id": 268631238, "landuse": "farmland", "closest_distance_restriction": 1.5975212164647221}, {"id": 2739675559, "lat": 50.8210183, "lon": 17.3014982, "way_id": 243707117, "landuse": "meadow", "closest_distance_restriction": 1.6840527795601725}, {"id": 2739694873, "lat": 50.8177989, "lon": 17.2887517, "way_id": 268635883, "landuse": "farmland", "closest_distance_restriction": 2.45999448099937}, {"id": 2739694874, "lat": 50.8179734, "lon": 17.2969503, "way_id": 268635883, "landuse": "farmland", "closest_distance_restriction": 2.1265690621906246}, {"id": 2739694875, "lat": 50.8196638, "lon": 17.2959168, "way_id": 268635883, "landuse": "farmland", "closest_distance_restriction": 1.9985626728661994}, {"id": 2739694877, "lat": 50.8192524, "lon": 17.2979413, "way_id": 268635883, "landuse": "farmland", "closest_distance_restriction": 1.9682646744118135}, {"id": 2739694879, "lat": 50.8182238, "lon": 17.2983518, "way_id": 268635883, "landuse": "farmland", "closest_distance_restriction": 2.0580109104630475}, {"id": 2739694880, "lat": 50.8176425, "lon": 17.2993428, "way_id": 268635883, "landuse": "farmland", "closest_distance_restriction": 2.0887660858159065}, {"id": 2739694882, "lat": 50.8170701, "lon": 17.2991304, "way_id": 268635883, "landuse": "farmland", "closest_distance_restriction": 2.153260273170769}, {"id": 2739694884, "lat": 50.8164638, "lon": 17.299477, "way_id": 268635883, "landuse": "farmland", "closest_distance_restriction": 2.206789201737924}, {"id": 2739694886, "lat": 50.8110494, "lon": 17.3007269, "way_id": 268635883, "landuse": "farmland", "closest_distance_restriction": 2.7526625496191404}, {"id": 2739694887, "lat": 50.8104583, "lon": 17.3012294, "way_id": 268635883, "landuse": "farmland", "closest_distance_restriction": 2.8075139065832992}, {"id": 2739694889, "lat": 50.8098828, "lon": 17.3018718, "way_id": 268635883, "landuse": "farmland", "closest_distance_restriction": 2.859385421742143}, {"id": 2739694891, "lat": 50.8082548, "lon": 17.3012303, "way_id": 268635883, "landuse": "farmland", "closest_distance_restriction": 3.04589632906871}, {"id": 2739694893, "lat": 50.8068487, "lon": 17.3014649, "way_id": 268635883, "landuse": "farmland", "closest_distance_restriction": 3.1951068696268043}, {"id": 2739694895, "lat": 50.8064671, "lon": 17.3022906, "way_id": 268635883, "landuse": "farmland", "closest_distance_restriction": 3.225331603099302}, {"id": 2739694897, "lat": 50.804925, "lon": 17.3012184, "way_id": 268635883, "landuse": "farmland", "closest_distance_restriction": 3.408096883725166}, {"id": 2739694898, "lat": 50.807316, "lon": 17.2937376, "way_id": 268635883, "landuse": "farmland", "closest_distance_restriction": 3.3009754826905717}, {"id": 2739694900, "lat": 50.8078275, "lon": 17.2933091, "way_id": 268635883, "landuse": "farmland", "closest_distance_restriction": 3.2593217172901574}, {"id": 2739694902, "lat": 50.8096933, "lon": 17.2925657, "way_id": 268635883, "landuse": "farmland", "closest_distance_restriction": 3.0895672019043223}, {"id": 2739694904, "lat": 50.810522, "lon": 17.2922438, "way_id": 268635883, "landuse": "farmland", "closest_distance_restriction": 3.015720886620599}, {"id": 2739694906, "lat": 50.8113747, "lon": 17.2918802, "way_id": 268635883, "landuse": "farmland", "closest_distance_restriction": 2.9420245844428923}, {"id": 2739694907, "lat": 50.812679, "lon": 17.2911962, "way_id": 268635883, "landuse": "farmland", "closest_distance_restriction": 2.836533245957723}, {"id": 2739702639, "lat": 50.8175063, "lon": 17.2814652, "way_id": 268636616, "landuse": "farmland", "closest_distance_restriction": 2.522683627070389}, {"id": 2739702641, "lat": 50.8171933, "lon": 17.2837303, "way_id": 268636616, "landuse": "farmland", "closest_distance_restriction": 2.5776475327631}, {"id": 2739702643, "lat": 50.8178462, "lon": 17.2885011, "way_id": 268636616, "landuse": "farmland", "closest_distance_restriction": 2.4670744499694024}, {"id": 2739702645, "lat": 50.8153999, "lon": 17.2897328, "way_id": 268636616, "landuse": "farmland", "closest_distance_restriction": 2.6328903377652844}, {"id": 2739702647, "lat": 50.8135484, "lon": 17.2906176, "way_id": 268636616, "landuse": "farmland", "closest_distance_restriction": 2.7730719079181085}, {"id": 2739702649, "lat": 50.8104623, "lon": 17.2921182, "way_id": 268636616, "landuse": "farmland", "closest_distance_restriction": 3.0255309246041073}, {"id": 2739702651, "lat": 50.8124168, "lon": 17.2890886, "way_id": 268636616, "landuse": "farmland", "closest_distance_restriction": 2.9362972700836596}, {"id": 2739702653, "lat": 50.8136825, "lon": 17.2871209, "way_id": 268636616, "landuse": "farmland", "closest_distance_restriction": 2.8943685822281657}, {"id": 2739709329, "lat": 50.8228134, "lon": 17.2852115, "way_id": 268638005, "landuse": "farmland", "closest_distance_restriction": 1.9848202794370349}, {"id": 2739709332, "lat": 50.8200755, "lon": 17.2870609, "way_id": 268638005, "landuse": "farmland", "closest_distance_restriction": 2.3091690362537087}, {"id": 2739709335, "lat": 50.8179867, "lon": 17.2884151, "way_id": 268638005, "landuse": "farmland", "closest_distance_restriction": 2.4589043260889034}, {"id": 2739709338, "lat": 50.8173199, "lon": 17.2838199, "way_id": 268638005, "landuse": "farmland", "closest_distance_restriction": 2.5647562486441275}, {"id": 2739709341, "lat": 50.8176562, "lon": 17.2813728, "way_id": 268638005, "landuse": "farmland", "closest_distance_restriction": 2.5054618893651166}, {"id": 2739709344, "lat": 50.819751, "lon": 17.2828859, "way_id": 268638005, "landuse": "farmland", "closest_distance_restriction": 2.2874833549692406}, {"id": 2739709346, "lat": 50.821769, "lon": 17.2844083, "way_id": 268638005, "landuse": "farmland", "closest_distance_restriction": 2.0866762117315383}, {"id": 2740536390, "lat": 50.8527994, "lon": 17.3506294, "way_id": 268726854, "landuse": "farmland", "closest_distance_restriction": 1.639766621992546}, {"id": 2740536391, "lat": 50.8499751, "lon": 17.3509375, "way_id": 268726854, "landuse": "farmland", "closest_distance_restriction": 1.59691225476288}, {"id": 2740574566, "lat": 50.8637764, "lon": 17.3899995, "way_id": 268729691, "landuse": "farmland", "closest_distance_restriction": 1.6657797024058725}, {"id": 2740574568, "lat": 50.8642231, "lon": 17.3913373, "way_id": 268729691, "landuse": "farmland", "closest_distance_restriction": 1.739474358462908}, {"id": 2740574570, "lat": 50.8650228, "lon": 17.391401, "way_id": 268729691, "landuse": "farmland", "closest_distance_restriction": 1.7200493937032266}, {"id": 2740586798, "lat": 50.8637544, "lon": 17.3896466, "way_id": 268729844, "landuse": "farmland", "closest_distance_restriction": 1.6432814270245968}, {"id": 2740593750, "lat": 50.8627725, "lon": 17.3897539, "way_id": 268729844, "landuse": "farmland", "closest_distance_restriction": 1.6904193828082859}, {"id": 2740593753, "lat": 50.863531, "lon": 17.3892497, "way_id": 268729844, "landuse": "farmland", "closest_distance_restriction": 1.6258513509289636}, {"id": 2740593757, "lat": 50.8636935, "lon": 17.3893569, "way_id": 268729844, "landuse": "farmland", "closest_distance_restriction": 1.6265127873452738}, {"id": 2740635517, "lat": 50.918122, "lon": 17.371021, "way_id": 268737695, "landuse": "farmland", "closest_distance_restriction": 1.5835129770213507}, {"id": 2740635523, "lat": 50.9179159, "lon": 17.3716748, "way_id": 268737695, "landuse": "farmland", "closest_distance_restriction": 1.624431209224491}, {"id": 2740635526, "lat": 50.9178629, "lon": 17.3781474, "way_id": 268737695, "landuse": "farmland", "closest_distance_restriction": 2.07210021720032}, {"id": 2740635529, "lat": 50.9172328, "lon": 17.3816779, "way_id": 268737695, "landuse": "farmland", "closest_distance_restriction": 2.3104568454310854}, {"id": 2740635532, "lat": 50.9168324, "lon": 17.3839849, "way_id": 268737695, "landuse": "farmland", "closest_distance_restriction": 2.4683420546389745}, {"id": 2740635535, "lat": 50.9142338, "lon": 17.380927, "way_id": 268737695, "landuse": "farmland", "closest_distance_restriction": 2.252665602394384}, {"id": 2740635538, "lat": 50.914088, "lon": 17.379378, "way_id": 268737695, "landuse": "farmland", "closest_distance_restriction": 2.1453093761301165}, {"id": 2740666119, "lat": 50.9110906, "lon": 17.3803225, "way_id": 268737695, "landuse": "farmland", "closest_distance_restriction": 2.2581056107938053}, {"id": 2740666125, "lat": 50.9116887, "lon": 17.3827504, "way_id": 268737695, "landuse": "farmland", "closest_distance_restriction": 2.4124222274405107}, {"id": 2740666130, "lat": 50.9110058, "lon": 17.3843502, "way_id": 268737695, "landuse": "farmland", "closest_distance_restriction": 2.5365519708220146}, {"id": 2740666135, "lat": 50.9104836, "lon": 17.3857729, "way_id": 268737695, "landuse": "farmland", "closest_distance_restriction": 2.6459003002605592}, {"id": 2740666139, "lat": 50.9095022, "lon": 17.388586, "way_id": 268737695, "landuse": "farmland", "closest_distance_restriction": 2.6553646236576873}, {"id": 2740684652, "lat": 50.9114138, "lon": 17.3793811, "way_id": 268737695, "landuse": "farmland", "closest_distance_restriction": 2.1860742919902365}, {"id": 2740684654, "lat": 50.9119845, "lon": 17.3796739, "way_id": 268737695, "landuse": "farmland", "closest_distance_restriction": 2.19428754592743}, {"id": 2740684657, "lat": 50.9125714, "lon": 17.3804058, "way_id": 268737695, "landuse": "farmland", "closest_distance_restriction": 2.2347026917192787}, {"id": 2740684660, "lat": 50.9140362, "lon": 17.3793373, "way_id": 268737695, "landuse": "farmland", "closest_distance_restriction": 2.1428646857848825}, {"id": 2740689275, "lat": 50.9112981, "lon": 17.3793351, "way_id": 268737695, "landuse": "farmland", "closest_distance_restriction": 2.1855696323677116}, {"id": 2740689277, "lat": 50.9112861, "lon": 17.3791569, "way_id": 268737695, "landuse": "farmland", "closest_distance_restriction": 2.1736343454501323}, {"id": 2740689279, "lat": 50.9111039, "lon": 17.3777146, "way_id": 268737695, "landuse": "farmland", "closest_distance_restriction": 2.0794623686521234}, {"id": 2740796399, "lat": 50.8808804, "lon": 17.3956578, "way_id": 268751385, "landuse": "farmland", "closest_distance_restriction": 1.7004657810786457}, {"id": 2740800231, "lat": 50.8878988, "lon": 17.3955657, "way_id": 268751683, "landuse": "farmland", "closest_distance_restriction": 1.6068529024080636}, {"id": 2740800232, "lat": 50.8864964, "lon": 17.3980128, "way_id": 268751683, "landuse": "farmland", "closest_distance_restriction": 1.7660573966479405}, {"id": 2740800234, "lat": 50.885211, "lon": 17.4001135, "way_id": 268751683, "landuse": "farmland", "closest_distance_restriction": 1.9150415601789632}, {"id": 2740800236, "lat": 50.8844802, "lon": 17.4014199, "way_id": 268751683, "landuse": "farmland", "closest_distance_restriction": 2.0120232092698314}, {"id": 2740800238, "lat": 50.8838271, "lon": 17.4024305, "way_id": 268751683, "landuse": "farmland", "closest_distance_restriction": 2.0900214723780377}, {"id": 2740800239, "lat": 50.8807402, "lon": 17.3982402, "way_id": 268751683, "landuse": "farmland", "closest_distance_restriction": 1.8768067731326927}, {"id": 2740800241, "lat": 50.879265, "lon": 17.397918, "way_id": 268751683, "landuse": "farmland", "closest_distance_restriction": 1.9139422429656932}, {"id": 2740800243, "lat": 50.8796975, "lon": 17.3960321, "way_id": 268751683, "landuse": "farmland", "closest_distance_restriction": 1.773372663801955}, {"id": 2740800245, "lat": 50.8809968, "lon": 17.395874, "way_id": 268751683, "landuse": "farmland", "closest_distance_restriction": 1.7104474014818274}, {"id": 2740800246, "lat": 50.8831817, "lon": 17.3947155, "way_id": 268751683, "landuse": "farmland", "closest_distance_restriction": 1.5669778696465129}, {"id": 2741746210, "lat": 50.9644818, "lon": 17.1368767, "way_id": 268866324, "landuse": "farmland", "closest_distance_restriction": 1.8244098825780544}, {"id": 2741746211, "lat": 50.9646836, "lon": 17.136737, "way_id": 268866324, "landuse": "farmland", "closest_distance_restriction": 1.8378371392924855}, {"id": 2741746212, "lat": 50.9650114, "lon": 17.1385421, "way_id": 268866324, "landuse": "farmland", "closest_distance_restriction": 1.7195900458355373}, {"id": 2741748165, "lat": 50.9738027, "lon": 17.1329964, "way_id": 268866517, "landuse": "farmland", "closest_distance_restriction": 2.4511956217706206}, {"id": 2741748166, "lat": 50.973731, "lon": 17.1402004, "way_id": 268866517, "landuse": "farmland", "closest_distance_restriction": 2.0363432124985787}, {"id": 2741748177, "lat": 50.9652197, "lon": 17.1404795, "way_id": 268866517, "landuse": "farmland", "closest_distance_restriction": 1.591442937311928}, {"id": 2741748178, "lat": 50.9652129, "lon": 17.1383445, "way_id": 268866517, "landuse": "farmland", "closest_distance_restriction": 1.737510119356496}, {"id": 2741748179, "lat": 50.9648278, "lon": 17.1363811, "way_id": 268866517, "landuse": "farmland", "closest_distance_restriction": 1.8650007198806466}, {"id": 2741748180, "lat": 50.9645116, "lon": 17.1365622, "way_id": 268866517, "landuse": "farmland", "closest_distance_restriction": 1.8465965017159234}, {"id": 2741748181, "lat": 50.9645832, "lon": 17.1358089, "way_id": 268866517, "landuse": "farmland", "closest_distance_restriction": 1.8526187348070262}, {"id": 2741748182, "lat": 50.9666791, "lon": 17.1344285, "way_id": 268866517, "landuse": "farmland", "closest_distance_restriction": 2.007388880144238}, {"id": 2741748183, "lat": 50.9697804, "lon": 17.1333985, "way_id": 268866517, "landuse": "farmland", "closest_distance_restriction": 2.2199277539121236}, {"id": 2741748185, "lat": 50.972172, "lon": 17.1330659, "way_id": 268866517, "landuse": "farmland", "closest_distance_restriction": 2.355649589644874}, {"id": 2743112930, "lat": 50.9662365, "lon": 17.1343749, "way_id": 265049049, "landuse": "farmland", "closest_distance_restriction": 1.9618356349819175}, {"id": 2743112932, "lat": 50.9672364, "lon": 17.1339079, "way_id": 265049049, "landuse": "farmland", "closest_distance_restriction": 2.0472283758119416}, {"id": 2743114578, "lat": 50.9642113, "lon": 17.1395378, "way_id": 268866324, "landuse": "farmland", "closest_distance_restriction": 1.6360305637589239}, {"id": 2743114580, "lat": 50.9642579, "lon": 17.1390796, "way_id": 268866324, "landuse": "farmland", "closest_distance_restriction": 1.6685304851610896}, {"id": 2743114583, "lat": 50.9643196, "lon": 17.1385849, "way_id": 268866324, "landuse": "farmland", "closest_distance_restriction": 1.703802646044228}, {"id": 2743441721, "lat": 50.8585677, "lon": 17.4057189, "way_id": 269072410, "landuse": "farmland", "closest_distance_restriction": 2.904550145662616}, {"id": 2743441723, "lat": 50.8598341, "lon": 17.4018028, "way_id": 269072410, "landuse": "farmland", "closest_distance_restriction": 2.596601856656509}, {"id": 2743441725, "lat": 50.8608838, "lon": 17.3984769, "way_id": 269072410, "landuse": "farmland", "closest_distance_restriction": 2.336334146300074}, {"id": 2743441726, "lat": 50.8620621, "lon": 17.3949578, "way_id": 269072410, "landuse": "farmland", "closest_distance_restriction": 2.0584146516817015}, {"id": 2743441728, "lat": 50.8630305, "lon": 17.3919001, "way_id": 269072410, "landuse": "farmland", "closest_distance_restriction": 1.8195103584614098}, {"id": 2743450004, "lat": 50.8788105, "lon": 17.398674, "way_id": 269072410, "landuse": "farmland", "closest_distance_restriction": 1.9817794560668478}, {"id": 2743450006, "lat": 50.8776908, "lon": 17.4034001, "way_id": 269072410, "landuse": "farmland", "closest_distance_restriction": 2.3359376805401664}, {"id": 2743450008, "lat": 50.876518, "lon": 17.4082849, "way_id": 269072410, "landuse": "farmland", "closest_distance_restriction": 2.7026287542195875}, {"id": 2743450009, "lat": 50.8753924, "lon": 17.4129082, "way_id": 269072410, "landuse": "farmland", "closest_distance_restriction": 3.0503218608105134}, {"id": 2743450011, "lat": 50.8751448, "lon": 17.4136857, "way_id": 269072410, "landuse": "farmland", "closest_distance_restriction": 3.111152056921992}, {"id": 2743450013, "lat": 50.8745908, "lon": 17.4146804, "way_id": 269072410, "landuse": "farmland", "closest_distance_restriction": 3.1987349862627132}, {"id": 2743450015, "lat": 50.8741898, "lon": 17.4145854, "way_id": 269072410, "landuse": "farmland", "closest_distance_restriction": 3.209487503356308}, {"id": 2743450017, "lat": 50.8735715, "lon": 17.4139384, "way_id": 269072410, "landuse": "farmland", "closest_distance_restriction": 3.1951504735438214}, {"id": 2743450018, "lat": 50.8730427, "lon": 17.4135194, "way_id": 269072410, "landuse": "farmland", "closest_distance_restriction": 3.193046616735078}, {"id": 2743450020, "lat": 50.8727355, "lon": 17.4133099, "way_id": 269072410, "landuse": "farmland", "closest_distance_restriction": 3.194584058016037}, {"id": 2743450022, "lat": 50.8724322, "lon": 17.4133468, "way_id": 269072410, "landuse": "farmland", "closest_distance_restriction": 3.211792005674114}, {"id": 2743450024, "lat": 50.8721554, "lon": 17.4134381, "way_id": 269072410, "landuse": "farmland", "closest_distance_restriction": 3.2277761879262474}, {"id": 2743450026, "lat": 50.8642758, "lon": 17.4092624, "way_id": 269072410, "landuse": "farmland", "closest_distance_restriction": 2.9647174920578516}, {"id": 2743450029, "lat": 50.8609011, "lon": 17.4102446, "way_id": 269072410, "landuse": "farmland", "closest_distance_restriction": 3.116705034669006}, {"id": 2743450030, "lat": 50.8604244, "lon": 17.4084063, "way_id": 269072410, "landuse": "farmland", "closest_distance_restriction": 3.0090429458829338}, {"id": 2743450032, "lat": 50.8632077, "lon": 17.3928287, "way_id": 269072410, "landuse": "farmland", "closest_distance_restriction": 1.874073727708501}, {"id": 2744305967, "lat": 50.9940794, "lon": 17.1515724, "way_id": 529713510, "landuse": "farmland", "closest_distance_restriction": 2.7023733285710616}, {"id": 2744305977, "lat": 50.9962299, "lon": 17.1596973, "way_id": 529713510, "landuse": "farmland", "closest_distance_restriction": 2.10411948551832}, {"id": 2744307473, "lat": 50.9911112, "lon": 17.1517343, "way_id": 529713510, "landuse": "farmland", "closest_distance_restriction": 2.7701371176810983}, {"id": 2744307486, "lat": 50.9910878, "lon": 17.1548398, "way_id": 529713510, "landuse": "farmland", "closest_distance_restriction": 2.5641039282937697}, {"id": 2744309385, "lat": 50.9877492, "lon": 17.1221788, "way_id": 529713510, "landuse": "farmland", "closest_distance_restriction": 4.021066243824208}, {"id": 2744309386, "lat": 50.9867457, "lon": 17.1227397, "way_id": 529713510, "landuse": "farmland", "closest_distance_restriction": 3.9145794107302203}, {"id": 2744399698, "lat": 50.9963389, "lon": 17.1598028, "way_id": 529713510, "landuse": "farmland", "closest_distance_restriction": 2.0953865955819775}, {"id": 2744474159, "lat": 51.0138827, "lon": 17.1876584, "way_id": 269155633, "landuse": "farmland", "closest_distance_restriction": 1.5961270183966438}, {"id": 2744474161, "lat": 51.0146252, "lon": 17.1868699, "way_id": 269155633, "landuse": "farmland", "closest_distance_restriction": 1.6867920584100677}, {"id": 2744474163, "lat": 51.0151854, "lon": 17.1862422, "way_id": 269155633, "landuse": "farmland", "closest_distance_restriction": 1.7562679420420662}, {"id": 2744474165, "lat": 51.0155161, "lon": 17.1859633, "way_id": 269155633, "landuse": "farmland", "closest_distance_restriction": 1.7962152959278492}, {"id": 2744474167, "lat": 51.0155229, "lon": 17.185518, "way_id": 269155633, "landuse": "farmland", "closest_distance_restriction": 1.8035826624309959}, {"id": 2744474169, "lat": 51.0156174, "lon": 17.1844666, "way_id": 269155633, "landuse": "farmland", "closest_distance_restriction": 1.8314011663728733}, {"id": 2744474171, "lat": 51.0157524, "lon": 17.1831791, "way_id": 269155633, "landuse": "farmland", "closest_distance_restriction": 1.8709743963712828}, {"id": 2744474173, "lat": 51.0146285, "lon": 17.1836941, "way_id": 269155633, "landuse": "farmland", "closest_distance_restriction": 1.7409554114427517}, {"id": 2744474175, "lat": 51.0138894, "lon": 17.1839945, "way_id": 269155633, "landuse": "farmland", "closest_distance_restriction": 1.6562704223745315}, {"id": 2744609191, "lat": 50.9327866, "lon": 17.0695287, "way_id": 269170684, "landuse": "farmland", "closest_distance_restriction": 2.304918201794784}, {"id": 2744609192, "lat": 50.9324614, "lon": 17.0810068, "way_id": 269170684, "landuse": "farmland", "closest_distance_restriction": 1.734195347477975}, {"id": 2744609193, "lat": 50.9323882, "lon": 17.0810935, "way_id": 269170684, "landuse": "farmland", "closest_distance_restriction": 1.7240515643476775}, {"id": 2744609194, "lat": 50.9304788, "lon": 17.0808811, "way_id": 269170684, "landuse": "farmland", "closest_distance_restriction": 1.561351485566684}, {"id": 2744609198, "lat": 50.9225091, "lon": 17.0695631, "way_id": 269170684, "landuse": "farmland", "closest_distance_restriction": 1.7531115071193717}, {"id": 2744609199, "lat": 50.9241867, "lon": 17.0698746, "way_id": 269170684, "landuse": "farmland", "closest_distance_restriction": 1.8069155918535431}, {"id": 2744609200, "lat": 50.9261678, "lon": 17.0699737, "way_id": 269170684, "landuse": "farmland", "closest_distance_restriction": 1.8897303543432773}, {"id": 2744609201, "lat": 50.927997, "lon": 17.0697755, "way_id": 269170684, "landuse": "farmland", "closest_distance_restriction": 1.9905574105779438}, {"id": 2744609202, "lat": 50.9291391, "lon": 17.069549, "way_id": 269170684, "landuse": "farmland", "closest_distance_restriction": 2.06740499185797}, {"id": 2744609203, "lat": 50.9310039, "lon": 17.0696056, "way_id": 269170684, "landuse": "farmland", "closest_distance_restriction": 2.1788539105586913}, {"id": 2744619147, "lat": 50.9038211, "lon": 17.0622783, "way_id": 382246055, "landuse": "farmland", "closest_distance_restriction": 1.7020810788364888}, {"id": 2744619168, "lat": 50.9082123, "lon": 17.0638414, "way_id": 382246055, "landuse": "farmland", "closest_distance_restriction": 1.598848499727463}, {"id": 2744619169, "lat": 50.9070301, "lon": 17.0633257, "way_id": 382246055, "landuse": "farmland", "closest_distance_restriction": 1.639439278597038}, {"id": 2744619170, "lat": 50.9053411, "lon": 17.0625296, "way_id": 382246055, "landuse": "farmland", "closest_distance_restriction": 1.7187529596649485}, {"id": 2744619171, "lat": 50.9040805, "lon": 17.0622962, "way_id": 382246055, "landuse": "farmland", "closest_distance_restriction": 1.721063257640224}, {"id": 2744621789, "lat": 50.9036603, "lon": 17.0622883, "way_id": 382246055, "landuse": "farmland", "closest_distance_restriction": 1.689231941494391}, {"id": 2744621826, "lat": 50.9027487, "lon": 17.0622945, "way_id": 382246055, "landuse": "farmland", "closest_distance_restriction": 1.6208776647237584}, {"id": 2744636478, "lat": 50.8827567, "lon": 17.0621182, "way_id": 382462143, "landuse": "farmland", "closest_distance_restriction": 1.646898952884275}, {"id": 2744636480, "lat": 50.8811592, "lon": 17.0623435, "way_id": 382462143, "landuse": "farmland", "closest_distance_restriction": 1.758902743694504}, {"id": 2744636482, "lat": 50.8795481, "lon": 17.0626332, "way_id": 382462143, "landuse": "farmland", "closest_distance_restriction": 1.8794602864049001}, {"id": 2744636484, "lat": 50.8781874, "lon": 17.0631053, "way_id": 382462143, "landuse": "farmland", "closest_distance_restriction": 1.978921830889669}, {"id": 2744636485, "lat": 50.8774332, "lon": 17.063326, "way_id": 382462143, "landuse": "farmland", "closest_distance_restriction": 2.0386486399193844}, {"id": 2744636489, "lat": 50.8755811, "lon": 17.0643927, "way_id": 382462143, "landuse": "farmland", "closest_distance_restriction": 2.0478222824254027}, {"id": 2744636491, "lat": 50.87202, "lon": 17.0653796, "way_id": 382462143, "landuse": "farmland", "closest_distance_restriction": 2.1140895393604153}, {"id": 2744636495, "lat": 50.8703112, "lon": 17.0713178, "way_id": 382462143, "landuse": "farmland", "closest_distance_restriction": 1.847888131001467}, {"id": 2744642273, "lat": 50.8675558, "lon": 17.0793381, "way_id": 382462143, "landuse": "farmland", "closest_distance_restriction": 1.670544781682887}, {"id": 2744642274, "lat": 50.8673905, "lon": 17.0700967, "way_id": 382462143, "landuse": "farmland", "closest_distance_restriction": 2.117272996719021}, {"id": 2744642276, "lat": 50.8697928, "lon": 17.0727897, "way_id": 382462143, "landuse": "farmland", "closest_distance_restriction": 1.8005198297485574}, {"id": 2744642277, "lat": 50.8704428, "lon": 17.0717756, "way_id": 382462143, "landuse": "farmland", "closest_distance_restriction": 1.8132540265108466}, {"id": 2744650156, "lat": 50.8595334, "lon": 17.0933493, "way_id": 269177076, "landuse": "farmland", "closest_distance_restriction": 1.7334018251472045}, {"id": 2744650163, "lat": 50.8605716, "lon": 17.0937302, "way_id": 269177076, "landuse": "farmland", "closest_distance_restriction": 1.633575882266139}, {"id": 2744650197, "lat": 50.8548962, "lon": 17.0976998, "way_id": 269177076, "landuse": "farmland", "closest_distance_restriction": 1.5872066044617967}, {"id": 2744650199, "lat": 50.8562033, "lon": 17.0936765, "way_id": 269177076, "landuse": "farmland", "closest_distance_restriction": 1.9019016074174475}, {"id": 2744650201, "lat": 50.8564539, "lon": 17.093537, "way_id": 269177076, "landuse": "farmland", "closest_distance_restriction": 1.920818798028217}, {"id": 2744650203, "lat": 50.8578719, "lon": 17.0934161, "way_id": 269177076, "landuse": "farmland", "closest_distance_restriction": 1.8636275287143669}, {"id": 2744658397, "lat": 50.8276747, "lon": 17.1358164, "way_id": 269180146, "landuse": "farmland", "closest_distance_restriction": 2.0716207871912107}, {"id": 2744658398, "lat": 50.8265412, "lon": 17.1359863, "way_id": 269180146, "landuse": "farmland", "closest_distance_restriction": 2.1959371695146235}, {"id": 2744658399, "lat": 50.8293088, "lon": 17.1396706, "way_id": 269180146, "landuse": "farmland", "closest_distance_restriction": 1.9994414652274075}, {"id": 2744658400, "lat": 50.8299124, "lon": 17.1404882, "way_id": 269180146, "landuse": "farmland", "closest_distance_restriction": 1.9653829018393159}, {"id": 2744658401, "lat": 50.8316285, "lon": 17.1440776, "way_id": 269180146, "landuse": "farmland", "closest_distance_restriction": 1.9402562101751781}, {"id": 2744658402, "lat": 50.8330106, "lon": 17.147064, "way_id": 269180146, "landuse": "farmland", "closest_distance_restriction": 1.9619802417412673}, {"id": 2744658403, "lat": 50.8333482, "lon": 17.1474675, "way_id": 269180146, "landuse": "farmland", "closest_distance_restriction": 1.9558812797679264}, {"id": 2744658404, "lat": 50.8349316, "lon": 17.1451147, "way_id": 269180146, "landuse": "farmland", "closest_distance_restriction": 1.7148050103618568}, {"id": 2744658421, "lat": 50.8286673, "lon": 17.1340858, "way_id": 269180146, "landuse": "farmland", "closest_distance_restriction": 1.9329239337115345}, {"id": 2744662202, "lat": 50.8441816, "lon": 17.161291, "way_id": 269181042, "landuse": "farmland", "closest_distance_restriction": 2.051297875539155}, {"id": 2744662204, "lat": 50.8417328, "lon": 17.1600844, "way_id": 269181042, "landuse": "farmland", "closest_distance_restriction": 2.254390404403933}, {"id": 2744662206, "lat": 50.8385257, "lon": 17.154869, "way_id": 269181042, "landuse": "farmland", "closest_distance_restriction": 2.0661466860202333}, {"id": 2744662208, "lat": 50.8367734, "lon": 17.1520978, "way_id": 269181042, "landuse": "farmland", "closest_distance_restriction": 1.989027738452751}, {"id": 2744662210, "lat": 50.8340152, "lon": 17.1481268, "way_id": 269181042, "landuse": "farmland", "closest_distance_restriction": 1.9398294229632738}, {"id": 2744662212, "lat": 50.833434, "lon": 17.1475818, "way_id": 269181042, "landuse": "farmland", "closest_distance_restriction": 1.9551075894707108}, {"id": 2744662214, "lat": 50.8357667, "lon": 17.1441335, "way_id": 269181042, "landuse": "farmland", "closest_distance_restriction": 1.6010679849474065}, {"id": 2746356089, "lat": 50.8475576, "lon": 17.2001881, "way_id": 269419296, "landuse": "farmland", "closest_distance_restriction": 2.012474344078249}, {"id": 2746356092, "lat": 50.849643, "lon": 17.2020844, "way_id": 269419296, "landuse": "farmland", "closest_distance_restriction": 1.8188969208926846}, {"id": 2746356094, "lat": 50.8513393, "lon": 17.2026759, "way_id": 269419296, "landuse": "farmland", "closest_distance_restriction": 1.646014873199904}, {"id": 2746399708, "lat": 50.8491947, "lon": 17.191809, "way_id": 269419296, "landuse": "farmland", "closest_distance_restriction": 1.7717481999893807}, {"id": 2746399712, "lat": 50.850615, "lon": 17.1862406, "way_id": 269419296, "landuse": "farmland", "closest_distance_restriction": 1.6707290351406485}, {"id": 2746403599, "lat": 50.8483702, "lon": 17.1960242, "way_id": 269419296, "landuse": "farmland", "closest_distance_restriction": 1.871626277029507}, {"id": 2746454320, "lat": 50.8400813, "lon": 17.1574809, "way_id": 269181042, "landuse": "farmland", "closest_distance_restriction": 2.171771608520783}, {"id": 2746454692, "lat": 50.8392811, "lon": 17.1561466, "way_id": 269181042, "landuse": "farmland", "closest_distance_restriction": 2.114949872122625}, {"id": 2746455419, "lat": 50.8376742, "lon": 17.1535099, "way_id": 269181042, "landuse": "farmland", "closest_distance_restriction": 2.0236942300564102}, {"id": 2746456523, "lat": 50.8372383, "lon": 17.1527986, "way_id": 269181042, "landuse": "farmland", "closest_distance_restriction": 2.004162501849788}, {"id": 2746457783, "lat": 50.8354055, "lon": 17.1501477, "way_id": 269181042, "landuse": "farmland", "closest_distance_restriction": 1.955743085884818}, {"id": 2746461537, "lat": 50.830782, "lon": 17.1423144, "way_id": 269180146, "landuse": "farmland", "closest_distance_restriction": 1.9465629472299646}, {"id": 2746461661, "lat": 50.8303617, "lon": 17.1414544, "way_id": 269180146, "landuse": "farmland", "closest_distance_restriction": 1.9548388476753913}, {"id": 2746462747, "lat": 50.8279407, "lon": 17.1378621, "way_id": 269180146, "landuse": "farmland", "closest_distance_restriction": 2.089544340846896}, {"id": 2746463324, "lat": 50.8272343, "lon": 17.1369136, "way_id": 269180146, "landuse": "farmland", "closest_distance_restriction": 2.1414447542103887}, {"id": 2746464232, "lat": 50.8281821, "lon": 17.1349069, "way_id": 269180146, "landuse": "farmland", "closest_distance_restriction": 1.9997766738936185}, {"id": 2746464477, "lat": 50.8306501, "lon": 17.1305572, "way_id": 269180146, "landuse": "farmland", "closest_distance_restriction": 1.6690766516384345}, {"id": 2746489369, "lat": 50.8487232, "lon": 17.186702, "way_id": 269419296, "landuse": "farmland", "closest_distance_restriction": 1.8759372803541436}, {"id": 2823138668, "lat": 50.946687, "lon": 17.3813811, "way_id": 277864092, "landuse": "farmland", "closest_distance_restriction": 1.5680625240302777}, {"id": 2823138669, "lat": 50.9462884, "lon": 17.3812704, "way_id": 277864092, "landuse": "farmland", "closest_distance_restriction": 1.6101014793575363}, {"id": 2823138670, "lat": 50.9455708, "lon": 17.3809066, "way_id": 277864092, "landuse": "farmland", "closest_distance_restriction": 1.691883844636226}, {"id": 2823138671, "lat": 50.9447038, "lon": 17.383121, "way_id": 277864092, "landuse": "farmland", "closest_distance_restriction": 1.6976441358501109}, {"id": 2850498799, "lat": 50.945682, "lon": 17.3842551, "way_id": 277864092, "landuse": "farmland", "closest_distance_restriction": 1.5645271849034101}, {"id": 3005573861, "lat": 50.8801169, "lon": 17.3956909, "way_id": 268751385, "landuse": "farmland", "closest_distance_restriction": 1.7331819440994811}, {"id": 3005573862, "lat": 50.8805256, "lon": 17.3957263, "way_id": 268751385, "landuse": "farmland", "closest_distance_restriction": 1.7187032130891642}, {"id": 3138760771, "lat": 50.9922536, "lon": 17.1497972, "way_id": 529713510, "landuse": "farmland", "closest_distance_restriction": 2.86671038772097}, {"id": 3253211620, "lat": 50.9061497, "lon": 17.0628483, "way_id": 382246055, "landuse": "farmland", "closest_distance_restriction": 1.6827371441965258}, {"id": 3253211628, "lat": 50.9085593, "lon": 17.0639693, "way_id": 382246055, "landuse": "farmland", "closest_distance_restriction": 1.5906045174727894}, {"id": 3253218472, "lat": 50.9091566, "lon": 17.0641641, "way_id": 382246055, "landuse": "farmland", "closest_distance_restriction": 1.5804162817174197}, {"id": 3287828785, "lat": 50.9874423, "lon": 17.1224275, "way_id": 529713510, "landuse": "farmland", "closest_distance_restriction": 3.9846083040569567}, {"id": 3287828786, "lat": 50.9878955, "lon": 17.1234451, "way_id": 529713510, "landuse": "farmland", "closest_distance_restriction": 3.970813761648959}, {"id": 3287828787, "lat": 50.9875004, "lon": 17.124054, "way_id": 529713510, "landuse": "farmland", "closest_distance_restriction": 3.9096054653266235}, {"id": 3353459226, "lat": 50.9913994, "lon": 17.1543146, "way_id": 529713510, "landuse": "farmland", "closest_distance_restriction": 2.5882291680541147}, {"id": 3430749725, "lat": 50.8701782, "lon": 17.0698902, "way_id": 382462143, "landuse": "farmland", "closest_distance_restriction": 1.9385534544778167}, {"id": 3458608057, "lat": 51.0684259, "lon": 17.3620009, "way_id": 338721274, "landuse": "farmland", "closest_distance_restriction": 1.6264677423994671}, {"id": 3458608058, "lat": 51.0684259, "lon": 17.3621905, "way_id": 338721274, "landuse": "farmland", "closest_distance_restriction": 1.6396995961010266}, {"id": 3458608060, "lat": 51.0684711, "lon": 17.3618178, "way_id": 338721274, "landuse": "farmland", "closest_distance_restriction": 1.6139494686599938}, {"id": 3458608061, "lat": 51.0685122, "lon": 17.3622788, "way_id": 338721274, "landuse": "farmland", "closest_distance_restriction": 1.646361369520137}, {"id": 3458608065, "lat": 51.0686314, "lon": 17.3612259, "way_id": 338721274, "landuse": "farmland", "closest_distance_restriction": 1.5737256742939552}, {"id": 3458608067, "lat": 51.0686643, "lon": 17.3615202, "way_id": 338721274, "landuse": "farmland", "closest_distance_restriction": 1.5944875620016519}, {"id": 3458608068, "lat": 51.0686889, "lon": 17.3613763, "way_id": 338721274, "landuse": "farmland", "closest_distance_restriction": 1.5846434784819512}, {"id": 3797431022, "lat": 50.9956698, "lon": 17.1672635, "way_id": 529713510, "landuse": "farmland", "closest_distance_restriction": 1.5905304841386456}, {"id": 3797431027, "lat": 50.9958371, "lon": 17.1675889, "way_id": 529713510, "landuse": "farmland", "closest_distance_restriction": 1.5646248929253246}, {"id": 3836398510, "lat": 50.8705036, "lon": 17.0696865, "way_id": 382462143, "landuse": "farmland", "closest_distance_restriction": 1.9304296618580041}, {"id": 3836398511, "lat": 50.8705437, "lon": 17.0668967, "way_id": 382462143, "landuse": "farmland", "closest_distance_restriction": 2.0950106045296613}, {"id": 3836398512, "lat": 50.8707998, "lon": 17.0699684, "way_id": 382462143, "landuse": "farmland", "closest_distance_restriction": 1.8959624955825836}, {"id": 3836638006, "lat": 50.871709, "lon": 17.0654599, "way_id": 382462143, "landuse": "farmland", "closest_distance_restriction": 2.1237027128862827}, {"id": 3836638007, "lat": 50.8718063, "lon": 17.0663152, "way_id": 382462143, "landuse": "farmland", "closest_distance_restriction": 2.064975785285879}, {"id": 3836638008, "lat": 50.8721187, "lon": 17.0662334, "way_id": 382462143, "landuse": "farmland", "closest_distance_restriction": 2.055134943725702}, {"id": 3854458765, "lat": 50.9313187, "lon": 17.0754929, "way_id": 269170684, "landuse": "farmland", "closest_distance_restriction": 1.884833504917951}, {"id": 3854458766, "lat": 50.9313254, "lon": 17.0760478, "way_id": 269170684, "landuse": "farmland", "closest_distance_restriction": 1.8576730879488952}, {"id": 3854458785, "lat": 50.9315961, "lon": 17.0760818, "way_id": 269170684, "landuse": "farmland", "closest_distance_restriction": 1.8774286876636133}, {"id": 3854458786, "lat": 50.9315987, "lon": 17.0754504, "way_id": 269170684, "landuse": "farmland", "closest_distance_restriction": 1.9087773987071195}, {"id": 3854458854, "lat": 50.931986, "lon": 17.0765432, "way_id": 269170684, "landuse": "farmland", "closest_distance_restriction": 1.8866681862987016}, {"id": 3854458963, "lat": 50.9320253, "lon": 17.0791722, "way_id": 269170684, "landuse": "farmland", "closest_distance_restriction": 1.770515739941287}, {"id": 3854458964, "lat": 50.9320295, "lon": 17.0796754, "way_id": 269170684, "landuse": "farmland", "closest_distance_restriction": 1.749324852020374}, {"id": 3854459021, "lat": 50.9323264, "lon": 17.0766495, "way_id": 269170684, "landuse": "farmland", "closest_distance_restriction": 1.9097210963675717}, {"id": 3854459026, "lat": 50.9323482, "lon": 17.0792338, "way_id": 269170684, "landuse": "farmland", "closest_distance_restriction": 1.7962672777741526}, {"id": 3856793404, "lat": 50.9249944, "lon": 17.069915, "way_id": 269170684, "landuse": "farmland", "closest_distance_restriction": 1.8419258105795633}, {"id": 4203021053, "lat": 50.8583571, "lon": 17.0942408, "way_id": 269177076, "landuse": "farmland", "closest_distance_restriction": 1.7848488308723742}, {"id": 4203021054, "lat": 50.8583849, "lon": 17.0939562, "way_id": 269177076, "landuse": "farmland", "closest_distance_restriction": 1.7958484069378045}, {"id": 4249026849, "lat": 50.9061501, "lon": 17.3866886, "way_id": 231088568, "landuse": "farmland", "closest_distance_restriction": 2.2663368859193507}, {"id": 4249026854, "lat": 50.9069086, "lon": 17.3886686, "way_id": 231088568, "landuse": "farmland", "closest_distance_restriction": 2.4114622812940136}, {"id": 4249026855, "lat": 50.9072722, "lon": 17.3853597, "way_id": 268737695, "landuse": "farmland", "closest_distance_restriction": 2.329481596769286}, {"id": 4249026856, "lat": 50.9076484, "lon": 17.3895915, "way_id": 231088568, "landuse": "farmland", "closest_distance_restriction": 2.515699681070607}, {"id": 4249026857, "lat": 50.9080743, "lon": 17.3944386, "way_id": 231088568, "landuse": "farmland", "closest_distance_restriction": 2.7532741512021426}, {"id": 4249026858, "lat": 50.9109511, "lon": 17.3772038, "way_id": 268737695, "landuse": "farmland", "closest_distance_restriction": 2.0486689567685707}, {"id": 4249026859, "lat": 50.9110343, "lon": 17.3771687, "way_id": 268737695, "landuse": "farmland", "closest_distance_restriction": 2.044061134143259}, {"id": 4249026861, "lat": 50.9112182, "lon": 17.3784051, "way_id": 268737695, "landuse": "farmland", "closest_distance_restriction": 2.1237813056205574}, {"id": 4249044210, "lat": 50.9053073, "lon": 17.3997997, "way_id": 231088568, "landuse": "farmland", "closest_distance_restriction": 2.7893026735833515}, {"id": 4249044211, "lat": 50.9053416, "lon": 17.3981922, "way_id": 231088568, "landuse": "farmland", "closest_distance_restriction": 2.708446166056236}, {"id": 4249044215, "lat": 50.905586, "lon": 17.3985385, "way_id": 231088568, "landuse": "farmland", "closest_distance_restriction": 2.7447461667772703}, {"id": 4249044223, "lat": 50.905928, "lon": 17.399023, "way_id": 231088568, "landuse": "farmland", "closest_distance_restriction": 2.7955437542205828}, {"id": 4249044224, "lat": 50.9059852, "lon": 17.3989678, "way_id": 231088568, "landuse": "farmland", "closest_distance_restriction": 2.797091625172026}, {"id": 4249044226, "lat": 50.9061905, "lon": 17.3987137, "way_id": 231088568, "landuse": "farmland", "closest_distance_restriction": 2.7999776257150035}, {"id": 4249044229, "lat": 50.9064733, "lon": 17.3982204, "way_id": 231088568, "landuse": "farmland", "closest_distance_restriction": 2.797318103865108}, {"id": 4249044230, "lat": 50.9064771, "lon": 17.3975268, "way_id": 231088568, "landuse": "farmland", "closest_distance_restriction": 2.7634098399560165}, {"id": 4249044231, "lat": 50.906577, "lon": 17.3979272, "way_id": 231088568, "landuse": "farmland", "closest_distance_restriction": 2.791003816899719}, {"id": 4249044232, "lat": 50.9065862, "lon": 17.3972282, "way_id": 231088568, "landuse": "farmland", "closest_distance_restriction": 2.7575531179167827}, {"id": 4249044236, "lat": 50.9066626, "lon": 17.397298, "way_id": 231088568, "landuse": "farmland", "closest_distance_restriction": 2.7670710865027384}, {"id": 4249044252, "lat": 50.9068066, "lon": 17.3974787, "way_id": 231088568, "landuse": "farmland", "closest_distance_restriction": 2.787398197088879}, {"id": 4249044267, "lat": 50.9069689, "lon": 17.3971441, "way_id": 231088568, "landuse": "farmland", "closest_distance_restriction": 2.7843597591645666}, {"id": 4249044268, "lat": 50.9070412, "lon": 17.3972765, "way_id": 231088568, "landuse": "farmland", "closest_distance_restriction": 2.796574589181751}, {"id": 4249044280, "lat": 50.9079506, "lon": 17.3966988, "way_id": 231088568, "landuse": "farmland", "closest_distance_restriction": 2.844303255408168}, {"id": 4249044282, "lat": 50.9079588, "lon": 17.3978651, "way_id": 231088568, "landuse": "farmland", "closest_distance_restriction": 2.8994884170988002}, {"id": 4249045489, "lat": 50.9080485, "lon": 17.3979826, "way_id": 231088568, "landuse": "farmland", "closest_distance_restriction": 2.9124093123383794}, {"id": 4249045496, "lat": 50.9081816, "lon": 17.3965961, "way_id": 231088568, "landuse": "farmland", "closest_distance_restriction": 2.858976444341804}, {"id": 4249045497, "lat": 50.9083031, "lon": 17.3972006, "way_id": 231088568, "landuse": "farmland", "closest_distance_restriction": 2.896970444127719}, {"id": 4249045498, "lat": 50.9083909, "lon": 17.3955531, "way_id": 231088568, "landuse": "farmland", "closest_distance_restriction": 2.8297570997223}, {"id": 4249045507, "lat": 50.9086384, "lon": 17.3966097, "way_id": 231088568, "landuse": "farmland", "closest_distance_restriction": 2.8982623501111675}, {"id": 4249045508, "lat": 50.9087513, "lon": 17.3960072, "way_id": 231088568, "landuse": "farmland", "closest_distance_restriction": 2.8809347366154214}, {"id": 4253036879, "lat": 50.9843073, "lon": 17.1348127, "way_id": 529713510, "landuse": "farmland", "closest_distance_restriction": 3.146579729027945}, {"id": 4253036885, "lat": 50.9845199, "lon": 17.1350929, "way_id": 529713510, "landuse": "farmland", "closest_distance_restriction": 3.153121144420806}, {"id": 4253036888, "lat": 50.9845493, "lon": 17.1343934, "way_id": 529713510, "landuse": "farmland", "closest_distance_restriction": 3.185894558338478}, {"id": 4253036992, "lat": 50.984781, "lon": 17.134056, "way_id": 529713510, "landuse": "farmland", "closest_distance_restriction": 3.2207572800229514}, {"id": 4253036994, "lat": 50.984888, "lon": 17.1342092, "way_id": 529713510, "landuse": "farmland", "closest_distance_restriction": 3.2234440339282546}, {"id": 4253036998, "lat": 50.9853178, "lon": 17.1350365, "way_id": 529713510, "landuse": "farmland", "closest_distance_restriction": 3.2260971963635736}, {"id": 4456404009, "lat": 50.9922905, "lon": 17.1531207, "way_id": 529713510, "landuse": "farmland", "closest_distance_restriction": 2.640482636356968}, {"id": 4456404011, "lat": 50.9927468, "lon": 17.1534303, "way_id": 529713510, "landuse": "farmland", "closest_distance_restriction": 2.60672532654211}, {"id": 4456404019, "lat": 50.9929634, "lon": 17.153226, "way_id": 529713510, "landuse": "farmland", "closest_distance_restriction": 2.6148538256102136}, {"id": 4456404021, "lat": 50.9931453, "lon": 17.1526097, "way_id": 529713510, "landuse": "farmland", "closest_distance_restriction": 2.6522237051548165}, {"id": 4456404022, "lat": 50.9933468, "lon": 17.152034, "way_id": 529713510, "landuse": "farmland", "closest_distance_restriction": 2.6866785839622804}, {"id": 4458538620, "lat": 50.9959174, "lon": 17.1669446, "way_id": 529713510, "landuse": "farmland", "closest_distance_restriction": 1.607349280154881}, {"id": 4458538621, "lat": 50.9959293, "lon": 17.1667546, "way_id": 529713510, "landuse": "farmland", "closest_distance_restriction": 1.6202094961226277}, {"id": 4458538625, "lat": 50.9963038, "lon": 17.1667285, "way_id": 529713510, "landuse": "farmland", "closest_distance_restriction": 1.6152969265764527}, {"id": 4475257116, "lat": 50.9922375, "lon": 17.1472998, "way_id": 529713510, "landuse": "farmland", "closest_distance_restriction": 3.03704764897942}, {"id": 4475257127, "lat": 50.9922734, "lon": 17.1481981, "way_id": 529713510, "landuse": "farmland", "closest_distance_restriction": 2.974941969762438}, {"id": 4475257141, "lat": 50.9923256, "lon": 17.1493676, "way_id": 529713510, "landuse": "farmland", "closest_distance_restriction": 2.8940006350988687}, {"id": 4636799071, "lat": 50.9736888, "lon": 17.1474487, "way_id": 268866517, "landuse": "farmland", "closest_distance_restriction": 1.6721089081484928}, {"id": 4640181366, "lat": 50.9957863, "lon": 17.1676689, "way_id": 529713510, "landuse": "farmland", "closest_distance_restriction": 1.56019238458626}, {"id": 4640181369, "lat": 50.9964933, "lon": 17.166675, "way_id": 529713510, "landuse": "farmland", "closest_distance_restriction": 1.6160095970570307}, {"id": 4640181372, "lat": 50.9968395, "lon": 17.1671656, "way_id": 529713510, "landuse": "farmland", "closest_distance_restriction": 1.5771322474151728}, {"id": 4640181374, "lat": 50.9969332, "lon": 17.1670247, "way_id": 529713510, "landuse": "farmland", "closest_distance_restriction": 1.5857772061088107}, {"id": 4640181377, "lat": 50.99713, "lon": 17.1672419, "way_id": 529713510, "landuse": "farmland", "closest_distance_restriction": 1.5684472700173966}, {"id": 4640181378, "lat": 50.9971902, "lon": 17.1671975, "way_id": 529713510, "landuse": "farmland", "closest_distance_restriction": 1.5709235878353782}, {"id": 4640181385, "lat": 50.9973654, "lon": 17.1668371, "way_id": 529713510, "landuse": "farmland", "closest_distance_restriction": 1.5944351492304423}, {"id": 4640182013, "lat": 50.9996832, "lon": 17.1645952, "way_id": 529713510, "landuse": "farmland", "closest_distance_restriction": 1.7519091132631766}, {"id": 4640182016, "lat": 50.9997285, "lon": 17.1647969, "way_id": 529713510, "landuse": "farmland", "closest_distance_restriction": 1.7382378611486873}, {"id": 4640182020, "lat": 50.9997899, "lon": 17.1647894, "way_id": 529713510, "landuse": "farmland", "closest_distance_restriction": 1.7393268117547462}, {"id": 4640182062, "lat": 51.0003567, "lon": 17.1645211, "way_id": 529713510, "landuse": "farmland", "closest_distance_restriction": 1.7644420416190023}, {"id": 4640182098, "lat": 50.9977251, "lon": 17.167043, "way_id": 529713510, "landuse": "farmland", "closest_distance_restriction": 1.5774845591241067}, {"id": 4640182100, "lat": 50.9978352, "lon": 17.1666085, "way_id": 529713510, "landuse": "farmland", "closest_distance_restriction": 1.6072728701035282}, {"id": 4640182101, "lat": 50.9978948, "lon": 17.1663269, "way_id": 529713510, "landuse": "farmland", "closest_distance_restriction": 1.626690282072298}, {"id": 4640182103, "lat": 50.9979247, "lon": 17.1667459, "way_id": 529713510, "landuse": "farmland", "closest_distance_restriction": 1.5972630357373692}, {"id": 4640182125, "lat": 50.9990345, "lon": 17.1636172, "way_id": 529713510, "landuse": "farmland", "closest_distance_restriction": 1.8161987571862632}, {"id": 4640182163, "lat": 50.9994388, "lon": 17.1642291, "way_id": 529713510, "landuse": "farmland", "closest_distance_restriction": 1.7755846746965505}, {"id": 4640182205, "lat": 51.0038067, "lon": 17.1654009, "way_id": 529713510, "landuse": "farmland", "closest_distance_restriction": 1.7916683474588107}, {"id": 4640182213, "lat": 51.0039728, "lon": 17.1593543, "way_id": 529713510, "landuse": "farmland", "closest_distance_restriction": 2.200375633328823}, {"id": 4640182216, "lat": 51.004012, "lon": 17.1581809, "way_id": 529713510, "landuse": "farmland", "closest_distance_restriction": 2.2805245292538667}, {"id": 4640182223, "lat": 51.00412, "lon": 17.1595883, "way_id": 529713510, "landuse": "farmland", "closest_distance_restriction": 2.1892998362073146}, {"id": 4640182224, "lat": 51.0041194, "lon": 17.1653027, "way_id": 529713510, "landuse": "farmland", "closest_distance_restriction": 1.8099396650741653}, {"id": 4640182228, "lat": 51.0041793, "lon": 17.1584067, "way_id": 529713510, "landuse": "farmland", "closest_distance_restriction": 2.270454163017698}, {"id": 4640182232, "lat": 51.0041832, "lon": 17.1622174, "way_id": 529713510, "landuse": "farmland", "closest_distance_restriction": 2.0159927863967875}, {"id": 4640182237, "lat": 51.0042152, "lon": 17.1654423, "way_id": 529713510, "landuse": "farmland", "closest_distance_restriction": 1.804531982861322}, {"id": 4640182245, "lat": 51.0043952, "lon": 17.1587443, "way_id": 529713510, "landuse": "farmland", "closest_distance_restriction": 2.254690278943399}, {"id": 4640182247, "lat": 51.004404, "lon": 17.1619738, "way_id": 529713510, "landuse": "farmland", "closest_distance_restriction": 2.03999139264288}, {"id": 4640182248, "lat": 51.0045463, "lon": 17.1590275, "way_id": 529713510, "landuse": "farmland", "closest_distance_restriction": 2.240762134459556}, {"id": 4640182250, "lat": 51.0045703, "lon": 17.1630278, "way_id": 529713510, "landuse": "farmland", "closest_distance_restriction": 1.9766364424197722}, {"id": 4640182252, "lat": 51.0046334, "lon": 17.1616854, "way_id": 529713510, "landuse": "farmland", "closest_distance_restriction": 2.0674180032322513}, {"id": 4640182257, "lat": 51.004832, "lon": 17.1644958, "way_id": 529713510, "landuse": "farmland", "closest_distance_restriction": 1.891206277288215}, {"id": 4640182259, "lat": 51.0048602, "lon": 17.1632141, "way_id": 529713510, "landuse": "farmland", "closest_distance_restriction": 1.9757742543278884}, {"id": 4640182263, "lat": 51.0050067, "lon": 17.1632034, "way_id": 529713510, "landuse": "farmland", "closest_distance_restriction": 1.9823935020879602}, {"id": 4640182269, "lat": 51.0051783, "lon": 17.1630087, "way_id": 529713510, "landuse": "farmland", "closest_distance_restriction": 2.002109619555055}, {"id": 4640182270, "lat": 51.0051951, "lon": 17.1600105, "way_id": 529713510, "landuse": "farmland", "closest_distance_restriction": 2.1987868357292824}, {"id": 4640182271, "lat": 51.0051819, "lon": 17.1609566, "way_id": 529713510, "landuse": "farmland", "closest_distance_restriction": 2.136147152736914}, {"id": 4640182278, "lat": 51.0055039, "lon": 17.1605063, "way_id": 529713510, "landuse": "farmland", "closest_distance_restriction": 2.178302279272854}, {"id": 4640182279, "lat": 51.0055689, "lon": 17.1624543, "way_id": 529713510, "landuse": "farmland", "closest_distance_restriction": 2.054462015140982}, {"id": 4640182285, "lat": 51.0058192, "lon": 17.1627955, "way_id": 529713510, "landuse": "farmland", "closest_distance_restriction": 2.0434256515111295}, {"id": 4640182294, "lat": 51.0015219, "lon": 17.1586355, "way_id": 529713510, "landuse": "farmland", "closest_distance_restriction": 2.190250666397879}, {"id": 4640182302, "lat": 51.0016872, "lon": 17.1620478, "way_id": 529713510, "landuse": "farmland", "closest_distance_restriction": 1.9580028285467042}, {"id": 4640182313, "lat": 51.0021162, "lon": 17.1613585, "way_id": 529713510, "landuse": "farmland", "closest_distance_restriction": 2.014513308663349}, {"id": 4640182325, "lat": 51.0030039, "lon": 17.1678231, "way_id": 529713510, "landuse": "farmland", "closest_distance_restriction": 1.6024132029793279}, {"id": 4640182328, "lat": 51.0030575, "lon": 17.1581841, "way_id": 529713510, "landuse": "farmland", "closest_distance_restriction": 2.253915673291734}, {"id": 4640182334, "lat": 51.0031316, "lon": 17.1673088, "way_id": 529713510, "landuse": "farmland", "closest_distance_restriction": 1.6410426577893853}, {"id": 4640182339, "lat": 51.0032543, "lon": 17.1667824, "way_id": 529713510, "landuse": "farmland", "closest_distance_restriction": 1.6803011431680452}, {"id": 4640182348, "lat": 51.003563, "lon": 17.1587871, "way_id": 529713510, "landuse": "farmland", "closest_distance_restriction": 2.2264851870570332}, {"id": 4640182366, "lat": 51.0037224, "lon": 17.1590082, "way_id": 529713510, "landuse": "farmland", "closest_distance_restriction": 2.21613788216703}, {"id": 4640182367, "lat": 51.0037174, "lon": 17.1656788, "way_id": 529713510, "landuse": "farmland", "closest_distance_restriction": 1.7700330121718622}, {"id": 4640182368, "lat": 51.0037534, "lon": 17.157808, "way_id": 529713510, "landuse": "farmland", "closest_distance_restriction": 2.2981292144070156}, {"id": 4887108150, "lat": 50.9073514, "lon": 17.0635192, "way_id": 382246055, "landuse": "farmland", "closest_distance_restriction": 1.6236424448802391}, {"id": 5145293431, "lat": 50.9878766, "lon": 17.1405445, "way_id": 529713510, "landuse": "farmland", "closest_distance_restriction": 3.2580862383611713}, {"id": 5145293432, "lat": 50.9871705, "lon": 17.1385575, "way_id": 529713510, "landuse": "farmland", "closest_distance_restriction": 3.2590285501162386}, {"id": 5145293433, "lat": 50.98694, "lon": 17.1377494, "way_id": 529713510, "landuse": "farmland", "closest_distance_restriction": 3.266977095384129}, {"id": 5145293434, "lat": 50.9868054, "lon": 17.1372645, "way_id": 529713510, "landuse": "farmland", "closest_distance_restriction": 3.272649983280522}, {"id": 5145293435, "lat": 50.9864842, "lon": 17.1352517, "way_id": 529713510, "landuse": "farmland", "closest_distance_restriction": 3.3220790363319854}, {"id": 5145293436, "lat": 50.9845444, "lon": 17.1351227, "way_id": 529713510, "landuse": "farmland", "closest_distance_restriction": 3.1539999095250626}, {"id": 5145293445, "lat": 50.9804377, "lon": 17.1207859, "way_id": 529713510, "landuse": "farmland", "closest_distance_restriction": 3.2421708271909737}, {"id": 5145293446, "lat": 50.9795079, "lon": 17.1205818, "way_id": 529713510, "landuse": "farmland", "closest_distance_restriction": 3.137814518741555}, {"id": 5145293480, "lat": 50.986174, "lon": 17.1354439, "way_id": 529713510, "landuse": "farmland", "closest_distance_restriction": 3.286164665702901}, {"id": 5145293481, "lat": 50.9858358, "lon": 17.1352919, "way_id": 529713510, "landuse": "farmland", "closest_distance_restriction": 3.261841213020472}, {"id": 5145293482, "lat": 50.9856306, "lon": 17.1327644, "way_id": 529713510, "landuse": "farmland", "closest_distance_restriction": 3.350985902095936}, {"id": 5145293488, "lat": 50.987996, "lon": 17.1283513, "way_id": 529713510, "landuse": "farmland", "closest_distance_restriction": 3.7501342367066757}, {"id": 5145293493, "lat": 50.9867106, "lon": 17.1226738, "way_id": 529713510, "landuse": "farmland", "closest_distance_restriction": 3.9151460359628336}, {"id": 5145293494, "lat": 50.9874399, "lon": 17.1216863, "way_id": 529713510, "landuse": "farmland", "closest_distance_restriction": 4.0212720509366715}, {"id": 5145293496, "lat": 50.9866851, "lon": 17.1226259, "way_id": 529713510, "landuse": "farmland", "closest_distance_restriction": 3.9155646875473002}, {"id": 5145293497, "lat": 50.988125, "lon": 17.1231939, "way_id": 529713510, "landuse": "farmland", "closest_distance_restriction": 4.001409347970938}, {"id": 5145293498, "lat": 50.9883464, "lon": 17.1241399, "way_id": 529713510, "landuse": "farmland", "closest_distance_restriction": 3.974009245801795}, {"id": 5145293499, "lat": 50.988529, "lon": 17.1252379, "way_id": 529713510, "landuse": "farmland", "closest_distance_restriction": 3.937380109365479}, {"id": 5145293500, "lat": 50.9885858, "lon": 17.1257276, "way_id": 529713510, "landuse": "farmland", "closest_distance_restriction": 3.9193945015778864}, {"id": 5145293501, "lat": 50.988529, "lon": 17.1260841, "way_id": 529713510, "landuse": "farmland", "closest_distance_restriction": 3.8982106642056116}, {"id": 5145293502, "lat": 50.9883464, "lon": 17.1268732, "way_id": 529713510, "landuse": "farmland", "closest_distance_restriction": 3.846718344379478}, {"id": 5145293503, "lat": 50.988127, "lon": 17.1277874, "way_id": 529713510, "landuse": "farmland", "closest_distance_restriction": 3.7866635230003327}, {"id": 5145293504, "lat": 50.9812332, "lon": 17.121012, "way_id": 529713510, "landuse": "farmland", "closest_distance_restriction": 3.331891196495828}, {"id": 5145293505, "lat": 50.9815445, "lon": 17.1210548, "way_id": 529713510, "landuse": "farmland", "closest_distance_restriction": 3.36661380609473}, {"id": 5145293506, "lat": 50.9820832, "lon": 17.121069, "way_id": 529713510, "landuse": "farmland", "closest_distance_restriction": 3.4261985936658754}, {"id": 5145293507, "lat": 50.9842648, "lon": 17.1212259, "way_id": 529713510, "landuse": "farmland", "closest_distance_restriction": 3.668400707463555}, {"id": 5145293508, "lat": 50.9867994, "lon": 17.1207363, "way_id": 529713510, "landuse": "farmland", "closest_distance_restriction": 3.9450104255613065}, {"id": 5145293509, "lat": 50.9848453, "lon": 17.1211974, "way_id": 529713510, "landuse": "farmland", "closest_distance_restriction": 3.732307446248844}, {"id": 5145293510, "lat": 50.9867351, "lon": 17.1225712, "way_id": 529713510, "landuse": "farmland", "closest_distance_restriction": 3.9221876586590243}, {"id": 5145293511, "lat": 50.9868129, "lon": 17.122526, "way_id": 529713510, "landuse": "farmland", "closest_distance_restriction": 3.9304956832900473}, {"id": 5145293512, "lat": 50.9868682, "lon": 17.1224381, "way_id": 529713510, "landuse": "farmland", "closest_distance_restriction": 3.939193862085462}, {"id": 5145293513, "lat": 50.9868922, "lon": 17.1223882, "way_id": 529713510, "landuse": "farmland", "closest_distance_restriction": 3.943557044347539}, {"id": 5145293514, "lat": 50.9869206, "lon": 17.1223454, "way_id": 529713510, "landuse": "farmland", "closest_distance_restriction": 3.947906857412777}, {"id": 5145293515, "lat": 50.986946, "lon": 17.1222883, "way_id": 529713510, "landuse": "farmland", "closest_distance_restriction": 3.9527393378119253}, {"id": 5145293516, "lat": 50.9869789, "lon": 17.1222455, "way_id": 529713510, "landuse": "farmland", "closest_distance_restriction": 3.957438862467032}, {"id": 5145293517, "lat": 50.9870538, "lon": 17.1221814, "way_id": 529713510, "landuse": "farmland", "closest_distance_restriction": 3.96647002851985}, {"id": 5145293518, "lat": 50.9870867, "lon": 17.1221433, "way_id": 529713510, "landuse": "farmland", "closest_distance_restriction": 3.9709349167905827}, {"id": 5145293519, "lat": 50.9872228, "lon": 17.1219175, "way_id": 529713510, "landuse": "farmland", "closest_distance_restriction": 3.992815790811252}, {"id": 5145293520, "lat": 50.9873335, "lon": 17.1217536, "way_id": 529713510, "landuse": "farmland", "closest_distance_restriction": 4.009624851358615}, {"id": 5145293521, "lat": 50.9873694, "lon": 17.121725, "way_id": 529713510, "landuse": "farmland", "closest_distance_restriction": 4.013848503921161}, {"id": 5145293522, "lat": 50.9874472, "lon": 17.1216822, "way_id": 529713510, "landuse": "farmland", "closest_distance_restriction": 4.022045557025553}, {"id": 5145293523, "lat": 50.9874817, "lon": 17.1216561, "way_id": 529713510, "landuse": "farmland", "closest_distance_restriction": 4.026037271191279}, {"id": 5145293524, "lat": 50.9874817, "lon": 17.1215943, "way_id": 529713510, "landuse": "farmland", "closest_distance_restriction": 4.0267318703423625}, {"id": 5145293525, "lat": 50.9874338, "lon": 17.1214873, "way_id": 529713510, "landuse": "farmland", "closest_distance_restriction": 4.020614482995448}, {"id": 5145293526, "lat": 50.9874054, "lon": 17.1214422, "way_id": 529713510, "landuse": "farmland", "closest_distance_restriction": 4.017131969790619}, {"id": 5145293527, "lat": 50.987344, "lon": 17.1213614, "way_id": 529713510, "landuse": "farmland", "closest_distance_restriction": 4.009734707670596}, {"id": 5145293528, "lat": 50.9872857, "lon": 17.1212758, "way_id": 529713510, "landuse": "farmland", "closest_distance_restriction": 4.002650590682433}, {"id": 5145293529, "lat": 50.9872632, "lon": 17.1212188, "way_id": 529713510, "landuse": "farmland", "closest_distance_restriction": 3.9997420267076285}, {"id": 5145293530, "lat": 50.9871959, "lon": 17.1211142, "way_id": 529713510, "landuse": "farmland", "closest_distance_restriction": 3.991536733460368}, {"id": 5145293531, "lat": 50.9871301, "lon": 17.1210429, "way_id": 529713510, "landuse": "farmland", "closest_distance_restriction": 3.9837457453530964}, {"id": 5145293532, "lat": 50.9870912, "lon": 17.1210144, "way_id": 529713510, "landuse": "farmland", "closest_distance_restriction": 3.979239189106503}, {"id": 5145293533, "lat": 50.9870822, "lon": 17.1209526, "way_id": 529713510, "landuse": "farmland", "closest_distance_restriction": 3.9778050412392116}, {"id": 5145293534, "lat": 50.9869879, "lon": 17.1208266, "way_id": 529713510, "landuse": "farmland", "closest_distance_restriction": 3.966490844067817}, {"id": 5145293535, "lat": 50.9869131, "lon": 17.1207719, "way_id": 529713510, "landuse": "farmland", "closest_distance_restriction": 3.9578366475219355}, {"id": 5145293536, "lat": 50.9868742, "lon": 17.1207505, "way_id": 529713510, "landuse": "farmland", "closest_distance_restriction": 3.953385155498417}, {"id": 5145321671, "lat": 50.9738256, "lon": 17.1479791, "way_id": 529713510, "landuse": "farmland", "closest_distance_restriction": 1.6606243207603335}, {"id": 5145321672, "lat": 50.9739259, "lon": 17.145966, "way_id": 529713510, "landuse": "farmland", "closest_distance_restriction": 1.759693365233979}, {"id": 5145321674, "lat": 50.9739633, "lon": 17.1404518, "way_id": 529713510, "landuse": "farmland", "closest_distance_restriction": 2.039396217557344}, {"id": 5145321675, "lat": 50.9739483, "lon": 17.1379063, "way_id": 529713510, "landuse": "farmland", "closest_distance_restriction": 2.177340770041538}, {"id": 5145321676, "lat": 50.9739633, "lon": 17.1351444, "way_id": 529713510, "landuse": "farmland", "closest_distance_restriction": 2.335163493408178}, {"id": 5145321677, "lat": 50.9739812, "lon": 17.1333095, "way_id": 529713510, "landuse": "farmland", "closest_distance_restriction": 2.4433223486168734}, {"id": 5145321678, "lat": 50.9740142, "lon": 17.1325299, "way_id": 529713510, "landuse": "farmland", "closest_distance_restriction": 2.4913621447483236}, {"id": 5145321679, "lat": 50.9743704, "lon": 17.1308282, "way_id": 529713510, "landuse": "farmland", "closest_distance_restriction": 2.613497283556117}, {"id": 5145321680, "lat": 50.9748074, "lon": 17.1289125, "way_id": 529713510, "landuse": "farmland", "closest_distance_restriction": 2.723680542308847}, {"id": 5145321681, "lat": 50.9752174, "lon": 17.1270586, "way_id": 529713510, "landuse": "farmland", "closest_distance_restriction": 2.739589313062625}, {"id": 5145321682, "lat": 50.9754569, "lon": 17.1258511, "way_id": 529713510, "landuse": "farmland", "closest_distance_restriction": 2.7485771261791387}, {"id": 5145321683, "lat": 50.9767888, "lon": 17.1260413, "way_id": 529713510, "landuse": "farmland", "closest_distance_restriction": 2.8961693868391976}, {"id": 5145321684, "lat": 50.9768277, "lon": 17.1249242, "way_id": 529713510, "landuse": "farmland", "closest_distance_restriction": 2.8852485332883258}, {"id": 5145321685, "lat": 50.9764865, "lon": 17.1248386, "way_id": 529713510, "landuse": "farmland", "closest_distance_restriction": 2.8468505838322398}, {"id": 5145321705, "lat": 50.9776717, "lon": 17.1249171, "way_id": 529713510, "landuse": "farmland", "closest_distance_restriction": 2.977513595642534}, {"id": 5145321706, "lat": 50.976916, "lon": 17.1241755, "way_id": 529713510, "landuse": "farmland", "closest_distance_restriction": 2.8859270202537775}, {"id": 5145321707, "lat": 50.9770776, "lon": 17.1246889, "way_id": 529713510, "landuse": "farmland", "closest_distance_restriction": 2.909679530055275}, {"id": 5145321708, "lat": 50.9772033, "lon": 17.1253164, "way_id": 529713510, "landuse": "farmland", "closest_distance_restriction": 2.9313520718132833}, {"id": 5145321709, "lat": 50.9774727, "lon": 17.1245106, "way_id": 529713510, "landuse": "farmland", "closest_distance_restriction": 2.9508475994277266}, {"id": 5145321710, "lat": 50.9774847, "lon": 17.1242967, "way_id": 529713510, "landuse": "farmland", "closest_distance_restriction": 2.94970260756745}, {"id": 5145321826, "lat": 50.978001, "lon": 17.1216276, "way_id": 529713510, "landuse": "farmland", "closest_distance_restriction": 2.9816547381193574}, {"id": 5145321827, "lat": 50.9789886, "lon": 17.1204273, "way_id": 529713510, "landuse": "farmland", "closest_distance_restriction": 3.0791943235917736}, {"id": 5145321834, "lat": 50.9912908, "lon": 17.1454264, "way_id": 529713510, "landuse": "farmland", "closest_distance_restriction": 3.189549472233078}, {"id": 5145321835, "lat": 50.9908868, "lon": 17.1449796, "way_id": 529713510, "landuse": "farmland", "closest_distance_restriction": 3.231264732264363}, {"id": 5145321836, "lat": 50.9898665, "lon": 17.143777, "way_id": 529713510, "landuse": "farmland", "closest_distance_restriction": 3.3432702035236064}, {"id": 5145321837, "lat": 50.9887594, "lon": 17.1421227, "way_id": 529713510, "landuse": "farmland", "closest_distance_restriction": 3.2950915401211778}, {"id": 5145321838, "lat": 50.9883794, "lon": 17.1414715, "way_id": 529713510, "landuse": "farmland", "closest_distance_restriction": 3.2775050179510155}, {"id": 5145321839, "lat": 50.9845023, "lon": 17.135101, "way_id": 529713510, "landuse": "farmland", "closest_distance_restriction": 3.1512266863085543}, {"id": 5145333180, "lat": 50.9918892, "lon": 17.1461728, "way_id": 529713510, "landuse": "farmland", "closest_distance_restriction": 3.1227429341261494}, {"id": 5145333181, "lat": 50.9916807, "lon": 17.1458859, "way_id": 529713510, "landuse": "farmland", "closest_distance_restriction": 3.1477461419786636}, {"id": 5145377773, "lat": 50.9927314, "lon": 17.1622542, "way_id": 529713510, "landuse": "farmland", "closest_distance_restriction": 2.013991145111124}, {"id": 5145377774, "lat": 50.992709, "lon": 17.1625608, "way_id": 529713510, "landuse": "farmland", "closest_distance_restriction": 1.9944450100845503}, {"id": 5145377775, "lat": 50.9928032, "lon": 17.1621425, "way_id": 529713510, "landuse": "farmland", "closest_distance_restriction": 2.0189052607329137}, {"id": 5145377776, "lat": 50.992902, "lon": 17.16248, "way_id": 529713510, "landuse": "farmland", "closest_distance_restriction": 1.9930389270335493}, {"id": 5145377777, "lat": 50.99308, "lon": 17.1622898, "way_id": 529713510, "landuse": "farmland", "closest_distance_restriction": 1.9996837973708237}, {"id": 5145377778, "lat": 50.9932445, "lon": 17.1625037, "way_id": 529713510, "landuse": "farmland", "closest_distance_restriction": 1.9799667379473231}, {"id": 5145377779, "lat": 50.9948404, "lon": 17.1620267, "way_id": 529713510, "landuse": "farmland", "closest_distance_restriction": 1.9680690328391368}, {"id": 5145377793, "lat": 50.9970602, "lon": 17.1584622, "way_id": 529713510, "landuse": "farmland", "closest_distance_restriction": 2.181428493626701}, {"id": 5145377794, "lat": 50.9980374, "lon": 17.1566354, "way_id": 529713510, "landuse": "farmland", "closest_distance_restriction": 2.3041616295503395}, {"id": 5145377795, "lat": 50.9977742, "lon": 17.1562076, "way_id": 529713510, "landuse": "farmland", "closest_distance_restriction": 2.3348725942850104}, {"id": 5145377796, "lat": 50.9966104, "lon": 17.1544202, "way_id": 529713510, "landuse": "farmland", "closest_distance_restriction": 2.4673291221923592}, {"id": 5145377797, "lat": 50.9957159, "lon": 17.1529847, "way_id": 529713510, "landuse": "farmland", "closest_distance_restriction": 2.5773520988208976}, {"id": 5145377798, "lat": 50.9953688, "lon": 17.1526804, "way_id": 529713510, "landuse": "farmland", "closest_distance_restriction": 2.6033234476645526}, {"id": 5784274040, "lat": 50.8496375, "lon": 17.2412388, "way_id": 267382668, "landuse": "farmland", "closest_distance_restriction": 2.130517701347521}, {"id": 5804985376, "lat": 50.8472457, "lon": 17.1619262, "way_id": 269181042, "landuse": "farmland", "closest_distance_restriction": 1.79091113391649}, {"id": 5820602499, "lat": 50.8184627, "lon": 17.2819553, "way_id": 268638005, "landuse": "farmland", "closest_distance_restriction": 2.420657787317547}, {"id": 6039439664, "lat": 50.9866418, "lon": 17.1284167, "way_id": 529713510, "landuse": "farmland", "closest_distance_restriction": 3.63276949793965}, {"id": 6039439676, "lat": 50.9843584, "lon": 17.1347242, "way_id": 529713510, "landuse": "farmland", "closest_distance_restriction": 3.1548786263302144}, {"id": 6039439752, "lat": 50.9845871, "lon": 17.1344424, "way_id": 529713510, "landuse": "farmland", "closest_distance_restriction": 3.187061498941894}, {"id": 7031713860, "lat": 50.8798418, "lon": 17.3959348, "way_id": 268751683, "landuse": "farmland", "closest_distance_restriction": 1.760790787428834}, {"id": 7031713861, "lat": 50.8798997, "lon": 17.3955622, "way_id": 268751385, "landuse": "farmland", "closest_distance_restriction": 1.7342252735526318}]}