{"nodes": [{"id": 1279339155, "lat": 51.1597724, "lon": 15.4944289, "way_id": 524105736, "landuse": "farmland", "closest_distance_restriction": 1.9793723590038586}, {"id": 1279339380, "lat": 51.166967, "lon": 15.4942486, "way_id": 618356682, "landuse": "farmland", "closest_distance_restriction": 1.9397233706595167}, {"id": 1279340112, "lat": 51.1664884, "lon": 15.4871922, "way_id": 618356682, "landuse": "farmland", "closest_distance_restriction": 1.920360474434681}, {"id": 1279341055, "lat": 51.1672832, "lon": 15.4871393, "way_id": 618356682, "landuse": "farmland", "closest_distance_restriction": 1.9669539403185048}, {"id": 1279341555, "lat": 51.1648736, "lon": 15.4840073, "way_id": 618356682, "landuse": "farmland", "closest_distance_restriction": 1.6359424318438098}, {"id": 1279342018, "lat": 51.1663238, "lon": 15.4848057, "way_id": 618356682, "landuse": "farmland", "closest_distance_restriction": 1.7763331752278635}, {"id": 1279342824, "lat": 51.1675965, "lon": 15.4898799, "way_id": 618356682, "landuse": "farmland", "closest_distance_restriction": 1.9502331384927603}, {"id": 1281826243, "lat": 51.2902777, "lon": 15.7661666, "way_id": 593141359, "landuse": "farmland", "closest_distance_restriction": 1.8608057653119525}, {"id": 1281826347, "lat": 51.2936201, "lon": 15.7585596, "way_id": 593141359, "landuse": "farmland", "closest_distance_restriction": 1.9744233015380546}, {"id": 1281827804, "lat": 51.2876068, "lon": 15.7690699, "way_id": 593141359, "landuse": "farmland", "closest_distance_restriction": 1.5938142008037623}, {"id": 1366514369, "lat": 51.3197582, "lon": 15.6417996, "way_id": 391745968, "landuse": "farmland", "closest_distance_restriction": 1.576571996249834}, {"id": 1968694768, "lat": 51.3141914, "lon": 15.639797, "way_id": 432051668, "landuse": "farmland", "closest_distance_restriction": 1.6796176962675422}, {"id": 1968694770, "lat": 51.3068739, "lon": 15.6513453, "way_id": 432051651, "landuse": "farmland", "closest_distance_restriction": 1.6171246401391566}, {"id": 1968694777, "lat": 51.3213358, "lon": 15.6348078, "way_id": 391745968, "landuse": "farmland", "closest_distance_restriction": 1.578991098666801}, {"id": 1968694780, "lat": 51.3213409, "lon": 15.6399628, "way_id": 391745968, "landuse": "farmland", "closest_distance_restriction": 1.639036890711366}, {"id": 1968694808, "lat": 51.3079294, "lon": 15.6565091, "way_id": 593477538, "landuse": "farmland", "closest_distance_restriction": 1.8464446402636088}, {"id": 1968694812, "lat": 51.3206091, "lon": 15.6389139, "way_id": 391745968, "landuse": "farmland", "closest_distance_restriction": 1.7321019572808096}, {"id": 1968694814, "lat": 51.3077816, "lon": 15.6610788, "way_id": 593477538, "landuse": "farmland", "closest_distance_restriction": 1.6735939753959956}, {"id": 1968694815, "lat": 51.3096775, "lon": 15.6569727, "way_id": 593477538, "landuse": "farmland", "closest_distance_restriction": 1.6800647203651078}, {"id": 1968694817, "lat": 51.3177075, "lon": 15.6421581, "way_id": 391745968, "landuse": "farmland", "closest_distance_restriction": 1.6573705107433274}, {"id": 1968694880, "lat": 51.3091997, "lon": 15.6592493, "way_id": 593477538, "landuse": "farmland", "closest_distance_restriction": 1.6166070190952295}, {"id": 1968694883, "lat": 51.3097842, "lon": 15.6540374, "way_id": 593477538, "landuse": "farmland", "closest_distance_restriction": 1.7931980369511848}, {"id": 1968694885, "lat": 51.3086508, "lon": 15.658298, "way_id": 593477538, "landuse": "farmland", "closest_distance_restriction": 1.7055214471992082}, {"id": 1968694909, "lat": 51.3071716, "lon": 15.6597209, "way_id": 593477538, "landuse": "farmland", "closest_distance_restriction": 1.78125553543607}, {"id": 2096069586, "lat": 51.2803404, "lon": 15.4808206, "way_id": 317200192, "landuse": "meadow", "closest_distance_restriction": 1.5653046071833412}, {"id": 2209897868, "lat": 51.1525897, "lon": 15.6900908, "way_id": 619297174, "landuse": "farmland", "closest_distance_restriction": 2.4521392739889945}, {"id": 2209897869, "lat": 51.1526285, "lon": 15.6906786, "way_id": 619297174, "landuse": "farmland", "closest_distance_restriction": 2.441007869091925}, {"id": 2209897873, "lat": 51.1527061, "lon": 15.6889976, "way_id": 619297174, "landuse": "farmland", "closest_distance_restriction": 2.454016423553461}, {"id": 2209897879, "lat": 51.1528226, "lon": 15.6908178, "way_id": 619297174, "landuse": "farmland", "closest_distance_restriction": 2.418158828898672}, {"id": 2209897893, "lat": 51.1530231, "lon": 15.6905239, "way_id": 619297174, "landuse": "farmland", "closest_distance_restriction": 2.3994827607835414}, {"id": 2209897902, "lat": 51.1532592, "lon": 15.6905806, "way_id": 619297174, "landuse": "farmland", "closest_distance_restriction": 2.3729379578187184}, {"id": 2209897904, "lat": 51.1532722, "lon": 15.6921637, "way_id": 619297174, "landuse": "farmland", "closest_distance_restriction": 2.355552901559145}, {"id": 2209897913, "lat": 51.1534727, "lon": 15.6926175, "way_id": 619297174, "landuse": "farmland", "closest_distance_restriction": 2.327648473402052}, {"id": 2209897916, "lat": 51.1535794, "lon": 15.6947626, "way_id": 619297174, "landuse": "farmland", "closest_distance_restriction": 2.2336923828651587}, {"id": 2209897918, "lat": 51.1536668, "lon": 15.6899103, "way_id": 619297174, "landuse": "farmland", "closest_distance_restriction": 2.3366872795107736}, {"id": 2209897932, "lat": 51.1542878, "lon": 15.6951494, "way_id": 619297174, "landuse": "farmland", "closest_distance_restriction": 2.1563399344777947}, {"id": 2209897935, "lat": 51.1544333, "lon": 15.6885851, "way_id": 619297174, "landuse": "farmland", "closest_distance_restriction": 2.27306533582409}, {"id": 2209897945, "lat": 51.1547697, "lon": 15.6882447, "way_id": 619297174, "landuse": "farmland", "closest_distance_restriction": 2.242538127667}, {"id": 2209897977, "lat": 51.1556365, "lon": 15.6878116, "way_id": 619297174, "landuse": "farmland", "closest_distance_restriction": 2.1568865754703914}, {"id": 2209897989, "lat": 51.1557594, "lon": 15.6956547, "way_id": 619297174, "landuse": "farmland", "closest_distance_restriction": 2.01138747509542}, {"id": 2209898010, "lat": 51.1561345, "lon": 15.6871257, "way_id": 619297174, "landuse": "farmland", "closest_distance_restriction": 2.116663553523752}, {"id": 2209898034, "lat": 51.1566002, "lon": 15.6870793, "way_id": 619297174, "landuse": "farmland", "closest_distance_restriction": 2.068058143497461}, {"id": 2209898054, "lat": 51.1570498, "lon": 15.6861151, "way_id": 619297174, "landuse": "farmland", "closest_distance_restriction": 2.0416490014938544}, {"id": 2209898090, "lat": 51.1575608, "lon": 15.6863162, "way_id": 619297174, "landuse": "farmland", "closest_distance_restriction": 1.9834010698342255}, {"id": 2209898108, "lat": 51.1581203, "lon": 15.6967015, "way_id": 619297174, "landuse": "farmland", "closest_distance_restriction": 1.754467024180648}, {"id": 2209898117, "lat": 51.1581753, "lon": 15.6960518, "way_id": 619297174, "landuse": "farmland", "closest_distance_restriction": 1.7592798862010683}, {"id": 2209898130, "lat": 51.1585342, "lon": 15.6864399, "way_id": 619297174, "landuse": "farmland", "closest_distance_restriction": 1.878717943239721}, {"id": 2209898132, "lat": 51.1585525, "lon": 15.6886277, "way_id": 619297174, "landuse": "farmland", "closest_distance_restriction": 1.8291994780467185}, {"id": 2209898145, "lat": 51.1595953, "lon": 15.6888975, "way_id": 619297174, "landuse": "farmland", "closest_distance_restriction": 1.712588819247077}, {"id": 2209898149, "lat": 51.1596662, "lon": 15.6882703, "way_id": 619297174, "landuse": "farmland", "closest_distance_restriction": 1.7179334839764033}, {"id": 2209898163, "lat": 51.1601098, "lon": 15.691304, "way_id": 619297174, "landuse": "farmland", "closest_distance_restriction": 1.615343747630616}, {"id": 2209898168, "lat": 51.1602653, "lon": 15.688336, "way_id": 619297174, "landuse": "farmland", "closest_distance_restriction": 1.6532001312957791}, {"id": 2231836678, "lat": 51.3043539, "lon": 15.6782667, "way_id": 593477538, "landuse": "farmland", "closest_distance_restriction": 1.5868579723484009}, {"id": 2269099595, "lat": 51.3776636, "lon": 15.3350395, "way_id": 526095914, "landuse": "meadow", "closest_distance_restriction": 1.845775024016797}, {"id": 2269099619, "lat": 51.3782748, "lon": 15.3363755, "way_id": 526095914, "landuse": "meadow", "closest_distance_restriction": 1.960532972749376}, {"id": 2269099623, "lat": 51.3783259, "lon": 15.3364212, "way_id": 526095914, "landuse": "meadow", "closest_distance_restriction": 1.9665992303435156}, {"id": 2269099627, "lat": 51.378391, "lon": 15.3366035, "way_id": 217614798, "landuse": "meadow", "closest_distance_restriction": 1.9809619704733297}, {"id": 2269099664, "lat": 51.3795071, "lon": 15.3390651, "way_id": 217614798, "landuse": "meadow", "closest_distance_restriction": 2.1917539034159215}, {"id": 2269099688, "lat": 51.3801375, "lon": 15.3404754, "way_id": 217614798, "landuse": "meadow", "closest_distance_restriction": 2.311917143669893}, {"id": 2269099700, "lat": 51.3804013, "lon": 15.3339337, "way_id": 526095914, "landuse": "meadow", "closest_distance_restriction": 1.9883519509566125}, {"id": 2269099705, "lat": 51.3804382, "lon": 15.3338904, "way_id": 526095914, "landuse": "meadow", "closest_distance_restriction": 1.9877157727484793}, {"id": 2269099742, "lat": 51.381979, "lon": 15.3382528, "way_id": 217614798, "landuse": "meadow", "closest_distance_restriction": 2.3351721070146207}, {"id": 2269099748, "lat": 51.382256, "lon": 15.3379185, "way_id": 217614798, "landuse": "meadow", "closest_distance_restriction": 2.330641182863096}, {"id": 2269099749, "lat": 51.3822919, "lon": 15.3378751, "way_id": 217614798, "landuse": "meadow", "closest_distance_restriction": 2.3300428376389974}, {"id": 2269099754, "lat": 51.3826895, "lon": 15.3311969, "way_id": 217614798, "landuse": "meadow", "closest_distance_restriction": 1.9706456142365871}, {"id": 2269099779, "lat": 51.383666, "lon": 15.3300371, "way_id": 217614798, "landuse": "meadow", "closest_distance_restriction": 1.9790386663659636}, {"id": 2269099780, "lat": 51.38367, "lon": 15.3300324, "way_id": 526075486, "landuse": "meadow", "closest_distance_restriction": 1.9790945822477373}, {"id": 2269099786, "lat": 51.3838964, "lon": 15.3359244, "way_id": 217614798, "landuse": "meadow", "closest_distance_restriction": 2.313587697005964}, {"id": 2269099787, "lat": 51.3839181, "lon": 15.3359588, "way_id": 217614798, "landuse": "meadow", "closest_distance_restriction": 2.3169348392899236}, {"id": 2269099788, "lat": 51.3840364, "lon": 15.3362019, "way_id": 217614798, "landuse": "meadow", "closest_distance_restriction": 2.3383119537565413}, {"id": 2269099799, "lat": 51.3843661, "lon": 15.3363438, "way_id": 217614798, "landuse": "meadow", "closest_distance_restriction": 2.367854084323515}, {"id": 2269099802, "lat": 51.3843923, "lon": 15.331586, "way_id": 526075486, "landuse": "meadow", "closest_distance_restriction": 2.112978667646652}, {"id": 2269099811, "lat": 51.3845938, "lon": 15.328919, "way_id": 526075486, "landuse": "meadow", "closest_distance_restriction": 1.994701169079631}, {"id": 2269099813, "lat": 51.3846217, "lon": 15.3320795, "way_id": 526075486, "landuse": "meadow", "closest_distance_restriction": 2.1555183577377903}, {"id": 2269099817, "lat": 51.3847386, "lon": 15.3358866, "way_id": 217614798, "landuse": "meadow", "closest_distance_restriction": 2.3674286666252686}, {"id": 2269099820, "lat": 51.3848214, "lon": 15.3347966, "way_id": 217614798, "landuse": "meadow", "closest_distance_restriction": 2.313750134728344}, {"id": 2269099826, "lat": 51.3848703, "lon": 15.3350316, "way_id": 217614798, "landuse": "meadow", "closest_distance_restriction": 2.329859596380241}, {"id": 2269099833, "lat": 51.3849951, "lon": 15.3284357, "way_id": 526075486, "landuse": "meadow", "closest_distance_restriction": 2.004030954152761}, {"id": 2269099861, "lat": 51.38551, "lon": 15.3339904, "way_id": 217614798, "landuse": "meadow", "closest_distance_restriction": 2.320295653243345}, {"id": 2269099883, "lat": 51.3859681, "lon": 15.3272633, "way_id": 526075486, "landuse": "meadow", "closest_distance_restriction": 2.0328245929865165}, {"id": 2763365073, "lat": 51.1645955, "lon": 15.494144, "way_id": 618356682, "landuse": "farmland", "closest_distance_restriction": 2.1802533090016554}, {"id": 3234396691, "lat": 51.2803308, "lon": 15.4805831, "way_id": 317200192, "landuse": "meadow", "closest_distance_restriction": 1.5805400919714978}, {"id": 3692848161, "lat": 51.3073648, "lon": 15.6572898, "way_id": 593477538, "landuse": "farmland", "closest_distance_restriction": 1.8612791995143285}, {"id": 3692848162, "lat": 51.3070954, "lon": 15.6580053, "way_id": 593477538, "landuse": "farmland", "closest_distance_restriction": 1.8555601412183969}, {"id": 3692848163, "lat": 51.3076596, "lon": 15.6591274, "way_id": 593477538, "landuse": "farmland", "closest_distance_restriction": 1.7592399362231832}, {"id": 3692848168, "lat": 51.321036, "lon": 15.6393042, "way_id": 391745968, "landuse": "farmland", "closest_distance_restriction": 1.6923505957090959}, {"id": 3694779244, "lat": 51.3031818, "lon": 15.6653681, "way_id": 593477538, "landuse": "farmland", "closest_distance_restriction": 1.9476726647134923}, {"id": 3694779245, "lat": 51.3025755, "lon": 15.6592736, "way_id": 593477538, "landuse": "farmland", "closest_distance_restriction": 1.8074945672217722}, {"id": 3694779246, "lat": 51.3027791, "lon": 15.6613405, "way_id": 593477538, "landuse": "farmland", "closest_distance_restriction": 1.9489389958647887}, {"id": 3694779247, "lat": 51.3029606, "lon": 15.6617015, "way_id": 593477538, "landuse": "farmland", "closest_distance_restriction": 1.9797811368996951}, {"id": 3694779248, "lat": 51.3030668, "lon": 15.6630464, "way_id": 593477538, "landuse": "farmland", "closest_distance_restriction": 2.0313698159317224}, {"id": 3694779249, "lat": 51.3030269, "lon": 15.6635914, "way_id": 593477538, "landuse": "farmland", "closest_distance_restriction": 2.017456121107184}, {"id": 3951466427, "lat": 51.3200234, "lon": 15.6418558, "way_id": 391745968, "landuse": "farmland", "closest_distance_restriction": 1.5616626833899827}, {"id": 4090000302, "lat": 51.1598778, "lon": 15.4912253, "way_id": 524105736, "landuse": "farmland", "closest_distance_restriction": 1.7708963399341122}, {"id": 4090000303, "lat": 51.1597534, "lon": 15.4929089, "way_id": 524105736, "landuse": "farmland", "closest_distance_restriction": 1.8776419209313668}, {"id": 4090000312, "lat": 51.1598852, "lon": 15.490366, "way_id": 524105736, "landuse": "farmland", "closest_distance_restriction": 1.7148264037100218}, {"id": 4090000326, "lat": 51.1600301, "lon": 15.4884934, "way_id": 524105736, "landuse": "farmland", "closest_distance_restriction": 1.5990144629747596}, {"id": 4090000386, "lat": 51.1643619, "lon": 15.483696, "way_id": 618356682, "landuse": "farmland", "closest_distance_restriction": 1.5807516963298274}, {"id": 4090000387, "lat": 51.1644042, "lon": 15.4834012, "way_id": 618356682, "landuse": "farmland", "closest_distance_restriction": 1.5692237298866525}, {"id": 4090000388, "lat": 51.1644599, "lon": 15.4832947, "way_id": 618356682, "landuse": "farmland", "closest_distance_restriction": 1.568263131235734}, {"id": 4090000389, "lat": 51.1645103, "lon": 15.4832066, "way_id": 618356682, "landuse": "farmland", "closest_distance_restriction": 1.5678527388582317}, {"id": 4090000390, "lat": 51.1646673, "lon": 15.4852991, "way_id": 618356682, "landuse": "farmland", "closest_distance_restriction": 1.6858935331321447}, {"id": 4090000391, "lat": 51.1646987, "lon": 15.4851964, "way_id": 618356682, "landuse": "farmland", "closest_distance_restriction": 1.6829065913445869}, {"id": 4090000392, "lat": 51.1647325, "lon": 15.4853699, "way_id": 618356682, "landuse": "farmland", "closest_distance_restriction": 1.694409709282692}, {"id": 4090000393, "lat": 51.1648001, "lon": 15.4850448, "way_id": 618356682, "landuse": "farmland", "closest_distance_restriction": 1.6826972838246352}, {"id": 4090000394, "lat": 51.1648743, "lon": 15.4833559, "way_id": 618356682, "landuse": "farmland", "closest_distance_restriction": 1.6039566624176518}, {"id": 4090000395, "lat": 51.1648744, "lon": 15.4832603, "way_id": 618356682, "landuse": "farmland", "closest_distance_restriction": 1.5993169316285025}, {"id": 4090000396, "lat": 51.1648807, "lon": 15.4835315, "way_id": 618356682, "landuse": "farmland", "closest_distance_restriction": 1.6130373599831627}, {"id": 4090000397, "lat": 51.1649314, "lon": 15.4850575, "way_id": 618356682, "landuse": "farmland", "closest_distance_restriction": 1.6932689975515125}, {"id": 4090000398, "lat": 51.1650858, "lon": 15.4848488, "way_id": 618356682, "landuse": "farmland", "closest_distance_restriction": 1.6944778135278669}, {"id": 4090000399, "lat": 51.165189, "lon": 15.4843601, "way_id": 618356682, "landuse": "farmland", "closest_distance_restriction": 1.6780969617682746}, {"id": 4090000400, "lat": 51.1651938, "lon": 15.484123, "way_id": 618356682, "landuse": "farmland", "closest_distance_restriction": 1.6667922844095802}, {"id": 4090000401, "lat": 51.1652404, "lon": 15.4842085, "way_id": 618356682, "landuse": "farmland", "closest_distance_restriction": 1.6746695262783844}, {"id": 4090000402, "lat": 51.1663081, "lon": 15.4859847, "way_id": 618356682, "landuse": "farmland", "closest_distance_restriction": 1.8461831141807599}, {"id": 4090000403, "lat": 51.1664178, "lon": 15.4862679, "way_id": 618356682, "landuse": "farmland", "closest_distance_restriction": 1.8687705133393555}, {"id": 4090000405, "lat": 51.1666283, "lon": 15.4875281, "way_id": 618356682, "landuse": "farmland", "closest_distance_restriction": 1.9480439221802837}, {"id": 4090000407, "lat": 51.166835, "lon": 15.4873949, "way_id": 618356682, "landuse": "farmland", "closest_distance_restriction": 1.9572990851676115}, {"id": 4090000409, "lat": 51.1670874, "lon": 15.4933022, "way_id": 618356682, "landuse": "farmland", "closest_distance_restriction": 1.9394691249084803}, {"id": 4090000410, "lat": 51.1672619, "lon": 15.4922154, "way_id": 618356682, "landuse": "farmland", "closest_distance_restriction": 1.9381573050465746}, {"id": 4090000411, "lat": 51.1673758, "lon": 15.4880392, "way_id": 618356682, "landuse": "farmland", "closest_distance_restriction": 2.0192950091136854}, {"id": 4090000412, "lat": 51.167478, "lon": 15.4912049, "way_id": 618356682, "landuse": "farmland", "closest_distance_restriction": 1.934033174354533}, {"id": 4090000413, "lat": 51.1674782, "lon": 15.4889119, "way_id": 618356682, "landuse": "farmland", "closest_distance_restriction": 1.9860118126068376}, {"id": 4090000414, "lat": 51.1676307, "lon": 15.4906215, "way_id": 618356682, "landuse": "farmland", "closest_distance_restriction": 1.9299997301137963}, {"id": 4232614378, "lat": 51.3780681, "lon": 15.3350437, "way_id": 526095914, "landuse": "meadow", "closest_distance_restriction": 1.8750964539406851}, {"id": 4232614414, "lat": 51.3784256, "lon": 15.3341001, "way_id": 526095914, "landuse": "meadow", "closest_distance_restriction": 1.8529758685045687}, {"id": 4232614530, "lat": 51.3792386, "lon": 15.3335202, "way_id": 526095914, "landuse": "meadow", "closest_distance_restriction": 1.8876614957844795}, {"id": 4232614795, "lat": 51.3809134, "lon": 15.3307869, "way_id": 526095914, "landuse": "meadow", "closest_distance_restriction": 1.8314632853933555}, {"id": 4232614805, "lat": 51.3809935, "lon": 15.3310436, "way_id": 526095914, "landuse": "meadow", "closest_distance_restriction": 1.851222413507764}, {"id": 4232615567, "lat": 51.385327, "lon": 15.3331582, "way_id": 526075486, "landuse": "meadow", "closest_distance_restriction": 2.2635876552398573}, {"id": 4232615627, "lat": 51.3857878, "lon": 15.3326004, "way_id": 526075486, "landuse": "meadow", "closest_distance_restriction": 2.269852760241276}, {"id": 4232615829, "lat": 51.386215, "lon": 15.331103, "way_id": 526075486, "landuse": "meadow", "closest_distance_restriction": 2.229652794500968}, {"id": 4232615852, "lat": 51.3862951, "lon": 15.3305801, "way_id": 526075486, "landuse": "meadow", "closest_distance_restriction": 2.2112036069575725}, {"id": 4232615856, "lat": 51.3862239, "lon": 15.3282128, "way_id": 526075486, "landuse": "meadow", "closest_distance_restriction": 2.096606125482716}, {"id": 4232615862, "lat": 51.3863247, "lon": 15.329154, "way_id": 526075486, "landuse": "meadow", "closest_distance_restriction": 2.1474697251162165}, {"id": 4457779254, "lat": 51.1669678, "lon": 15.494489, "way_id": 618356682, "landuse": "farmland", "closest_distance_restriction": 1.936720861783425}, {"id": 4567896311, "lat": 51.1625579, "lon": 15.4942357, "way_id": 618356682, "landuse": "farmland", "closest_distance_restriction": 2.0791120373004666}, {"id": 4567896312, "lat": 51.1626692, "lon": 15.4941797, "way_id": 618356682, "landuse": "farmland", "closest_distance_restriction": 2.080922721867517}, {"id": 4567896313, "lat": 51.1626282, "lon": 15.4936193, "way_id": 618356682, "landuse": "farmland", "closest_distance_restriction": 2.043776233904333}, {"id": 4567896314, "lat": 51.1627863, "lon": 15.4935632, "way_id": 618356682, "landuse": "farmland", "closest_distance_restriction": 2.0480629452753707}, {"id": 4567896315, "lat": 51.1627043, "lon": 15.4930122, "way_id": 618356682, "landuse": "farmland", "closest_distance_restriction": 2.0096389891635864}, {"id": 4567896316, "lat": 51.1629679, "lon": 15.4929468, "way_id": 618356682, "landuse": "farmland", "closest_distance_restriction": 2.018989865220886}, {"id": 4567896318, "lat": 51.1634716, "lon": 15.4933858, "way_id": 618356682, "landuse": "farmland", "closest_distance_restriction": 2.072381041992183}, {"id": 4567896320, "lat": 51.1635568, "lon": 15.4942638, "way_id": 618356682, "landuse": "farmland", "closest_distance_restriction": 2.130773357767304}, {"id": 4567896321, "lat": 51.1647198, "lon": 15.4952839, "way_id": 618356682, "landuse": "farmland", "closest_distance_restriction": 2.1758194923312346}, {"id": 4567896331, "lat": 51.1667673, "lon": 15.4944991, "way_id": 618356682, "landuse": "farmland", "closest_distance_restriction": 1.9585776456199984}, {"id": 4567896332, "lat": 51.1663501, "lon": 15.4945274, "way_id": 618356682, "landuse": "farmland", "closest_distance_restriction": 2.004006219827087}, {"id": 4817832138, "lat": 51.3045732, "lon": 15.6540309, "way_id": 593477538, "landuse": "farmland", "closest_distance_restriction": 1.5968151218618944}, {"id": 4817832139, "lat": 51.3022427, "lon": 15.6565057, "way_id": 593477538, "landuse": "farmland", "closest_distance_restriction": 1.6164164332338729}, {"id": 4817832140, "lat": 51.3028738, "lon": 15.6557014, "way_id": 489548965, "landuse": "farmland", "closest_distance_restriction": 1.5969182947742533}, {"id": 4817832143, "lat": 51.3051475, "lon": 15.653354, "way_id": 593477538, "landuse": "farmland", "closest_distance_restriction": 1.5976009173416987}, {"id": 4817832144, "lat": 51.306142, "lon": 15.6523928, "way_id": 593477538, "landuse": "farmland", "closest_distance_restriction": 1.6181091001674042}, {"id": 4854143498, "lat": 51.3126803, "lon": 15.6516084, "way_id": 593477538, "landuse": "farmland", "closest_distance_restriction": 1.5903908947909913}, {"id": 4854143514, "lat": 51.3138135, "lon": 15.6388122, "way_id": 432051668, "landuse": "farmland", "closest_distance_restriction": 1.6015099199486005}, {"id": 4854143735, "lat": 51.3206394, "lon": 15.6387426, "way_id": 391745968, "landuse": "farmland", "closest_distance_restriction": 1.7424521872985503}, {"id": 5046270213, "lat": 51.1625223, "lon": 15.4945455, "way_id": 618356682, "landuse": "farmland", "closest_distance_restriction": 2.0969780356597525}, {"id": 5046271130, "lat": 51.1662477, "lon": 15.4954268, "way_id": 618356682, "landuse": "farmland", "closest_distance_restriction": 2.006051355733601}, {"id": 5100851824, "lat": 51.1642538, "lon": 15.4837416, "way_id": 524105736, "landuse": "farmland", "closest_distance_restriction": 1.5747927949971952}, {"id": 5100851825, "lat": 51.1641712, "lon": 15.48465, "way_id": 524105736, "landuse": "farmland", "closest_distance_restriction": 1.6154086007812523}, {"id": 5100851826, "lat": 51.1641068, "lon": 15.4857568, "way_id": 524105736, "landuse": "farmland", "closest_distance_restriction": 1.669443532334018}, {"id": 5100851827, "lat": 51.1641097, "lon": 15.4867398, "way_id": 524105736, "landuse": "farmland", "closest_distance_restriction": 1.7230567311294116}, {"id": 5100851828, "lat": 51.1641024, "lon": 15.4871508, "way_id": 524105736, "landuse": "farmland", "closest_distance_restriction": 1.7452064792734403}, {"id": 5100851829, "lat": 51.1640629, "lon": 15.4874146, "way_id": 524105736, "landuse": "farmland", "closest_distance_restriction": 1.7571893683839457}, {"id": 5100851830, "lat": 51.1639941, "lon": 15.4876294, "way_id": 524105736, "landuse": "farmland", "closest_distance_restriction": 1.7646084719730752}, {"id": 5100851831, "lat": 51.1637905, "lon": 15.4880521, "way_id": 524105736, "landuse": "farmland", "closest_distance_restriction": 1.7751814315114156}, {"id": 5100851832, "lat": 51.1635767, "lon": 15.4886008, "way_id": 524105736, "landuse": "farmland", "closest_distance_restriction": 1.793101373673977}, {"id": 5100851833, "lat": 51.1633556, "lon": 15.4892523, "way_id": 524105736, "landuse": "farmland", "closest_distance_restriction": 1.817560806378977}, {"id": 5100851834, "lat": 51.1632092, "lon": 15.4895885, "way_id": 524105736, "landuse": "farmland", "closest_distance_restriction": 1.8287316358499734}, {"id": 5100851835, "lat": 51.1630276, "lon": 15.4899364, "way_id": 524105736, "landuse": "farmland", "closest_distance_restriction": 1.8389677826907633}, {"id": 5100851836, "lat": 51.1628724, "lon": 15.4901699, "way_id": 524105736, "landuse": "farmland", "closest_distance_restriction": 1.8442473109970743}, {"id": 5100851837, "lat": 51.1626074, "lon": 15.4905178, "way_id": 524105736, "landuse": "farmland", "closest_distance_restriction": 1.8508292958226333}, {"id": 5100851838, "lat": 51.162316, "lon": 15.4908774, "way_id": 524105736, "landuse": "farmland", "closest_distance_restriction": 1.85752771880989}, {"id": 5100851839, "lat": 51.1620202, "lon": 15.49123, "way_id": 524105736, "landuse": "farmland", "closest_distance_restriction": 1.8644476894639592}, {"id": 5100851840, "lat": 51.1619938, "lon": 15.491181, "way_id": 524105736, "landuse": "farmland", "closest_distance_restriction": 1.8600811383572593}, {"id": 5100851841, "lat": 51.16178, "lon": 15.4914495, "way_id": 524105736, "landuse": "farmland", "closest_distance_restriction": 1.8665051791330314}, {"id": 5100851842, "lat": 51.1616102, "lon": 15.4917997, "way_id": 524105736, "landuse": "farmland", "closest_distance_restriction": 1.880614511163059}, {"id": 5100851843, "lat": 51.1613861, "lon": 15.4923415, "way_id": 524105736, "landuse": "farmland", "closest_distance_restriction": 1.9049327622664702}, {"id": 5100851844, "lat": 51.1612148, "lon": 15.4928014, "way_id": 524105736, "landuse": "farmland", "closest_distance_restriction": 1.9269772356597341}, {"id": 5100851845, "lat": 51.1610596, "lon": 15.4931914, "way_id": 524105736, "landuse": "farmland", "closest_distance_restriction": 1.9456247375213858}, {"id": 5100851846, "lat": 51.160941, "lon": 15.4934716, "way_id": 524105736, "landuse": "farmland", "closest_distance_restriction": 1.9589534265309634}, {"id": 5100851847, "lat": 51.1608531, "lon": 15.4936024, "way_id": 524105736, "landuse": "farmland", "closest_distance_restriction": 1.963947422270453}, {"id": 5100851848, "lat": 51.1606876, "lon": 15.4937798, "way_id": 524105736, "landuse": "farmland", "closest_distance_restriction": 1.9690559129448377}, {"id": 5100851849, "lat": 51.1604519, "lon": 15.4940297, "way_id": 524105736, "landuse": "farmland", "closest_distance_restriction": 1.9765573269773493}, {"id": 5100851850, "lat": 51.1602161, "lon": 15.4943052, "way_id": 524105736, "landuse": "farmland", "closest_distance_restriction": 1.986219231350938}, {"id": 5100851851, "lat": 51.1600067, "lon": 15.494562, "way_id": 524105736, "landuse": "farmland", "closest_distance_restriction": 1.9960111753862082}, {"id": 5100851852, "lat": 51.1599276, "lon": 15.4946578, "way_id": 524105736, "landuse": "farmland", "closest_distance_restriction": 1.9997296910517084}, {"id": 5100851853, "lat": 51.1598486, "lon": 15.4946998, "way_id": 524105736, "landuse": "farmland", "closest_distance_restriction": 1.999919832210425}, {"id": 5100851854, "lat": 51.1598097, "lon": 15.4946779, "way_id": 524105736, "landuse": "farmland", "closest_distance_restriction": 1.9971897148913442}, {"id": 5100851855, "lat": 51.1597314, "lon": 15.4936771, "way_id": 524105736, "landuse": "farmland", "closest_distance_restriction": 1.9279452488249742}, {"id": 5100851856, "lat": 51.1597665, "lon": 15.4924162, "way_id": 524105736, "landuse": "farmland", "closest_distance_restriction": 1.8454422449863963}, {"id": 5100851857, "lat": 51.1598398, "lon": 15.4916503, "way_id": 524105736, "landuse": "farmland", "closest_distance_restriction": 1.7974669069335762}, {"id": 5100851858, "lat": 51.1598749, "lon": 15.4908074, "way_id": 524105736, "landuse": "farmland", "closest_distance_restriction": 1.7433504051954116}, {"id": 5100851859, "lat": 51.159932, "lon": 15.4898547, "way_id": 524105736, "landuse": "farmland", "closest_distance_restriction": 1.6832605117838346}, {"id": 5100851860, "lat": 51.1599847, "lon": 15.4891332, "way_id": 524105736, "landuse": "farmland", "closest_distance_restriction": 1.6384836854503533}, {"id": 5105031507, "lat": 51.374728, "lon": 15.6945939, "way_id": 524620677, "landuse": "farmland", "closest_distance_restriction": 2.3010454731595873}, {"id": 5105031508, "lat": 51.3748213, "lon": 15.6953505, "way_id": 524620677, "landuse": "farmland", "closest_distance_restriction": 2.261331843184021}, {"id": 5105031509, "lat": 51.3746697, "lon": 15.6958455, "way_id": 524620677, "landuse": "farmland", "closest_distance_restriction": 2.2232245479536346}, {"id": 5105031510, "lat": 51.37397, "lon": 15.6965273, "way_id": 524620677, "landuse": "farmland", "closest_distance_restriction": 2.1426430539452195}, {"id": 5105031511, "lat": 51.3737368, "lon": 15.6963779, "way_id": 524620677, "landuse": "farmland", "closest_distance_restriction": 2.1386614435769107}, {"id": 5105031512, "lat": 51.3733462, "lon": 15.6964619, "way_id": 524620677, "landuse": "farmland", "closest_distance_restriction": 2.1124118602172723}, {"id": 5105031513, "lat": 51.3731305, "lon": 15.6955279, "way_id": 524620677, "landuse": "farmland", "closest_distance_restriction": 2.1584112149337984}, {"id": 5116625544, "lat": 51.3854377, "lon": 15.3329569, "way_id": 526075486, "landuse": "meadow", "closest_distance_restriction": 2.2614733489160646}, {"id": 5116643892, "lat": 51.3848444, "lon": 15.335462, "way_id": 217614798, "landuse": "meadow", "closest_distance_restriction": 2.3514280591447836}, {"id": 5116792180, "lat": 51.3803304, "lon": 15.3324388, "way_id": 526095914, "landuse": "meadow", "closest_distance_restriction": 1.8942552468742904}, {"id": 5116792182, "lat": 51.3810173, "lon": 15.3313288, "way_id": 526095914, "landuse": "meadow", "closest_distance_restriction": 1.8691696868893417}, {"id": 5116792184, "lat": 51.38167, "lon": 15.3297625, "way_id": 526095914, "landuse": "meadow", "closest_distance_restriction": 1.8225461156617875}, {"id": 5116792186, "lat": 51.382459, "lon": 15.3314727, "way_id": 526095914, "landuse": "meadow", "closest_distance_restriction": 1.9701253369573424}, {"id": 5116792191, "lat": 51.3790398, "lon": 15.3329854, "way_id": 526095914, "landuse": "meadow", "closest_distance_restriction": 1.845997349388749}, {"id": 5116792192, "lat": 51.3791006, "lon": 15.3326931, "way_id": 526095914, "landuse": "meadow", "closest_distance_restriction": 1.8369651175801658}, {"id": 5116792193, "lat": 51.3791065, "lon": 15.3323247, "way_id": 526095914, "landuse": "meadow", "closest_distance_restriction": 1.8200695210012927}, {"id": 5116792194, "lat": 51.3793513, "lon": 15.3324673, "way_id": 526095914, "landuse": "meadow", "closest_distance_restriction": 1.843530478123191}, {"id": 5116792195, "lat": 51.3805648, "lon": 15.3322225, "way_id": 526095914, "landuse": "meadow", "closest_distance_restriction": 1.8946687740541612}, {"id": 5116792196, "lat": 51.3802088, "lon": 15.3322106, "way_id": 526095914, "landuse": "meadow", "closest_distance_restriction": 1.8737646786656899}, {"id": 5116792197, "lat": 51.3800055, "lon": 15.3325267, "way_id": 526095914, "landuse": "meadow", "closest_distance_restriction": 1.8816237614356126}, {"id": 5116792198, "lat": 51.379648, "lon": 15.3325552, "way_id": 526095914, "landuse": "meadow", "closest_distance_restriction": 1.864279981397557}, {"id": 5116792201, "lat": 51.378258, "lon": 15.3344757, "way_id": 526095914, "landuse": "meadow", "closest_distance_restriction": 1.859546728335225}, {"id": 5598962649, "lat": 51.1650197, "lon": 15.4852681, "way_id": 618356682, "landuse": "farmland", "closest_distance_restriction": 1.7107080975728266}, {"id": 5658464439, "lat": 51.2918376, "lon": 15.7579836, "way_id": 593141359, "landuse": "farmland", "closest_distance_restriction": 1.8009904295730548}, {"id": 5658464445, "lat": 51.2887641, "lon": 15.7671419, "way_id": 593141359, "landuse": "farmland", "closest_distance_restriction": 1.699376503691115}, {"id": 5658464446, "lat": 51.2900612, "lon": 15.7665702, "way_id": 593141359, "landuse": "farmland", "closest_distance_restriction": 1.8389459010816667}, {"id": 5658464447, "lat": 51.2902984, "lon": 15.7658258, "way_id": 593141359, "landuse": "farmland", "closest_distance_restriction": 1.861634368386142}, {"id": 5658464448, "lat": 51.2879576, "lon": 15.7683301, "way_id": 593141359, "landuse": "farmland", "closest_distance_restriction": 1.6224067800085378}, {"id": 5659280306, "lat": 51.2954126, "lon": 15.7532691, "way_id": 593141359, "landuse": "farmland", "closest_distance_restriction": 1.9204899355849172}, {"id": 5659280307, "lat": 51.297191, "lon": 15.7468496, "way_id": 593141359, "landuse": "farmland", "closest_distance_restriction": 1.5973365954732217}, {"id": 5659280308, "lat": 51.2962799, "lon": 15.7504454, "way_id": 593141359, "landuse": "farmland", "closest_distance_restriction": 1.8571958156242576}, {"id": 5659280309, "lat": 51.2960872, "lon": 15.7510694, "way_id": 593141359, "landuse": "farmland", "closest_distance_restriction": 1.903111305157015}, {"id": 5660678220, "lat": 51.2946811, "lon": 15.7555912, "way_id": 593141359, "landuse": "farmland", "closest_distance_restriction": 1.9388329795114854}, {"id": 5661574745, "lat": 51.3029126, "lon": 15.6556633, "way_id": 593477538, "landuse": "farmland", "closest_distance_restriction": 1.5965746345782859}, {"id": 5844777070, "lat": 51.1660489, "lon": 15.4956243, "way_id": 618356682, "landuse": "farmland", "closest_distance_restriction": 2.0262256521639186}, {"id": 5844777071, "lat": 51.1657678, "lon": 15.4957737, "way_id": 618356682, "landuse": "farmland", "closest_distance_restriction": 2.056010533161946}, {"id": 5844777072, "lat": 51.1649728, "lon": 15.4959937, "way_id": 618356682, "landuse": "farmland", "closest_distance_restriction": 2.1421782380208714}, {"id": 5844777073, "lat": 51.1633898, "lon": 15.4924954, "way_id": 618356682, "landuse": "farmland", "closest_distance_restriction": 2.0136313156794565}, {"id": 5844777074, "lat": 51.1629271, "lon": 15.4926635, "way_id": 618356682, "landuse": "farmland", "closest_distance_restriction": 1.999389439379197}, {"id": 5844777075, "lat": 51.1619583, "lon": 15.4942738, "way_id": 618356682, "landuse": "farmland", "closest_distance_restriction": 2.0538793569447984}, {"id": 5844777076, "lat": 51.1615799, "lon": 15.4939711, "way_id": 618356682, "landuse": "farmland", "closest_distance_restriction": 2.017893273565057}, {"id": 5844777077, "lat": 51.1610001, "lon": 15.4935601, "way_id": 618356682, "landuse": "farmland", "closest_distance_restriction": 1.9670921378568773}, {"id": 5844777078, "lat": 51.1616502, "lon": 15.4919817, "way_id": 618356682, "landuse": "farmland", "closest_distance_restriction": 1.8940044039333135}, {"id": 5844777079, "lat": 51.1620309, "lon": 15.4913652, "way_id": 618356682, "landuse": "farmland", "closest_distance_restriction": 1.8734209259160686}, {"id": 5844777080, "lat": 51.1632727, "lon": 15.489712, "way_id": 618356682, "landuse": "farmland", "closest_distance_restriction": 1.8397713050623836}, {"id": 5844777081, "lat": 51.1636592, "lon": 15.4886566, "way_id": 618356682, "landuse": "farmland", "closest_distance_restriction": 1.8014689577420397}, {"id": 5844777082, "lat": 51.1639462, "lon": 15.4879188, "way_id": 618356682, "landuse": "farmland", "closest_distance_restriction": 1.7777302348584918}, {"id": 5844777083, "lat": 51.1641805, "lon": 15.4870221, "way_id": 618356682, "landuse": "farmland", "closest_distance_restriction": 1.743415653804207}, {"id": 5844777084, "lat": 51.1641922, "lon": 15.4862562, "way_id": 618356682, "landuse": "farmland", "closest_distance_restriction": 1.7024088604345369}, {"id": 5844777885, "lat": 51.164286, "lon": 15.4846124, "way_id": 618356682, "landuse": "farmland", "closest_distance_restriction": 1.621938401692345}, {"id": 5852443709, "lat": 51.153921, "lon": 15.6894707, "way_id": 619297174, "landuse": "farmland", "closest_distance_restriction": 2.3150268798671703}, {"id": 5852443710, "lat": 51.1590681, "lon": 15.697873, "way_id": 619297174, "landuse": "farmland", "closest_distance_restriction": 1.6343676522784858}, {"id": 5852443711, "lat": 51.1593741, "lon": 15.6979055, "way_id": 619297174, "landuse": "farmland", "closest_distance_restriction": 1.600542541846441}, {"id": 6143970496, "lat": 51.1669521, "lon": 15.4944898, "way_id": 618356682, "landuse": "farmland", "closest_distance_restriction": 1.9384318636956948}, {"id": 6249944022, "lat": 51.1593927, "lon": 15.697739, "way_id": 619297174, "landuse": "farmland", "closest_distance_restriction": 1.6008086416235732}, {"id": 6249944026, "lat": 51.1585171, "lon": 15.6971919, "way_id": 619297174, "landuse": "farmland", "closest_distance_restriction": 1.7039480309007204}]}