{"nodes": [{"id": 1613414651, "lat": 50.9069292, "lon": 20.1406067, "way_id": 257744967, "landuse": "farmland", "closest_distance_restriction": 3.4152655940815544}, {"id": 1613414656, "lat": 50.9074266, "lon": 20.1417417, "way_id": 257744967, "landuse": "farmland", "closest_distance_restriction": 3.397402637221913}, {"id": 1613414658, "lat": 50.907518, "lon": 20.1391901, "way_id": 257744967, "landuse": "farmland", "closest_distance_restriction": 3.3135488936306605}, {"id": 1613414659, "lat": 50.9075383, "lon": 20.1398501, "way_id": 257744967, "landuse": "farmland", "closest_distance_restriction": 3.331218959502417}, {"id": 1613414661, "lat": 50.9076449, "lon": 20.1394798, "way_id": 257744967, "landuse": "farmland", "closest_distance_restriction": 3.3093673299206388}, {"id": 1613414662, "lat": 50.9076956, "lon": 20.1391901, "way_id": 257744967, "landuse": "farmland", "closest_distance_restriction": 3.295638441939051}, {"id": 1613414664, "lat": 50.907787, "lon": 20.1418383, "way_id": 257744967, "landuse": "farmland", "closest_distance_restriction": 3.3637155783943586}, {"id": 1613414666, "lat": 50.9079951, "lon": 20.1394959, "way_id": 257744965, "landuse": "farmland", "closest_distance_restriction": 3.274680685426247}, {"id": 1613414669, "lat": 50.908127, "lon": 20.1386669, "way_id": 257744965, "landuse": "farmland", "closest_distance_restriction": 3.2366887976823953}, {"id": 1613414670, "lat": 50.9082058, "lon": 20.1425856, "way_id": 257744967, "landuse": "farmland", "closest_distance_restriction": 3.3438797147779313}, {"id": 1613414674, "lat": 50.9084316, "lon": 20.1400513, "way_id": 257744965, "landuse": "farmland", "closest_distance_restriction": 3.247445359914923}, {"id": 1613414676, "lat": 50.9084417, "lon": 20.1387635, "way_id": 257744965, "landuse": "farmland", "closest_distance_restriction": 3.207815685081891}, {"id": 1613414680, "lat": 50.9086803, "lon": 20.1389325, "way_id": 257744965, "landuse": "farmland", "closest_distance_restriction": 3.1889031767118725}, {"id": 1613414681, "lat": 50.9087818, "lon": 20.1407275, "way_id": 257744965, "landuse": "farmland", "closest_distance_restriction": 3.2308033995821233}, {"id": 1863360497, "lat": 50.8878505, "lon": 20.1062704, "way_id": 733172122, "landuse": "meadow", "closest_distance_restriction": 4.992206984790089}, {"id": 1863360498, "lat": 50.8879245, "lon": 20.1082596, "way_id": 733172122, "landuse": "meadow", "closest_distance_restriction": 5.1148261105977815}, {"id": 1863360500, "lat": 50.8883705, "lon": 20.1083049, "way_id": 733172122, "landuse": "meadow", "closest_distance_restriction": 5.0970093599253765}, {"id": 1863360501, "lat": 50.888649, "lon": 20.1080418, "way_id": 733172122, "landuse": "meadow", "closest_distance_restriction": 5.067445871969272}, {"id": 2285232785, "lat": 50.786491, "lon": 19.9741614, "way_id": 257750184, "landuse": "farmland", "closest_distance_restriction": 4.869740854442813}, {"id": 2285232787, "lat": 50.786559, "lon": 19.9741694, "way_id": 257750184, "landuse": "farmland", "closest_distance_restriction": 4.862162149545806}, {"id": 2285250803, "lat": 50.8948496, "lon": 20.1213702, "way_id": 257744965, "landuse": "farmland", "closest_distance_restriction": 4.4177451439666955}, {"id": 2285250822, "lat": 50.8949393, "lon": 20.1211171, "way_id": 257744965, "landuse": "farmland", "closest_distance_restriction": 4.407234633454313}, {"id": 2285250825, "lat": 50.8949598, "lon": 20.1210596, "way_id": 257744965, "landuse": "farmland", "closest_distance_restriction": 4.40484291476779}, {"id": 2285250828, "lat": 50.8949671, "lon": 20.119713, "way_id": 257744965, "landuse": "farmland", "closest_distance_restriction": 4.4024358625390665}, {"id": 2285250841, "lat": 50.8950176, "lon": 20.1215133, "way_id": 257744965, "landuse": "farmland", "closest_distance_restriction": 4.399412727437465}, {"id": 2285250869, "lat": 50.8951014, "lon": 20.1190687, "way_id": 257744965, "landuse": "farmland", "closest_distance_restriction": 4.387454927248656}, {"id": 2285250887, "lat": 50.8951959, "lon": 20.1224379, "way_id": 257744965, "landuse": "farmland", "closest_distance_restriction": 4.38234845138436}, {"id": 2285250897, "lat": 50.8952356, "lon": 20.122472, "way_id": 257744965, "landuse": "farmland", "closest_distance_restriction": 4.3780593206510385}, {"id": 2285251246, "lat": 50.8969306, "lon": 20.1239798, "way_id": 257744965, "landuse": "farmland", "closest_distance_restriction": 4.196728063886963}, {"id": 2285251368, "lat": 50.8974358, "lon": 20.1244981, "way_id": 257744965, "landuse": "farmland", "closest_distance_restriction": 4.143746600958869}, {"id": 2285251520, "lat": 50.8980209, "lon": 19.8529531, "way_id": 252845206, "landuse": "meadow", "closest_distance_restriction": 1.601375192413499}, {"id": 2285251537, "lat": 50.8980807, "lon": 19.8530915, "way_id": 252845206, "landuse": "meadow", "closest_distance_restriction": 1.594742127509477}, {"id": 2285251542, "lat": 50.8981131, "lon": 19.8531834, "way_id": 252845206, "landuse": "meadow", "closest_distance_restriction": 1.5911830571701366}, {"id": 2285251555, "lat": 50.898199, "lon": 19.8534319, "way_id": 252845206, "landuse": "meadow", "closest_distance_restriction": 1.5818818646222799}, {"id": 2285251557, "lat": 50.8982042, "lon": 19.8519595, "way_id": 252845206, "landuse": "meadow", "closest_distance_restriction": 1.5826226489111395}, {"id": 2285251601, "lat": 50.8985023, "lon": 20.1256197, "way_id": 257744965, "landuse": "farmland", "closest_distance_restriction": 4.033469143514333}, {"id": 2285251639, "lat": 50.8986761, "lon": 20.1250943, "way_id": 257744965, "landuse": "farmland", "closest_distance_restriction": 4.010377999838895}, {"id": 2285251697, "lat": 50.8990262, "lon": 20.125181, "way_id": 257744965, "landuse": "farmland", "closest_distance_restriction": 3.9722724983272233}, {"id": 2285251724, "lat": 50.8991523, "lon": 20.1250467, "way_id": 257744965, "landuse": "farmland", "closest_distance_restriction": 3.9573607303574505}, {"id": 2285251740, "lat": 50.8992522, "lon": 20.1249003, "way_id": 257744965, "landuse": "farmland", "closest_distance_restriction": 3.945279704959241}, {"id": 2285251855, "lat": 50.899857, "lon": 20.1236012, "way_id": 257744965, "landuse": "farmland", "closest_distance_restriction": 3.870248087431916}, {"id": 2285251917, "lat": 50.900268, "lon": 20.1240165, "way_id": 257744965, "landuse": "farmland", "closest_distance_restriction": 3.8270778561590775}, {"id": 2285251950, "lat": 50.9004986, "lon": 20.1236774, "way_id": 257744965, "landuse": "farmland", "closest_distance_restriction": 3.7995488819260648}, {"id": 2285251974, "lat": 50.9006391, "lon": 20.1233338, "way_id": 257744965, "landuse": "farmland", "closest_distance_restriction": 3.782110522785681}, {"id": 2285251998, "lat": 50.900768, "lon": 20.1223821, "way_id": 257744965, "landuse": "farmland", "closest_distance_restriction": 3.763429006586776}, {"id": 2285252012, "lat": 50.9008296, "lon": 20.1214425, "way_id": 257744965, "landuse": "farmland", "closest_distance_restriction": 3.7534086589386138}, {"id": 2285252023, "lat": 50.9009246, "lon": 20.1208746, "way_id": 257744965, "landuse": "farmland", "closest_distance_restriction": 3.7414858111811475}, {"id": 2285252033, "lat": 50.9010106, "lon": 20.1203953, "way_id": 257744965, "landuse": "farmland", "closest_distance_restriction": 3.7311000469815023}, {"id": 2285255292, "lat": 50.9255368, "lon": 20.0125966, "way_id": 256279572, "landuse": "farmland", "closest_distance_restriction": 1.5658826264193237}, {"id": 2285255298, "lat": 50.9255936, "lon": 20.0124777, "way_id": 256279572, "landuse": "farmland", "closest_distance_restriction": 1.5751418048874408}, {"id": 2285255314, "lat": 50.9258432, "lon": 20.011956, "way_id": 256279572, "landuse": "farmland", "closest_distance_restriction": 1.6159789432526814}, {"id": 2285255315, "lat": 50.9258937, "lon": 20.0110333, "way_id": 256279572, "landuse": "farmland", "closest_distance_restriction": 1.6503116494083871}, {"id": 2285255325, "lat": 50.9260214, "lon": 20.0108749, "way_id": 256279572, "landuse": "farmland", "closest_distance_restriction": 1.668060394044717}, {"id": 2285255330, "lat": 50.9260966, "lon": 20.0107816, "way_id": 256279572, "landuse": "farmland", "closest_distance_restriction": 1.6785157302706637}, {"id": 2285256219, "lat": 50.9338997, "lon": 20.0084043, "way_id": 256277870, "landuse": "meadow", "closest_distance_restriction": 1.6919620155391477}, {"id": 2285256222, "lat": 50.9339284, "lon": 20.0071691, "way_id": 256277870, "landuse": "meadow", "closest_distance_restriction": 1.7744017710054496}, {"id": 2285256256, "lat": 50.9342112, "lon": 20.0085798, "way_id": 256277870, "landuse": "meadow", "closest_distance_restriction": 1.6707543315388478}, {"id": 2285256281, "lat": 50.9345377, "lon": 20.00884, "way_id": 256277870, "landuse": "meadow", "closest_distance_restriction": 1.643930039451882}, {"id": 2285256310, "lat": 50.9347043, "lon": 20.008662, "way_id": 256277870, "landuse": "meadow", "closest_distance_restriction": 1.6516400554987967}, {"id": 2285256320, "lat": 50.9347961, "lon": 20.0088889, "way_id": 256277870, "landuse": "meadow", "closest_distance_restriction": 1.6338197735690974}, {"id": 2285256323, "lat": 50.9348061, "lon": 20.0089136, "way_id": 256277870, "landuse": "meadow", "closest_distance_restriction": 1.631881174247666}, {"id": 2285256324, "lat": 50.9348161, "lon": 20.0089384, "way_id": 256277870, "landuse": "meadow", "closest_distance_restriction": 1.6299360419686055}, {"id": 2285256335, "lat": 50.9349255, "lon": 20.009209, "way_id": 256277870, "landuse": "meadow", "closest_distance_restriction": 1.608724184083433}, {"id": 2285256343, "lat": 50.9350651, "lon": 20.0093242, "way_id": 256277870, "landuse": "meadow", "closest_distance_restriction": 1.5974553641242881}, {"id": 2285256367, "lat": 50.935222, "lon": 20.009391, "way_id": 256277870, "landuse": "meadow", "closest_distance_restriction": 1.589223961662643}, {"id": 2285256386, "lat": 50.9354139, "lon": 20.0095583, "way_id": 256277870, "landuse": "meadow", "closest_distance_restriction": 1.5734930018172864}, {"id": 2317909638, "lat": 50.9030016, "lon": 20.1506288, "way_id": 257744973, "landuse": "farmland", "closest_distance_restriction": 4.118168005467756}, {"id": 2317909650, "lat": 50.9031429, "lon": 20.1509394, "way_id": 257744973, "landuse": "farmland", "closest_distance_restriction": 4.115225601820772}, {"id": 2317909663, "lat": 50.9032452, "lon": 20.1519102, "way_id": 257744973, "landuse": "farmland", "closest_distance_restriction": 4.139581266212811}, {"id": 2330565632, "lat": 50.6310782, "lon": 19.975595, "way_id": 254029449, "landuse": "farmland", "closest_distance_restriction": 2.033173079590579}, {"id": 2330565712, "lat": 50.6324641, "lon": 19.9710282, "way_id": 254029449, "landuse": "farmland", "closest_distance_restriction": 1.7450226043760482}, {"id": 2558709564, "lat": 50.6432525, "lon": 19.9561244, "way_id": 254029449, "landuse": "farmland", "closest_distance_restriction": 1.706393111799226}, {"id": 2558709570, "lat": 50.6434865, "lon": 19.9550941, "way_id": 254029449, "landuse": "farmland", "closest_distance_restriction": 1.7005078369708044}, {"id": 2558709847, "lat": 50.650442, "lon": 19.9603684, "way_id": 254029449, "landuse": "farmland", "closest_distance_restriction": 2.5579579304874906}, {"id": 2558709890, "lat": 50.6509711, "lon": 19.9587182, "way_id": 254029449, "landuse": "farmland", "closest_distance_restriction": 2.5446007196353535}, {"id": 2588681435, "lat": 50.898301, "lon": 19.8533588, "way_id": 252845206, "landuse": "meadow", "closest_distance_restriction": 1.570448071212818}, {"id": 2588681437, "lat": 50.8983889, "lon": 19.853501, "way_id": 252845206, "landuse": "meadow", "closest_distance_restriction": 1.5608752055553448}, {"id": 2588681660, "lat": 50.9155124, "lon": 19.8301904, "way_id": 252845208, "landuse": "meadow", "closest_distance_restriction": 1.5811732498200706}, {"id": 2591701349, "lat": 50.9092796, "lon": 20.1330991, "way_id": 257744965, "landuse": "farmland", "closest_distance_restriction": 2.972075835641718}, {"id": 2591701350, "lat": 50.9092865, "lon": 20.1327758, "way_id": 257744965, "landuse": "farmland", "closest_distance_restriction": 2.9640639486112366}, {"id": 2591701351, "lat": 50.9092969, "lon": 20.1332672, "way_id": 257744965, "landuse": "farmland", "closest_distance_restriction": 2.974107565909301}, {"id": 2591701352, "lat": 50.9093083, "lon": 20.1328662, "way_id": 257744965, "landuse": "farmland", "closest_distance_restriction": 2.9637891221905637}, {"id": 2591701357, "lat": 50.9094069, "lon": 20.1324674, "way_id": 257744965, "landuse": "farmland", "closest_distance_restriction": 2.9445395030686217}, {"id": 2591701358, "lat": 50.9094357, "lon": 20.1333963, "way_id": 257744965, "landuse": "farmland", "closest_distance_restriction": 2.962535192830732}, {"id": 2591701364, "lat": 50.9095733, "lon": 20.1320941, "way_id": 257744965, "landuse": "farmland", "closest_distance_restriction": 2.9188408238293615}, {"id": 2591701367, "lat": 50.9096715, "lon": 20.1317252, "way_id": 257744965, "landuse": "farmland", "closest_distance_restriction": 2.9005958429972956}, {"id": 2591701374, "lat": 50.9097149, "lon": 20.1334989, "way_id": 257744965, "landuse": "farmland", "closest_distance_restriction": 2.935704093424158}, {"id": 2591701390, "lat": 50.9098511, "lon": 20.1335142, "way_id": 257744965, "landuse": "farmland", "closest_distance_restriction": 2.921821915502201}, {"id": 2596776732, "lat": 50.6244309, "lon": 19.8829484, "way_id": 253793040, "landuse": "farmland", "closest_distance_restriction": 1.6699448016796985}, {"id": 2596776784, "lat": 50.6252941, "lon": 19.880735, "way_id": 253793040, "landuse": "farmland", "closest_distance_restriction": 1.8121525851844302}, {"id": 2596776797, "lat": 50.625641, "lon": 19.8800173, "way_id": 253793040, "landuse": "farmland", "closest_distance_restriction": 1.8592288837526414}, {"id": 2596776919, "lat": 50.6263448, "lon": 19.8799644, "way_id": 253793040, "landuse": "farmland", "closest_distance_restriction": 1.858690688534907}, {"id": 2596777193, "lat": 50.6279421, "lon": 19.8776484, "way_id": 253793040, "landuse": "farmland", "closest_distance_restriction": 2.024311048614974}, {"id": 2596777369, "lat": 50.6280094, "lon": 19.876665, "way_id": 253793040, "landuse": "farmland", "closest_distance_restriction": 2.093993734207494}, {"id": 2596777435, "lat": 50.6286402, "lon": 19.8761612, "way_id": 253793040, "landuse": "farmland", "closest_distance_restriction": 2.1346653198055376}, {"id": 2596777461, "lat": 50.6298365, "lon": 19.8765975, "way_id": 253793040, "landuse": "farmland", "closest_distance_restriction": 2.120362259052008}, {"id": 2596777484, "lat": 50.6303849, "lon": 19.8767554, "way_id": 253793040, "landuse": "farmland", "closest_distance_restriction": 2.119639636667242}, {"id": 2596777508, "lat": 50.6306352, "lon": 19.8757174, "way_id": 253793040, "landuse": "farmland", "closest_distance_restriction": 2.196748419463626}, {"id": 2596777550, "lat": 50.6307536, "lon": 19.8767252, "way_id": 253793040, "landuse": "farmland", "closest_distance_restriction": 2.129593554889252}, {"id": 2596777556, "lat": 50.630778, "lon": 19.8757975, "way_id": 253793040, "landuse": "farmland", "closest_distance_restriction": 2.1942620046252586}, {"id": 2596777606, "lat": 50.6312875, "lon": 19.8773635, "way_id": 253793040, "landuse": "farmland", "closest_distance_restriction": 2.098499701556511}, {"id": 2596777608, "lat": 50.6313306, "lon": 19.8770273, "way_id": 253793040, "landuse": "farmland", "closest_distance_restriction": 2.1226773320475334}, {"id": 2596777619, "lat": 50.6322105, "lon": 19.8778633, "way_id": 253793040, "landuse": "farmland", "closest_distance_restriction": 2.0908416575407065}, {"id": 2596777621, "lat": 50.6323363, "lon": 19.877301, "way_id": 253793040, "landuse": "farmland", "closest_distance_restriction": 2.132837639022772}, {"id": 2596777623, "lat": 50.6325324, "lon": 19.877414, "way_id": 253793040, "landuse": "farmland", "closest_distance_restriction": 2.1314951326372107}, {"id": 2596777625, "lat": 50.6325711, "lon": 19.8816583, "way_id": 253793036, "landuse": "farmland", "closest_distance_restriction": 1.8477664133180196}, {"id": 2596777627, "lat": 50.6326339, "lon": 19.8777801, "way_id": 253793040, "landuse": "farmland", "closest_distance_restriction": 2.110205868048675}, {"id": 2596777629, "lat": 50.6332923, "lon": 19.8781574, "way_id": 253793040, "landuse": "farmland", "closest_distance_restriction": 2.107371987079489}, {"id": 2596777631, "lat": 50.6334873, "lon": 19.8778973, "way_id": 253793036, "landuse": "farmland", "closest_distance_restriction": 2.131465976697686}, {"id": 2596777635, "lat": 50.6335233, "lon": 19.877779, "way_id": 253793036, "landuse": "farmland", "closest_distance_restriction": 2.1406384887960987}, {"id": 2596777637, "lat": 50.6335625, "lon": 19.877622, "way_id": 253793036, "landuse": "farmland", "closest_distance_restriction": 2.1525169961749278}, {"id": 2596777639, "lat": 50.6336008, "lon": 19.8776672, "way_id": 253793036, "landuse": "farmland", "closest_distance_restriction": 2.150811590125255}, {"id": 2596777648, "lat": 50.6352628, "lon": 19.8840799, "way_id": 253793036, "landuse": "farmland", "closest_distance_restriction": 1.8068040833240882}, {"id": 2596777650, "lat": 50.635297, "lon": 19.8862464, "way_id": 253793036, "landuse": "farmland", "closest_distance_restriction": 1.6757723529476323}, {"id": 2596777652, "lat": 50.6352891, "lon": 19.8872779, "way_id": 253793036, "landuse": "farmland", "closest_distance_restriction": 1.6133014467182303}, {"id": 2596777654, "lat": 50.63535, "lon": 19.8869739, "way_id": 253793036, "landuse": "farmland", "closest_distance_restriction": 1.635064106223757}, {"id": 2596777656, "lat": 50.6353697, "lon": 19.885996, "way_id": 253793036, "landuse": "farmland", "closest_distance_restriction": 1.695078976167174}, {"id": 2596777658, "lat": 50.6354197, "lon": 19.8859049, "way_id": 253793036, "landuse": "farmland", "closest_distance_restriction": 1.703445378842247}, {"id": 2596777660, "lat": 50.6354341, "lon": 19.8868496, "way_id": 253793036, "landuse": "farmland", "closest_distance_restriction": 1.6474560891590833}, {"id": 2596777662, "lat": 50.6354576, "lon": 19.8878041, "way_id": 253793036, "landuse": "farmland", "closest_distance_restriction": 1.5922690505234471}, {"id": 2596777664, "lat": 50.6354848, "lon": 19.8866665, "way_id": 253793036, "landuse": "farmland", "closest_distance_restriction": 1.6613924827821458}, {"id": 2596777668, "lat": 50.6355313, "lon": 19.8874326, "way_id": 253793036, "landuse": "farmland", "closest_distance_restriction": 1.6186631381672894}, {"id": 2596777670, "lat": 50.6355456, "lon": 19.8863673, "way_id": 253793036, "landuse": "farmland", "closest_distance_restriction": 1.6828766432373659}, {"id": 2596777674, "lat": 50.6356293, "lon": 19.8883986, "way_id": 253793036, "landuse": "farmland", "closest_distance_restriction": 1.5683046959393154}, {"id": 2596777676, "lat": 50.6357441, "lon": 19.8879704, "way_id": 253793036, "landuse": "farmland", "closest_distance_restriction": 1.6003916749346536}, {"id": 2596777678, "lat": 50.6357756, "lon": 19.8860867, "way_id": 253793036, "landuse": "farmland", "closest_distance_restriction": 1.7132167309591608}, {"id": 2597883149, "lat": 50.6361442, "lon": 19.8884432, "way_id": 253924715, "landuse": "farmland", "closest_distance_restriction": 1.5992174071824394}, {"id": 2597883151, "lat": 50.6364536, "lon": 19.8886809, "way_id": 253924715, "landuse": "farmland", "closest_distance_restriction": 1.6067360740479137}, {"id": 2598642686, "lat": 50.6401202, "lon": 19.9628358, "way_id": 254029449, "landuse": "farmland", "closest_distance_restriction": 1.6923014047762799}, {"id": 2598642687, "lat": 50.6401358, "lon": 19.9627497, "way_id": 254029449, "landuse": "farmland", "closest_distance_restriction": 1.689612819533049}, {"id": 2598642688, "lat": 50.6401534, "lon": 19.962903, "way_id": 254029449, "landuse": "farmland", "closest_distance_restriction": 1.6982016871243624}, {"id": 2598642689, "lat": 50.6402219, "lon": 19.9630064, "way_id": 254029449, "landuse": "farmland", "closest_distance_restriction": 1.7087363286679422}, {"id": 2598642690, "lat": 50.6402261, "lon": 19.9627358, "way_id": 254029449, "landuse": "farmland", "closest_distance_restriction": 1.6965575234896415}, {"id": 2598642691, "lat": 50.6403593, "lon": 19.962185, "way_id": 254029449, "landuse": "farmland", "closest_distance_restriction": 1.6825404135542605}, {"id": 2598642692, "lat": 50.6404203, "lon": 19.9622614, "way_id": 254029449, "landuse": "farmland", "closest_distance_restriction": 1.6911689930490017}, {"id": 2598642693, "lat": 50.6404228, "lon": 19.9620175, "way_id": 254029449, "landuse": "farmland", "closest_distance_restriction": 1.6795798612113981}, {"id": 2598642694, "lat": 50.6405091, "lon": 19.9622926, "way_id": 254029449, "landuse": "farmland", "closest_distance_restriction": 1.69985415513001}, {"id": 2598642695, "lat": 50.6407538, "lon": 19.9616097, "way_id": 254029449, "landuse": "farmland", "closest_distance_restriction": 1.6874644947285413}, {"id": 2598642696, "lat": 50.6408252, "lon": 19.9603223, "way_id": 254029449, "landuse": "farmland", "closest_distance_restriction": 1.6349013090465399}, {"id": 2598642702, "lat": 50.6414663, "lon": 19.9580955, "way_id": 254029449, "landuse": "farmland", "closest_distance_restriction": 1.600424772343815}, {"id": 2598642703, "lat": 50.6416882, "lon": 19.9577554, "way_id": 254029449, "landuse": "farmland", "closest_distance_restriction": 1.6084422105411595}, {"id": 2598642705, "lat": 50.6430208, "lon": 19.9555879, "way_id": 254029449, "landuse": "farmland", "closest_distance_restriction": 1.6670646789285477}, {"id": 2598642707, "lat": 50.6433354, "lon": 19.9551862, "way_id": 254029449, "landuse": "farmland", "closest_distance_restriction": 1.6875783337115966}, {"id": 2598642718, "lat": 50.6512372, "lon": 19.9593234, "way_id": 254029449, "landuse": "farmland", "closest_distance_restriction": 2.592914457692097}, {"id": 2598642719, "lat": 50.6514809, "lon": 19.9600106, "way_id": 254029449, "landuse": "farmland", "closest_distance_restriction": 2.646383090274833}, {"id": 2598642720, "lat": 50.6516054, "lon": 19.9606954, "way_id": 254029449, "landuse": "farmland", "closest_distance_restriction": 2.6858262059962748}, {"id": 2619510012, "lat": 50.9342169, "lon": 20.0071228, "way_id": 256277870, "landuse": "meadow", "closest_distance_restriction": 1.7693393169421419}, {"id": 2619510013, "lat": 50.9342982, "lon": 20.0066366, "way_id": 256277870, "landuse": "meadow", "closest_distance_restriction": 1.8002057153683617}, {"id": 2619510014, "lat": 50.9345244, "lon": 20.0064789, "way_id": 256277870, "landuse": "meadow", "closest_distance_restriction": 1.8051658030381312}, {"id": 2619510015, "lat": 50.9346426, "lon": 20.0069185, "way_id": 256277870, "landuse": "meadow", "closest_distance_restriction": 1.772214896916636}, {"id": 2619510016, "lat": 50.9347936, "lon": 20.0072877, "way_id": 256277870, "landuse": "meadow", "closest_distance_restriction": 1.7433181988278805}, {"id": 2619510017, "lat": 50.9350054, "lon": 20.0073025, "way_id": 256277870, "landuse": "meadow", "closest_distance_restriction": 1.7374196138572355}, {"id": 2619510018, "lat": 50.9351357, "lon": 20.0078339, "way_id": 256277870, "landuse": "meadow", "closest_distance_restriction": 1.6980430384114626}, {"id": 2619510019, "lat": 50.9351983, "lon": 20.0072761, "way_id": 256277870, "landuse": "meadow", "closest_distance_restriction": 1.7350532466527449}, {"id": 2619510020, "lat": 50.9352103, "lon": 20.0081201, "way_id": 256277870, "landuse": "meadow", "closest_distance_restriction": 1.6767513555583424}, {"id": 2619510021, "lat": 50.9354089, "lon": 20.0081854, "way_id": 256277870, "landuse": "meadow", "closest_distance_restriction": 1.6680942998338488}, {"id": 2619510022, "lat": 50.9357119, "lon": 20.0080496, "way_id": 256277870, "landuse": "meadow", "closest_distance_restriction": 1.6716689615955986}, {"id": 2619510023, "lat": 50.9359557, "lon": 20.0080854, "way_id": 256277870, "landuse": "meadow", "closest_distance_restriction": 1.6650140862193683}, {"id": 2619510026, "lat": 50.9362588, "lon": 20.0079496, "way_id": 256277870, "landuse": "meadow", "closest_distance_restriction": 1.6698609684435772}, {"id": 2619510027, "lat": 50.9363104, "lon": 20.0086623, "way_id": 256277870, "landuse": "meadow", "closest_distance_restriction": 1.619594681467665}, {"id": 2619510030, "lat": 50.9363717, "lon": 20.0089991, "way_id": 256277870, "landuse": "meadow", "closest_distance_restriction": 1.595327934620075}, {"id": 2619510032, "lat": 50.936394, "lon": 20.009396, "way_id": 256277870, "landuse": "meadow", "closest_distance_restriction": 1.5674229801313424}, {"id": 2619510033, "lat": 50.9364634, "lon": 20.0080557, "way_id": 256277870, "landuse": "meadow", "closest_distance_restriction": 1.65976837705454}, {"id": 2619510035, "lat": 50.936524, "lon": 20.0084738, "way_id": 256277870, "landuse": "meadow", "closest_distance_restriction": 1.6299017525481225}, {"id": 2621879068, "lat": 50.9226472, "lon": 20.0440468, "way_id": 256533884, "landuse": "farmland", "closest_distance_restriction": 1.5716424030699185}, {"id": 2632176305, "lat": 50.8917177, "lon": 20.1229653, "way_id": 257744965, "landuse": "farmland", "closest_distance_restriction": 4.770501315604242}, {"id": 2632176307, "lat": 50.8917041, "lon": 20.1232156, "way_id": 257744965, "landuse": "farmland", "closest_distance_restriction": 4.772982145365811}, {"id": 2632176309, "lat": 50.8921366, "lon": 20.1208755, "way_id": 257744965, "landuse": "farmland", "closest_distance_restriction": 4.718341742725498}, {"id": 2632176311, "lat": 50.8922481, "lon": 20.1206647, "way_id": 257744965, "landuse": "farmland", "closest_distance_restriction": 4.705628563340508}, {"id": 2632176313, "lat": 50.8927764, "lon": 20.1203774, "way_id": 257744965, "landuse": "farmland", "closest_distance_restriction": 4.646532569740065}, {"id": 2632176314, "lat": 50.8936515, "lon": 20.1309139, "way_id": 257744965, "landuse": "farmland", "closest_distance_restriction": 4.620632871448482}, {"id": 2632176316, "lat": 50.8938177, "lon": 20.1312894, "way_id": 257744965, "landuse": "farmland", "closest_distance_restriction": 4.607161188085256}, {"id": 2632176318, "lat": 50.8948028, "lon": 20.120242, "way_id": 257744965, "landuse": "farmland", "closest_distance_restriction": 4.421088755250746}, {"id": 2632176320, "lat": 50.8948162, "lon": 20.1220742, "way_id": 257744965, "landuse": "farmland", "closest_distance_restriction": 4.4233328806368535}, {"id": 2632176322, "lat": 50.8950533, "lon": 20.1204847, "way_id": 257744965, "landuse": "farmland", "closest_distance_restriction": 4.393519387320757}, {"id": 2632176324, "lat": 50.8951296, "lon": 20.1227355, "way_id": 257744965, "landuse": "farmland", "closest_distance_restriction": 4.390798306543711}, {"id": 2632176326, "lat": 50.8952899, "lon": 20.1237675, "way_id": 257744965, "landuse": "farmland", "closest_distance_restriction": 4.377552447561159}, {"id": 2632176327, "lat": 50.8957133, "lon": 20.1232146, "way_id": 257744965, "landuse": "farmland", "closest_distance_restriction": 4.327977943215292}, {"id": 2632176345, "lat": 50.8964701, "lon": 20.1250036, "way_id": 257744965, "landuse": "farmland", "closest_distance_restriction": 4.25389632909389}, {"id": 2632176347, "lat": 50.8967481, "lon": 20.1344055, "way_id": 257744965, "landuse": "farmland", "closest_distance_restriction": 4.335203269017673}, {"id": 2632176349, "lat": 50.899092, "lon": 20.1505573, "way_id": 257744973, "landuse": "farmland", "closest_distance_restriction": 4.499963004144308}, {"id": 2632176351, "lat": 50.8994768, "lon": 20.1490752, "way_id": 257744973, "landuse": "farmland", "closest_distance_restriction": 4.415830146617718}, {"id": 2632176354, "lat": 50.8996814, "lon": 20.149642, "way_id": 257744973, "landuse": "farmland", "closest_distance_restriction": 4.412728369726295}, {"id": 2632176355, "lat": 50.8998266, "lon": 20.1536929, "way_id": 257744973, "landuse": "farmland", "closest_distance_restriction": 4.531231802515172}, {"id": 2632176357, "lat": 50.8999742, "lon": 20.1498787, "way_id": 257744973, "landuse": "farmland", "closest_distance_restriction": 4.390940675731763}, {"id": 2632176359, "lat": 50.9001325, "lon": 20.1378686, "way_id": 257744965, "landuse": "farmland", "closest_distance_restriction": 4.042693562803767}, {"id": 2632176361, "lat": 50.9001947, "lon": 20.1488318, "way_id": 257744973, "landuse": "farmland", "closest_distance_restriction": 4.336508217804534}, {"id": 2632176363, "lat": 50.9002584, "lon": 20.1499885, "way_id": 257744973, "landuse": "farmland", "closest_distance_restriction": 4.366174863223647}, {"id": 2632176365, "lat": 50.9003469, "lon": 20.1501411, "way_id": 257744973, "landuse": "farmland", "closest_distance_restriction": 4.362252163677493}, {"id": 2632176367, "lat": 50.9003829, "lon": 20.1535958, "way_id": 257744973, "landuse": "farmland", "closest_distance_restriction": 4.474112027982874}, {"id": 2632176369, "lat": 50.9004413, "lon": 20.1502067, "way_id": 257744973, "landuse": "farmland", "closest_distance_restriction": 4.355003045120399}, {"id": 2632176370, "lat": 50.9005291, "lon": 20.1504383, "way_id": 257744973, "landuse": "farmland", "closest_distance_restriction": 4.353770114118862}, {"id": 2632176372, "lat": 50.900585, "lon": 20.1483192, "way_id": 257744973, "landuse": "farmland", "closest_distance_restriction": 4.281796965056405}, {"id": 2632176374, "lat": 50.9006145, "lon": 20.1504088, "way_id": 257744973, "landuse": "farmland", "closest_distance_restriction": 4.344388274005076}, {"id": 2632176376, "lat": 50.900926, "lon": 20.139055, "way_id": 257744965, "landuse": "farmland", "closest_distance_restriction": 3.9873252391176384}, {"id": 2632176378, "lat": 50.9011362, "lon": 20.1203441, "way_id": 257744965, "landuse": "farmland", "closest_distance_restriction": 3.7170660639660724}, {"id": 2632176380, "lat": 50.9008197, "lon": 20.1534484, "way_id": 257744973, "landuse": "farmland", "closest_distance_restriction": 4.426860126009211}, {"id": 2632176381, "lat": 50.9008671, "lon": 20.1501618, "way_id": 257744973, "landuse": "farmland", "closest_distance_restriction": 4.311479255859637}, {"id": 2632176383, "lat": 50.9009331, "lon": 20.1470142, "way_id": 257744973, "landuse": "farmland", "closest_distance_restriction": 4.207769354766284}, {"id": 2632176385, "lat": 50.900974, "lon": 20.1535313, "way_id": 257744973, "landuse": "farmland", "closest_distance_restriction": 4.4149341261566875}, {"id": 2632176387, "lat": 50.901047, "lon": 20.1491613, "way_id": 257744973, "landuse": "farmland", "closest_distance_restriction": 4.261755968454063}, {"id": 2632176389, "lat": 50.9010461, "lon": 20.1497706, "way_id": 257744973, "landuse": "farmland", "closest_distance_restriction": 4.281208784097615}, {"id": 2632176390, "lat": 50.9010756, "lon": 20.1493124, "way_id": 257744973, "landuse": "farmland", "closest_distance_restriction": 4.263688474191499}, {"id": 2632176392, "lat": 50.9010892, "lon": 20.1494551, "way_id": 257744973, "landuse": "farmland", "closest_distance_restriction": 4.266867994741184}, {"id": 2632176394, "lat": 50.9010521, "lon": 20.1537231, "way_id": 257744973, "landuse": "farmland", "closest_distance_restriction": 4.414222517453163}, {"id": 2632176396, "lat": 50.9012012, "lon": 20.139548, "way_id": 257744965, "landuse": "farmland", "closest_distance_restriction": 3.970844139494919}, {"id": 2632176397, "lat": 50.9011834, "lon": 20.1475031, "way_id": 257744973, "landuse": "farmland", "closest_distance_restriction": 4.19709166246313}, {"id": 2632176399, "lat": 50.901279, "lon": 20.1479643, "way_id": 257744973, "landuse": "farmland", "closest_distance_restriction": 4.201478984065278}, {"id": 2632176401, "lat": 50.9013225, "lon": 20.1486301, "way_id": 257744973, "landuse": "farmland", "closest_distance_restriction": 4.217698179640339}, {"id": 2632176406, "lat": 50.9014034, "lon": 20.1480307, "way_id": 257744973, "landuse": "farmland", "closest_distance_restriction": 4.191069425034598}, {"id": 2632176408, "lat": 50.9015208, "lon": 20.1483026, "way_id": 257744973, "landuse": "farmland", "closest_distance_restriction": 4.187744691523119}, {"id": 2632176410, "lat": 50.9015485, "lon": 20.1536166, "way_id": 257744973, "landuse": "farmland", "closest_distance_restriction": 4.362889805777327}, {"id": 2632176414, "lat": 50.9017418, "lon": 20.1407282, "way_id": 257744965, "landuse": "farmland", "closest_distance_restriction": 3.945463704516912}, {"id": 2632176416, "lat": 50.901706, "lon": 20.1457514, "way_id": 257744973, "landuse": "farmland", "closest_distance_restriction": 4.092859754856487}, {"id": 2632176418, "lat": 50.9016737, "lon": 20.1538904, "way_id": 257744973, "landuse": "farmland", "closest_distance_restriction": 4.360780620771552}, {"id": 2632176432, "lat": 50.9020016, "lon": 20.1536136, "way_id": 257744973, "landuse": "farmland", "closest_distance_restriction": 4.3195308179008265}, {"id": 2632176436, "lat": 50.9021873, "lon": 20.1419358, "way_id": 257744965, "landuse": "farmland", "closest_distance_restriction": 3.9330370526460494}, {"id": 2632176443, "lat": 50.9023504, "lon": 20.1512247, "way_id": 257744973, "landuse": "farmland", "closest_distance_restriction": 4.201765031930734}, {"id": 2632176445, "lat": 50.902368, "lon": 20.1514704, "way_id": 257744973, "landuse": "farmland", "closest_distance_restriction": 4.208532458656602}, {"id": 2632176447, "lat": 50.9023863, "lon": 20.1531721, "way_id": 257744973, "landuse": "farmland", "closest_distance_restriction": 4.2669187379271225}, {"id": 2632176450, "lat": 50.9025462, "lon": 20.1511583, "way_id": 257744973, "landuse": "farmland", "closest_distance_restriction": 4.18050984384144}, {"id": 2632176452, "lat": 50.902557, "lon": 20.1515859, "way_id": 257744973, "landuse": "farmland", "closest_distance_restriction": 4.194283918769505}, {"id": 2632176459, "lat": 50.9026298, "lon": 20.1518171, "way_id": 257744973, "landuse": "farmland", "closest_distance_restriction": 4.19535497380807}, {"id": 2632176462, "lat": 50.9026658, "lon": 20.1506519, "way_id": 257744973, "landuse": "farmland", "closest_distance_restriction": 4.1515485812812525}, {"id": 2632176463, "lat": 50.9027635, "lon": 20.1440444, "way_id": 257744973, "landuse": "farmland", "closest_distance_restriction": 3.937046396401569}, {"id": 2632176466, "lat": 50.9028347, "lon": 20.141114, "way_id": 257744965, "landuse": "farmland", "closest_distance_restriction": 3.844006532986605}, {"id": 2632176472, "lat": 50.9028068, "lon": 20.1526444, "way_id": 257744973, "landuse": "farmland", "closest_distance_restriction": 4.207792536881208}, {"id": 2632176474, "lat": 50.9028987, "lon": 20.1438644, "way_id": 257744969, "landuse": "farmland", "closest_distance_restriction": 3.918211486334309}, {"id": 2632176478, "lat": 50.9028734, "lon": 20.1503959, "way_id": 257744973, "landuse": "farmland", "closest_distance_restriction": 4.122650445957603}, {"id": 2632176480, "lat": 50.9029419, "lon": 20.1438363, "way_id": 257744969, "landuse": "farmland", "closest_distance_restriction": 3.9130304291408082}, {"id": 2632176482, "lat": 50.9028621, "lon": 20.1525638, "way_id": 257744973, "landuse": "farmland", "closest_distance_restriction": 4.199615168475055}, {"id": 2632176486, "lat": 50.9028659, "lon": 20.1546268, "way_id": 257744974, "landuse": "farmland", "closest_distance_restriction": 4.275221253262272}, {"id": 2632176493, "lat": 50.9029603, "lon": 20.1547003, "way_id": 257744974, "landuse": "farmland", "closest_distance_restriction": 4.269150231017464}, {"id": 2632176499, "lat": 50.903132, "lon": 20.1418476, "way_id": 257744965, "landuse": "farmland", "closest_distance_restriction": 3.834576518082073}, {"id": 2632176505, "lat": 50.9031694, "lon": 20.1437033, "way_id": 257744969, "landuse": "farmland", "closest_distance_restriction": 3.8861359424900668}, {"id": 2632176507, "lat": 50.9031141, "lon": 20.15635, "way_id": 257744974, "landuse": "farmland", "closest_distance_restriction": 4.318457974476159}, {"id": 2632176508, "lat": 50.903145, "lon": 20.1547445, "way_id": 257744974, "landuse": "farmland", "closest_distance_restriction": 4.253549488735312}, {"id": 2632176510, "lat": 50.9033039, "lon": 20.1418946, "way_id": 257744965, "landuse": "farmland", "closest_distance_restriction": 3.8185283420472405}, {"id": 2632176512, "lat": 50.9033581, "lon": 20.1466782, "way_id": 257744973, "landuse": "farmland", "closest_distance_restriction": 3.954144636367897}, {"id": 2632176514, "lat": 50.9034202, "lon": 20.1434325, "way_id": 257744969, "landuse": "farmland", "closest_distance_restriction": 3.852814860271112}, {"id": 2632176516, "lat": 50.9034042, "lon": 20.1455478, "way_id": 257744973, "landuse": "farmland", "closest_distance_restriction": 3.9152586636301856}, {"id": 2632176518, "lat": 50.903651, "lon": 20.1229437, "way_id": 257744965, "landuse": "farmland", "closest_distance_restriction": 3.4460965804925405}, {"id": 2632176520, "lat": 50.9033439, "lon": 20.1548681, "way_id": 257744974, "landuse": "farmland", "closest_distance_restriction": 4.239705784184024}, {"id": 2632176521, "lat": 50.9035236, "lon": 20.1410747, "way_id": 257744965, "landuse": "farmland", "closest_distance_restriction": 3.7727153086521334}, {"id": 2632176523, "lat": 50.9034761, "lon": 20.1468868, "way_id": 257744973, "landuse": "farmland", "closest_distance_restriction": 3.948846544172537}, {"id": 2632176525, "lat": 50.9035363, "lon": 20.1427544, "way_id": 257744969, "landuse": "farmland", "closest_distance_restriction": 3.8205423315273523}, {"id": 2632176527, "lat": 50.9034998, "lon": 20.1465076, "way_id": 257744973, "landuse": "farmland", "closest_distance_restriction": 3.934733003564207}, {"id": 2632176532, "lat": 50.9034599, "lon": 20.1513549, "way_id": 257744973, "landuse": "farmland", "closest_distance_restriction": 4.099267254427846}, {"id": 2632176534, "lat": 50.9035846, "lon": 20.1430383, "way_id": 257744969, "landuse": "farmland", "closest_distance_restriction": 3.8243018639082247}, {"id": 2632176535, "lat": 50.9036078, "lon": 20.1410479, "way_id": 257744965, "landuse": "farmland", "closest_distance_restriction": 3.7633920935101286}, {"id": 2632176540, "lat": 50.9036526, "lon": 20.1413145, "way_id": 257744965, "landuse": "farmland", "closest_distance_restriction": 3.7664466275505184}, {"id": 2632176544, "lat": 50.9036635, "lon": 20.1416899, "way_id": 257744965, "landuse": "farmland", "closest_distance_restriction": 3.7761900457668296}, {"id": 2632176545, "lat": 50.9036238, "lon": 20.1471278, "way_id": 257744973, "landuse": "farmland", "closest_distance_restriction": 3.9417089331678774}, {"id": 2632176546, "lat": 50.9036328, "lon": 20.1467245, "way_id": 257744973, "landuse": "farmland", "closest_distance_restriction": 3.9281803877968855}, {"id": 2632176547, "lat": 50.9035628, "lon": 20.1554986, "way_id": 257744974, "landuse": "farmland", "closest_distance_restriction": 4.243743891379393}, {"id": 2632176548, "lat": 50.9037056, "lon": 20.1414947, "way_id": 257744965, "landuse": "farmland", "closest_distance_restriction": 3.7662646332540173}, {"id": 2632176549, "lat": 50.9036715, "lon": 20.14596, "way_id": 257744969, "landuse": "farmland", "closest_distance_restriction": 3.900800807603705}, {"id": 2632176550, "lat": 50.9037388, "lon": 20.1407107, "way_id": 257744965, "landuse": "farmland", "closest_distance_restriction": 3.740539065911323}, {"id": 2632176553, "lat": 50.9036517, "lon": 20.150687, "way_id": 257744973, "landuse": "farmland", "closest_distance_restriction": 4.0573328911000175}, {"id": 2632176557, "lat": 50.9037588, "lon": 20.1412767, "way_id": 257744965, "landuse": "farmland", "closest_distance_restriction": 3.75458760471155}, {"id": 2632176559, "lat": 50.9037606, "lon": 20.142581, "way_id": 257744969, "landuse": "farmland", "closest_distance_restriction": 3.792796467228352}, {"id": 2632176561, "lat": 50.9037875, "lon": 20.1409542, "way_id": 257744965, "landuse": "farmland", "closest_distance_restriction": 3.742460853770397}, {"id": 2632176563, "lat": 50.9038039, "lon": 20.1411393, "way_id": 257744965, "landuse": "farmland", "closest_distance_restriction": 3.7460714881559722}, {"id": 2632176565, "lat": 50.9037784, "lon": 20.1466727, "way_id": 257744973, "landuse": "farmland", "closest_distance_restriction": 3.91206244115444}, {"id": 2632176567, "lat": 50.9037598, "lon": 20.1485634, "way_id": 257744973, "landuse": "farmland", "closest_distance_restriction": 3.974629797724844}, {"id": 2632176569, "lat": 50.9037676, "lon": 20.1482788, "way_id": 257744973, "landuse": "farmland", "closest_distance_restriction": 3.964500016744436}, {"id": 2632176571, "lat": 50.9037076, "lon": 20.1565388, "way_id": 257744974, "landuse": "farmland", "closest_distance_restriction": 4.271462663722362}, {"id": 2632176573, "lat": 50.9038779, "lon": 20.1406679, "way_id": 257744965, "landuse": "farmland", "closest_distance_restriction": 3.7251666706994877}, {"id": 2632176575, "lat": 50.9038668, "lon": 20.1425432, "way_id": 257744969, "landuse": "farmland", "closest_distance_restriction": 3.7809952973660153}, {"id": 2632176577, "lat": 50.9038869, "lon": 20.1423532, "way_id": 257744969, "landuse": "farmland", "closest_distance_restriction": 3.7732607060780348}, {"id": 2632176579, "lat": 50.9040785, "lon": 20.1232656, "way_id": 257744965, "landuse": "farmland", "closest_distance_restriction": 3.4004501981435347}, {"id": 2632176585, "lat": 50.903949, "lon": 20.1408543, "way_id": 257744965, "landuse": "farmland", "closest_distance_restriction": 3.723204570642312}, {"id": 2632176587, "lat": 50.9038736, "lon": 20.1487008, "way_id": 257744973, "landuse": "farmland", "closest_distance_restriction": 3.9680335456769207}, {"id": 2632176589, "lat": 50.9039466, "lon": 20.1425913, "way_id": 257744969, "landuse": "farmland", "closest_distance_restriction": 3.774443218877114}, {"id": 2632176591, "lat": 50.9039659, "lon": 20.1424821, "way_id": 257744969, "landuse": "farmland", "closest_distance_restriction": 3.7692047484325637}, {"id": 2632176592, "lat": 50.9039436, "lon": 20.1467192, "way_id": 257744968, "landuse": "farmland", "closest_distance_restriction": 3.8970761996686267}, {"id": 2632176594, "lat": 50.9040038, "lon": 20.1476674, "way_id": 257744973, "landuse": "farmland", "closest_distance_restriction": 3.9213293676066474}, {"id": 2632176596, "lat": 50.9039976, "lon": 20.1483002, "way_id": 257744973, "landuse": "farmland", "closest_distance_restriction": 3.9426127910027473}, {"id": 2632176598, "lat": 50.9040848, "lon": 20.1407711, "way_id": 257744965, "landuse": "farmland", "closest_distance_restriction": 3.70703558288019}, {"id": 2632176601, "lat": 50.9041048, "lon": 20.1420931, "way_id": 257744969, "landuse": "farmland", "closest_distance_restriction": 3.7435637174140117}, {"id": 2632176602, "lat": 50.9041237, "lon": 20.1403753, "way_id": 257744966, "landuse": "farmland", "closest_distance_restriction": 3.69190511410875}, {"id": 2632176604, "lat": 50.9041479, "lon": 20.14753, "way_id": 257744968, "landuse": "farmland", "closest_distance_restriction": 3.902668278145333}, {"id": 2632176606, "lat": 50.9041425, "lon": 20.1483196, "way_id": 257744973, "landuse": "farmland", "closest_distance_restriction": 3.9290429537993203}, {"id": 2632176608, "lat": 50.904236, "lon": 20.1406899, "way_id": 257744966, "landuse": "farmland", "closest_distance_restriction": 3.689358530205558}, {"id": 2632176610, "lat": 50.9042294, "lon": 20.1420384, "way_id": 257744969, "landuse": "farmland", "closest_distance_restriction": 3.729396230637563}, {"id": 2632176614, "lat": 50.9042073, "lon": 20.1488514, "way_id": 257744973, "landuse": "farmland", "closest_distance_restriction": 3.9404683834116163}, {"id": 2632176616, "lat": 50.9044605, "lon": 20.1237595, "way_id": 257744965, "landuse": "farmland", "closest_distance_restriction": 3.361141039706687}, {"id": 2632176617, "lat": 50.9042868, "lon": 20.1417628, "way_id": 257744969, "landuse": "farmland", "closest_distance_restriction": 3.7154054057636885}, {"id": 2632176619, "lat": 50.9042357, "lon": 20.1479518, "way_id": 257744968, "landuse": "farmland", "closest_distance_restriction": 3.907769306585841}, {"id": 2632176622, "lat": 50.9042659, "lon": 20.1494678, "way_id": 257744973, "landuse": "farmland", "closest_distance_restriction": 3.9557269522535585}, {"id": 2632176625, "lat": 50.9042779, "lon": 20.148518, "way_id": 257744968, "landuse": "farmland", "closest_distance_restriction": 3.922389303707506}, {"id": 2632176628, "lat": 50.9043465, "lon": 20.1420009, "way_id": 257744969, "landuse": "farmland", "closest_distance_restriction": 3.7164998518031895}, {"id": 2632176630, "lat": 50.90442, "lon": 20.1415699, "way_id": 257744969, "landuse": "farmland", "closest_distance_restriction": 3.696266396868057}, {"id": 2632176632, "lat": 50.9043508, "lon": 20.149298, "way_id": 257744968, "landuse": "farmland", "closest_distance_restriction": 3.9416714903463004}, {"id": 2632176641, "lat": 50.9044789, "lon": 20.1413708, "way_id": 257744966, "landuse": "farmland", "closest_distance_restriction": 3.684453302654832}, {"id": 2632176643, "lat": 50.9045362, "lon": 20.1414923, "way_id": 257744969, "landuse": "farmland", "closest_distance_restriction": 3.682256020795505}, {"id": 2632176645, "lat": 50.9046136, "lon": 20.1391638, "way_id": 257744966, "landuse": "farmland", "closest_distance_restriction": 3.608460386123888}, {"id": 2632176646, "lat": 50.9045818, "lon": 20.1426681, "way_id": 257744969, "landuse": "farmland", "closest_distance_restriction": 3.7131894260264113}, {"id": 2632176649, "lat": 50.9045821, "lon": 20.144386, "way_id": 257744969, "landuse": "farmland", "closest_distance_restriction": 3.762133966875788}, {"id": 2632176653, "lat": 50.9046827, "lon": 20.1418029, "way_id": 257744969, "landuse": "farmland", "closest_distance_restriction": 3.676770841542179}, {"id": 2632176658, "lat": 50.9046939, "lon": 20.1445342, "way_id": 257744969, "landuse": "farmland", "closest_distance_restriction": 3.7552438476569336}, {"id": 2632176667, "lat": 50.9047854, "lon": 20.1391276, "way_id": 257744966, "landuse": "farmland", "closest_distance_restriction": 3.589857361732041}, {"id": 2632176669, "lat": 50.9048148, "lon": 20.1437482, "way_id": 257744969, "landuse": "farmland", "closest_distance_restriction": 3.7199893392251457}, {"id": 2632176670, "lat": 50.9048411, "lon": 20.1443084, "way_id": 257744969, "landuse": "farmland", "closest_distance_restriction": 3.733718571967707}, {"id": 2632176671, "lat": 50.904869, "lon": 20.1417843, "way_id": 257744969, "landuse": "farmland", "closest_distance_restriction": 3.6575019140868243}, {"id": 2632176673, "lat": 50.9048633, "lon": 20.1442082, "way_id": 257744969, "landuse": "farmland", "closest_distance_restriction": 3.728521426939204}, {"id": 2632176675, "lat": 50.9049049, "lon": 20.1439407, "way_id": 257744969, "landuse": "farmland", "closest_distance_restriction": 3.7164699717687184}, {"id": 2632176677, "lat": 50.9049331, "lon": 20.1432307, "way_id": 257744969, "landuse": "farmland", "closest_distance_restriction": 3.6931360670530333}, {"id": 2632176679, "lat": 50.905158, "lon": 20.1315367, "way_id": 257744965, "landuse": "farmland", "closest_distance_restriction": 3.3793944637951427}, {"id": 2632176681, "lat": 50.9050714, "lon": 20.1417296, "way_id": 257744969, "landuse": "farmland", "closest_distance_restriction": 3.6355411704884295}, {"id": 2632176691, "lat": 50.9051914, "lon": 20.1412786, "way_id": 257744969, "landuse": "farmland", "closest_distance_restriction": 3.609920682410177}, {"id": 2632176697, "lat": 50.9052491, "lon": 20.1409741, "way_id": 257744966, "landuse": "farmland", "closest_distance_restriction": 3.5950553510782544}, {"id": 2632176699, "lat": 50.9053592, "lon": 20.1315416, "way_id": 257744965, "landuse": "farmland", "closest_distance_restriction": 3.3578436171508494}, {"id": 2632176700, "lat": 50.9052985, "lon": 20.1407676, "way_id": 257744966, "landuse": "farmland", "closest_distance_restriction": 3.583981252036211}, {"id": 2632176702, "lat": 50.9054174, "lon": 20.1319266, "way_id": 257744965, "landuse": "farmland", "closest_distance_restriction": 3.358583436444541}, {"id": 2632176704, "lat": 50.9053274, "lon": 20.1412388, "way_id": 257744969, "landuse": "farmland", "closest_distance_restriction": 3.595053000016654}, {"id": 2632176706, "lat": 50.9053505, "lon": 20.1411982, "way_id": 257744967, "landuse": "farmland", "closest_distance_restriction": 3.5915147716483693}, {"id": 2632176708, "lat": 50.9054548, "lon": 20.1307278, "way_id": 257744965, "landuse": "farmland", "closest_distance_restriction": 3.3334285226242804}, {"id": 2632176710, "lat": 50.9053723, "lon": 20.1411526, "way_id": 257744967, "landuse": "farmland", "closest_distance_restriction": 3.587958424168888}, {"id": 2632176712, "lat": 50.9053558, "lon": 20.1463196, "way_id": 257744968, "landuse": "farmland", "closest_distance_restriction": 3.744372415458248}, {"id": 2632176713, "lat": 50.9055234, "lon": 20.1316353, "way_id": 257744965, "landuse": "farmland", "closest_distance_restriction": 3.3418820626331276}, {"id": 2632176715, "lat": 50.9055227, "lon": 20.1322393, "way_id": 257744965, "landuse": "farmland", "closest_distance_restriction": 3.353139350782825}, {"id": 2632176717, "lat": 50.9053875, "lon": 20.1466607, "way_id": 257744968, "landuse": "farmland", "closest_distance_restriction": 3.7522655171078134}, {"id": 2632176728, "lat": 50.9054652, "lon": 20.146896, "way_id": 257744968, "landuse": "farmland", "closest_distance_restriction": 3.752303402587315}, {"id": 2632176733, "lat": 50.9054796, "lon": 20.1464532, "way_id": 257744968, "landuse": "farmland", "closest_distance_restriction": 3.7364559358245892}, {"id": 2632176734, "lat": 50.9055554, "lon": 20.1398736, "way_id": 257744966, "landuse": "farmland", "closest_distance_restriction": 3.532050404279584}, {"id": 2632176736, "lat": 50.9055811, "lon": 20.1402262, "way_id": 257744966, "landuse": "farmland", "closest_distance_restriction": 3.539600333722566}, {"id": 2632176740, "lat": 50.9055533, "lon": 20.1465817, "way_id": 257744968, "landuse": "farmland", "closest_distance_restriction": 3.733363576166162}, {"id": 2632176741, "lat": 50.905638, "lon": 20.1400141, "way_id": 257744966, "landuse": "farmland", "closest_distance_restriction": 3.527703141261892}, {"id": 2632176743, "lat": 50.905789, "lon": 20.1252458, "way_id": 257744965, "landuse": "farmland", "closest_distance_restriction": 3.225824515829547}, {"id": 2632176745, "lat": 50.9056378, "lon": 20.1471574, "way_id": 257744968, "landuse": "farmland", "closest_distance_restriction": 3.74400232628617}, {"id": 2632176746, "lat": 50.9056577, "lon": 20.1466594, "way_id": 257744968, "landuse": "farmland", "closest_distance_restriction": 3.7256263731235384}, {"id": 2632176749, "lat": 50.9056843, "lon": 20.1467471, "way_id": 257744968, "landuse": "farmland", "closest_distance_restriction": 3.725887371141862}, {"id": 2632176751, "lat": 50.9058285, "lon": 20.1326385, "way_id": 257744965, "landuse": "farmland", "closest_distance_restriction": 3.3281487229342215}, {"id": 2632176757, "lat": 50.9057676, "lon": 20.1469311, "way_id": 257744968, "landuse": "farmland", "closest_distance_restriction": 3.723780446908272}, {"id": 2632176763, "lat": 50.9058413, "lon": 20.1402537, "way_id": 257744967, "landuse": "farmland", "closest_distance_restriction": 3.514085489342501}, {"id": 2632176773, "lat": 50.9060034, "lon": 20.1400519, "way_id": 257744967, "landuse": "farmland", "closest_distance_restriction": 3.491804154851637}, {"id": 2632176780, "lat": 50.9061299, "lon": 20.138837, "way_id": 257744965, "landuse": "farmland", "closest_distance_restriction": 3.4443215443853923}, {"id": 2632176797, "lat": 50.9062873, "lon": 20.1391102, "way_id": 257744965, "landuse": "farmland", "closest_distance_restriction": 3.435950002032156}, {"id": 2632176799, "lat": 50.9063218, "lon": 20.1387438, "way_id": 257744965, "landuse": "farmland", "closest_distance_restriction": 3.422143287366748}, {"id": 2632176802, "lat": 50.9063749, "lon": 20.1391205, "way_id": 257744965, "landuse": "farmland", "closest_distance_restriction": 3.4273320907835014}, {"id": 2632176806, "lat": 50.9063813, "lon": 20.1392619, "way_id": 257744967, "landuse": "farmland", "closest_distance_restriction": 3.430707060475634}, {"id": 2632176814, "lat": 50.9064648, "lon": 20.1346582, "way_id": 257744965, "landuse": "farmland", "closest_distance_restriction": 3.30360465073666}, {"id": 2632176823, "lat": 50.9064367, "lon": 20.1457632, "way_id": 257744968, "landuse": "farmland", "closest_distance_restriction": 3.6197198527954626}, {"id": 2632176827, "lat": 50.9065508, "lon": 20.1385453, "way_id": 257744965, "landuse": "farmland", "closest_distance_restriction": 3.3932458026689263}, {"id": 2632176832, "lat": 50.906572, "lon": 20.1392111, "way_id": 257744967, "landuse": "farmland", "closest_distance_restriction": 3.4098938530916088}, {"id": 2632176838, "lat": 50.9066659, "lon": 20.1352018, "way_id": 257744965, "landuse": "farmland", "closest_distance_restriction": 3.29514118737388}, {"id": 2632176845, "lat": 50.9066607, "lon": 20.139, "way_id": 257744967, "landuse": "farmland", "closest_distance_restriction": 3.394856091677212}, {"id": 2632176847, "lat": 50.9067103, "lon": 20.1388821, "way_id": 257744967, "landuse": "farmland", "closest_distance_restriction": 3.3864628661599276}, {"id": 2632176850, "lat": 50.9067742, "lon": 20.1383875, "way_id": 257744965, "landuse": "farmland", "closest_distance_restriction": 3.366053703829818}, {"id": 2632176852, "lat": 50.9068484, "lon": 20.1339493, "way_id": 257744965, "landuse": "farmland", "closest_distance_restriction": 3.2472711373779064}, {"id": 2632176856, "lat": 50.9070094, "lon": 20.1343695, "way_id": 257744965, "landuse": "farmland", "closest_distance_restriction": 3.2397564932882594}, {"id": 2632176858, "lat": 50.9069897, "lon": 20.1374623, "way_id": 257744965, "landuse": "farmland", "closest_distance_restriction": 3.3186906519531973}, {"id": 2632176859, "lat": 50.9069184, "lon": 20.1449638, "way_id": 257744967, "landuse": "farmland", "closest_distance_restriction": 3.5463762911969634}, {"id": 2632176861, "lat": 50.9070166, "lon": 20.1352267, "way_id": 257744965, "landuse": "farmland", "closest_distance_restriction": 3.259058448448722}, {"id": 2632176863, "lat": 50.9069881, "lon": 20.1386119, "way_id": 257744967, "landuse": "farmland", "closest_distance_restriction": 3.350551669173492}, {"id": 2632176866, "lat": 50.9070237, "lon": 20.1371449, "way_id": 257744965, "landuse": "farmland", "closest_distance_restriction": 3.30673003168093}, {"id": 2632176869, "lat": 50.9070893, "lon": 20.136771, "way_id": 257744965, "landuse": "farmland", "closest_distance_restriction": 3.2901454775823873}, {"id": 2632176871, "lat": 50.9071202, "lon": 20.1351802, "way_id": 257744965, "landuse": "farmland", "closest_distance_restriction": 3.2471182690767826}, {"id": 2632176874, "lat": 50.9071602, "lon": 20.1347813, "way_id": 257744965, "landuse": "farmland", "closest_distance_restriction": 3.233463092091787}, {"id": 2632176877, "lat": 50.9072351, "lon": 20.1384201, "way_id": 257744967, "landuse": "farmland", "closest_distance_restriction": 3.3199955313432135}, {"id": 2632176880, "lat": 50.9072588, "lon": 20.1363181, "way_id": 257744965, "landuse": "farmland", "closest_distance_restriction": 3.260924804068291}, {"id": 2632176883, "lat": 50.907276, "lon": 20.138261, "way_id": 257744965, "landuse": "farmland", "closest_distance_restriction": 3.3113477238653606}, {"id": 2632176886, "lat": 50.9073145, "lon": 20.1359032, "way_id": 257744965, "landuse": "farmland", "closest_distance_restriction": 3.2446301880381925}, {"id": 2632176888, "lat": 50.9075681, "lon": 20.1269278, "way_id": 257744965, "landuse": "farmland", "closest_distance_restriction": 3.04813748747247}, {"id": 2632176891, "lat": 50.9074957, "lon": 20.1440056, "way_id": 257744967, "landuse": "farmland", "closest_distance_restriction": 3.458712550242544}, {"id": 2632176894, "lat": 50.9075915, "lon": 20.1376566, "way_id": 257744965, "landuse": "farmland", "closest_distance_restriction": 3.2623171114840996}, {"id": 2632176897, "lat": 50.9076604, "lon": 20.133765, "way_id": 257744965, "landuse": "farmland", "closest_distance_restriction": 3.157558734378213}, {"id": 2632176899, "lat": 50.9077069, "lon": 20.1353496, "way_id": 257744965, "landuse": "farmland", "closest_distance_restriction": 3.190058255203563}, {"id": 2632176902, "lat": 50.9077084, "lon": 20.1362556, "way_id": 257744965, "landuse": "farmland", "closest_distance_restriction": 3.212815225703739}, {"id": 2632176905, "lat": 50.9077147, "lon": 20.1366638, "way_id": 257744965, "landuse": "farmland", "closest_distance_restriction": 3.222845563477386}, {"id": 2632176908, "lat": 50.9077867, "lon": 20.1340374, "way_id": 257744965, "landuse": "farmland", "closest_distance_restriction": 3.1504574628080424}, {"id": 2632176911, "lat": 50.9078267, "lon": 20.1368216, "way_id": 257744965, "landuse": "farmland", "closest_distance_restriction": 3.2155168237194074}, {"id": 2632176914, "lat": 50.9078956, "lon": 20.1333987, "way_id": 257744965, "landuse": "farmland", "closest_distance_restriction": 3.1245948009595934}, {"id": 2632176917, "lat": 50.9078861, "lon": 20.1349621, "way_id": 257744965, "landuse": "farmland", "closest_distance_restriction": 3.161896770105543}, {"id": 2632176919, "lat": 50.9078755, "lon": 20.137639, "way_id": 257744965, "landuse": "farmland", "closest_distance_restriction": 3.2328229845822056}, {"id": 2632176922, "lat": 50.9079231, "lon": 20.1332198, "way_id": 257744965, "landuse": "farmland", "closest_distance_restriction": 3.117753116800497}, {"id": 2632176925, "lat": 50.9080598, "lon": 20.1346154, "way_id": 257744965, "landuse": "farmland", "closest_distance_restriction": 3.1353958288229373}, {"id": 2632176928, "lat": 50.9080294, "lon": 20.1377325, "way_id": 257744965, "landuse": "farmland", "closest_distance_restriction": 3.219744422696524}, {"id": 2632176930, "lat": 50.9080533, "lon": 20.1374066, "way_id": 257744965, "landuse": "farmland", "closest_distance_restriction": 3.208216152689229}, {"id": 2632176943, "lat": 50.9080872, "lon": 20.1344447, "way_id": 257744965, "landuse": "farmland", "closest_distance_restriction": 3.1284588845353185}, {"id": 2632176945, "lat": 50.9080842, "lon": 20.1368769, "way_id": 257744965, "landuse": "farmland", "closest_distance_restriction": 3.190558870632222}, {"id": 2632176948, "lat": 50.9081134, "lon": 20.1375877, "way_id": 257744965, "landuse": "farmland", "closest_distance_restriction": 3.2071236791471947}, {"id": 2632176951, "lat": 50.9081425, "lon": 20.1372537, "way_id": 257744965, "landuse": "farmland", "closest_distance_restriction": 3.194875239980053}, {"id": 2632176954, "lat": 50.9081527, "lon": 20.1377927, "way_id": 257744965, "landuse": "farmland", "closest_distance_restriction": 3.2088872149328203}, {"id": 2632176957, "lat": 50.9083027, "lon": 20.137225, "way_id": 257744965, "landuse": "farmland", "closest_distance_restriction": 3.177709861555936}, {"id": 2632176959, "lat": 50.9083949, "lon": 20.1282175, "way_id": 257744965, "landuse": "farmland", "closest_distance_restriction": 2.9752793150438253}, {"id": 2632176962, "lat": 50.9083926, "lon": 20.1370068, "way_id": 257744965, "landuse": "farmland", "closest_distance_restriction": 3.1625021338766346}, {"id": 2632176965, "lat": 50.9084266, "lon": 20.137228, "way_id": 257744965, "landuse": "farmland", "closest_distance_restriction": 3.1651396668642624}, {"id": 2632176968, "lat": 50.9087912, "lon": 20.1287465, "way_id": 257744965, "landuse": "farmland", "closest_distance_restriction": 2.9403107139886693}, {"id": 2632176971, "lat": 50.9090375, "lon": 20.1289371, "way_id": 257744965, "landuse": "farmland", "closest_distance_restriction": 2.91668660302392}, {"id": 2632176973, "lat": 50.909091, "lon": 20.1399202, "way_id": 257744965, "landuse": "farmland", "closest_distance_restriction": 3.176474357610008}, {"id": 2632176975, "lat": 50.9091492, "lon": 20.1397665, "way_id": 257744965, "landuse": "farmland", "closest_distance_restriction": 3.166250253160762}, {"id": 2632176977, "lat": 50.909265, "lon": 20.1390103, "way_id": 257744965, "landuse": "farmland", "closest_distance_restriction": 3.1327559623427037}, {"id": 2632176979, "lat": 50.9094142, "lon": 20.1292233, "way_id": 257744965, "landuse": "farmland", "closest_distance_restriction": 2.8807140574973493}, {"id": 2632176980, "lat": 50.9095034, "lon": 20.1383713, "way_id": 257744965, "landuse": "farmland", "closest_distance_restriction": 3.0893587765586545}, {"id": 2632176986, "lat": 50.9096722, "lon": 20.1297143, "way_id": 257744965, "landuse": "farmland", "closest_distance_restriction": 2.8614432832044936}, {"id": 2632176988, "lat": 50.9096979, "lon": 20.131585, "way_id": 257744965, "landuse": "farmland", "closest_distance_restriction": 2.8948627035939167}, {"id": 2632176990, "lat": 50.9097535, "lon": 20.1303627, "way_id": 257744965, "landuse": "farmland", "closest_distance_restriction": 2.8646412191248887}, {"id": 2632176995, "lat": 50.9098055, "lon": 20.131022, "way_id": 257744965, "landuse": "farmland", "closest_distance_restriction": 2.8719248314449626}, {"id": 2632176996, "lat": 50.9099651, "lon": 20.1338851, "way_id": 257744965, "landuse": "farmland", "closest_distance_restriction": 2.9188938881152584}, {"id": 2632176998, "lat": 50.9100691, "lon": 20.1343284, "way_id": 257744965, "landuse": "farmland", "closest_distance_restriction": 2.919112178419831}, {"id": 2632177000, "lat": 50.9101134, "lon": 20.1345499, "way_id": 257744965, "landuse": "farmland", "closest_distance_restriction": 2.9201556511534585}, {"id": 2632177002, "lat": 50.9101468, "lon": 20.1364199, "way_id": 257744965, "landuse": "farmland", "closest_distance_restriction": 2.967167349330673}, {"id": 2632177004, "lat": 50.910347, "lon": 20.1349392, "way_id": 257744965, "landuse": "farmland", "closest_distance_restriction": 2.906158301943214}, {"id": 2632177006, "lat": 50.910392, "lon": 20.1356259, "way_id": 257744965, "landuse": "farmland", "closest_distance_restriction": 2.920020137113302}, {"id": 2632177007, "lat": 50.9104513, "lon": 20.135358, "way_id": 257744965, "landuse": "farmland", "closest_distance_restriction": 2.906640961095279}, {"id": 2632215595, "lat": 50.7845157, "lon": 19.9785404, "way_id": 257750186, "landuse": "farmland", "closest_distance_restriction": 4.763167152052915}, {"id": 2632215655, "lat": 50.7857131, "lon": 19.9765039, "way_id": 257750184, "landuse": "farmland", "closest_distance_restriction": 4.913587425245644}, {"id": 2632215658, "lat": 50.7857917, "lon": 19.9739941, "way_id": 257750184, "landuse": "farmland", "closest_distance_restriction": 4.947949826122493}, {"id": 2632215778, "lat": 50.7866614, "lon": 19.9761234, "way_id": 257750184, "landuse": "farmland", "closest_distance_restriction": 4.846656702094837}, {"id": 2632215782, "lat": 50.7867031, "lon": 19.9751722, "way_id": 257750184, "landuse": "farmland", "closest_distance_restriction": 4.843547249485062}, {"id": 2632215786, "lat": 50.7867262, "lon": 19.9747258, "way_id": 257750184, "landuse": "farmland", "closest_distance_restriction": 4.842014611558839}, {"id": 2632215790, "lat": 50.7867447, "lon": 19.9741917, "way_id": 257750184, "landuse": "farmland", "closest_distance_restriction": 4.841464253049036}, {"id": 2632215849, "lat": 50.7888033, "lon": 19.9750332, "way_id": 257750184, "landuse": "farmland", "closest_distance_restriction": 4.610439581481986}, {"id": 2632215850, "lat": 50.7889235, "lon": 19.9748575, "way_id": 257750184, "landuse": "farmland", "closest_distance_restriction": 4.597511011460243}, {"id": 2632228498, "lat": 50.7846175, "lon": 19.9787769, "way_id": 257750186, "landuse": "farmland", "closest_distance_restriction": 4.772525187859325}, {"id": 2632228500, "lat": 50.78484, "lon": 19.9793254, "way_id": 257750186, "landuse": "farmland", "closest_distance_restriction": 4.792979418637649}, {"id": 2632228502, "lat": 50.784889, "lon": 19.9796358, "way_id": 257750186, "landuse": "farmland", "closest_distance_restriction": 4.796198832752588}, {"id": 2632228504, "lat": 50.7849741, "lon": 19.9786579, "way_id": 257750186, "landuse": "farmland", "closest_distance_restriction": 4.812865271108899}, {"id": 2632228506, "lat": 50.7850787, "lon": 19.9792219, "way_id": 257750186, "landuse": "farmland", "closest_distance_restriction": 4.82013289109345}, {"id": 2632228508, "lat": 50.7858638, "lon": 19.979315, "way_id": 257750186, "landuse": "farmland", "closest_distance_restriction": 4.906300867701915}, {"id": 2632228510, "lat": 50.7859568, "lon": 19.9798771, "way_id": 257750186, "landuse": "farmland", "closest_distance_restriction": 4.91276572402045}, {"id": 2632228512, "lat": 50.786025, "lon": 19.9802467, "way_id": 257750186, "landuse": "farmland", "closest_distance_restriction": 4.91797787882503}, {"id": 2632228514, "lat": 50.7862332, "lon": 19.9808814, "way_id": 257750186, "landuse": "farmland", "closest_distance_restriction": 4.898797568255582}, {"id": 2632228516, "lat": 50.7862598, "lon": 19.9811302, "way_id": 257750186, "landuse": "farmland", "closest_distance_restriction": 4.896035492217922}, {"id": 2632228518, "lat": 50.7865744, "lon": 19.9803985, "way_id": 257750186, "landuse": "farmland", "closest_distance_restriction": 4.860656649587254}, {"id": 2632228520, "lat": 50.7866218, "lon": 19.9807461, "way_id": 257750186, "landuse": "farmland", "closest_distance_restriction": 4.855508322809616}, {"id": 2632228522, "lat": 50.7866923, "lon": 19.9800381, "way_id": 257750186, "landuse": "farmland", "closest_distance_restriction": 4.846646234498228}, {"id": 2632228524, "lat": 50.7867235, "lon": 19.9803436, "way_id": 257750186, "landuse": "farmland", "closest_distance_restriction": 4.844069437869027}, {"id": 2632228530, "lat": 50.7869051, "lon": 19.9809473, "way_id": 257750186, "landuse": "farmland", "closest_distance_restriction": 4.824135449133685}, {"id": 2632228534, "lat": 50.7869699, "lon": 19.980706, "way_id": 257750186, "landuse": "farmland", "closest_distance_restriction": 4.8167819306444954}, {"id": 2632228542, "lat": 50.7871133, "lon": 19.9794913, "way_id": 257750186, "landuse": "farmland", "closest_distance_restriction": 4.79844230536275}, {"id": 2632228566, "lat": 50.7873099, "lon": 19.9784083, "way_id": 257750186, "landuse": "farmland", "closest_distance_restriction": 4.774659204268012}, {"id": 2632228577, "lat": 50.7875084, "lon": 19.9774979, "way_id": 257750186, "landuse": "farmland", "closest_distance_restriction": 4.751899079987667}, {"id": 2632261986, "lat": 50.786942, "lon": 19.9808331, "way_id": 257750186, "landuse": "farmland", "closest_distance_restriction": 4.819954920970208}, {"id": 2682019698, "lat": 51.0281891, "lon": 19.8766428, "way_id": 262539398, "landuse": "farmland", "closest_distance_restriction": 1.6281319076146394}, {"id": 2682019709, "lat": 51.0299396, "lon": 19.8771431, "way_id": 262539398, "landuse": "farmland", "closest_distance_restriction": 1.6886220228944064}, {"id": 3146866859, "lat": 50.897305, "lon": 20.1331698, "way_id": 257744965, "landuse": "farmland", "closest_distance_restriction": 4.254579199333412}, {"id": 3146866860, "lat": 50.8991131, "lon": 20.1293086, "way_id": 257744965, "landuse": "farmland", "closest_distance_restriction": 4.002998580698522}, {"id": 3146866861, "lat": 50.9026108, "lon": 20.1218731, "way_id": 257744965, "landuse": "farmland", "closest_distance_restriction": 3.556899971360892}, {"id": 3146866862, "lat": 50.9022329, "lon": 20.1214932, "way_id": 257744965, "landuse": "farmland", "closest_distance_restriction": 3.5976445480525254}, {"id": 3146866863, "lat": 50.8971999, "lon": 20.1309157, "way_id": 257744965, "landuse": "farmland", "closest_distance_restriction": 4.2328033270255165}, {"id": 3146866864, "lat": 50.89667, "lon": 20.1305097, "way_id": 257744965, "landuse": "farmland", "closest_distance_restriction": 4.28534619003096}, {"id": 3146866865, "lat": 50.8963786, "lon": 20.1309017, "way_id": 257744965, "landuse": "farmland", "closest_distance_restriction": 4.322281642460722}, {"id": 3146866866, "lat": 50.8954661, "lon": 20.1329617, "way_id": 257744965, "landuse": "farmland", "closest_distance_restriction": 4.450755613620301}, {"id": 3676817552, "lat": 50.8175685, "lon": 20.1174908, "way_id": 363517174, "landuse": "farmland", "closest_distance_restriction": 3.321658943800256}, {"id": 3676817553, "lat": 50.8175878, "lon": 20.1170997, "way_id": 363517174, "landuse": "farmland", "closest_distance_restriction": 3.333412815190157}, {"id": 3676817559, "lat": 50.8181423, "lon": 20.1175907, "way_id": 363517174, "landuse": "farmland", "closest_distance_restriction": 3.262767953245166}, {"id": 3676817562, "lat": 50.8181643, "lon": 20.1179384, "way_id": 363517174, "landuse": "farmland", "closest_distance_restriction": 3.24851784035962}, {"id": 3676817583, "lat": 50.8207915, "lon": 20.1183772, "way_id": 363517174, "landuse": "farmland", "closest_distance_restriction": 2.981578749226383}, {"id": 3676817585, "lat": 50.8209409, "lon": 20.1176615, "way_id": 363517174, "landuse": "farmland", "closest_distance_restriction": 2.994438029539563}, {"id": 3676817586, "lat": 50.8209564, "lon": 20.1183898, "way_id": 363517174, "landuse": "farmland", "closest_distance_restriction": 2.9655495084422387}, {"id": 5257372644, "lat": 50.6249978, "lon": 19.8833265, "way_id": 253793040, "landuse": "farmland", "closest_distance_restriction": 1.6342825059012727}, {"id": 5257372645, "lat": 50.6249926, "lon": 19.8815081, "way_id": 253793040, "landuse": "farmland", "closest_distance_restriction": 1.7616205435882917}, {"id": 5257372646, "lat": 50.6254917, "lon": 19.8818156, "way_id": 253793040, "landuse": "farmland", "closest_distance_restriction": 1.734188425832959}, {"id": 5257372647, "lat": 50.6257125, "lon": 19.8809907, "way_id": 253793040, "landuse": "farmland", "closest_distance_restriction": 1.7901627550653545}, {"id": 5257372648, "lat": 50.6258532, "lon": 19.8796743, "way_id": 253793040, "landuse": "farmland", "closest_distance_restriction": 1.881744021392547}, {"id": 5257372649, "lat": 50.6264768, "lon": 19.8787108, "way_id": 253793040, "landuse": "farmland", "closest_distance_restriction": 1.9466581129366443}, {"id": 5257372650, "lat": 50.6264889, "lon": 19.8793688, "way_id": 253793040, "landuse": "farmland", "closest_distance_restriction": 1.9002243941821284}, {"id": 5257372651, "lat": 50.6268717, "lon": 19.8795843, "way_id": 253793040, "landuse": "farmland", "closest_distance_restriction": 1.8844665906863096}, {"id": 5257372652, "lat": 50.6269947, "lon": 19.8790175, "way_id": 253793040, "landuse": "farmland", "closest_distance_restriction": 1.9244709120693095}, {"id": 5257372653, "lat": 50.6271187, "lon": 19.8777995, "way_id": 253793040, "landuse": "farmland", "closest_distance_restriction": 2.010501775406021}, {"id": 5257372654, "lat": 50.6274153, "lon": 19.8773963, "way_id": 253793040, "landuse": "farmland", "closest_distance_restriction": 2.0395930743962354}, {"id": 5257372655, "lat": 50.6277645, "lon": 19.8781425, "way_id": 253793040, "landuse": "farmland", "closest_distance_restriction": 1.9884684996301625}, {"id": 5257372657, "lat": 50.629606, "lon": 19.8775177, "way_id": 253793040, "landuse": "farmland", "closest_distance_restriction": 2.0523448457280553}, {"id": 5257372658, "lat": 50.629249, "lon": 19.8771479, "way_id": 253793040, "landuse": "farmland", "closest_distance_restriction": 2.0727848178884547}, {"id": 5257372659, "lat": 50.6292334, "lon": 19.8764846, "way_id": 253793040, "landuse": "farmland", "closest_distance_restriction": 2.1189945860167634}, {"id": 5257372660, "lat": 50.631749, "lon": 19.8776134, "way_id": 253793040, "landuse": "farmland", "closest_distance_restriction": 2.0939711409695057}, {"id": 5257372661, "lat": 50.6320327, "lon": 19.877767, "way_id": 253793040, "landuse": "farmland", "closest_distance_restriction": 2.091882705768703}, {"id": 5257372663, "lat": 50.6314102, "lon": 19.879091, "way_id": 253793040, "landuse": "farmland", "closest_distance_restriction": 1.9835928877023807}, {"id": 5257372664, "lat": 50.6316724, "lon": 19.8791678, "way_id": 253793040, "landuse": "farmland", "closest_distance_restriction": 1.985937050446249}, {"id": 5281284846, "lat": 50.8972926, "lon": 20.13305, "way_id": 257744965, "landuse": "farmland", "closest_distance_restriction": 4.254014225088349}, {"id": 5667597001, "lat": 50.8926761, "lon": 20.127113, "way_id": 257744965, "landuse": "farmland", "closest_distance_restriction": 4.6889987204083265}, {"id": 5667597002, "lat": 50.8928528, "lon": 20.127589, "way_id": 257744965, "landuse": "farmland", "closest_distance_restriction": 4.673504376963773}, {"id": 5667597003, "lat": 50.8929103, "lon": 20.1278426, "way_id": 257744965, "landuse": "farmland", "closest_distance_restriction": 4.669400474896236}, {"id": 5667597004, "lat": 50.8929509, "lon": 20.1281189, "way_id": 257744965, "landuse": "farmland", "closest_distance_restriction": 4.667442244906518}, {"id": 6865794613, "lat": 50.8889802, "lon": 20.1045153, "way_id": 733172122, "landuse": "meadow", "closest_distance_restriction": 4.827175009897963}, {"id": 6865794614, "lat": 50.8890417, "lon": 20.1044987, "way_id": 733172122, "landuse": "meadow", "closest_distance_restriction": 4.823234637821931}, {"id": 6865794615, "lat": 50.8891136, "lon": 20.1045414, "way_id": 733172122, "landuse": "meadow", "closest_distance_restriction": 4.822590390344512}, {"id": 6865794616, "lat": 50.889403, "lon": 20.10563, "way_id": 733172122, "landuse": "meadow", "closest_distance_restriction": 4.878777703355535}, {"id": 6865794617, "lat": 50.8891061, "lon": 20.1059461, "way_id": 733172122, "landuse": "meadow", "closest_distance_restriction": 4.912542006653835}, {"id": 6865794618, "lat": 50.8889817, "lon": 20.1056752, "way_id": 733172122, "landuse": "meadow", "closest_distance_restriction": 4.900973415346659}, {"id": 6865794619, "lat": 50.8887013, "lon": 20.1059746, "way_id": 733172122, "landuse": "meadow", "closest_distance_restriction": 4.933080402180185}, {"id": 6865794620, "lat": 50.8888213, "lon": 20.1062337, "way_id": 733172122, "landuse": "meadow", "closest_distance_restriction": 4.944018136076136}, {"id": 6865794621, "lat": 50.8888797, "lon": 20.1065284, "way_id": 733172122, "landuse": "meadow", "closest_distance_restriction": 4.960136399558112}, {"id": 6865794622, "lat": 50.8891076, "lon": 20.1072819, "way_id": 733172122, "landuse": "meadow", "closest_distance_restriction": 4.997992187946178}, {"id": 6865794623, "lat": 50.8892906, "lon": 20.1075433, "way_id": 733172122, "landuse": "meadow", "closest_distance_restriction": 5.006579705411953}, {"id": 6865794624, "lat": 50.8888602, "lon": 20.1085701, "way_id": 733172122, "landuse": "meadow", "closest_distance_restriction": 5.09176265464163}, {"id": 6865794625, "lat": 50.8885694, "lon": 20.1092546, "way_id": 733172122, "landuse": "meadow", "closest_distance_restriction": 5.148747608583802}, {"id": 6865794626, "lat": 50.8882275, "lon": 20.1088125, "way_id": 733172122, "landuse": "meadow", "closest_distance_restriction": 5.1360037282745985}, {"id": 6865794627, "lat": 50.8881316, "lon": 20.1087341, "way_id": 733172122, "landuse": "meadow", "closest_distance_restriction": 5.135417359539997}, {"id": 6865794628, "lat": 50.8879921, "lon": 20.1086985, "way_id": 733172122, "landuse": "meadow", "closest_distance_restriction": 5.1396122478237904}, {"id": 6865794629, "lat": 50.8878587, "lon": 20.1087698, "way_id": 733172122, "landuse": "meadow", "closest_distance_restriction": 5.150370126215805}, {"id": 6865794630, "lat": 50.8876809, "lon": 20.1085575, "way_id": 733172122, "landuse": "meadow", "closest_distance_restriction": 5.145218861427315}, {"id": 6865794631, "lat": 50.8878137, "lon": 20.105996, "way_id": 733172122, "landuse": "meadow", "closest_distance_restriction": 4.976650941264144}, {"id": 7017731205, "lat": 50.6329797, "lon": 19.8799063, "way_id": 253793036, "landuse": "farmland", "closest_distance_restriction": 1.9792911654705854}, {"id": 7017731206, "lat": 50.633338, "lon": 19.8784185, "way_id": 253793036, "landuse": "farmland", "closest_distance_restriction": 2.091380146480188}]}