{"nodes": [{"id": 651937127, "lat": 51.481135, "lon": 15.1613044, "way_id": 88279962, "landuse": "farmland", "closest_distance_restriction": 1.8722211636764425}, {"id": 652799661, "lat": 51.4781243, "lon": 15.0989859, "way_id": 167791474, "landuse": "meadow", "closest_distance_restriction": 1.813860016768082}, {"id": 1025452950, "lat": 51.4834071, "lon": 15.1615389, "way_id": 88279962, "landuse": "farmland", "closest_distance_restriction": 1.746387318735125}, {"id": 1025453339, "lat": 51.4833197, "lon": 15.1610925, "way_id": 88279962, "landuse": "farmland", "closest_distance_restriction": 1.7786628842104433}, {"id": 1025453361, "lat": 51.4873131, "lon": 15.1615827, "way_id": 88279962, "landuse": "farmland", "closest_distance_restriction": 1.6267035032658719}, {"id": 1025453505, "lat": 51.4836991, "lon": 15.1569262, "way_id": 88279962, "landuse": "farmland", "closest_distance_restriction": 1.77911023509847}, {"id": 1025453569, "lat": 51.4852822, "lon": 15.1598993, "way_id": 88279962, "landuse": "farmland", "closest_distance_restriction": 1.786810615695677}, {"id": 1025453624, "lat": 51.4801565, "lon": 15.157305, "way_id": 88279962, "landuse": "farmland", "closest_distance_restriction": 1.7679915379101656}, {"id": 1025453743, "lat": 51.4837979, "lon": 15.1635151, "way_id": 88279962, "landuse": "farmland", "closest_distance_restriction": 1.603397576248722}, {"id": 1025453898, "lat": 51.4860378, "lon": 15.1599546, "way_id": 88279962, "landuse": "farmland", "closest_distance_restriction": 1.7632020471200203}, {"id": 1025453971, "lat": 51.4846327, "lon": 15.1577024, "way_id": 88279962, "landuse": "farmland", "closest_distance_restriction": 1.8433670253191499}, {"id": 1025454014, "lat": 51.4821991, "lon": 15.1626032, "way_id": 88279962, "landuse": "farmland", "closest_distance_restriction": 1.7366156964417985}, {"id": 1025454077, "lat": 51.4816627, "lon": 15.1620057, "way_id": 88279962, "landuse": "farmland", "closest_distance_restriction": 1.8012397322997067}, {"id": 1025454123, "lat": 51.4836282, "lon": 15.162455, "way_id": 88279962, "landuse": "farmland", "closest_distance_restriction": 1.6783750882918806}, {"id": 1025454285, "lat": 51.4832168, "lon": 15.1590725, "way_id": 88279962, "landuse": "farmland", "closest_distance_restriction": 1.9127592950214491}, {"id": 1025454295, "lat": 51.487997, "lon": 15.1613993, "way_id": 88279962, "landuse": "farmland", "closest_distance_restriction": 1.5762602815584545}, {"id": 1025454372, "lat": 51.4847665, "lon": 15.1581078, "way_id": 88279962, "landuse": "farmland", "closest_distance_restriction": 1.8656508283066353}, {"id": 1025454418, "lat": 51.4809428, "lon": 15.1544958, "way_id": 88279962, "landuse": "farmland", "closest_distance_restriction": 1.5742462651764173}, {"id": 1025454530, "lat": 51.4872099, "lon": 15.1611705, "way_id": 88279962, "landuse": "farmland", "closest_distance_restriction": 1.6566242128966975}, {"id": 1025454567, "lat": 51.4860662, "lon": 15.1602374, "way_id": 88279962, "landuse": "farmland", "closest_distance_restriction": 1.7433992464217287}, {"id": 1025454650, "lat": 51.4837582, "lon": 15.1568314, "way_id": 88279962, "landuse": "farmland", "closest_distance_restriction": 1.7740456235641298}, {"id": 1025454752, "lat": 51.4847838, "lon": 15.1592709, "way_id": 88279962, "landuse": "farmland", "closest_distance_restriction": 1.8436625711068069}, {"id": 1025454906, "lat": 51.4832442, "lon": 15.1599943, "way_id": 88279962, "landuse": "farmland", "closest_distance_restriction": 1.8522590210154581}, {"id": 1025454921, "lat": 51.4862565, "lon": 15.1605968, "way_id": 88279962, "landuse": "farmland", "closest_distance_restriction": 1.7146131143527017}, {"id": 1025455254, "lat": 51.483078, "lon": 15.1574355, "way_id": 88279962, "landuse": "farmland", "closest_distance_restriction": 1.801061640148905}, {"id": 1025455270, "lat": 51.4855942, "lon": 15.1596545, "way_id": 88279962, "landuse": "farmland", "closest_distance_restriction": 1.794610350768129}, {"id": 1025455305, "lat": 51.4809493, "lon": 15.1558781, "way_id": 88279962, "landuse": "farmland", "closest_distance_restriction": 1.6699346836249809}, {"id": 1025455435, "lat": 51.48426, "lon": 15.1571632, "way_id": 88279962, "landuse": "farmland", "closest_distance_restriction": 1.8088503874561976}, {"id": 1025455518, "lat": 51.4826117, "lon": 15.1630504, "way_id": 88279962, "landuse": "farmland", "closest_distance_restriction": 1.6881149443582637}, {"id": 1025455727, "lat": 51.4840939, "lon": 15.1568551, "way_id": 88279962, "landuse": "farmland", "closest_distance_restriction": 1.783811622281087}, {"id": 1025455743, "lat": 51.4879864, "lon": 15.161593, "way_id": 88279962, "landuse": "farmland", "closest_distance_restriction": 1.57474070885128}, {"id": 1025455802, "lat": 51.4802786, "lon": 15.159766, "way_id": 88279962, "landuse": "farmland", "closest_distance_restriction": 1.9382312860713617}, {"id": 1025456148, "lat": 51.4832664, "lon": 15.1605425, "way_id": 88279962, "landuse": "farmland", "closest_distance_restriction": 1.8161413279616594}, {"id": 1025456333, "lat": 51.4855144, "lon": 15.1600367, "way_id": 88279962, "landuse": "farmland", "closest_distance_restriction": 1.7710844042386535}, {"id": 1025456489, "lat": 51.4837038, "lon": 15.1629449, "way_id": 88279962, "landuse": "farmland", "closest_distance_restriction": 1.6438384314741075}, {"id": 1025456626, "lat": 51.4831959, "lon": 15.1585219, "way_id": 88279962, "landuse": "farmland", "closest_distance_restriction": 1.8774219238112957}, {"id": 1025456867, "lat": 51.4795972, "lon": 15.1583193, "way_id": 88279962, "landuse": "farmland", "closest_distance_restriction": 1.8402914981681802}, {"id": 1215200165, "lat": 51.5802307, "lon": 15.7888774, "way_id": 105511758, "landuse": "meadow", "closest_distance_restriction": 4.361383391711315}, {"id": 1215200338, "lat": 51.5793916, "lon": 15.7706062, "way_id": 105511758, "landuse": "meadow", "closest_distance_restriction": 3.122594320016883}, {"id": 1215200400, "lat": 51.5560518, "lon": 15.7430543, "way_id": 105511758, "landuse": "meadow", "closest_distance_restriction": 1.7096316847350803}, {"id": 1215200579, "lat": 51.5698478, "lon": 15.7706628, "way_id": 105511758, "landuse": "meadow", "closest_distance_restriction": 2.9682600454623684}, {"id": 1215200693, "lat": 51.5735172, "lon": 15.7556237, "way_id": 105511758, "landuse": "meadow", "closest_distance_restriction": 1.956644185851883}, {"id": 1215200823, "lat": 51.5822158, "lon": 15.7763931, "way_id": 105511758, "landuse": "meadow", "closest_distance_restriction": 3.605024681525885}, {"id": 1215200991, "lat": 51.5746344, "lon": 15.7608058, "way_id": 105511758, "landuse": "meadow", "closest_distance_restriction": 2.3313846186215654}, {"id": 1215201200, "lat": 51.5695237, "lon": 15.7694979, "way_id": 105511758, "landuse": "meadow", "closest_distance_restriction": 2.8884680927410904}, {"id": 1215201421, "lat": 51.5718298, "lon": 15.7913245, "way_id": 105511758, "landuse": "meadow", "closest_distance_restriction": 4.398417558692747}, {"id": 1703282362, "lat": 51.57119, "lon": 15.7514416, "way_id": 105511758, "landuse": "meadow", "closest_distance_restriction": 1.6412646186742499}, {"id": 1703282363, "lat": 51.5717676, "lon": 15.751735, "way_id": 105511758, "landuse": "meadow", "closest_distance_restriction": 1.6654758460006034}, {"id": 1703282375, "lat": 51.5723311, "lon": 15.7524598, "way_id": 105511758, "landuse": "meadow", "closest_distance_restriction": 1.7214540095576203}, {"id": 1703282394, "lat": 51.57285, "lon": 15.7533831, "way_id": 105511758, "landuse": "meadow", "closest_distance_restriction": 1.792148238817133}, {"id": 1703282398, "lat": 51.5731437, "lon": 15.7542049, "way_id": 105511758, "landuse": "meadow", "closest_distance_restriction": 1.8531671360637627}, {"id": 1791498633, "lat": 51.4780551, "lon": 15.0991737, "way_id": 167791474, "landuse": "meadow", "closest_distance_restriction": 1.802850037544777}, {"id": 1791498785, "lat": 51.4790431, "lon": 15.0999122, "way_id": 167791474, "landuse": "meadow", "closest_distance_restriction": 1.731314032133542}, {"id": 1791498949, "lat": 51.4808135, "lon": 15.1548514, "way_id": 88279962, "landuse": "farmland", "closest_distance_restriction": 1.5984034088158243}, {"id": 1791499327, "lat": 51.4827831, "lon": 15.1634923, "way_id": 88279962, "landuse": "farmland", "closest_distance_restriction": 1.6522161652430225}, {"id": 1791499947, "lat": 51.4848754, "lon": 15.158857, "way_id": 88279962, "landuse": "farmland", "closest_distance_restriction": 1.8683949338526016}, {"id": 1791499963, "lat": 51.4849018, "lon": 15.1585394, "way_id": 88279962, "landuse": "farmland", "closest_distance_restriction": 1.8887831552898429}, {"id": 1791499984, "lat": 51.4849875, "lon": 15.1597462, "way_id": 88279962, "landuse": "farmland", "closest_distance_restriction": 1.8057588678058305}, {"id": 1791500491, "lat": 51.4859878, "lon": 15.1598449, "way_id": 88279962, "landuse": "farmland", "closest_distance_restriction": 1.7718176433310033}, {"id": 1793314640, "lat": 51.5515712, "lon": 15.2209369, "way_id": 395879395, "landuse": "farmland", "closest_distance_restriction": 1.5713215046162319}, {"id": 2311558519, "lat": 51.5084674, "lon": 15.6415985, "way_id": 222178115, "landuse": "meadow", "closest_distance_restriction": 2.018641055312901}, {"id": 2311558536, "lat": 51.508727, "lon": 15.6459342, "way_id": 222177624, "landuse": "meadow", "closest_distance_restriction": 2.310738606945862}, {"id": 2311558559, "lat": 51.5090025, "lon": 15.6454757, "way_id": 222177624, "landuse": "meadow", "closest_distance_restriction": 2.275264849524465}, {"id": 2311558573, "lat": 51.5092496, "lon": 15.6398594, "way_id": 627165458, "landuse": "meadow", "closest_distance_restriction": 1.8863240095555667}, {"id": 2311558576, "lat": 51.5092754, "lon": 15.6453899, "way_id": 222177624, "landuse": "meadow", "closest_distance_restriction": 2.2657585019049287}, {"id": 2311558598, "lat": 51.509678, "lon": 15.638799, "way_id": 627165458, "landuse": "meadow", "closest_distance_restriction": 1.8075004111410728}, {"id": 2311558600, "lat": 51.5097159, "lon": 15.6387699, "way_id": 627165458, "landuse": "meadow", "closest_distance_restriction": 1.8050147678752035}, {"id": 2311558602, "lat": 51.5097293, "lon": 15.6388204, "way_id": 627165458, "landuse": "meadow", "closest_distance_restriction": 1.8083179269085827}, {"id": 2311558603, "lat": 51.509738, "lon": 15.6447893, "way_id": 222177624, "landuse": "meadow", "closest_distance_restriction": 2.2191544691591947}, {"id": 2311558609, "lat": 51.5098579, "lon": 15.6393047, "way_id": 627165458, "landuse": "meadow", "closest_distance_restriction": 1.840091607442694}, {"id": 2311558622, "lat": 51.5100552, "lon": 15.644579, "way_id": 222177624, "landuse": "meadow", "closest_distance_restriction": 2.20168626183127}, {"id": 2311558624, "lat": 51.5101211, "lon": 15.6394415, "way_id": 627165458, "landuse": "meadow", "closest_distance_restriction": 1.8467305987598697}, {"id": 2311558653, "lat": 51.5108166, "lon": 15.6385008, "way_id": 627165458, "landuse": "meadow", "closest_distance_restriction": 1.7752150732838532}, {"id": 2311558656, "lat": 51.5104944, "lon": 15.6390807, "way_id": 627165458, "landuse": "meadow", "closest_distance_restriction": 1.818329263511826}, {"id": 2311558661, "lat": 51.5106302, "lon": 15.639102, "way_id": 627165458, "landuse": "meadow", "closest_distance_restriction": 1.8184037871759775}, {"id": 2311558663, "lat": 51.5105441, "lon": 15.6441123, "way_id": 222178115, "landuse": "meadow", "closest_distance_restriction": 2.1647349204473416}, {"id": 2311558666, "lat": 51.5106148, "lon": 15.6440676, "way_id": 222178115, "landuse": "meadow", "closest_distance_restriction": 2.161047249352463}, {"id": 2311558668, "lat": 51.5106742, "lon": 15.64411, "way_id": 222177624, "landuse": "meadow", "closest_distance_restriction": 2.1634886087006895}, {"id": 2311558676, "lat": 51.5099293, "lon": 15.6407065, "way_id": 627165458, "landuse": "meadow", "closest_distance_restriction": 1.935847716370439}, {"id": 2311558678, "lat": 51.5108977, "lon": 15.6438159, "way_id": 222178115, "landuse": "meadow", "closest_distance_restriction": 2.1415295463420736}, {"id": 2311558681, "lat": 51.5109666, "lon": 15.6437982, "way_id": 222177624, "landuse": "meadow", "closest_distance_restriction": 2.139853078586245}, {"id": 2311558690, "lat": 51.5111801, "lon": 15.6422656, "way_id": 222178115, "landuse": "meadow", "closest_distance_restriction": 2.0326792536346843}, {"id": 2311558692, "lat": 51.5112006, "lon": 15.6421124, "way_id": 222177624, "landuse": "meadow", "closest_distance_restriction": 2.0219794722351576}, {"id": 2311558700, "lat": 51.5112575, "lon": 15.6432646, "way_id": 222178115, "landuse": "meadow", "closest_distance_restriction": 2.101345331006528}, {"id": 2311558703, "lat": 51.5112792, "lon": 15.6424377, "way_id": 222177624, "landuse": "meadow", "closest_distance_restriction": 2.044070256457948}, {"id": 2311558705, "lat": 51.5112907, "lon": 15.6424852, "way_id": 222177624, "landuse": "meadow", "closest_distance_restriction": 2.0472997064572405}, {"id": 2311558709, "lat": 51.5113108, "lon": 15.6433085, "way_id": 222177624, "landuse": "meadow", "closest_distance_restriction": 2.104133759063793}, {"id": 2311558712, "lat": 51.5113331, "lon": 15.6427715, "way_id": 222178115, "landuse": "meadow", "closest_distance_restriction": 2.066902164955628}, {"id": 2311558717, "lat": 51.5113507, "lon": 15.6427336, "way_id": 222177624, "landuse": "meadow", "closest_distance_restriction": 2.0642044726977096}, {"id": 2311558719, "lat": 51.5113622, "lon": 15.6427812, "way_id": 222177624, "landuse": "meadow", "closest_distance_restriction": 2.0674468520321843}, {"id": 2311558721, "lat": 51.5113714, "lon": 15.6428194, "way_id": 222177624, "landuse": "meadow", "closest_distance_restriction": 2.0700497390193933}, {"id": 2311558726, "lat": 51.5115707, "lon": 15.6459661, "way_id": 222177624, "landuse": "meadow", "closest_distance_restriction": 2.2317259557558033}, {"id": 2311558728, "lat": 51.5116047, "lon": 15.6459665, "way_id": 780721819, "landuse": "meadow", "closest_distance_restriction": 2.2279648629492703}, {"id": 2311558734, "lat": 51.5117663, "lon": 15.6381435, "way_id": 222177624, "landuse": "meadow", "closest_distance_restriction": 1.745329765753095}, {"id": 2311558739, "lat": 51.5119377, "lon": 15.6379614, "way_id": 222177624, "landuse": "meadow", "closest_distance_restriction": 1.732462657067874}, {"id": 2311558750, "lat": 51.5122205, "lon": 15.6378431, "way_id": 222177624, "landuse": "meadow", "closest_distance_restriction": 1.7242930732435355}, {"id": 2311558785, "lat": 51.512484, "lon": 15.6384502, "way_id": 222177624, "landuse": "meadow", "closest_distance_restriction": 1.7668223965657914}, {"id": 2311558815, "lat": 51.5126226, "lon": 15.6482094, "way_id": 780721819, "landuse": "meadow", "closest_distance_restriction": 2.136363979507875}, {"id": 2311558817, "lat": 51.5126244, "lon": 15.6479111, "way_id": 780721819, "landuse": "meadow", "closest_distance_restriction": 2.1327280411452665}, {"id": 2311558846, "lat": 51.5128956, "lon": 15.647635, "way_id": 780721819, "landuse": "meadow", "closest_distance_restriction": 2.0999232282133775}, {"id": 2311558853, "lat": 51.5129194, "lon": 15.6476108, "way_id": 780721819, "landuse": "meadow", "closest_distance_restriction": 2.0970491725481684}, {"id": 2311558857, "lat": 51.5129339, "lon": 15.6475897, "way_id": 780721819, "landuse": "meadow", "closest_distance_restriction": 2.095230677190878}, {"id": 2311558881, "lat": 51.5133286, "lon": 15.6405019, "way_id": 222177624, "landuse": "meadow", "closest_distance_restriction": 1.9133209114515426}, {"id": 2311558889, "lat": 51.5134416, "lon": 15.64077, "way_id": 222177624, "landuse": "meadow", "closest_distance_restriction": 1.932774200218784}, {"id": 2311558891, "lat": 51.5134566, "lon": 15.6408058, "way_id": 222177624, "landuse": "meadow", "closest_distance_restriction": 1.935375881647227}, {"id": 2311558894, "lat": 51.5135334, "lon": 15.6467169, "way_id": 780721819, "landuse": "meadow", "closest_distance_restriction": 2.02065850135732}, {"id": 2311558907, "lat": 51.5138555, "lon": 15.6459918, "way_id": 780721819, "landuse": "meadow", "closest_distance_restriction": 1.9791381843795481}, {"id": 2311558911, "lat": 51.5138831, "lon": 15.645992, "way_id": 780721819, "landuse": "meadow", "closest_distance_restriction": 1.9760884588032654}, {"id": 2311558914, "lat": 51.5139154, "lon": 15.6418954, "way_id": 222177624, "landuse": "meadow", "closest_distance_restriction": 1.9623145444214074}, {"id": 2311558915, "lat": 51.5139243, "lon": 15.6419167, "way_id": 222177624, "landuse": "meadow", "closest_distance_restriction": 1.9612728462222215}, {"id": 2311558916, "lat": 51.5139394, "lon": 15.6419527, "way_id": 222177624, "landuse": "meadow", "closest_distance_restriction": 1.9595082090259224}, {"id": 2311558931, "lat": 51.5140486, "lon": 15.6459939, "way_id": 780721819, "landuse": "meadow", "closest_distance_restriction": 1.957807685019234}, {"id": 2311558947, "lat": 51.5141738, "lon": 15.6426733, "way_id": 222177624, "landuse": "meadow", "closest_distance_restriction": 1.9323763376203653}, {"id": 2311558971, "lat": 51.5143784, "lon": 15.643105, "way_id": 222177624, "landuse": "meadow", "closest_distance_restriction": 1.9095933704620325}, {"id": 2311558973, "lat": 51.5143872, "lon": 15.6455186, "way_id": 222177624, "landuse": "meadow", "closest_distance_restriction": 1.917021074937941}, {"id": 2311559008, "lat": 51.5146275, "lon": 15.6435734, "way_id": 222177624, "landuse": "meadow", "closest_distance_restriction": 1.882394705528363}, {"id": 2311559046, "lat": 51.5152181, "lon": 15.6443469, "way_id": 222177624, "landuse": "meadow", "closest_distance_restriction": 1.8188611208114536}, {"id": 2311559056, "lat": 51.515386, "lon": 15.662832, "way_id": 627163663, "landuse": "meadow", "closest_distance_restriction": 2.2646959850890434}, {"id": 2311559104, "lat": 51.5159889, "lon": 15.6625918, "way_id": 627163663, "landuse": "meadow", "closest_distance_restriction": 2.201544684419936}, {"id": 2311559291, "lat": 51.5162394, "lon": 15.653481, "way_id": 627165459, "landuse": "meadow", "closest_distance_restriction": 1.8527706195543447}, {"id": 2311559301, "lat": 51.5162085, "lon": 15.6544577, "way_id": 627165459, "landuse": "meadow", "closest_distance_restriction": 1.8835554391181697}, {"id": 2311559307, "lat": 51.5165191, "lon": 15.6625294, "way_id": 627163663, "landuse": "meadow", "closest_distance_restriction": 2.15278406465787}, {"id": 2311559347, "lat": 51.5174318, "lon": 15.6555415, "way_id": 627165459, "landuse": "meadow", "closest_distance_restriction": 1.7965132334900773}, {"id": 2311575605, "lat": 51.6115715, "lon": 15.4441432, "way_id": 554799788, "landuse": "farmland", "closest_distance_restriction": 2.8219071801291324}, {"id": 2311575616, "lat": 51.6116717, "lon": 15.4451273, "way_id": 554799788, "landuse": "farmland", "closest_distance_restriction": 2.8793521223813294}, {"id": 2311575634, "lat": 51.6117571, "lon": 15.4461875, "way_id": 554799788, "landuse": "farmland", "closest_distance_restriction": 2.942767038594262}, {"id": 2311575676, "lat": 51.612057, "lon": 15.4475561, "way_id": 554799788, "landuse": "farmland", "closest_distance_restriction": 3.017448578486332}, {"id": 2311575686, "lat": 51.612125, "lon": 15.4384467, "way_id": 554799788, "landuse": "farmland", "closest_distance_restriction": 2.4408801326364675}, {"id": 2311575711, "lat": 51.6122779, "lon": 15.4485341, "way_id": 554799788, "landuse": "farmland", "closest_distance_restriction": 3.071444511526595}, {"id": 2311575721, "lat": 51.6123457, "lon": 15.4488827, "way_id": 554799788, "landuse": "farmland", "closest_distance_restriction": 3.091293581340241}, {"id": 2311575764, "lat": 51.6125374, "lon": 15.4391967, "way_id": 554799788, "landuse": "farmland", "closest_distance_restriction": 2.4669856660023926}, {"id": 2311575808, "lat": 51.6128297, "lon": 15.4515775, "way_id": 554799788, "landuse": "farmland", "closest_distance_restriction": 3.2486633460354724}, {"id": 2311575809, "lat": 51.6128372, "lon": 15.439742, "way_id": 554799788, "landuse": "farmland", "closest_distance_restriction": 2.4870034932371152}, {"id": 2311575812, "lat": 51.6128751, "lon": 15.4418698, "way_id": 554799788, "landuse": "farmland", "closest_distance_restriction": 2.6197592459975967}, {"id": 2311575818, "lat": 51.6129003, "lon": 15.4423089, "way_id": 554799788, "landuse": "farmland", "closest_distance_restriction": 2.6465937581487227}, {"id": 2311575822, "lat": 51.6129305, "lon": 15.4416767, "way_id": 554799788, "landuse": "farmland", "closest_distance_restriction": 2.605078304111606}, {"id": 2311575830, "lat": 51.612963, "lon": 15.4440475, "way_id": 554799788, "landuse": "farmland", "closest_distance_restriction": 2.7551007593387475}, {"id": 2311575831, "lat": 51.6129664, "lon": 15.4412975, "way_id": 554799788, "landuse": "farmland", "closest_distance_restriction": 2.579432687268572}, {"id": 2311575835, "lat": 51.6129808, "lon": 15.4411611, "way_id": 554799788, "landuse": "farmland", "closest_distance_restriction": 2.570146714770883}, {"id": 2311575841, "lat": 51.6130335, "lon": 15.4424746, "way_id": 554799788, "landuse": "farmland", "closest_distance_restriction": 2.651474780555799}, {"id": 2311575843, "lat": 51.6130471, "lon": 15.4405314, "way_id": 554799788, "landuse": "farmland", "closest_distance_restriction": 2.5273111249000015}, {"id": 2311576070, "lat": 51.6140313, "lon": 15.4455236, "way_id": 554799788, "landuse": "farmland", "closest_distance_restriction": 2.80986809794291}, {"id": 2311576097, "lat": 51.6140925, "lon": 15.4452962, "way_id": 554799788, "landuse": "farmland", "closest_distance_restriction": 2.792815539240801}, {"id": 2311576184, "lat": 51.6144128, "lon": 15.4458372, "way_id": 554799788, "landuse": "farmland", "closest_distance_restriction": 2.8172154661124322}, {"id": 2311576198, "lat": 51.6145249, "lon": 15.445881, "way_id": 554799788, "landuse": "farmland", "closest_distance_restriction": 2.8163384427527602}, {"id": 2311576214, "lat": 51.6150906, "lon": 15.4458574, "way_id": 554799788, "landuse": "farmland", "closest_distance_restriction": 2.796577408706824}, {"id": 2311576257, "lat": 51.6149122, "lon": 15.4524569, "way_id": 554799788, "landuse": "farmland", "closest_distance_restriction": 3.241470192049503}, {"id": 2311576268, "lat": 51.6149623, "lon": 15.4342502, "way_id": 554799788, "landuse": "farmland", "closest_distance_restriction": 2.044789848004417}, {"id": 2311576276, "lat": 51.6150165, "lon": 15.4343201, "way_id": 554799788, "landuse": "farmland", "closest_distance_restriction": 2.0469086493612623}, {"id": 2311576284, "lat": 51.6150354, "lon": 15.4342106, "way_id": 554799788, "landuse": "farmland", "closest_distance_restriction": 2.0391222862089426}, {"id": 2311576303, "lat": 51.6151565, "lon": 15.4450413, "way_id": 554799788, "landuse": "farmland", "closest_distance_restriction": 2.7404373980905943}, {"id": 2311576320, "lat": 51.6150189, "lon": 15.4374407, "way_id": 554799788, "landuse": "farmland", "closest_distance_restriction": 2.247182785106155}, {"id": 2311576357, "lat": 51.6153897, "lon": 15.4450244, "way_id": 554799788, "landuse": "farmland", "closest_distance_restriction": 2.732111502683634}, {"id": 2311576404, "lat": 51.6155451, "lon": 15.4339355, "way_id": 554799788, "landuse": "farmland", "closest_distance_restriction": 2.0002457145988486}, {"id": 2311576455, "lat": 51.6157662, "lon": 15.4351153, "way_id": 554799788, "landuse": "farmland", "closest_distance_restriction": 2.0677907515003633}, {"id": 2311576528, "lat": 51.6160794, "lon": 15.4399981, "way_id": 554799788, "landuse": "farmland", "closest_distance_restriction": 2.3774238305970923}, {"id": 2311576532, "lat": 51.6161099, "lon": 15.4401729, "way_id": 554799788, "landuse": "farmland", "closest_distance_restriction": 2.3880556911210715}, {"id": 2311576545, "lat": 51.6161789, "lon": 15.440568, "way_id": 554799788, "landuse": "farmland", "closest_distance_restriction": 2.4121523208110673}, {"id": 2311576561, "lat": 51.6162534, "lon": 15.4452389, "way_id": 554799788, "landuse": "farmland", "closest_distance_restriction": 2.7217952833748655}, {"id": 2311576565, "lat": 51.6162871, "lon": 15.4411883, "way_id": 554799788, "landuse": "farmland", "closest_distance_restriction": 2.450170252967798}, {"id": 2311576567, "lat": 51.6162973, "lon": 15.4395715, "way_id": 554799788, "landuse": "farmland", "closest_distance_restriction": 2.3423799298220414}, {"id": 2311576573, "lat": 51.6163167, "lon": 15.438394, "way_id": 554799788, "landuse": "farmland", "closest_distance_restriction": 2.263732328761517}, {"id": 2311576581, "lat": 51.6163497, "lon": 15.4282758, "way_id": 377597309, "landuse": "farmland", "closest_distance_restriction": 1.6048597966390314}, {"id": 2311576587, "lat": 51.6163846, "lon": 15.4439704, "way_id": 554799788, "landuse": "farmland", "closest_distance_restriction": 2.633275557298911}, {"id": 2311576605, "lat": 51.6165275, "lon": 15.4427377, "way_id": 554799788, "landuse": "farmland", "closest_distance_restriction": 2.5468541400305527}, {"id": 2311576607, "lat": 51.6165395, "lon": 15.4426344, "way_id": 554799788, "landuse": "farmland", "closest_distance_restriction": 2.5396118648687596}, {"id": 2311576617, "lat": 51.6165662, "lon": 15.4288305, "way_id": 377597309, "landuse": "farmland", "closest_distance_restriction": 1.630805666352956}, {"id": 2311576625, "lat": 51.6165919, "lon": 15.4334395, "way_id": 554799788, "landuse": "farmland", "closest_distance_restriction": 1.928282547932245}, {"id": 2311576643, "lat": 51.6166659, "lon": 15.4396051, "way_id": 554799788, "landuse": "farmland", "closest_distance_restriction": 2.3336457422169232}, {"id": 2311576662, "lat": 51.6167061, "lon": 15.4333854, "way_id": 554799788, "landuse": "farmland", "closest_distance_restriction": 1.9207331618222159}, {"id": 2311576702, "lat": 51.6168041, "lon": 15.4385995, "way_id": 554799788, "landuse": "farmland", "closest_distance_restriction": 2.2626084548356373}, {"id": 2311576735, "lat": 51.6168872, "lon": 15.4332997, "way_id": 554799788, "landuse": "farmland", "closest_distance_restriction": 1.9088943312803024}, {"id": 2311576736, "lat": 51.6171454, "lon": 15.4360077, "way_id": 554799788, "landuse": "farmland", "closest_distance_restriction": 2.079981630853835}, {"id": 2311576753, "lat": 51.6169281, "lon": 15.4394368, "way_id": 554799788, "landuse": "farmland", "closest_distance_restriction": 2.314998497826368}, {"id": 2311576768, "lat": 51.6168095, "lon": 15.4361908, "way_id": 554799788, "landuse": "farmland", "closest_distance_restriction": 2.1023330271491707}, {"id": 2311576806, "lat": 51.6171761, "lon": 15.4365009, "way_id": 554799788, "landuse": "farmland", "closest_distance_restriction": 2.1119434243367707}, {"id": 2311576826, "lat": 51.6173007, "lon": 15.4368086, "way_id": 554799788, "landuse": "farmland", "closest_distance_restriction": 2.128945062920805}, {"id": 2311576834, "lat": 51.6173432, "lon": 15.4297199, "way_id": 377597309, "landuse": "farmland", "closest_distance_restriction": 1.658238258172459}, {"id": 2311576850, "lat": 51.617435, "lon": 15.4300992, "way_id": 377597309, "landuse": "farmland", "closest_distance_restriction": 1.6798903665527587}, {"id": 2311576853, "lat": 51.6173882, "lon": 15.4346035, "way_id": 554799788, "landuse": "farmland", "closest_distance_restriction": 1.979344056028322}, {"id": 2311576875, "lat": 51.6175962, "lon": 15.4323847, "way_id": 377597309, "landuse": "farmland", "closest_distance_restriction": 1.8255956527669972}, {"id": 2311576883, "lat": 51.6174706, "lon": 15.4340555, "way_id": 554799788, "landuse": "farmland", "closest_distance_restriction": 1.9404341876171547}, {"id": 2311576933, "lat": 51.6178469, "lon": 15.4336251, "way_id": 554799788, "landuse": "farmland", "closest_distance_restriction": 1.900945649662248}, {"id": 2311576935, "lat": 51.6180053, "lon": 15.4327643, "way_id": 554799788, "landuse": "farmland", "closest_distance_restriction": 1.8390020063767698}, {"id": 2311576964, "lat": 51.6181295, "lon": 15.4350518, "way_id": 554799788, "landuse": "farmland", "closest_distance_restriction": 1.9892667738548897}, {"id": 2311577007, "lat": 51.6184551, "lon": 15.4368568, "way_id": 554799788, "landuse": "farmland", "closest_distance_restriction": 2.1036569667554987}, {"id": 2311577044, "lat": 51.6186748, "lon": 15.4351719, "way_id": 554799788, "landuse": "farmland", "closest_distance_restriction": 1.9848036802301228}, {"id": 2311577109, "lat": 51.6190613, "lon": 15.4355413, "way_id": 554799788, "landuse": "farmland", "closest_distance_restriction": 2.0021187672541476}, {"id": 2311577161, "lat": 51.6193789, "lon": 15.4355487, "way_id": 554799788, "landuse": "farmland", "closest_distance_restriction": 1.9969516877183284}, {"id": 2615645751, "lat": 51.5725683, "lon": 15.4876443, "way_id": 255855410, "landuse": "farmland", "closest_distance_restriction": 1.7343445569205866}, {"id": 2615645752, "lat": 51.5725892, "lon": 15.4861973, "way_id": 255855410, "landuse": "farmland", "closest_distance_restriction": 1.824048508650872}, {"id": 2615645754, "lat": 51.5726309, "lon": 15.4867426, "way_id": 255855410, "landuse": "farmland", "closest_distance_restriction": 1.7926595667137182}, {"id": 2615645760, "lat": 51.5727612, "lon": 15.4894605, "way_id": 255855410, "landuse": "farmland", "closest_distance_restriction": 1.6359021517504544}, {"id": 2615645776, "lat": 51.5728942, "lon": 15.4874975, "way_id": 255855410, "landuse": "farmland", "closest_distance_restriction": 1.7606736213568355}, {"id": 2615645821, "lat": 51.5758815, "lon": 15.4947998, "way_id": 255855410, "landuse": "farmland", "closest_distance_restriction": 1.576210865689862}, {"id": 2615645840, "lat": 51.5786184, "lon": 15.4815039, "way_id": 255855410, "landuse": "farmland", "closest_distance_restriction": 2.4582889959230445}, {"id": 3809758845, "lat": 51.616982, "lon": 15.4292987, "way_id": 377597309, "landuse": "farmland", "closest_distance_restriction": 1.6441916130018426}, {"id": 3983009237, "lat": 51.5529326, "lon": 15.2214692, "way_id": 395879395, "landuse": "farmland", "closest_distance_restriction": 1.6865887903202512}, {"id": 3983009239, "lat": 51.5530065, "lon": 15.2214682, "way_id": 395879395, "landuse": "farmland", "closest_distance_restriction": 1.691360816145269}, {"id": 3983009242, "lat": 51.5530723, "lon": 15.2215145, "way_id": 395879393, "landuse": "farmland", "closest_distance_restriction": 1.6982627428384205}, {"id": 3983009243, "lat": 51.5531566, "lon": 15.220489, "way_id": 395442065, "landuse": "farmland", "closest_distance_restriction": 1.6473537261293822}, {"id": 3983009245, "lat": 51.5532266, "lon": 15.2201251, "way_id": 395442065, "landuse": "farmland", "closest_distance_restriction": 1.6324450023473962}, {"id": 3983009251, "lat": 51.5533664, "lon": 15.2197513, "way_id": 395442065, "landuse": "farmland", "closest_distance_restriction": 1.6222474974085157}, {"id": 3983009259, "lat": 51.5535411, "lon": 15.2191382, "way_id": 395442065, "landuse": "farmland", "closest_distance_restriction": 1.602601669869421}, {"id": 3983009261, "lat": 51.5536126, "lon": 15.2231693, "way_id": 395879393, "landuse": "farmland", "closest_distance_restriction": 1.7849276933423253}, {"id": 3983009265, "lat": 51.5536883, "lon": 15.2229541, "way_id": 395442065, "landuse": "farmland", "closest_distance_restriction": 1.7762977825046509}, {"id": 3983009267, "lat": 51.5537186, "lon": 15.2183944, "way_id": 395442065, "landuse": "farmland", "closest_distance_restriction": 1.5776746014119292}, {"id": 3983009269, "lat": 51.553768, "lon": 15.2180154, "way_id": 395442065, "landuse": "farmland", "closest_distance_restriction": 1.5624045180688197}, {"id": 3983009275, "lat": 51.5538919, "lon": 15.2240489, "way_id": 395879393, "landuse": "farmland", "closest_distance_restriction": 1.7560723163052077}, {"id": 3983009284, "lat": 51.5540379, "lon": 15.2221914, "way_id": 395442065, "landuse": "farmland", "closest_distance_restriction": 1.7376766479283428}, {"id": 3983009301, "lat": 51.5543142, "lon": 15.2216439, "way_id": 395442065, "landuse": "farmland", "closest_distance_restriction": 1.7081464079878739}, {"id": 3983009310, "lat": 51.5544417, "lon": 15.2212999, "way_id": 395442065, "landuse": "farmland", "closest_distance_restriction": 1.6951656426924155}, {"id": 3983009315, "lat": 51.5545405, "lon": 15.2203141, "way_id": 395442065, "landuse": "farmland", "closest_distance_restriction": 1.6894619396741708}, {"id": 3983009316, "lat": 51.5545528, "lon": 15.2208037, "way_id": 395442065, "landuse": "farmland", "closest_distance_restriction": 1.6851416335243983}, {"id": 3983009317, "lat": 51.554561, "lon": 15.2204927, "way_id": 395442065, "landuse": "farmland", "closest_distance_restriction": 1.6860351405570713}, {"id": 3983009318, "lat": 51.5545734, "lon": 15.220678, "way_id": 395442065, "landuse": "farmland", "closest_distance_restriction": 1.6835542418785188}, {"id": 3983009320, "lat": 51.5546556, "lon": 15.2198642, "way_id": 395442065, "landuse": "farmland", "closest_distance_restriction": 1.6800587507560854}, {"id": 3983009324, "lat": 51.5547379, "lon": 15.2196723, "way_id": 395442065, "landuse": "farmland", "closest_distance_restriction": 1.6725736890272984}, {"id": 3983009326, "lat": 51.5547832, "lon": 15.2181175, "way_id": 395442065, "landuse": "farmland", "closest_distance_restriction": 1.6473985775572142}, {"id": 3983009327, "lat": 51.5547907, "lon": 15.2178978, "way_id": 395442065, "landuse": "farmland", "closest_distance_restriction": 1.6375793894526618}, {"id": 3983009329, "lat": 51.5548407, "lon": 15.2182432, "way_id": 395442065, "landuse": "farmland", "closest_distance_restriction": 1.6580212072009928}, {"id": 3983009330, "lat": 51.5548459, "lon": 15.2176873, "way_id": 395442065, "landuse": "farmland", "closest_distance_restriction": 1.6321738420091505}, {"id": 3983009332, "lat": 51.5549507, "lon": 15.2173785, "way_id": 395442065, "landuse": "farmland", "closest_distance_restriction": 1.6264635569964256}, {"id": 3983009336, "lat": 51.5550012, "lon": 15.2187328, "way_id": 395442065, "landuse": "farmland", "closest_distance_restriction": 1.6530334343647997}, {"id": 3983009337, "lat": 51.5550176, "lon": 15.2185542, "way_id": 395442065, "landuse": "farmland", "closest_distance_restriction": 1.6533262139630778}, {"id": 3983009340, "lat": 51.5550583, "lon": 15.2157551, "way_id": 395442065, "landuse": "farmland", "closest_distance_restriction": 1.563281366265285}, {"id": 3983009342, "lat": 51.5550961, "lon": 15.2164616, "way_id": 395442065, "landuse": "farmland", "closest_distance_restriction": 1.5973299752105075}, {"id": 3983009343, "lat": 51.555106, "lon": 15.2156098, "way_id": 395442053, "landuse": "farmland", "closest_distance_restriction": 1.5612330827489473}, {"id": 3983009344, "lat": 51.5551136, "lon": 15.2162885, "way_id": 395442065, "landuse": "farmland", "closest_distance_restriction": 1.5912159027364794}, {"id": 3983009345, "lat": 51.5551791, "lon": 15.2162378, "way_id": 395442053, "landuse": "farmland", "closest_distance_restriction": 1.594644904286503}, {"id": 3983009346, "lat": 51.5552212, "lon": 15.2163146, "way_id": 395442053, "landuse": "farmland", "closest_distance_restriction": 1.6016262483546422}, {"id": 3983009347, "lat": 51.5552942, "lon": 15.2163146, "way_id": 395442053, "landuse": "farmland", "closest_distance_restriction": 1.6079330139906345}, {"id": 3983009348, "lat": 51.5553982, "lon": 15.2161474, "way_id": 395442053, "landuse": "farmland", "closest_distance_restriction": 1.609748647369579}, {"id": 3983009354, "lat": 51.5558252, "lon": 15.2145163, "way_id": 395442053, "landuse": "farmland", "closest_distance_restriction": 1.581424626985037}, {"id": 3983009355, "lat": 51.5558252, "lon": 15.214688, "way_id": 395442053, "landuse": "farmland", "closest_distance_restriction": 1.5881050760975715}, {"id": 3983009358, "lat": 51.5559039, "lon": 15.2142407, "way_id": 395442053, "landuse": "farmland", "closest_distance_restriction": 1.5781351188422188}, {"id": 3983009362, "lat": 51.5563309, "lon": 15.2126186, "way_id": 395442053, "landuse": "farmland", "closest_distance_restriction": 1.560815269183776}, {"id": 3983009363, "lat": 51.5563396, "lon": 15.2127745, "way_id": 395442053, "landuse": "farmland", "closest_distance_restriction": 1.5668992217340822}, {"id": 3983009364, "lat": 51.5563902, "lon": 15.2126254, "way_id": 395442053, "landuse": "farmland", "closest_distance_restriction": 1.5668168486826535}, {"id": 3983009367, "lat": 51.5564352, "lon": 15.2129733, "way_id": 395442053, "landuse": "farmland", "closest_distance_restriction": 1.582903555125181}, {"id": 3986793681, "lat": 51.5477781, "lon": 15.2239927, "way_id": 395879398, "landuse": "farmland", "closest_distance_restriction": 1.5961529919631205}, {"id": 3986793682, "lat": 51.5477963, "lon": 15.2242862, "way_id": 395879398, "landuse": "farmland", "closest_distance_restriction": 1.61599728488364}, {"id": 3986793683, "lat": 51.547849, "lon": 15.224785, "way_id": 395879398, "landuse": "farmland", "closest_distance_restriction": 1.6073627223595857}, {"id": 3986793684, "lat": 51.5478835, "lon": 15.2249219, "way_id": 395879398, "landuse": "farmland", "closest_distance_restriction": 1.6071692987886064}, {"id": 3986793685, "lat": 51.5479058, "lon": 15.2259131, "way_id": 395879398, "landuse": "farmland", "closest_distance_restriction": 1.5840094890391048}, {"id": 3986793686, "lat": 51.5479078, "lon": 15.2259946, "way_id": 395879398, "landuse": "farmland", "closest_distance_restriction": 1.582239776403103}, {"id": 3986793687, "lat": 51.5479463, "lon": 15.2260826, "way_id": 395879398, "landuse": "farmland", "closest_distance_restriction": 1.5841412699068476}, {"id": 3986793692, "lat": 51.5483701, "lon": 15.2263435, "way_id": 395879398, "landuse": "farmland", "closest_distance_restriction": 1.6224834039721412}, {"id": 3986793695, "lat": 51.5489743, "lon": 15.2265913, "way_id": 395879398, "landuse": "farmland", "closest_distance_restriction": 1.6808488840391456}, {"id": 3986793713, "lat": 51.5494426, "lon": 15.2267738, "way_id": 395879398, "landuse": "farmland", "closest_distance_restriction": 1.7268357070944795}, {"id": 3986793716, "lat": 51.5495027, "lon": 15.2225955, "way_id": 395879398, "landuse": "farmland", "closest_distance_restriction": 1.566904090577072}, {"id": 3986793720, "lat": 51.5496264, "lon": 15.2228955, "way_id": 395879398, "landuse": "farmland", "closest_distance_restriction": 1.5913625594809355}, {"id": 3986793723, "lat": 51.5497115, "lon": 15.2231759, "way_id": 395879398, "landuse": "farmland", "closest_distance_restriction": 1.6129063643159005}, {"id": 3986793728, "lat": 51.5497995, "lon": 15.2268717, "way_id": 395879398, "landuse": "farmland", "closest_distance_restriction": 1.7629641675676444}, {"id": 3986793730, "lat": 51.5498859, "lon": 15.2237106, "way_id": 395879398, "landuse": "farmland", "closest_distance_restriction": 1.6545193011891395}, {"id": 3986793733, "lat": 51.5499293, "lon": 15.2222171, "way_id": 395879395, "landuse": "farmland", "closest_distance_restriction": 1.5620811033201862}, {"id": 3986793735, "lat": 51.5499508, "lon": 15.2239421, "way_id": 395879398, "landuse": "farmland", "closest_distance_restriction": 1.6720742887019722}, {"id": 3986793737, "lat": 51.5500063, "lon": 15.2269271, "way_id": 395879398, "landuse": "farmland", "closest_distance_restriction": 1.7840042751551035}, {"id": 3986793742, "lat": 51.5500278, "lon": 15.2242844, "way_id": 395879398, "landuse": "farmland", "closest_distance_restriction": 1.6972040181612658}, {"id": 3986793750, "lat": 51.5500833, "lon": 15.2238734, "way_id": 395879392, "landuse": "farmland", "closest_distance_restriction": 1.6735623797939267}, {"id": 3986793861, "lat": 51.550207, "lon": 15.2269173, "way_id": 395879398, "landuse": "farmland", "closest_distance_restriction": 1.8056625010637744}, {"id": 3986793864, "lat": 51.5504077, "lon": 15.2228398, "way_id": 395879395, "landuse": "farmland", "closest_distance_restriction": 1.6237411681256961}, {"id": 3986793866, "lat": 51.5504097, "lon": 15.2269, "way_id": 395879398, "landuse": "farmland", "closest_distance_restriction": 1.8276901015399447}, {"id": 3986793868, "lat": 51.5505605, "lon": 15.2267391, "way_id": 395879398, "landuse": "farmland", "closest_distance_restriction": 1.846838281676343}, {"id": 3986793869, "lat": 51.5505638, "lon": 15.2230061, "way_id": 395879395, "landuse": "farmland", "closest_distance_restriction": 1.6416878035086229}, {"id": 3986793870, "lat": 51.5505761, "lon": 15.2268458, "way_id": 395879398, "landuse": "farmland", "closest_distance_restriction": 1.8465206418676052}, {"id": 3986793871, "lat": 51.5505902, "lon": 15.2230192, "way_id": 395879395, "landuse": "farmland", "closest_distance_restriction": 1.643798077899366}, {"id": 3986793872, "lat": 51.5506145, "lon": 15.2229931, "way_id": 395879395, "landuse": "farmland", "closest_distance_restriction": 1.6433793089646782}, {"id": 3986793873, "lat": 51.5506219, "lon": 15.2268309, "way_id": 395879392, "landuse": "farmland", "closest_distance_restriction": 1.851703404547858}, {"id": 3986793878, "lat": 51.5506753, "lon": 15.2231398, "way_id": 395879395, "landuse": "farmland", "closest_distance_restriction": 1.6554712952139914}, {"id": 3986793880, "lat": 51.5506774, "lon": 15.2230681, "way_id": 395879395, "landuse": "farmland", "closest_distance_restriction": 1.6511381363678044}, {"id": 3986793882, "lat": 51.5507078, "lon": 15.2235963, "way_id": 395879392, "landuse": "farmland", "closest_distance_restriction": 1.6853770132170947}, {"id": 3986793883, "lat": 51.550872, "lon": 15.2233778, "way_id": 395879395, "landuse": "farmland", "closest_distance_restriction": 1.6799902031994278}, {"id": 3986793884, "lat": 51.5508882, "lon": 15.2236256, "way_id": 395879392, "landuse": "farmland", "closest_distance_restriction": 1.6961002713022093}, {"id": 3986793885, "lat": 51.5509247, "lon": 15.2234756, "way_id": 395879395, "landuse": "farmland", "closest_distance_restriction": 1.688671883132186}, {"id": 3986793886, "lat": 51.5510707, "lon": 15.2241212, "way_id": 395879395, "landuse": "farmland", "closest_distance_restriction": 1.7358316977357013}, {"id": 3986793887, "lat": 51.551093, "lon": 15.224457, "way_id": 395879392, "landuse": "farmland", "closest_distance_restriction": 1.757701248372183}, {"id": 3986793888, "lat": 51.5511396, "lon": 15.224369, "way_id": 395879395, "landuse": "farmland", "closest_distance_restriction": 1.7545802901395604}, {"id": 3986793889, "lat": 51.5511404, "lon": 15.2244517, "way_id": 395879392, "landuse": "farmland", "closest_distance_restriction": 1.7597297341524691}, {"id": 3986793890, "lat": 51.5511714, "lon": 15.2244069, "way_id": 395879395, "landuse": "farmland", "closest_distance_restriction": 1.7585118286099304}, {"id": 3986793891, "lat": 51.551185, "lon": 15.2247158, "way_id": 395879392, "landuse": "farmland", "closest_distance_restriction": 1.7782798000684426}, {"id": 3986793892, "lat": 51.5513411, "lon": 15.226372, "way_id": 395879392, "landuse": "farmland", "closest_distance_restriction": 1.8888344915064987}, {"id": 3986793893, "lat": 51.5513542, "lon": 15.2241114, "way_id": 395879395, "landuse": "farmland", "closest_distance_restriction": 1.7496439983824084}, {"id": 3986793894, "lat": 51.5514831, "lon": 15.2262742, "way_id": 395879392, "landuse": "farmland", "closest_distance_restriction": 1.8895864972379066}, {"id": 3986793895, "lat": 51.5515155, "lon": 15.2261079, "way_id": 395879392, "landuse": "farmland", "closest_distance_restriction": 1.88084259590263}, {"id": 3986793896, "lat": 51.5515195, "lon": 15.226196, "way_id": 395879392, "landuse": "farmland", "closest_distance_restriction": 1.886505737698074}, {"id": 3986793900, "lat": 51.5519493, "lon": 15.2231638, "way_id": 395879395, "landuse": "farmland", "closest_distance_restriction": 1.7246567364989245}, {"id": 3986793901, "lat": 51.5520162, "lon": 15.2230986, "way_id": 395879395, "landuse": "farmland", "closest_distance_restriction": 1.7245906320053321}, {"id": 3986793902, "lat": 51.5520452, "lon": 15.2230262, "way_id": 395879395, "landuse": "farmland", "closest_distance_restriction": 1.7219619066079932}, {"id": 3986793904, "lat": 51.5520811, "lon": 15.2231149, "way_id": 395879393, "landuse": "farmland", "closest_distance_restriction": 1.7292752333153283}, {"id": 3986793905, "lat": 51.5521419, "lon": 15.2232583, "way_id": 395879393, "landuse": "farmland", "closest_distance_restriction": 1.7412573589978724}, {"id": 3986793907, "lat": 51.5523589, "lon": 15.2239887, "way_id": 395879393, "landuse": "farmland", "closest_distance_restriction": 1.7969681839665697}, {"id": 3986793910, "lat": 51.5526103, "lon": 15.2248233, "way_id": 395879393, "landuse": "farmland", "closest_distance_restriction": 1.8608414540745277}, {"id": 3986793911, "lat": 51.5527704, "lon": 15.2254363, "way_id": 395879393, "landuse": "farmland", "closest_distance_restriction": 1.8878258748129293}, {"id": 3986793912, "lat": 51.5528069, "lon": 15.2254624, "way_id": 395879393, "landuse": "farmland", "closest_distance_restriction": 1.8839703736862807}, {"id": 3986793913, "lat": 51.5529407, "lon": 15.2253385, "way_id": 395879393, "landuse": "farmland", "closest_distance_restriction": 1.8683120867573955}, {"id": 3986793914, "lat": 51.5531313, "lon": 15.2251396, "way_id": 395879393, "landuse": "farmland", "closest_distance_restriction": 1.8459103930195635}, {"id": 3986793915, "lat": 51.5534556, "lon": 15.2248005, "way_id": 395879393, "landuse": "farmland", "closest_distance_restriction": 1.8079642279867638}, {"id": 3986793919, "lat": 51.55393, "lon": 15.2241745, "way_id": 395879393, "landuse": "farmland", "closest_distance_restriction": 1.7523280983550118}, {"id": 5354011538, "lat": 51.6122523, "lon": 15.4241269, "way_id": 377597309, "landuse": "farmland", "closest_distance_restriction": 1.601832921448096}, {"id": 5354011545, "lat": 51.6186206, "lon": 15.433147, "way_id": 554799788, "landuse": "farmland", "closest_distance_restriction": 1.8490638387553426}, {"id": 5354011546, "lat": 51.619833, "lon": 15.4334259, "way_id": 554799788, "landuse": "farmland", "closest_distance_restriction": 1.8446330230656458}, {"id": 5354011547, "lat": 51.6196331, "lon": 15.4354215, "way_id": 554799788, "landuse": "farmland", "closest_distance_restriction": 1.9841551689510957}, {"id": 5354011548, "lat": 51.6194466, "lon": 15.4404641, "way_id": 554799788, "landuse": "farmland", "closest_distance_restriction": 2.33196601186026}, {"id": 5354011549, "lat": 51.6205924, "lon": 15.4410863, "way_id": 554799788, "landuse": "farmland", "closest_distance_restriction": 2.362079474519528}, {"id": 5354011580, "lat": 51.6168937, "lon": 15.4346833, "way_id": 554799788, "landuse": "farmland", "closest_distance_restriction": 1.9998994529004903}, {"id": 5354011581, "lat": 51.6175788, "lon": 15.4341193, "way_id": 554799788, "landuse": "farmland", "closest_distance_restriction": 1.9415258039858931}, {"id": 5354011582, "lat": 51.6177129, "lon": 15.434473, "way_id": 554799788, "landuse": "farmland", "closest_distance_restriction": 1.961352171682342}, {"id": 5354011583, "lat": 51.6180415, "lon": 15.4336733, "way_id": 554799788, "landuse": "farmland", "closest_distance_restriction": 1.898900703878034}, {"id": 5354011584, "lat": 51.6181788, "lon": 15.4343411, "way_id": 554799788, "landuse": "farmland", "closest_distance_restriction": 1.9402169296368825}, {"id": 5354011585, "lat": 51.6212984, "lon": 15.4420305, "way_id": 554799788, "landuse": "farmland", "closest_distance_restriction": 2.4218122660627657}, {"id": 5354011586, "lat": 51.6207656, "lon": 15.4435969, "way_id": 554799788, "landuse": "farmland", "closest_distance_restriction": 2.533782439673122}, {"id": 5354011587, "lat": 51.6210453, "lon": 15.4436183, "way_id": 554799788, "landuse": "farmland", "closest_distance_restriction": 2.533371522970262}, {"id": 5354011588, "lat": 51.6211386, "lon": 15.4446698, "way_id": 554799788, "landuse": "farmland", "closest_distance_restriction": 2.6048539910111472}, {"id": 5354011589, "lat": 51.6190603, "lon": 15.4447341, "way_id": 554799788, "landuse": "farmland", "closest_distance_restriction": 2.629836571823488}, {"id": 5354011590, "lat": 51.6187006, "lon": 15.4436398, "way_id": 554799788, "landuse": "farmland", "closest_distance_restriction": 2.560551878755945}, {"id": 5354011591, "lat": 51.6176081, "lon": 15.4459143, "way_id": 554799788, "landuse": "farmland", "closest_distance_restriction": 2.7355590107264987}, {"id": 5354011592, "lat": 51.6120653, "lon": 15.4435754, "way_id": 554799788, "landuse": "farmland", "closest_distance_restriction": 2.7636442492700666}, {"id": 5354011593, "lat": 51.6119054, "lon": 15.4416228, "way_id": 554799788, "landuse": "farmland", "closest_distance_restriction": 2.648448693388374}, {"id": 5354011594, "lat": 51.6117588, "lon": 15.4412365, "way_id": 554799788, "landuse": "farmland", "closest_distance_restriction": 2.6314600697134547}, {"id": 5354011595, "lat": 51.6162962, "lon": 15.4433111, "way_id": 554799788, "landuse": "farmland", "closest_distance_restriction": 2.5915634687152047}, {"id": 5354011596, "lat": 51.6164829, "lon": 15.444244, "way_id": 554799788, "landuse": "farmland", "closest_distance_restriction": 2.6490061427851876}, {"id": 5354011597, "lat": 51.6149237, "lon": 15.4455781, "way_id": 554799788, "landuse": "farmland", "closest_distance_restriction": 2.783336385735514}, {"id": 5354011598, "lat": 51.6149277, "lon": 15.4460623, "way_id": 554799788, "landuse": "farmland", "closest_distance_restriction": 2.8152507596636114}, {"id": 5592864811, "lat": 51.5995924, "lon": 15.2461912, "way_id": 585203173, "landuse": "farmland", "closest_distance_restriction": 1.7572937450628796}, {"id": 5592864812, "lat": 51.5997405, "lon": 15.247266, "way_id": 585203173, "landuse": "farmland", "closest_distance_restriction": 1.6836154943344246}, {"id": 5592864813, "lat": 51.5998302, "lon": 15.2479042, "way_id": 585203173, "landuse": "farmland", "closest_distance_restriction": 1.6399773791341712}, {"id": 5592864814, "lat": 51.5998595, "lon": 15.2479748, "way_id": 585203173, "landuse": "farmland", "closest_distance_restriction": 1.6352535385348008}, {"id": 5592864815, "lat": 51.5999074, "lon": 15.2480722, "way_id": 585203173, "landuse": "farmland", "closest_distance_restriction": 1.6287898603354274}, {"id": 5592864816, "lat": 51.5998824, "lon": 15.2478035, "way_id": 585203173, "landuse": "farmland", "closest_distance_restriction": 1.6471914354478132}, {"id": 5592864817, "lat": 51.5999116, "lon": 15.2477699, "way_id": 585203173, "landuse": "farmland", "closest_distance_restriction": 1.6496667758392713}, {"id": 5592864818, "lat": 51.5999638, "lon": 15.2477699, "way_id": 585203173, "landuse": "farmland", "closest_distance_restriction": 1.649963772365914}, {"id": 5592864819, "lat": 51.600114, "lon": 15.2485256, "way_id": 585203173, "landuse": "farmland", "closest_distance_restriction": 1.598844080716883}, {"id": 5592864820, "lat": 51.6000931, "lon": 15.2486432, "way_id": 585203173, "landuse": "farmland", "closest_distance_restriction": 1.5905886439829735}, {"id": 5592864921, "lat": 51.5997468, "lon": 15.2489354, "way_id": 585203173, "landuse": "farmland", "closest_distance_restriction": 1.5684253003102049}, {"id": 5592864922, "lat": 51.5997384, "lon": 15.2490328, "way_id": 585203173, "landuse": "farmland", "closest_distance_restriction": 1.5616659518865788}, {"id": 5592864924, "lat": 51.6001828, "lon": 15.2489388, "way_id": 585203173, "landuse": "farmland", "closest_distance_restriction": 1.5708920636345258}, {"id": 5592864930, "lat": 51.5996446, "lon": 15.2479009, "way_id": 585203173, "landuse": "farmland", "closest_distance_restriction": 1.6394229253865125}, {"id": 5592864931, "lat": 51.599632, "lon": 15.2473769, "way_id": 585203173, "landuse": "farmland", "closest_distance_restriction": 1.6755546552335467}, {"id": 5592864932, "lat": 51.599486, "lon": 15.2462818, "way_id": 585203173, "landuse": "farmland", "closest_distance_restriction": 1.7507674653727658}, {"id": 5592864938, "lat": 51.5994985, "lon": 15.2480084, "way_id": 585203205, "landuse": "farmland", "closest_distance_restriction": 1.6315665837159083}, {"id": 5592864939, "lat": 51.5995152, "lon": 15.2476456, "way_id": 585203205, "landuse": "farmland", "closest_distance_restriction": 1.6566599564942486}, {"id": 5592864940, "lat": 51.59939, "lon": 15.2463692, "way_id": 585203205, "landuse": "farmland", "closest_distance_restriction": 1.744555623682181}, {"id": 5592864941, "lat": 51.5993107, "lon": 15.246134, "way_id": 585203205, "landuse": "farmland", "closest_distance_restriction": 1.7607037953791793}, {"id": 5592864949, "lat": 51.5996863, "lon": 15.2460669, "way_id": 585203208, "landuse": "farmland", "closest_distance_restriction": 1.7661788311299045}, {"id": 5592865365, "lat": 51.6005125, "lon": 15.2484316, "way_id": 585203208, "landuse": "farmland", "closest_distance_restriction": 1.6088022402556255}, {"id": 5592865366, "lat": 51.6003623, "lon": 15.2480554, "way_id": 585203208, "landuse": "farmland", "closest_distance_restriction": 1.6332456934322015}, {"id": 5592865367, "lat": 51.6000577, "lon": 15.2464565, "way_id": 585203208, "landuse": "farmland", "closest_distance_restriction": 1.7411127826210855}, {"id": 5592865368, "lat": 51.5998907, "lon": 15.245825, "way_id": 585203208, "landuse": "farmland", "closest_distance_restriction": 1.7837420367887864}, {"id": 5592865369, "lat": 51.5997238, "lon": 15.2460131, "way_id": 585203208, "landuse": "farmland", "closest_distance_restriction": 1.7700306829988715}, {"id": 5592865380, "lat": 51.598956, "lon": 15.2458183, "way_id": 585203205, "landuse": "farmland", "closest_distance_restriction": 1.7826204375926868}, {"id": 5592865381, "lat": 51.5989602, "lon": 15.2459661, "way_id": 585203205, "landuse": "farmland", "closest_distance_restriction": 1.7724064047258399}, {"id": 5592865382, "lat": 51.5988016, "lon": 15.2465035, "way_id": 585203205, "landuse": "farmland", "closest_distance_restriction": 1.7356283093161382}, {"id": 5592865383, "lat": 51.5988642, "lon": 15.247706, "way_id": 585203205, "landuse": "farmland", "closest_distance_restriction": 1.6524348360804335}, {"id": 5592865384, "lat": 51.5992648, "lon": 15.2477598, "way_id": 585203205, "landuse": "farmland", "closest_distance_restriction": 1.6483771151205027}, {"id": 5592865385, "lat": 51.5993065, "lon": 15.2480688, "way_id": 585203205, "landuse": "farmland", "closest_distance_restriction": 1.6270689432288628}, {"id": 5592865386, "lat": 51.5992273, "lon": 15.2482704, "way_id": 585203205, "landuse": "farmland", "closest_distance_restriction": 1.6130913483880434}, {"id": 5592865387, "lat": 51.5989727, "lon": 15.2484316, "way_id": 585203205, "landuse": "farmland", "closest_distance_restriction": 1.6021114080113}, {"id": 5908446634, "lat": 51.5121067, "lon": 15.6375809, "way_id": 222177624, "landuse": "meadow", "closest_distance_restriction": 1.706072640475346}, {"id": 5916086953, "lat": 51.5164434, "lon": 15.6520478, "way_id": 627165459, "landuse": "meadow", "closest_distance_restriction": 1.794704502638887}, {"id": 5920563336, "lat": 51.5184561, "lon": 15.6545307, "way_id": 627165459, "landuse": "meadow", "closest_distance_restriction": 1.6629910432793171}, {"id": 5920563337, "lat": 51.5178539, "lon": 15.6550781, "way_id": 627165459, "landuse": "meadow", "closest_distance_restriction": 1.7399183155308986}, {"id": 5920563338, "lat": 51.5166284, "lon": 15.6554853, "way_id": 627165459, "landuse": "meadow", "closest_distance_restriction": 1.8732838587350409}, {"id": 5920563339, "lat": 51.5164301, "lon": 15.6558401, "way_id": 627165459, "landuse": "meadow", "closest_distance_restriction": 1.9042425156361897}, {"id": 5920563340, "lat": 51.5162205, "lon": 15.6555973, "way_id": 627165459, "landuse": "meadow", "closest_distance_restriction": 1.9171108217882116}, {"id": 5920563347, "lat": 51.5164139, "lon": 15.6623926, "way_id": 627163663, "landuse": "meadow", "closest_distance_restriction": 2.155953583196664}, {"id": 5920563352, "lat": 51.5164742, "lon": 15.6626442, "way_id": 627163663, "landuse": "meadow", "closest_distance_restriction": 2.161668255806592}, {"id": 5920563353, "lat": 51.5160736, "lon": 15.6630465, "way_id": 627163663, "landuse": "meadow", "closest_distance_restriction": 2.2137989180125914}, {"id": 5920563354, "lat": 51.5154928, "lon": 15.663304, "way_id": 627163663, "landuse": "meadow", "closest_distance_restriction": 2.275374643267963}, {"id": 5920563355, "lat": 51.5152391, "lon": 15.6633577, "way_id": 627163663, "landuse": "meadow", "closest_distance_restriction": 2.2998642240489766}, {"id": 5920563356, "lat": 51.5149019, "lon": 15.6635776, "way_id": 627163663, "landuse": "meadow", "closest_distance_restriction": 2.3388184678457424}, {"id": 5920563357, "lat": 51.5147717, "lon": 15.6635723, "way_id": 627163663, "landuse": "meadow", "closest_distance_restriction": 2.350073427763919}, {"id": 5920563358, "lat": 51.5145814, "lon": 15.6635669, "way_id": 627163663, "landuse": "meadow", "closest_distance_restriction": 2.366684766760256}, {"id": 5920563359, "lat": 51.5144746, "lon": 15.6634757, "way_id": 627163663, "landuse": "meadow", "closest_distance_restriction": 2.3723772951695197}, {"id": 5920563360, "lat": 51.5146882, "lon": 15.6633094, "way_id": 627163663, "landuse": "meadow", "closest_distance_restriction": 2.3464730069631075}, {"id": 5920563361, "lat": 51.5149787, "lon": 15.6630841, "way_id": 627163663, "landuse": "meadow", "closest_distance_restriction": 2.3112968542814656}, {"id": 5920565821, "lat": 51.5157099, "lon": 15.6627029, "way_id": 627163663, "landuse": "meadow", "closest_distance_restriction": 2.2307227930279487}, {"id": 5920584956, "lat": 51.5110258, "lon": 15.6388222, "way_id": 222177624, "landuse": "meadow", "closest_distance_restriction": 1.7957338294272585}, {"id": 5920584957, "lat": 51.511229, "lon": 15.6381495, "way_id": 222177624, "landuse": "meadow", "closest_distance_restriction": 1.7479250323732631}, {"id": 5920584958, "lat": 51.5114521, "lon": 15.6381058, "way_id": 222177624, "landuse": "meadow", "closest_distance_restriction": 1.7437502245006613}, {"id": 5920584959, "lat": 51.5104658, "lon": 15.6389304, "way_id": 627165458, "landuse": "meadow", "closest_distance_restriction": 1.8082877115852642}, {"id": 5920584960, "lat": 51.5102797, "lon": 15.6399043, "way_id": 627165458, "landuse": "meadow", "closest_distance_restriction": 1.8772118922768897}, {"id": 5920586550, "lat": 51.5092246, "lon": 15.6397793, "way_id": 627165458, "landuse": "meadow", "closest_distance_restriction": 1.8812156046035828}, {"id": 6202625510, "lat": 51.5094695, "lon": 15.6394924, "way_id": 627165458, "landuse": "meadow", "closest_distance_restriction": 1.857938868679996}, {"id": 7221324299, "lat": 51.6189633, "lon": 15.4332258, "way_id": 554799788, "landuse": "farmland", "closest_distance_restriction": 1.8467924669257667}, {"id": 7290039965, "lat": 51.5124842, "lon": 15.6482818, "way_id": 780721819, "landuse": "meadow", "closest_distance_restriction": 2.152385272870628}, {"id": 7290039966, "lat": 51.5105598, "lon": 15.6490472, "way_id": 780721819, "landuse": "meadow", "closest_distance_restriction": 2.372344466995045}, {"id": 7290039967, "lat": 51.5103379, "lon": 15.6487976, "way_id": 780721819, "landuse": "meadow", "closest_distance_restriction": 2.393631302601663}, {"id": 7290039968, "lat": 51.5107683, "lon": 15.6477494, "way_id": 780721819, "landuse": "meadow", "closest_distance_restriction": 2.3350064261840533}, {"id": 7717037200, "lat": 51.5584293, "lon": 15.6618705, "way_id": 826523307, "landuse": "meadow", "closest_distance_restriction": 1.5884424932075785}, {"id": 7717037201, "lat": 51.557634, "lon": 15.6621576, "way_id": 826523307, "landuse": "meadow", "closest_distance_restriction": 1.6789958976546522}, {"id": 7717037215, "lat": 51.5589181, "lon": 15.664453, "way_id": 826523307, "landuse": "meadow", "closest_distance_restriction": 1.5774101705212311}, {"id": 7717037216, "lat": 51.5586903, "lon": 15.6637607, "way_id": 826523307, "landuse": "meadow", "closest_distance_restriction": 1.5886029490602032}, {"id": 7717037217, "lat": 51.558513, "lon": 15.6639745, "way_id": 826523307, "landuse": "meadow", "closest_distance_restriction": 1.611498282702081}, {"id": 7717037218, "lat": 51.5582092, "lon": 15.6648093, "way_id": 826523307, "landuse": "meadow", "closest_distance_restriction": 1.6599928391209924}, {"id": 7717037219, "lat": 51.5577408, "lon": 15.6634146, "way_id": 826523307, "landuse": "meadow", "closest_distance_restriction": 1.6851434301490213}]}