{"nodes": [{"id": 1308906547, "lat": 53.9787128, "lon": 14.928443, "way_id": 115971011, "landuse": "farmland", "closest_distance_restriction": 1.748723180437168}, {"id": 1308906578, "lat": 53.9731149, "lon": 14.9404247, "way_id": 115970975, "landuse": "farmland", "closest_distance_restriction": 1.5873353042547231}, {"id": 1308906605, "lat": 53.9745853, "lon": 14.9325947, "way_id": 115970975, "landuse": "farmland", "closest_distance_restriction": 1.648882681861926}, {"id": 1308906633, "lat": 53.9837292, "lon": 14.922705, "way_id": 115970981, "landuse": "farmland", "closest_distance_restriction": 1.5748148921357572}, {"id": 1308906640, "lat": 53.9759161, "lon": 14.9283452, "way_id": 115971011, "landuse": "farmland", "closest_distance_restriction": 1.585085507818213}, {"id": 1308906671, "lat": 53.9777552, "lon": 14.941278, "way_id": 115970975, "landuse": "farmland", "closest_distance_restriction": 1.8339396192298825}, {"id": 1308906729, "lat": 53.9801321, "lon": 14.9395991, "way_id": 115970975, "landuse": "farmland", "closest_distance_restriction": 2.095902132211342}, {"id": 1308906768, "lat": 53.9789712, "lon": 14.9427724, "way_id": 115970975, "landuse": "farmland", "closest_distance_restriction": 1.8590817533452908}, {"id": 1308906824, "lat": 53.9741718, "lon": 14.9413721, "way_id": 115970975, "landuse": "farmland", "closest_distance_restriction": 1.5900526494503238}, {"id": 1308906834, "lat": 53.9746471, "lon": 14.9321471, "way_id": 115971011, "landuse": "farmland", "closest_distance_restriction": 1.6331782239148407}, {"id": 1308906855, "lat": 53.978318, "lon": 14.9381761, "way_id": 115970975, "landuse": "farmland", "closest_distance_restriction": 2.0285832804890354}, {"id": 1308906867, "lat": 53.9801439, "lon": 14.9412978, "way_id": 115970975, "landuse": "farmland", "closest_distance_restriction": 2.020317042778778}, {"id": 1308906894, "lat": 53.9791549, "lon": 14.9264443, "way_id": 115971011, "landuse": "farmland", "closest_distance_restriction": 1.6351194166338634}, {"id": 1308906924, "lat": 53.9758183, "lon": 14.9424295, "way_id": 115970975, "landuse": "farmland", "closest_distance_restriction": 1.6376363531357245}, {"id": 1308906928, "lat": 53.9824532, "lon": 14.9242071, "way_id": 115970981, "landuse": "farmland", "closest_distance_restriction": 1.6248814558908657}, {"id": 1308907011, "lat": 53.978134, "lon": 14.9297144, "way_id": 115971011, "landuse": "farmland", "closest_distance_restriction": 1.8162714919423992}, {"id": 1308907070, "lat": 53.9766796, "lon": 14.9406227, "way_id": 115970975, "landuse": "farmland", "closest_distance_restriction": 1.7897156414941495}, {"id": 1308907129, "lat": 53.974046, "lon": 14.9336827, "way_id": 115970975, "landuse": "farmland", "closest_distance_restriction": 1.6596178780631234}, {"id": 1308907259, "lat": 53.9784022, "lon": 14.9421924, "way_id": 115970975, "landuse": "farmland", "closest_distance_restriction": 1.8399466230451076}, {"id": 1308907365, "lat": 53.9731868, "lon": 14.9404247, "way_id": 115970975, "landuse": "farmland", "closest_distance_restriction": 1.5909279045087652}, {"id": 1308907486, "lat": 53.9749879, "lon": 14.94213, "way_id": 115970975, "landuse": "farmland", "closest_distance_restriction": 1.5983060605008086}, {"id": 1308907538, "lat": 53.9757184, "lon": 14.928712, "way_id": 115971011, "landuse": "farmland", "closest_distance_restriction": 1.580713039936496}, {"id": 1308907569, "lat": 53.9795329, "lon": 14.9423369, "way_id": 115970975, "landuse": "farmland", "closest_distance_restriction": 1.9243336551844683}, {"id": 1308907633, "lat": 53.9740899, "lon": 14.9331617, "way_id": 115971011, "landuse": "farmland", "closest_distance_restriction": 1.637614469150263}, {"id": 1308907655, "lat": 53.9792728, "lon": 14.9328087, "way_id": 115970975, "landuse": "farmland", "closest_distance_restriction": 2.040853276027232}, {"id": 1308907693, "lat": 53.9792196, "lon": 14.9271166, "way_id": 115971011, "landuse": "farmland", "closest_distance_restriction": 1.679339139299283}, {"id": 1308907720, "lat": 53.9760232, "lon": 14.9422889, "way_id": 115970975, "landuse": "farmland", "closest_distance_restriction": 1.6589781554035288}, {"id": 1308907744, "lat": 53.9750454, "lon": 14.9315923, "way_id": 115970975, "landuse": "farmland", "closest_distance_restriction": 1.6405729445179091}, {"id": 1308907777, "lat": 53.9776919, "lon": 14.9306068, "way_id": 115971011, "landuse": "farmland", "closest_distance_restriction": 1.831566381056032}, {"id": 1308907808, "lat": 53.9770276, "lon": 14.9407254, "way_id": 115970975, "landuse": "farmland", "closest_distance_restriction": 1.8086906147731616}, {"id": 1308907901, "lat": 53.9788454, "lon": 14.9427037, "way_id": 115970975, "landuse": "farmland", "closest_distance_restriction": 1.8519424694239146}, {"id": 1308907925, "lat": 53.9738931, "lon": 14.9410007, "way_id": 115970975, "landuse": "farmland", "closest_distance_restriction": 1.595141186351813}, {"id": 1308907959, "lat": 53.9741611, "lon": 14.9412193, "way_id": 115970975, "landuse": "farmland", "closest_distance_restriction": 1.5979780542660147}, {"id": 1308907984, "lat": 53.9783405, "lon": 14.9383002, "way_id": 115970975, "landuse": "farmland", "closest_distance_restriction": 2.0239173344679102}, {"id": 1308907986, "lat": 53.9744889, "lon": 14.9416665, "way_id": 115970975, "landuse": "farmland", "closest_distance_restriction": 1.5924717970318256}, {"id": 1308907992, "lat": 53.98009, "lon": 14.9416646, "way_id": 115970975, "landuse": "farmland", "closest_distance_restriction": 1.9997626284954737}, {"id": 1308908064, "lat": 53.9753618, "lon": 14.94213, "way_id": 115970975, "landuse": "farmland", "closest_distance_restriction": 1.6225525969647725}, {"id": 1308908105, "lat": 53.9792335, "lon": 14.9325222, "way_id": 115970975, "landuse": "farmland", "closest_distance_restriction": 2.021615975280872}, {"id": 1308908151, "lat": 53.9748654, "lon": 14.9420162, "way_id": 115970975, "landuse": "farmland", "closest_distance_restriction": 1.596644654889166}, {"id": 1308908155, "lat": 53.9749598, "lon": 14.9313647, "way_id": 115971011, "landuse": "farmland", "closest_distance_restriction": 1.623525131074477}, {"id": 1308908187, "lat": 53.9764546, "lon": 14.9408831, "way_id": 115970975, "landuse": "farmland", "closest_distance_restriction": 1.760887043630582}, {"id": 1308908249, "lat": 53.9841425, "lon": 14.924146, "way_id": 115970981, "landuse": "farmland", "closest_distance_restriction": 1.6758786675706134}, {"id": 1308908272, "lat": 53.984206, "lon": 14.9229982, "way_id": 115970981, "landuse": "farmland", "closest_distance_restriction": 1.6037302220088268}, {"id": 1308944053, "lat": 53.9829775, "lon": 15.0069884, "way_id": 669642491, "landuse": "farmland", "closest_distance_restriction": 2.8427148423001602}, {"id": 1308944757, "lat": 53.9813459, "lon": 15.0049682, "way_id": 669642491, "landuse": "farmland", "closest_distance_restriction": 2.632222505844137}, {"id": 1308946938, "lat": 53.9818493, "lon": 15.0049366, "way_id": 669642491, "landuse": "farmland", "closest_distance_restriction": 2.6612612291850968}, {"id": 1308948725, "lat": 53.9810954, "lon": 15.0050144, "way_id": 669642491, "landuse": "farmland", "closest_distance_restriction": 2.619783604820122}, {"id": 1909527811, "lat": 54.0437474, "lon": 14.9121508, "way_id": 192507703, "landuse": "farmland", "closest_distance_restriction": 1.8150476293903965}, {"id": 1909527812, "lat": 54.0447618, "lon": 14.9030719, "way_id": 192507703, "landuse": "farmland", "closest_distance_restriction": 1.722712095446296}, {"id": 1909540708, "lat": 53.9842061, "lon": 15.013995, "way_id": 669642521, "landuse": "farmland", "closest_distance_restriction": 3.3010335706632565}, {"id": 1909540714, "lat": 53.9852251, "lon": 15.0092114, "way_id": 669642521, "landuse": "farmland", "closest_distance_restriction": 3.106416361705193}, {"id": 1909540715, "lat": 53.9854876, "lon": 15.0105522, "way_id": 669642521, "landuse": "farmland", "closest_distance_restriction": 3.19426259631881}, {"id": 1909540717, "lat": 53.9857158, "lon": 15.0104059, "way_id": 669642521, "landuse": "farmland", "closest_distance_restriction": 3.201641794607845}, {"id": 1909540718, "lat": 53.9861763, "lon": 15.0119414, "way_id": 669642521, "landuse": "farmland", "closest_distance_restriction": 3.312796589540532}, {"id": 1909540871, "lat": 53.9983229, "lon": 14.9159503, "way_id": 192507703, "landuse": "farmland", "closest_distance_restriction": 1.607474028851293}, {"id": 1909540915, "lat": 54.0003068, "lon": 14.9428256, "way_id": 192507703, "landuse": "farmland", "closest_distance_restriction": 2.4831510526700677}, {"id": 1909540926, "lat": 54.0007862, "lon": 14.9400852, "way_id": 192507703, "landuse": "farmland", "closest_distance_restriction": 2.3176373121131344}, {"id": 1909540932, "lat": 54.0010865, "lon": 14.9472453, "way_id": 192507703, "landuse": "farmland", "closest_distance_restriction": 2.2667653475049154}, {"id": 1909540934, "lat": 54.0012656, "lon": 14.9377036, "way_id": 192507703, "landuse": "farmland", "closest_distance_restriction": 2.159226549711868}, {"id": 1909540937, "lat": 54.0015724, "lon": 14.9424015, "way_id": 192507703, "landuse": "farmland", "closest_distance_restriction": 2.379836549930235}, {"id": 1909540940, "lat": 54.0018025, "lon": 14.9410313, "way_id": 192507703, "landuse": "farmland", "closest_distance_restriction": 2.3092232328492734}, {"id": 1909540947, "lat": 54.0020326, "lon": 14.9383235, "way_id": 192507703, "landuse": "farmland", "closest_distance_restriction": 2.1452578917912093}, {"id": 1909540951, "lat": 54.0023969, "lon": 14.9335278, "way_id": 192507703, "landuse": "farmland", "closest_distance_restriction": 1.8644541051211607}, {"id": 1909540959, "lat": 54.0029913, "lon": 14.9345065, "way_id": 192507703, "landuse": "farmland", "closest_distance_restriction": 1.8782585577350106}, {"id": 1909540968, "lat": 54.0032399, "lon": 14.9469308, "way_id": 192507703, "landuse": "farmland", "closest_distance_restriction": 2.065558794121446}, {"id": 1909540995, "lat": 54.0053493, "lon": 14.9469308, "way_id": 192507703, "landuse": "farmland", "closest_distance_restriction": 1.866178385855214}, {"id": 1909541006, "lat": 54.0065611, "lon": 14.9477771, "way_id": 192507703, "landuse": "farmland", "closest_distance_restriction": 1.723593757111996}, {"id": 1909541013, "lat": 54.0080445, "lon": 14.9443387, "way_id": 192507703, "landuse": "farmland", "closest_distance_restriction": 1.684129551301255}, {"id": 1909541044, "lat": 54.0100418, "lon": 14.9421097, "way_id": 192507703, "landuse": "farmland", "closest_distance_restriction": 1.5801955010598716}, {"id": 1909541049, "lat": 54.010388, "lon": 14.9413478, "way_id": 192507703, "landuse": "farmland", "closest_distance_restriction": 1.581837858906678}, {"id": 1909541140, "lat": 54.0292981, "lon": 14.992216, "way_id": 180529943, "landuse": "meadow", "closest_distance_restriction": 1.8971668324441169}, {"id": 1909541143, "lat": 54.0323572, "lon": 14.9831829, "way_id": 180529943, "landuse": "meadow", "closest_distance_restriction": 1.6908828399173261}, {"id": 1909541158, "lat": 54.04349, "lon": 14.9819642, "way_id": 180529943, "landuse": "meadow", "closest_distance_restriction": 2.251695164888751}, {"id": 1909541159, "lat": 54.0439424, "lon": 14.9371472, "way_id": 192507703, "landuse": "farmland", "closest_distance_restriction": 1.5603399431809468}, {"id": 1909541164, "lat": 54.0501946, "lon": 14.9891148, "way_id": 180529943, "landuse": "meadow", "closest_distance_restriction": 3.062467758311738}, {"id": 1909541165, "lat": 54.0508042, "lon": 14.951226, "way_id": 180529943, "landuse": "meadow", "closest_distance_restriction": 1.9790535449597546}, {"id": 1909541176, "lat": 54.05613, "lon": 14.9506843, "way_id": 180529943, "landuse": "meadow", "closest_distance_restriction": 2.5722250054503393}, {"id": 1909541183, "lat": 54.060263, "lon": 14.9779018, "way_id": 180529943, "landuse": "meadow", "closest_distance_restriction": 3.45510375957034}, {"id": 1909541186, "lat": 54.0611573, "lon": 14.9946624, "way_id": 180529943, "landuse": "meadow", "closest_distance_restriction": 4.169415009160613}, {"id": 1909541191, "lat": 54.0629652, "lon": 14.9735687, "way_id": 180529943, "landuse": "meadow", "closest_distance_restriction": 3.603900703300981}, {"id": 1909541193, "lat": 54.0643526, "lon": 14.9770028, "way_id": 180529943, "landuse": "meadow", "closest_distance_restriction": 3.8350600472780676}, {"id": 1909541194, "lat": 54.0678291, "lon": 14.9940407, "way_id": 180529943, "landuse": "meadow", "closest_distance_restriction": 4.727922929296284}, {"id": 2023532384, "lat": 54.0448676, "lon": 14.9138329, "way_id": 192507703, "landuse": "farmland", "closest_distance_restriction": 1.9209160716613716}, {"id": 2023532517, "lat": 54.0461674, "lon": 14.9276644, "way_id": 192507703, "landuse": "farmland", "closest_distance_restriction": 2.1413219875201417}, {"id": 2023532544, "lat": 54.0469929, "lon": 14.9273284, "way_id": 192507703, "landuse": "farmland", "closest_distance_restriction": 2.223518575608319}, {"id": 2023532545, "lat": 54.0463464, "lon": 14.9339354, "way_id": 192507703, "landuse": "farmland", "closest_distance_restriction": 1.8999722720141539}, {"id": 2027983357, "lat": 53.874809, "lon": 14.7670045, "way_id": 544600045, "landuse": "farmland", "closest_distance_restriction": 1.5848214565310932}, {"id": 2027983362, "lat": 53.8764588, "lon": 14.7638801, "way_id": 544600045, "landuse": "farmland", "closest_distance_restriction": 1.6952416076068522}, {"id": 2027983365, "lat": 53.8774771, "lon": 14.7641376, "way_id": 544600045, "landuse": "farmland", "closest_distance_restriction": 1.650681311888511}, {"id": 2027983369, "lat": 53.8776795, "lon": 14.7645238, "way_id": 544600045, "landuse": "farmland", "closest_distance_restriction": 1.6192540671191296}, {"id": 2027983614, "lat": 53.8623009, "lon": 14.7855828, "way_id": 538215674, "landuse": "farmland", "closest_distance_restriction": 1.6976686354010242}, {"id": 2027983619, "lat": 53.8587861, "lon": 14.7840466, "way_id": 538215674, "landuse": "farmland", "closest_distance_restriction": 1.5856912088214923}, {"id": 2027983643, "lat": 53.8479535, "lon": 14.7811922, "way_id": 538365736, "landuse": "farmland", "closest_distance_restriction": 1.746176668440659}, {"id": 2027983644, "lat": 53.8472719, "lon": 14.7814535, "way_id": 538365736, "landuse": "farmland", "closest_distance_restriction": 1.8007751073684926}, {"id": 2027983646, "lat": 53.8463202, "lon": 14.781118, "way_id": 538365736, "landuse": "farmland", "closest_distance_restriction": 1.8423342127316287}, {"id": 2027983655, "lat": 53.8457947, "lon": 14.7801633, "way_id": 538365736, "landuse": "farmland", "closest_distance_restriction": 1.8278303742050352}, {"id": 2027983657, "lat": 53.8455511, "lon": 14.7791735, "way_id": 538365736, "landuse": "farmland", "closest_distance_restriction": 1.794995640148273}, {"id": 2027983659, "lat": 53.8461712, "lon": 14.7778197, "way_id": 538365736, "landuse": "farmland", "closest_distance_restriction": 1.682693742514235}, {"id": 2027983661, "lat": 53.8468778, "lon": 14.777535, "way_id": 538365736, "landuse": "farmland", "closest_distance_restriction": 1.6179908250515582}, {"id": 2027983663, "lat": 53.8475992, "lon": 14.7775039, "way_id": 538365736, "landuse": "farmland", "closest_distance_restriction": 1.5670867491865081}, {"id": 2027983759, "lat": 53.8420974, "lon": 14.7660739, "way_id": 538218398, "landuse": "farmland", "closest_distance_restriction": 1.5913268775513663}, {"id": 2027983761, "lat": 53.8415945, "lon": 14.7661061, "way_id": 538218398, "landuse": "farmland", "closest_distance_restriction": 1.644189240667604}, {"id": 2028865921, "lat": 53.9062532, "lon": 14.510782, "way_id": 542076356, "landuse": "meadow", "closest_distance_restriction": 1.9861080795771766}, {"id": 2028865922, "lat": 53.9012917, "lon": 14.5091717, "way_id": 542076356, "landuse": "meadow", "closest_distance_restriction": 2.1749753152373303}, {"id": 2028865923, "lat": 53.8997605, "lon": 14.5126955, "way_id": 542076356, "landuse": "meadow", "closest_distance_restriction": 2.012724268464386}, {"id": 2028865924, "lat": 53.8989041, "lon": 14.5208442, "way_id": 542076356, "landuse": "meadow", "closest_distance_restriction": 1.5827842835672283}, {"id": 2028886233, "lat": 53.8990778, "lon": 14.5171725, "way_id": 542076356, "landuse": "meadow", "closest_distance_restriction": 1.7799577076886752}, {"id": 2028886305, "lat": 53.8999134, "lon": 14.514513, "way_id": 542076356, "landuse": "meadow", "closest_distance_restriction": 1.8964127537430775}, {"id": 2028886306, "lat": 53.8993989, "lon": 14.5153566, "way_id": 542076356, "landuse": "meadow", "closest_distance_restriction": 1.8698199900528178}, {"id": 2028886307, "lat": 53.8993815, "lon": 14.5166737, "way_id": 542076356, "landuse": "meadow", "closest_distance_restriction": 1.7932778866721153}, {"id": 2028886309, "lat": 53.9036103, "lon": 14.5101402, "way_id": 542076356, "landuse": "meadow", "closest_distance_restriction": 2.0559987250395984}, {"id": 2028894066, "lat": 53.9065957, "lon": 14.5163512, "way_id": 542076356, "landuse": "meadow", "closest_distance_restriction": 1.6207708073743734}, {"id": 2030483453, "lat": 53.8588796, "lon": 14.6900253, "way_id": 545314451, "landuse": "farmland", "closest_distance_restriction": 1.8419265357180938}, {"id": 2030483458, "lat": 53.8576255, "lon": 14.6918349, "way_id": 545314451, "landuse": "farmland", "closest_distance_restriction": 1.8870549583239125}, {"id": 2030483461, "lat": 53.8573302, "lon": 14.6932758, "way_id": 545314451, "landuse": "farmland", "closest_distance_restriction": 1.9618862526147998}, {"id": 2030483473, "lat": 53.8553515, "lon": 14.6990427, "way_id": 545314451, "landuse": "farmland", "closest_distance_restriction": 1.5701996604160013}, {"id": 2030483502, "lat": 53.8596153, "lon": 14.6996991, "way_id": 545314451, "landuse": "farmland", "closest_distance_restriction": 1.707589181102094}, {"id": 2030483505, "lat": 53.8598844, "lon": 14.6984643, "way_id": 545314451, "landuse": "farmland", "closest_distance_restriction": 1.6978929136069842}, {"id": 2030483508, "lat": 53.8613725, "lon": 14.6935252, "way_id": 545314451, "landuse": "farmland", "closest_distance_restriction": 1.640868979117193}, {"id": 2030496871, "lat": 53.8370649, "lon": 14.7497565, "way_id": 317789642, "landuse": "meadow", "closest_distance_restriction": 1.7270505237408182}, {"id": 2030503164, "lat": 53.834825, "lon": 14.7735085, "way_id": 538221037, "landuse": "farmland", "closest_distance_restriction": 1.639831568193347}, {"id": 2200291229, "lat": 54.049658, "lon": 14.9959306, "way_id": 180529943, "landuse": "meadow", "closest_distance_restriction": 3.3887231902343684}, {"id": 2200291232, "lat": 54.0671244, "lon": 14.9861952, "way_id": 180529943, "landuse": "meadow", "closest_distance_restriction": 4.385660771450044}, {"id": 2426862065, "lat": 54.0648964, "lon": 14.9798606, "way_id": 180529943, "landuse": "meadow", "closest_distance_restriction": 3.970588851415086}, {"id": 2426862075, "lat": 54.0653412, "lon": 14.9820696, "way_id": 180529943, "landuse": "meadow", "closest_distance_restriction": 4.0811189972199635}, {"id": 2426862085, "lat": 54.0656856, "lon": 14.9836526, "way_id": 180529943, "landuse": "meadow", "closest_distance_restriction": 4.16444228438684}, {"id": 2887897938, "lat": 54.0678072, "lon": 14.9932726, "way_id": 180529943, "landuse": "meadow", "closest_distance_restriction": 4.6973015994278216}, {"id": 2892603530, "lat": 54.0674414, "lon": 14.9896623, "way_id": 180529943, "landuse": "meadow", "closest_distance_restriction": 4.533324533540308}, {"id": 2895777550, "lat": 53.9893255, "lon": 15.0339001, "way_id": 669647738, "landuse": "farmland", "closest_distance_restriction": 4.399346013580153}, {"id": 2895777552, "lat": 53.990148, "lon": 15.031593, "way_id": 669647738, "landuse": "farmland", "closest_distance_restriction": 4.450185566651739}, {"id": 2895777555, "lat": 53.9906365, "lon": 15.0309188, "way_id": 669647738, "landuse": "farmland", "closest_distance_restriction": 4.493164704103687}, {"id": 2968970362, "lat": 54.0445933, "lon": 14.9126041, "way_id": 192507703, "landuse": "farmland", "closest_distance_restriction": 1.9023269506851301}, {"id": 2968970364, "lat": 54.0455089, "lon": 14.9144205, "way_id": 192507703, "landuse": "farmland", "closest_distance_restriction": 1.9875262350251557}, {"id": 2969267432, "lat": 54.0436151, "lon": 14.918791, "way_id": 192507703, "landuse": "farmland", "closest_distance_restriction": 1.7685514725604996}, {"id": 2969268134, "lat": 54.0437614, "lon": 14.9129392, "way_id": 192507703, "landuse": "farmland", "closest_distance_restriction": 1.8074848735987525}, {"id": 2969268136, "lat": 54.0438187, "lon": 14.919815, "way_id": 192507703, "landuse": "farmland", "closest_distance_restriction": 1.7936422656669977}, {"id": 2969268137, "lat": 54.0440223, "lon": 14.9184225, "way_id": 192507703, "landuse": "farmland", "closest_distance_restriction": 1.8135128042032558}, {"id": 2969268139, "lat": 54.0440605, "lon": 14.9206332, "way_id": 192507703, "landuse": "farmland", "closest_distance_restriction": 1.8241817666545068}, {"id": 2969268142, "lat": 54.0444837, "lon": 14.9208093, "way_id": 192507703, "landuse": "farmland", "closest_distance_restriction": 1.872051867945932}, {"id": 2969268143, "lat": 54.0445249, "lon": 14.9183846, "way_id": 192507703, "landuse": "farmland", "closest_distance_restriction": 1.8692828439956408}, {"id": 2969268148, "lat": 54.0451389, "lon": 14.9174472, "way_id": 192507703, "landuse": "farmland", "closest_distance_restriction": 1.9365486103370007}, {"id": 2969268151, "lat": 54.0451938, "lon": 14.9203559, "way_id": 192507703, "landuse": "farmland", "closest_distance_restriction": 1.9484508912373182}, {"id": 2969268155, "lat": 54.0453391, "lon": 14.9156232, "way_id": 192507703, "landuse": "farmland", "closest_distance_restriction": 1.9624179464976503}, {"id": 2969268156, "lat": 54.0453947, "lon": 14.9165284, "way_id": 192507703, "landuse": "farmland", "closest_distance_restriction": 1.965903075817188}, {"id": 2969268158, "lat": 54.0455178, "lon": 14.9151221, "way_id": 192507703, "landuse": "farmland", "closest_distance_restriction": 1.984484654586951}, {"id": 2969268159, "lat": 54.0455976, "lon": 14.9146698, "way_id": 192507703, "landuse": "farmland", "closest_distance_restriction": 1.9957967673868977}, {"id": 2969268162, "lat": 54.0456856, "lon": 14.9209303, "way_id": 192507703, "landuse": "farmland", "closest_distance_restriction": 2.0058785584650036}, {"id": 2969268165, "lat": 54.0460967, "lon": 14.9312209, "way_id": 192507703, "landuse": "farmland", "closest_distance_restriction": 1.99016550818979}, {"id": 2969268166, "lat": 54.0460808, "lon": 14.9321637, "way_id": 192507703, "landuse": "farmland", "closest_distance_restriction": 1.9486948361153313}, {"id": 2969268168, "lat": 54.0461278, "lon": 14.9215751, "way_id": 192507703, "landuse": "farmland", "closest_distance_restriction": 2.0588254672129254}, {"id": 2969268173, "lat": 54.0465539, "lon": 14.9223027, "way_id": 192507703, "landuse": "farmland", "closest_distance_restriction": 2.111315451707471}, {"id": 2969268175, "lat": 54.0469238, "lon": 14.9309175, "way_id": 192507703, "landuse": "farmland", "closest_distance_restriction": 2.0728002454380974}, {"id": 2969268176, "lat": 54.0469365, "lon": 14.9310258, "way_id": 192507703, "landuse": "farmland", "closest_distance_restriction": 2.0693379942549974}, {"id": 2969268180, "lat": 54.0472228, "lon": 14.9309716, "way_id": 192507703, "landuse": "farmland", "closest_distance_restriction": 2.0961034390974613}, {"id": 2969268181, "lat": 54.0473596, "lon": 14.9316598, "way_id": 192507703, "landuse": "farmland", "closest_distance_restriction": 2.0797966235643663}, {"id": 2990162208, "lat": 54.0457175, "lon": 14.9290238, "way_id": 192507703, "landuse": "farmland", "closest_distance_restriction": 2.0577474015369845}, {"id": 2990162209, "lat": 54.0458126, "lon": 14.9290006, "way_id": 192507703, "landuse": "farmland", "closest_distance_restriction": 2.0662915001023396}, {"id": 2990162212, "lat": 54.045867, "lon": 14.9303377, "way_id": 192507703, "landuse": "farmland", "closest_distance_restriction": 2.0099863055692415}, {"id": 2990162216, "lat": 54.0460675, "lon": 14.9286591, "way_id": 192507703, "landuse": "farmland", "closest_distance_restriction": 2.1021066703078954}, {"id": 2990162219, "lat": 54.0460947, "lon": 14.9276577, "way_id": 192507703, "landuse": "farmland", "closest_distance_restriction": 2.1334510888295113}, {"id": 2990162221, "lat": 54.0461049, "lon": 14.9275825, "way_id": 192507703, "landuse": "farmland", "closest_distance_restriction": 2.133136392111383}, {"id": 2990162224, "lat": 54.0462238, "lon": 14.9282018, "way_id": 192507703, "landuse": "farmland", "closest_distance_restriction": 2.1354999695987407}, {"id": 2990162225, "lat": 54.0462102, "lon": 14.9283871, "way_id": 192507703, "landuse": "farmland", "closest_distance_restriction": 2.1258799067888843}, {"id": 3240945719, "lat": 53.8352095, "lon": 14.7475535, "way_id": 317789642, "landuse": "meadow", "closest_distance_restriction": 1.5836311753887884}, {"id": 3240945726, "lat": 53.8357484, "lon": 14.7476121, "way_id": 317789642, "landuse": "meadow", "closest_distance_restriction": 1.6387001451993723}, {"id": 3240945727, "lat": 53.8359502, "lon": 14.7476174, "way_id": 317789642, "landuse": "meadow", "closest_distance_restriction": 1.659768079997928}, {"id": 3240945735, "lat": 53.8370109, "lon": 14.7492741, "way_id": 317789642, "landuse": "meadow", "closest_distance_restriction": 1.7312054483552477}, {"id": 3241025920, "lat": 53.8343777, "lon": 14.745088, "way_id": 317789642, "landuse": "meadow", "closest_distance_restriction": 1.5636954028807293}, {"id": 3241025923, "lat": 53.8347032, "lon": 14.7450619, "way_id": 317789642, "landuse": "meadow", "closest_distance_restriction": 1.5967908519371259}, {"id": 3241025924, "lat": 53.8350045, "lon": 14.7451856, "way_id": 317789642, "landuse": "meadow", "closest_distance_restriction": 1.6233163962367476}, {"id": 3241025928, "lat": 53.8357157, "lon": 14.7457435, "way_id": 317789642, "landuse": "meadow", "closest_distance_restriction": 1.6800658964275779}, {"id": 3241025929, "lat": 53.8358101, "lon": 14.7462739, "way_id": 317789642, "landuse": "meadow", "closest_distance_restriction": 1.6762734454993284}, {"id": 3241025936, "lat": 53.8367998, "lon": 14.7463301, "way_id": 317789642, "landuse": "meadow", "closest_distance_restriction": 1.7215994762267641}, {"id": 3241025937, "lat": 53.8368878, "lon": 14.7467491, "way_id": 317789642, "landuse": "meadow", "closest_distance_restriction": 1.7481903870162807}, {"id": 3241025938, "lat": 53.8368908, "lon": 14.7450591, "way_id": 317789642, "landuse": "meadow", "closest_distance_restriction": 1.6376445982061323}, {"id": 3241025945, "lat": 53.8371329, "lon": 14.7471729, "way_id": 317789642, "landuse": "meadow", "closest_distance_restriction": 1.7739974376881018}, {"id": 3241025946, "lat": 53.8371351, "lon": 14.747854, "way_id": 317789642, "landuse": "meadow", "closest_distance_restriction": 1.7761138404667167}, {"id": 4802273218, "lat": 53.9023245, "lon": 14.509843, "way_id": 542076356, "landuse": "meadow", "closest_distance_restriction": 2.103397677379262}, {"id": 4802346529, "lat": 53.9874686, "lon": 14.6342589, "way_id": 541963082, "landuse": "farmland", "closest_distance_restriction": 1.7654900445049246}, {"id": 4951724890, "lat": 53.8367319, "lon": 14.7457116, "way_id": 317789642, "landuse": "meadow", "closest_distance_restriction": 1.681852581077196}, {"id": 4978966325, "lat": 53.9724044, "lon": 14.7217134, "way_id": 508626652, "landuse": "meadow", "closest_distance_restriction": 1.56184411336355}, {"id": 4978966327, "lat": 53.9712204, "lon": 14.7209197, "way_id": 508626652, "landuse": "meadow", "closest_distance_restriction": 1.5632791248813362}, {"id": 5203119663, "lat": 53.9269037, "lon": 14.6274839, "way_id": 537264412, "landuse": "farmland", "closest_distance_restriction": 1.586754510102743}, {"id": 5203119664, "lat": 53.927447, "lon": 14.6279989, "way_id": 537264412, "landuse": "farmland", "closest_distance_restriction": 1.5715701108539315}, {"id": 5203119665, "lat": 53.9264109, "lon": 14.631003, "way_id": 537264412, "landuse": "farmland", "closest_distance_restriction": 1.7963301745809082}, {"id": 5203119666, "lat": 53.9267521, "lon": 14.6313463, "way_id": 537264412, "landuse": "farmland", "closest_distance_restriction": 1.7902047221696928}, {"id": 5203119667, "lat": 53.927188, "lon": 14.6305738, "way_id": 537264412, "landuse": "farmland", "closest_distance_restriction": 1.7205309856390487}, {"id": 5203119668, "lat": 53.9273712, "lon": 14.6307455, "way_id": 537264412, "landuse": "farmland", "closest_distance_restriction": 1.7171252902794027}, {"id": 5203119669, "lat": 53.9275607, "lon": 14.6304022, "way_id": 537264412, "landuse": "farmland", "closest_distance_restriction": 1.6865011144953168}, {"id": 5203119670, "lat": 53.9278829, "lon": 14.6286212, "way_id": 537264412, "landuse": "farmland", "closest_distance_restriction": 1.5722170860004092}, {"id": 5203119672, "lat": 53.9291526, "lon": 14.6300481, "way_id": 537264412, "landuse": "farmland", "closest_distance_restriction": 1.567100305457029}, {"id": 5203119673, "lat": 53.9289062, "lon": 14.6307562, "way_id": 537264412, "landuse": "farmland", "closest_distance_restriction": 1.6209316782399517}, {"id": 5203119674, "lat": 53.9303339, "lon": 14.6312068, "way_id": 537264412, "landuse": "farmland", "closest_distance_restriction": 1.5688135246916202}, {"id": 5203119675, "lat": 53.9308139, "lon": 14.6317218, "way_id": 537264412, "landuse": "farmland", "closest_distance_restriction": 1.5763265736688736}, {"id": 5203119676, "lat": 53.9303023, "lon": 14.6330093, "way_id": 537264412, "landuse": "farmland", "closest_distance_restriction": 1.6219748551441298}, {"id": 5203119677, "lat": 53.9304349, "lon": 14.6334384, "way_id": 537264412, "landuse": "farmland", "closest_distance_restriction": 1.5906469602214048}, {"id": 5203119688, "lat": 53.926253, "lon": 14.6369253, "way_id": 537264412, "landuse": "farmland", "closest_distance_restriction": 1.6060548006570459}, {"id": 5203119689, "lat": 53.9256264, "lon": 14.6359845, "way_id": 537264412, "landuse": "farmland", "closest_distance_restriction": 1.6531462456219626}, {"id": 5203119690, "lat": 53.9253496, "lon": 14.6354662, "way_id": 537264412, "landuse": "farmland", "closest_distance_restriction": 1.6700653172692943}, {"id": 5203119691, "lat": 53.9252548, "lon": 14.6346508, "way_id": 537264412, "landuse": "farmland", "closest_distance_restriction": 1.6831043966207089}, {"id": 5203119692, "lat": 53.9251348, "lon": 14.634404, "way_id": 537264412, "landuse": "farmland", "closest_distance_restriction": 1.6706002090575043}, {"id": 5203119693, "lat": 53.9249137, "lon": 14.6345221, "way_id": 537264412, "landuse": "farmland", "closest_distance_restriction": 1.6456335490781837}, {"id": 5203119694, "lat": 53.9248, "lon": 14.6348439, "way_id": 537264412, "landuse": "farmland", "closest_distance_restriction": 1.6320388801479377}, {"id": 5203119695, "lat": 53.9244588, "lon": 14.634801, "way_id": 537264412, "landuse": "farmland", "closest_distance_restriction": 1.5942457600458404}, {"id": 5203119696, "lat": 53.9242566, "lon": 14.6352516, "way_id": 537264412, "landuse": "farmland", "closest_distance_restriction": 1.570794902319766}, {"id": 5203119697, "lat": 53.9245852, "lon": 14.6358417, "way_id": 537264412, "landuse": "farmland", "closest_distance_restriction": 1.606878090132204}, {"id": 5203119698, "lat": 53.9246168, "lon": 14.6362601, "way_id": 537264412, "landuse": "farmland", "closest_distance_restriction": 1.5889962094387817}, {"id": 5203135517, "lat": 53.9461608, "lon": 14.6397363, "way_id": 537266283, "landuse": "farmland", "closest_distance_restriction": 1.6169465705216948}, {"id": 5203145712, "lat": 53.9443158, "lon": 14.6342693, "way_id": 547281119, "landuse": "meadow", "closest_distance_restriction": 1.7597341912847042}, {"id": 5203145713, "lat": 53.9451872, "lon": 14.6352563, "way_id": 547281119, "landuse": "meadow", "closest_distance_restriction": 1.7631310584350688}, {"id": 5203145714, "lat": 53.9449599, "lon": 14.6363292, "way_id": 547281119, "landuse": "meadow", "closest_distance_restriction": 1.6920902372553093}, {"id": 5203145715, "lat": 53.9452125, "lon": 14.6368442, "way_id": 537267196, "landuse": "farmland", "closest_distance_restriction": 1.6833796262609133}, {"id": 5203145716, "lat": 53.9458313, "lon": 14.6371017, "way_id": 537267196, "landuse": "farmland", "closest_distance_restriction": 1.7153010716452604}, {"id": 5203145717, "lat": 53.9465764, "lon": 14.6346984, "way_id": 537267196, "landuse": "farmland", "closest_distance_restriction": 1.6955657980159557}, {"id": 5203145718, "lat": 53.9469426, "lon": 14.6348057, "way_id": 537267196, "landuse": "farmland", "closest_distance_restriction": 1.6581120215131588}, {"id": 5203145719, "lat": 53.9470058, "lon": 14.6355567, "way_id": 537267196, "landuse": "farmland", "closest_distance_restriction": 1.6652023035650645}, {"id": 5203145930, "lat": 53.9444926, "lon": 14.6333037, "way_id": 537267197, "landuse": "farmland", "closest_distance_restriction": 1.7428799314786971}, {"id": 5203153766, "lat": 53.8290574, "lon": 14.6565757, "way_id": 537268975, "landuse": "farmland", "closest_distance_restriction": 1.9047237026498247}, {"id": 5203153767, "lat": 53.8296653, "lon": 14.6570478, "way_id": 537268975, "landuse": "farmland", "closest_distance_restriction": 1.9065019750538152}, {"id": 5203153768, "lat": 53.8297539, "lon": 14.6585498, "way_id": 537268975, "landuse": "farmland", "closest_distance_restriction": 1.8240440387569021}, {"id": 5203153769, "lat": 53.8306024, "lon": 14.6583138, "way_id": 537268975, "landuse": "farmland", "closest_distance_restriction": 1.8845704893587243}, {"id": 5203153770, "lat": 53.8310836, "lon": 14.6577774, "way_id": 537268975, "landuse": "farmland", "closest_distance_restriction": 1.942540417382149}, {"id": 5203153771, "lat": 53.8311216, "lon": 14.6580349, "way_id": 537268975, "landuse": "farmland", "closest_distance_restriction": 1.9304684193181445}, {"id": 5203153772, "lat": 53.8306657, "lon": 14.6587215, "way_id": 537268975, "landuse": "farmland", "closest_distance_restriction": 1.865397925379398}, {"id": 5203153773, "lat": 53.829564, "lon": 14.6594296, "way_id": 537268975, "landuse": "farmland", "closest_distance_restriction": 1.7633001365438203}, {"id": 5203153774, "lat": 53.8295133, "lon": 14.6597515, "way_id": 537268975, "landuse": "farmland", "closest_distance_restriction": 1.742108454961131}, {"id": 5203153775, "lat": 53.8290574, "lon": 14.6597515, "way_id": 537268975, "landuse": "farmland", "closest_distance_restriction": 1.7178846998302826}, {"id": 5203153776, "lat": 53.8285382, "lon": 14.659215, "way_id": 537268975, "landuse": "farmland", "closest_distance_restriction": 1.7234210162781578}, {"id": 5210305975, "lat": 53.8473148, "lon": 14.7776776, "way_id": 538365736, "landuse": "farmland", "closest_distance_restriction": 1.5952588378343937}, {"id": 5210305977, "lat": 53.8402798, "lon": 14.7660267, "way_id": 538218398, "landuse": "farmland", "closest_distance_restriction": 1.779727730641397}, {"id": 5210305978, "lat": 53.838963, "lon": 14.7664451, "way_id": 538218398, "landuse": "farmland", "closest_distance_restriction": 1.927178471601015}, {"id": 5210305979, "lat": 53.8367346, "lon": 14.7670459, "way_id": 538218398, "landuse": "farmland", "closest_distance_restriction": 1.7217165594508645}, {"id": 5210305982, "lat": 53.8402165, "lon": 14.7538387, "way_id": 538218398, "landuse": "farmland", "closest_distance_restriction": 1.7019444300153748}, {"id": 5210305999, "lat": 53.8410838, "lon": 14.7607052, "way_id": 538218398, "landuse": "farmland", "closest_distance_restriction": 1.6090339787875414}, {"id": 5210306000, "lat": 53.8415137, "lon": 14.762135, "way_id": 538218398, "landuse": "farmland", "closest_distance_restriction": 1.5785889894854055}, {"id": 5210313595, "lat": 53.8365244, "lon": 14.7741305, "way_id": 538221034, "landuse": "farmland", "closest_distance_restriction": 1.8331526733300851}, {"id": 5210313596, "lat": 53.8340786, "lon": 14.7786812, "way_id": 538221034, "landuse": "farmland", "closest_distance_restriction": 1.666293691643221}, {"id": 5210313597, "lat": 53.8344268, "lon": 14.7736602, "way_id": 538221034, "landuse": "farmland", "closest_distance_restriction": 1.598705758527504}, {"id": 5210313598, "lat": 53.8355601, "lon": 14.7736387, "way_id": 538221037, "landuse": "farmland", "closest_distance_restriction": 1.7215815928074856}, {"id": 5210313599, "lat": 53.8359083, "lon": 14.7679846, "way_id": 538221037, "landuse": "farmland", "closest_distance_restriction": 1.6601852689464711}, {"id": 5210313600, "lat": 53.8347805, "lon": 14.768886, "way_id": 538221037, "landuse": "farmland", "closest_distance_restriction": 1.5730703862949553}, {"id": 5210313601, "lat": 53.8350813, "lon": 14.7689832, "way_id": 538221037, "landuse": "farmland", "closest_distance_restriction": 1.6056689805483455}, {"id": 5210313602, "lat": 53.8352372, "lon": 14.7791962, "way_id": 538221034, "landuse": "farmland", "closest_distance_restriction": 1.7978210670965888}, {"id": 5210313603, "lat": 53.8361576, "lon": 14.7796246, "way_id": 538221034, "landuse": "farmland", "closest_distance_restriction": 1.9029651000745602}, {"id": 5210313604, "lat": 53.8344041, "lon": 14.7733772, "way_id": 538221038, "landuse": "farmland", "closest_distance_restriction": 1.592261772294452}, {"id": 5210313605, "lat": 53.8347334, "lon": 14.7690105, "way_id": 538221038, "landuse": "farmland", "closest_distance_restriction": 1.572271354252873}, {"id": 5211151467, "lat": 53.8532108, "lon": 14.7830249, "way_id": 538365736, "landuse": "farmland", "closest_distance_restriction": 1.6473684892162834}, {"id": 5211151468, "lat": 53.8559003, "lon": 14.7862328, "way_id": 538365736, "landuse": "farmland", "closest_distance_restriction": 1.7843290615198766}, {"id": 5211151497, "lat": 53.8475197, "lon": 14.7811174, "way_id": 538365736, "landuse": "farmland", "closest_distance_restriction": 1.7673555840263666}, {"id": 5211151500, "lat": 53.8493002, "lon": 14.7809577, "way_id": 538365736, "landuse": "farmland", "closest_distance_restriction": 1.6602506447035434}, {"id": 5211151501, "lat": 53.8496185, "lon": 14.7811532, "way_id": 538365736, "landuse": "farmland", "closest_distance_restriction": 1.6561376406604564}, {"id": 5211151502, "lat": 53.8495604, "lon": 14.7820426, "way_id": 538365736, "landuse": "farmland", "closest_distance_restriction": 1.7116703914222409}, {"id": 5211151503, "lat": 53.8505128, "lon": 14.7826002, "way_id": 538365736, "landuse": "farmland", "closest_distance_restriction": 1.7039136216387085}, {"id": 5211151504, "lat": 53.8499923, "lon": 14.7825307, "way_id": 538365736, "landuse": "farmland", "closest_distance_restriction": 1.7214395686475334}, {"id": 5211151505, "lat": 53.8491002, "lon": 14.7815782, "way_id": 538365736, "landuse": "farmland", "closest_distance_restriction": 1.7066091655715738}, {"id": 5211151506, "lat": 53.8487015, "lon": 14.7814993, "way_id": 538365736, "landuse": "farmland", "closest_distance_restriction": 1.7225498802033432}, {"id": 5222059147, "lat": 54.0083016, "lon": 14.9417005, "way_id": 192507703, "landuse": "farmland", "closest_distance_restriction": 1.751780200771483}, {"id": 5222059148, "lat": 54.0075079, "lon": 14.9452282, "way_id": 192507703, "landuse": "farmland", "closest_distance_restriction": 1.7093405510777822}, {"id": 5240115878, "lat": 53.9885551, "lon": 14.6343922, "way_id": 541963082, "landuse": "farmland", "closest_distance_restriction": 1.8855620046345472}, {"id": 5240115879, "lat": 53.9876058, "lon": 14.6337155, "way_id": 541963082, "landuse": "farmland", "closest_distance_restriction": 1.7833384378860593}, {"id": 5240115880, "lat": 53.987139, "lon": 14.6343922, "way_id": 541963082, "landuse": "farmland", "closest_distance_restriction": 1.728366102481762}, {"id": 5240115881, "lat": 53.9866974, "lon": 14.635508, "way_id": 541963082, "landuse": "farmland", "closest_distance_restriction": 1.6763716198979777}, {"id": 5240115882, "lat": 53.9878076, "lon": 14.6363019, "way_id": 541963082, "landuse": "farmland", "closest_distance_restriction": 1.7996205456084573}, {"id": 5240115883, "lat": 53.9881167, "lon": 14.6353524, "way_id": 541963082, "landuse": "farmland", "closest_distance_restriction": 1.8343705806649}, {"id": 5243171238, "lat": 53.8287074, "lon": 14.6566815, "way_id": 542307783, "landuse": "farmland", "closest_distance_restriction": 1.88233166219596}, {"id": 5243171239, "lat": 53.8275423, "lon": 14.6565099, "way_id": 542307783, "landuse": "farmland", "closest_distance_restriction": 1.844267446040602}, {"id": 5243171240, "lat": 53.827175, "lon": 14.6567459, "way_id": 542307783, "landuse": "farmland", "closest_distance_restriction": 1.814542607390683}, {"id": 5243171241, "lat": 53.8262568, "lon": 14.656467, "way_id": 542307783, "landuse": "farmland", "closest_distance_restriction": 1.796298496848655}, {"id": 5243171242, "lat": 53.8261681, "lon": 14.6568103, "way_id": 542307783, "landuse": "farmland", "closest_distance_restriction": 1.771796894203416}, {"id": 5243171243, "lat": 53.8262884, "lon": 14.657454, "way_id": 542307783, "landuse": "farmland", "closest_distance_restriction": 1.7362208213959636}, {"id": 5243171244, "lat": 53.8247369, "lon": 14.65769, "way_id": 542307783, "landuse": "farmland", "closest_distance_restriction": 1.671565662501052}, {"id": 5243171245, "lat": 53.8249966, "lon": 14.6583874, "way_id": 542307783, "landuse": "farmland", "closest_distance_restriction": 1.6346469794632854}, {"id": 5243171246, "lat": 53.8270547, "lon": 14.6580226, "way_id": 542307783, "landuse": "farmland", "closest_distance_restriction": 1.7319165127319625}, {"id": 5243171247, "lat": 53.8274473, "lon": 14.6584196, "way_id": 542307783, "landuse": "farmland", "closest_distance_restriction": 1.7232368483225575}, {"id": 5243171248, "lat": 53.8275929, "lon": 14.6592243, "way_id": 542307783, "landuse": "farmland", "closest_distance_restriction": 1.6801821715554999}, {"id": 5243171249, "lat": 53.8279919, "lon": 14.6597392, "way_id": 542307783, "landuse": "farmland", "closest_distance_restriction": 1.6666553933431625}, {"id": 5243181776, "lat": 53.83017, "lon": 14.6591468, "way_id": 537268975, "landuse": "farmland", "closest_distance_restriction": 1.812976031328678}, {"id": 5264246704, "lat": 53.8808164, "lon": 14.7641269, "way_id": 544600045, "landuse": "farmland", "closest_distance_restriction": 1.5641391927465433}, {"id": 5264246705, "lat": 53.8805065, "lon": 14.7639337, "way_id": 544600045, "landuse": "farmland", "closest_distance_restriction": 1.5812720926258845}, {"id": 5264246706, "lat": 53.8803678, "lon": 14.7638844, "way_id": 544600045, "landuse": "farmland", "closest_distance_restriction": 1.5867472318809401}, {"id": 5264246707, "lat": 53.8756801, "lon": 14.7639939, "way_id": 544600045, "landuse": "farmland", "closest_distance_restriction": 1.6131948557983615}, {"id": 5270536498, "lat": 53.8576534, "lon": 14.7028937, "way_id": 545314451, "landuse": "farmland", "closest_distance_restriction": 1.566309141292517}, {"id": 5270536501, "lat": 53.8583083, "lon": 14.7043796, "way_id": 545314451, "landuse": "farmland", "closest_distance_restriction": 1.5654231231992592}, {"id": 5270536502, "lat": 53.8583431, "lon": 14.70409, "way_id": 545314451, "landuse": "farmland", "closest_distance_restriction": 1.5795336643315339}, {"id": 5270536503, "lat": 53.8586405, "lon": 14.7036608, "way_id": 545314451, "landuse": "farmland", "closest_distance_restriction": 1.6228019110681888}, {"id": 5270536504, "lat": 53.8594062, "lon": 14.7006245, "way_id": 545314451, "landuse": "farmland", "closest_distance_restriction": 1.7181639456284674}, {"id": 5270536505, "lat": 53.8622336, "lon": 14.6899544, "way_id": 545314451, "landuse": "farmland", "closest_distance_restriction": 1.6540726389963036}, {"id": 5270536506, "lat": 53.8614311, "lon": 14.6883496, "way_id": 545314451, "landuse": "farmland", "closest_distance_restriction": 1.7842859638186666}, {"id": 5270536507, "lat": 53.8611666, "lon": 14.6882902, "way_id": 545314451, "landuse": "farmland", "closest_distance_restriction": 1.8115124186849116}, {"id": 5270536508, "lat": 53.8610527, "lon": 14.6886338, "way_id": 545314451, "landuse": "farmland", "closest_distance_restriction": 1.811054335484393}, {"id": 5270536509, "lat": 53.8596405, "lon": 14.688371, "way_id": 545314451, "landuse": "farmland", "closest_distance_restriction": 1.7922561358435587}, {"id": 5270536510, "lat": 53.8583393, "lon": 14.6897506, "way_id": 545314451, "landuse": "farmland", "closest_distance_restriction": 1.7976745611484044}, {"id": 5270536511, "lat": 53.8578843, "lon": 14.6905675, "way_id": 545314451, "landuse": "farmland", "closest_distance_restriction": 1.823190808913074}, {"id": 5270536512, "lat": 53.8577187, "lon": 14.6922147, "way_id": 545314451, "landuse": "farmland", "closest_distance_restriction": 1.9140301342538224}, {"id": 5270536513, "lat": 53.8566581, "lon": 14.6934173, "way_id": 545314451, "landuse": "farmland", "closest_distance_restriction": 1.9445751934046611}, {"id": 5270536514, "lat": 53.8561165, "lon": 14.6930958, "way_id": 545314451, "landuse": "farmland", "closest_distance_restriction": 1.904017346214081}, {"id": 5270536515, "lat": 53.8562622, "lon": 14.6956237, "way_id": 545314451, "landuse": "farmland", "closest_distance_restriction": 1.8106862520302913}, {"id": 5270536516, "lat": 53.8559361, "lon": 14.6976423, "way_id": 545314451, "landuse": "farmland", "closest_distance_restriction": 1.68264923345892}, {"id": 5287930711, "lat": 53.9436397, "lon": 14.6359356, "way_id": 547281119, "landuse": "meadow", "closest_distance_restriction": 1.6273053037225185}, {"id": 5287930712, "lat": 53.9447984, "lon": 14.6366222, "way_id": 547281119, "landuse": "meadow", "closest_distance_restriction": 1.6659248527543198}, {"id": 6061055144, "lat": 53.83999, "lon": 14.6846911, "way_id": 644467651, "landuse": "farmland", "closest_distance_restriction": 1.593671038706115}, {"id": 6061055145, "lat": 53.8397305, "lon": 14.6851096, "way_id": 644467651, "landuse": "farmland", "closest_distance_restriction": 1.6332772836384792}, {"id": 6061055146, "lat": 53.8396418, "lon": 14.6853027, "way_id": 644467651, "landuse": "farmland", "closest_distance_restriction": 1.6493180005745638}, {"id": 6061055147, "lat": 53.8392873, "lon": 14.6850237, "way_id": 644467651, "landuse": "farmland", "closest_distance_restriction": 1.6614366445706965}, {"id": 6061055148, "lat": 53.8391987, "lon": 14.6845195, "way_id": 644467651, "landuse": "farmland", "closest_distance_restriction": 1.6436157798962863}, {"id": 6061055149, "lat": 53.8389645, "lon": 14.6842834, "way_id": 644467651, "landuse": "farmland", "closest_distance_restriction": 1.6502331150814793}, {"id": 6061055150, "lat": 53.8386986, "lon": 14.6843049, "way_id": 644467651, "landuse": "farmland", "closest_distance_restriction": 1.6718656669553102}, {"id": 6061055177, "lat": 53.8385016, "lon": 14.6840906, "way_id": 644467651, "landuse": "farmland", "closest_distance_restriction": 1.6767637906065032}, {"id": 6061055178, "lat": 53.838041, "lon": 14.684237, "way_id": 644467651, "landuse": "farmland", "closest_distance_restriction": 1.6360113846255904}, {"id": 6061055179, "lat": 53.8376332, "lon": 14.6843102, "way_id": 644467651, "landuse": "farmland", "closest_distance_restriction": 1.5904167378750422}, {"id": 6061055305, "lat": 53.8433422, "lon": 14.6879568, "way_id": 644467654, "landuse": "farmland", "closest_distance_restriction": 1.5742185284901724}, {"id": 6061055306, "lat": 53.8430795, "lon": 14.6879407, "way_id": 644467654, "landuse": "farmland", "closest_distance_restriction": 1.5856799838497118}, {"id": 6061055307, "lat": 53.842975, "lon": 14.6877744, "way_id": 644467654, "landuse": "farmland", "closest_distance_restriction": 1.5809462535456056}, {"id": 6270946609, "lat": 53.9878781, "lon": 15.0284667, "way_id": 669647738, "landuse": "farmland", "closest_distance_restriction": 4.159690594249091}, {"id": 6270946610, "lat": 53.9879346, "lon": 15.028395, "way_id": 669647738, "landuse": "farmland", "closest_distance_restriction": 4.1649214286696035}, {"id": 6270946611, "lat": 53.9877498, "lon": 15.0278967, "way_id": 669647738, "landuse": "farmland", "closest_distance_restriction": 4.137279144946132}, {"id": 6270946612, "lat": 53.9879169, "lon": 15.0312915, "way_id": 669647738, "landuse": "farmland", "closest_distance_restriction": 4.204451065298256}, {"id": 6270946625, "lat": 53.9866352, "lon": 15.029728, "way_id": 669647738, "landuse": "farmland", "closest_distance_restriction": 4.042061489182117}, {"id": 6270946628, "lat": 53.9874749, "lon": 15.031809, "way_id": 669647738, "landuse": "farmland", "closest_distance_restriction": 4.1651170977824945}, {"id": 6270946629, "lat": 53.9880476, "lon": 15.0311189, "way_id": 669647738, "landuse": "farmland", "closest_distance_restriction": 4.215870154919025}, {"id": 6270946630, "lat": 53.9883846, "lon": 15.0304503, "way_id": 669647738, "landuse": "farmland", "closest_distance_restriction": 4.242223207350359}, {"id": 6270946631, "lat": 53.9883252, "lon": 15.0302744, "way_id": 669647738, "landuse": "farmland", "closest_distance_restriction": 4.2332084964715655}, {"id": 6270946632, "lat": 53.9884679, "lon": 15.0300627, "way_id": 669647738, "landuse": "farmland", "closest_distance_restriction": 4.245623523180562}, {"id": 6270946633, "lat": 53.9884325, "lon": 15.0298754, "way_id": 669647738, "landuse": "farmland", "closest_distance_restriction": 4.239114178741528}, {"id": 6270946634, "lat": 53.9873639, "lon": 15.0274342, "way_id": 669647738, "landuse": "farmland", "closest_distance_restriction": 4.088556348071236}, {"id": 6270946635, "lat": 53.9872796, "lon": 15.0277729, "way_id": 669647738, "landuse": "farmland", "closest_distance_restriction": 4.084549499240252}, {"id": 6270946636, "lat": 53.9869483, "lon": 15.0283918, "way_id": 669647738, "landuse": "farmland", "closest_distance_restriction": 4.057418098416527}, {"id": 6270946637, "lat": 53.9867424, "lon": 15.0287077, "way_id": 669647738, "landuse": "farmland", "closest_distance_restriction": 4.0392522684003795}, {"id": 6270946638, "lat": 53.986977, "lon": 15.0293331, "way_id": 669647738, "landuse": "farmland", "closest_distance_restriction": 4.073432635675051}, {"id": 6270946639, "lat": 53.986865, "lon": 15.0294675, "way_id": 669647738, "landuse": "farmland", "closest_distance_restriction": 4.063194162295646}, {"id": 6270946686, "lat": 53.9804083, "lon": 15.0108724, "way_id": 669642491, "landuse": "farmland", "closest_distance_restriction": 2.9153209581167263}, {"id": 6270946687, "lat": 53.9811024, "lon": 15.0086563, "way_id": 669642491, "landuse": "farmland", "closest_distance_restriction": 2.82438571972838}, {"id": 6270946688, "lat": 53.9811182, "lon": 15.0084387, "way_id": 669642491, "landuse": "farmland", "closest_distance_restriction": 2.812910381710627}, {"id": 6270946689, "lat": 53.9810594, "lon": 15.0077514, "way_id": 669642491, "landuse": "farmland", "closest_distance_restriction": 2.7707355884655325}, {"id": 6270946690, "lat": 53.9809088, "lon": 15.0054005, "way_id": 669642491, "landuse": "farmland", "closest_distance_restriction": 2.630234046387334}, {"id": 6270946691, "lat": 53.9809405, "lon": 15.0051925, "way_id": 669642491, "landuse": "farmland", "closest_distance_restriction": 2.62051582559487}, {"id": 6270946692, "lat": 53.9831064, "lon": 15.0076994, "way_id": 669642491, "landuse": "farmland", "closest_distance_restriction": 2.889195160611286}, {"id": 6270946693, "lat": 53.9834359, "lon": 15.0098712, "way_id": 669642491, "landuse": "farmland", "closest_distance_restriction": 3.0276745823444347}, {"id": 6270946694, "lat": 53.9834279, "lon": 15.0100619, "way_id": 669642491, "landuse": "farmland", "closest_distance_restriction": 3.0376272212125808}, {"id": 6270946695, "lat": 53.9812111, "lon": 15.0116465, "way_id": 669642491, "landuse": "farmland", "closest_distance_restriction": 3.0014532717590474}, {"id": 6270946696, "lat": 53.9809677, "lon": 15.0117369, "way_id": 669642491, "landuse": "farmland", "closest_distance_restriction": 2.994061133571106}, {"id": 6270946697, "lat": 53.9804955, "lon": 15.0117042, "way_id": 669642491, "landuse": "farmland", "closest_distance_restriction": 2.9682369525560337}, {"id": 6270946698, "lat": 53.9801049, "lon": 15.0116503, "way_id": 669642491, "landuse": "farmland", "closest_distance_restriction": 2.9458334494123175}, {"id": 6270946699, "lat": 53.9800154, "lon": 15.011504, "way_id": 669642491, "landuse": "farmland", "closest_distance_restriction": 2.932881506922336}, {"id": 6270946754, "lat": 53.982535, "lon": 15.0044341, "way_id": 669642491, "landuse": "farmland", "closest_distance_restriction": 2.6776998415696096}, {"id": 6270946755, "lat": 53.9836686, "lon": 15.0102425, "way_id": 669642521, "landuse": "farmland", "closest_distance_restriction": 3.062172092613288}, {"id": 6270946756, "lat": 53.9837902, "lon": 15.0112234, "way_id": 669642521, "landuse": "farmland", "closest_distance_restriction": 3.123259250814659}, {"id": 6270946763, "lat": 53.9850686, "lon": 15.0092823, "way_id": 669642521, "landuse": "farmland", "closest_distance_restriction": 3.0997687064610835}, {"id": 6270946765, "lat": 53.983884, "lon": 15.0100942, "way_id": 669642521, "landuse": "farmland", "closest_distance_restriction": 3.0673577281818276}, {"id": 6270946766, "lat": 53.9840295, "lon": 15.0100028, "way_id": 669642521, "landuse": "farmland", "closest_distance_restriction": 3.0714533871029586}, {"id": 6270946767, "lat": 53.9843404, "lon": 15.0098003, "way_id": 669642521, "landuse": "farmland", "closest_distance_restriction": 3.080124017457695}, {"id": 6271011664, "lat": 53.9903074, "lon": 15.0317335, "way_id": 669647738, "landuse": "farmland", "closest_distance_restriction": 4.4695577805434565}, {"id": 6271011666, "lat": 53.9910592, "lon": 15.0313413, "way_id": 669647738, "landuse": "farmland", "closest_distance_restriction": 4.545113987951865}, {"id": 6271011669, "lat": 53.9928394, "lon": 15.0252472, "way_id": 669647738, "landuse": "farmland", "closest_distance_restriction": 4.453278668663426}, {"id": 6271011670, "lat": 53.9934039, "lon": 15.0231224, "way_id": 669647738, "landuse": "farmland", "closest_distance_restriction": 4.383083532643859}, {"id": 6271011671, "lat": 53.9931719, "lon": 15.0240683, "way_id": 669647738, "landuse": "farmland", "closest_distance_restriction": 4.415151466261811}, {"id": 6271011672, "lat": 53.993756, "lon": 15.0209024, "way_id": 669647738, "landuse": "farmland", "closest_distance_restriction": 4.2944665929375585}, {"id": 6271011673, "lat": 53.9938258, "lon": 15.0197806, "way_id": 669647738, "landuse": "farmland", "closest_distance_restriction": 4.242388651425264}, {"id": 6271020689, "lat": 53.9935796, "lon": 15.0220699, "way_id": 669647738, "landuse": "farmland", "closest_distance_restriction": 4.342244400172238}, {"id": 6271020690, "lat": 53.9923761, "lon": 15.0268881, "way_id": 669647738, "landuse": "farmland", "closest_distance_restriction": 4.508479267337356}, {"id": 6271020691, "lat": 53.9918236, "lon": 15.0287779, "way_id": 669647738, "landuse": "farmland", "closest_distance_restriction": 4.573875520190272}, {"id": 6271020692, "lat": 53.9911751, "lon": 15.0309201, "way_id": 669647738, "landuse": "farmland", "closest_distance_restriction": 4.5516308502330665}, {"id": 6271020693, "lat": 53.993853, "lon": 15.0189334, "way_id": 669647738, "landuse": "farmland", "closest_distance_restriction": 4.201668916953849}, {"id": 6271020694, "lat": 53.9937053, "lon": 15.0180304, "way_id": 669647738, "landuse": "farmland", "closest_distance_restriction": 4.145923699278635}, {"id": 6271020695, "lat": 53.9934544, "lon": 15.0162302, "way_id": 669647738, "landuse": "farmland", "closest_distance_restriction": 4.038446630014507}, {"id": 6271020696, "lat": 53.9933518, "lon": 15.0151575, "way_id": 669647738, "landuse": "farmland", "closest_distance_restriction": 3.978229837620826}, {"id": 6271020697, "lat": 53.9933322, "lon": 15.0141962, "way_id": 669647738, "landuse": "farmland", "closest_distance_restriction": 3.9299678871952204}, {"id": 6271020698, "lat": 53.9942639, "lon": 15.0112269, "way_id": 669647738, "landuse": "farmland", "closest_distance_restriction": 3.861128593947517}, {"id": 6271020699, "lat": 53.9934173, "lon": 15.0137694, "way_id": 669647738, "landuse": "farmland", "closest_distance_restriction": 3.9157157555831157}, {"id": 6271020700, "lat": 53.9942683, "lon": 15.0113939, "way_id": 669647738, "landuse": "farmland", "closest_distance_restriction": 3.8691722307796295}, {"id": 6271020701, "lat": 53.9936202, "lon": 15.0106404, "way_id": 669647738, "landuse": "farmland", "closest_distance_restriction": 3.7833882253425672}, {"id": 6271020702, "lat": 53.9933846, "lon": 15.0104585, "way_id": 669647738, "landuse": "farmland", "closest_distance_restriction": 3.756492649896835}, {"id": 6271020703, "lat": 53.9924594, "lon": 15.0103843, "way_id": 669647738, "landuse": "farmland", "closest_distance_restriction": 3.6813230674639126}, {"id": 6271020704, "lat": 53.9926143, "lon": 15.0105847, "way_id": 669647738, "landuse": "farmland", "closest_distance_restriction": 3.702691353646729}, {"id": 6271020705, "lat": 53.9926143, "lon": 15.0107443, "way_id": 669647738, "landuse": "farmland", "closest_distance_restriction": 3.7102432836758688}, {"id": 6271020706, "lat": 53.9920622, "lon": 15.0110487, "way_id": 669647738, "landuse": "farmland", "closest_distance_restriction": 3.682805968035551}, {"id": 6271020707, "lat": 53.9918375, "lon": 15.0124777, "way_id": 669647738, "landuse": "farmland", "closest_distance_restriction": 3.7354568332981644}, {"id": 6271020708, "lat": 53.9918331, "lon": 15.0137211, "way_id": 669647738, "landuse": "farmland", "closest_distance_restriction": 3.7964797536527435}, {"id": 6271020709, "lat": 53.9924223, "lon": 15.0138918, "way_id": 669647738, "landuse": "farmland", "closest_distance_restriction": 3.847818505533644}, {"id": 6271020710, "lat": 53.9924288, "lon": 15.0143373, "way_id": 669647738, "landuse": "farmland", "closest_distance_restriction": 3.870243264878272}, {"id": 6271020711, "lat": 53.9923001, "lon": 15.0144597, "way_id": 669647738, "landuse": "farmland", "closest_distance_restriction": 3.8669406057552593}, {"id": 6271020712, "lat": 53.9921801, "lon": 15.0147678, "way_id": 669647738, "landuse": "farmland", "closest_distance_restriction": 3.8735737708887545}, {"id": 6271020713, "lat": 53.9917306, "lon": 15.0150388, "way_id": 669647738, "landuse": "farmland", "closest_distance_restriction": 3.8550169227881104}, {"id": 6271020714, "lat": 53.9916564, "lon": 15.0155176, "way_id": 669647738, "landuse": "farmland", "closest_distance_restriction": 3.8739500355739986}, {"id": 6271020715, "lat": 53.9917895, "lon": 15.0164343, "way_id": 669647738, "landuse": "farmland", "closest_distance_restriction": 3.9298136695820776}, {"id": 6271020716, "lat": 53.9923394, "lon": 15.0187059, "way_id": 669647738, "landuse": "farmland", "closest_distance_restriction": 4.08406846074547}, {"id": 6271020717, "lat": 53.992671, "lon": 15.0183087, "way_id": 669647738, "landuse": "farmland", "closest_distance_restriction": 4.08672520389361}, {"id": 6271020718, "lat": 53.9932384, "lon": 15.0177891, "way_id": 669647738, "landuse": "farmland", "closest_distance_restriction": 4.100449804563223}, {"id": 6271020719, "lat": 53.9932798, "lon": 15.017945, "way_id": 669647738, "landuse": "farmland", "closest_distance_restriction": 4.111225650527337}, {"id": 6271020720, "lat": 53.9931446, "lon": 15.0180378, "way_id": 669647738, "landuse": "farmland", "closest_distance_restriction": 4.106295127234129}, {"id": 6271020721, "lat": 53.9928609, "lon": 15.0183496, "way_id": 669647738, "landuse": "farmland", "closest_distance_restriction": 4.102078645564961}, {"id": 6271020722, "lat": 53.9924935, "lon": 15.0189515, "way_id": 669647738, "landuse": "farmland", "closest_distance_restriction": 4.107284328873907}, {"id": 6271020723, "lat": 53.9923404, "lon": 15.0193304, "way_id": 669647738, "landuse": "farmland", "closest_distance_restriction": 4.116289811231176}, {"id": 6271020724, "lat": 53.9923334, "lon": 15.0194725, "way_id": 669647738, "landuse": "farmland", "closest_distance_restriction": 4.123150484041224}, {"id": 6271020725, "lat": 53.9922081, "lon": 15.0196323, "way_id": 669647738, "landuse": "farmland", "closest_distance_restriction": 4.122404448468027}, {"id": 6271020726, "lat": 53.9921176, "lon": 15.0195494, "way_id": 669647738, "landuse": "farmland", "closest_distance_restriction": 4.1118081448648525}, {"id": 6271020727, "lat": 53.9923613, "lon": 15.0190936, "way_id": 669647738, "landuse": "farmland", "closest_distance_restriction": 4.105510994591516}, {"id": 6271020728, "lat": 53.9917765, "lon": 15.0170214, "way_id": 669647738, "landuse": "farmland", "closest_distance_restriction": 3.9588747361291374}, {"id": 6271020729, "lat": 53.9907254, "lon": 15.0179095, "way_id": 669647738, "landuse": "farmland", "closest_distance_restriction": 3.9308096270843205}, {"id": 6271020730, "lat": 53.988623, "lon": 15.0197951, "way_id": 669647738, "landuse": "farmland", "closest_distance_restriction": 3.8885378718952075}, {"id": 6271020731, "lat": 53.9875613, "lon": 15.0208223, "way_id": 669647738, "landuse": "farmland", "closest_distance_restriction": 3.8779838749166}, {"id": 6271020732, "lat": 53.9866493, "lon": 15.0219117, "way_id": 669647738, "landuse": "farmland", "closest_distance_restriction": 3.8842670455789507}, {"id": 6271020733, "lat": 53.985967, "lon": 15.0257925, "way_id": 669647738, "landuse": "farmland", "closest_distance_restriction": 3.913450662328466}, {"id": 6271020734, "lat": 53.9859043, "lon": 15.0259435, "way_id": 669647738, "landuse": "farmland", "closest_distance_restriction": 3.908732988812836}, {"id": 6271020735, "lat": 53.9862159, "lon": 15.0281577, "way_id": 669647738, "landuse": "farmland", "closest_distance_restriction": 3.97456686046198}, {"id": 6271020736, "lat": 53.9864631, "lon": 15.0291997, "way_id": 669647738, "landuse": "farmland", "closest_distance_restriction": 4.015759137403613}, {"id": 6271020737, "lat": 53.9882714, "lon": 15.033637, "way_id": 669647738, "landuse": "farmland", "closest_distance_restriction": 4.281847753214477}, {"id": 6271020738, "lat": 53.9883898, "lon": 15.0339715, "way_id": 669647738, "landuse": "farmland", "closest_distance_restriction": 4.300498720444573}, {"id": 6271020740, "lat": 53.9889782, "lon": 15.0348583, "way_id": 669647738, "landuse": "farmland", "closest_distance_restriction": 4.379540528318579}, {"id": 6271020741, "lat": 53.9888629, "lon": 15.0351262, "way_id": 669647738, "landuse": "farmland", "closest_distance_restriction": 4.366700530818996}, {"id": 6792282111, "lat": 54.0446384, "lon": 14.9042535, "way_id": 192507703, "landuse": "farmland", "closest_distance_restriction": 1.7947584457227965}, {"id": 6792282112, "lat": 54.04422, "lon": 14.9070616, "way_id": 192507703, "landuse": "farmland", "closest_distance_restriction": 1.9556730326292617}, {"id": 6792282113, "lat": 54.0444121, "lon": 14.9060638, "way_id": 192507703, "landuse": "farmland", "closest_distance_restriction": 1.9050388802928309}, {"id": 6792282114, "lat": 54.04392, "lon": 14.9088062, "way_id": 192507703, "landuse": "farmland", "closest_distance_restriction": 1.88729290063528}, {"id": 6792282115, "lat": 54.0437791, "lon": 14.9101934, "way_id": 192507703, "landuse": "farmland", "closest_distance_restriction": 1.8470757523497507}, {"id": 6792282152, "lat": 54.0446903, "lon": 14.9024841, "way_id": 192507703, "landuse": "farmland", "closest_distance_restriction": 1.6835419408580183}, {"id": 7263100624, "lat": 53.9159483, "lon": 14.8936641, "way_id": 778216804, "landuse": "farmland", "closest_distance_restriction": 1.6861705220579788}, {"id": 7263100632, "lat": 53.9174036, "lon": 14.89535, "way_id": 778216804, "landuse": "farmland", "closest_distance_restriction": 1.650161991600532}]}