{"nodes": [{"id": 1847170051, "lat": 53.5216221, "lon": 16.263853, "way_id": 701694329, "landuse": "farmland", "closest_distance_restriction": 2.1268548428617673}, {"id": 1847170055, "lat": 53.5216519, "lon": 16.2598173, "way_id": 701694329, "landuse": "farmland", "closest_distance_restriction": 1.9371350757500034}, {"id": 1847170075, "lat": 53.5219559, "lon": 16.2611844, "way_id": 701694329, "landuse": "farmland", "closest_distance_restriction": 2.005513280281459}, {"id": 1847170145, "lat": 53.5239223, "lon": 16.2732504, "way_id": 701694354, "landuse": "farmland", "closest_distance_restriction": 1.7009012498046643}, {"id": 1847170162, "lat": 53.5240872, "lon": 16.2650503, "way_id": 701694329, "landuse": "farmland", "closest_distance_restriction": 1.931913375521469}, {"id": 1847170169, "lat": 53.5241382, "lon": 16.2654078, "way_id": 701694329, "landuse": "farmland", "closest_distance_restriction": 1.9282463050042307}, {"id": 1847170194, "lat": 53.5244151, "lon": 16.2686882, "way_id": 701694354, "landuse": "farmland", "closest_distance_restriction": 1.9295633112798924}, {"id": 1847170218, "lat": 53.524695, "lon": 16.2655651, "way_id": 701694329, "landuse": "farmland", "closest_distance_restriction": 1.867590404181386}, {"id": 1847170224, "lat": 53.524865, "lon": 16.265658, "way_id": 701694329, "landuse": "farmland", "closest_distance_restriction": 1.849402398975059}, {"id": 1848003880, "lat": 53.5554086, "lon": 16.3645989, "way_id": 694152884, "landuse": "meadow", "closest_distance_restriction": 1.5691780161728548}, {"id": 2031361226, "lat": 53.4999376, "lon": 15.7131173, "way_id": 621225121, "landuse": "farmland", "closest_distance_restriction": 1.86627071126417}, {"id": 2031361227, "lat": 53.499133, "lon": 15.7143264, "way_id": 621225121, "landuse": "farmland", "closest_distance_restriction": 1.7781120369847432}, {"id": 2069364850, "lat": 53.2842872, "lon": 15.6061861, "way_id": 196629070, "landuse": "farmland", "closest_distance_restriction": 11.329693259888122}, {"id": 2069364852, "lat": 53.28434, "lon": 15.6056688, "way_id": 196629070, "landuse": "farmland", "closest_distance_restriction": 11.360924298854657}, {"id": 2069364853, "lat": 53.2843909, "lon": 15.6066253, "way_id": 196629070, "landuse": "farmland", "closest_distance_restriction": 11.298409487826145}, {"id": 2069364856, "lat": 53.2847388, "lon": 15.6075176, "way_id": 196629070, "landuse": "farmland", "closest_distance_restriction": 11.23046053772527}, {"id": 2069364862, "lat": 53.2851486, "lon": 15.6087849, "way_id": 196629070, "landuse": "farmland", "closest_distance_restriction": 11.13669197211108}, {"id": 2069364863, "lat": 53.2852957, "lon": 15.6034415, "way_id": 196629070, "landuse": "farmland", "closest_distance_restriction": 11.473022817804791}, {"id": 2069364866, "lat": 53.2853975, "lon": 15.6030378, "way_id": 196629070, "landuse": "farmland", "closest_distance_restriction": 11.495708784919188}, {"id": 2069364868, "lat": 53.2854503, "lon": 15.6028423, "way_id": 196629070, "landuse": "farmland", "closest_distance_restriction": 11.506598762505785}, {"id": 2069364870, "lat": 53.2854733, "lon": 15.6100393, "way_id": 196629070, "landuse": "farmland", "closest_distance_restriction": 11.046471394541925}, {"id": 2069364882, "lat": 53.2863822, "lon": 15.6067829, "way_id": 196629070, "landuse": "farmland", "closest_distance_restriction": 11.226327502332122}, {"id": 2069364883, "lat": 53.2864474, "lon": 15.6145266, "way_id": 196629070, "landuse": "farmland", "closest_distance_restriction": 10.729704100186131}, {"id": 2069364886, "lat": 53.2865891, "lon": 15.6070811, "way_id": 196629070, "landuse": "farmland", "closest_distance_restriction": 11.201021888678524}, {"id": 2069364892, "lat": 53.2868494, "lon": 15.6161431, "way_id": 196629070, "landuse": "farmland", "closest_distance_restriction": 10.614000406009241}, {"id": 2069364894, "lat": 53.2870194, "lon": 15.6168802, "way_id": 196629070, "landuse": "farmland", "closest_distance_restriction": 10.56166281612052}, {"id": 2069364897, "lat": 53.2871509, "lon": 15.6168285, "way_id": 196629070, "landuse": "farmland", "closest_distance_restriction": 10.560856970145386}, {"id": 2069364899, "lat": 53.2872668, "lon": 15.6176949, "way_id": 196629070, "landuse": "farmland", "closest_distance_restriction": 10.50196082727601}, {"id": 2069364901, "lat": 53.2874137, "lon": 15.6181863, "way_id": 196629070, "landuse": "farmland", "closest_distance_restriction": 10.466028833383607}, {"id": 2069364909, "lat": 53.2877992, "lon": 15.6209058, "way_id": 196629070, "landuse": "farmland", "closest_distance_restriction": 10.280487796383513}, {"id": 2069364910, "lat": 53.2879686, "lon": 15.6210521, "way_id": 196629070, "landuse": "farmland", "closest_distance_restriction": 10.265879974747488}, {"id": 2069364911, "lat": 53.288067, "lon": 15.6240422, "way_id": 196629070, "landuse": "farmland", "closest_distance_restriction": 10.072069334790815}, {"id": 2069364912, "lat": 53.2880834, "lon": 15.6222042, "way_id": 196629070, "landuse": "farmland", "closest_distance_restriction": 10.1887830072899}, {"id": 2069364913, "lat": 53.2881162, "lon": 15.6263282, "way_id": 196629070, "landuse": "farmland", "closest_distance_restriction": 9.924866045240686}, {"id": 2069364914, "lat": 53.2881654, "lon": 15.6258162, "way_id": 196629070, "landuse": "farmland", "closest_distance_restriction": 9.955908607722433}, {"id": 2069364915, "lat": 53.2881873, "lon": 15.6305528, "way_id": 196629070, "landuse": "farmland", "closest_distance_restriction": 9.65387066459766}, {"id": 2069364916, "lat": 53.2882555, "lon": 15.6330539, "way_id": 196629070, "landuse": "farmland", "closest_distance_restriction": 9.492836304631966}, {"id": 2069364918, "lat": 53.2884282, "lon": 15.6341974, "way_id": 196629070, "landuse": "farmland", "closest_distance_restriction": 9.41456006448296}, {"id": 2069364922, "lat": 53.2884582, "lon": 15.6212822, "way_id": 196629070, "landuse": "farmland", "closest_distance_restriction": 10.23610872814911}, {"id": 2069364924, "lat": 53.288551, "lon": 15.6341493, "way_id": 196629070, "landuse": "farmland", "closest_distance_restriction": 9.413541993159868}, {"id": 2069364925, "lat": 53.2886969, "lon": 15.6097998, "way_id": 196629070, "landuse": "farmland", "closest_distance_restriction": 10.965218201002523}, {"id": 2069364926, "lat": 53.2887674, "lon": 15.6343562, "way_id": 196629070, "landuse": "farmland", "closest_distance_restriction": 9.393275194484678}, {"id": 2069364929, "lat": 53.2890689, "lon": 15.6343303, "way_id": 196629070, "landuse": "farmland", "closest_distance_restriction": 9.38507187047015}, {"id": 2069364934, "lat": 53.2893704, "lon": 15.6310974, "way_id": 196629070, "landuse": "farmland", "closest_distance_restriction": 9.581262469571055}, {"id": 2069364935, "lat": 53.2892346, "lon": 15.6344596, "way_id": 196629070, "landuse": "farmland", "closest_distance_restriction": 9.371482113380573}, {"id": 2069364938, "lat": 53.2894709, "lon": 15.6287956, "way_id": 196629070, "landuse": "farmland", "closest_distance_restriction": 9.725011286880312}, {"id": 2069364939, "lat": 53.2897495, "lon": 15.6309711, "way_id": 196629070, "landuse": "farmland", "closest_distance_restriction": 9.57749461140299}, {"id": 2069364942, "lat": 53.2901357, "lon": 15.6288344, "way_id": 196629070, "landuse": "farmland", "closest_distance_restriction": 9.70228334786905}, {"id": 2069364949, "lat": 53.2905258, "lon": 15.6235542, "way_id": 196629070, "landuse": "farmland", "closest_distance_restriction": 10.029368301872374}, {"id": 2069364953, "lat": 53.2908153, "lon": 15.6217734, "way_id": 196629070, "landuse": "farmland", "closest_distance_restriction": 10.135649196224284}, {"id": 2069364955, "lat": 53.2909593, "lon": 15.6127203, "way_id": 196629070, "landuse": "farmland", "closest_distance_restriction": 10.71530425883381}, {"id": 2217499100, "lat": 53.652274, "lon": 15.8716385, "way_id": 620397469, "landuse": "meadow", "closest_distance_restriction": 2.3087408227776702}, {"id": 2217499105, "lat": 53.6464582, "lon": 15.8701951, "way_id": 620397473, "landuse": "meadow", "closest_distance_restriction": 1.6579549796830466}, {"id": 2217499117, "lat": 53.6487731, "lon": 15.8672022, "way_id": 620397469, "landuse": "meadow", "closest_distance_restriction": 1.8612260118778672}, {"id": 2217499151, "lat": 53.6505065, "lon": 15.87047, "way_id": 620397469, "landuse": "meadow", "closest_distance_restriction": 2.1001967315505}, {"id": 2217499157, "lat": 53.6464156, "lon": 15.8625559, "way_id": 620397461, "landuse": "meadow", "closest_distance_restriction": 1.560269714540061}, {"id": 2217499186, "lat": 53.6467674, "lon": 15.8669716, "way_id": 620397469, "landuse": "meadow", "closest_distance_restriction": 1.6402479870688842}, {"id": 2217499202, "lat": 53.6519079, "lon": 15.8705901, "way_id": 620397469, "landuse": "meadow", "closest_distance_restriction": 2.25343891070213}, {"id": 2217499281, "lat": 53.6470292, "lon": 15.8692357, "way_id": 620397469, "landuse": "meadow", "closest_distance_restriction": 1.705075627314104}, {"id": 2217499283, "lat": 53.64797, "lon": 15.8711089, "way_id": 620397469, "landuse": "meadow", "closest_distance_restriction": 1.835907084917094}, {"id": 2217499327, "lat": 53.6457573, "lon": 15.8728405, "way_id": 620397473, "landuse": "meadow", "closest_distance_restriction": 1.6021674264427979}, {"id": 2217499564, "lat": 53.6510047, "lon": 15.8707319, "way_id": 620397469, "landuse": "meadow", "closest_distance_restriction": 2.157984370839616}, {"id": 2217499570, "lat": 53.6496544, "lon": 15.8690514, "way_id": 620397469, "landuse": "meadow", "closest_distance_restriction": 1.9849605344641779}, {"id": 2217499628, "lat": 53.6499849, "lon": 15.8715742, "way_id": 620397469, "landuse": "meadow", "closest_distance_restriction": 2.0603683704754894}, {"id": 2304540373, "lat": 53.3310722, "lon": 15.588141, "way_id": 386806701, "landuse": "farmland", "closest_distance_restriction": 12.186229675964565}, {"id": 2304540376, "lat": 53.3310801, "lon": 15.5881309, "way_id": 386806701, "landuse": "farmland", "closest_distance_restriction": 12.187028343470962}, {"id": 2304540484, "lat": 53.3315818, "lon": 15.5876108, "way_id": 386806701, "landuse": "farmland", "closest_distance_restriction": 12.229892643910176}, {"id": 2304701609, "lat": 53.2903642, "lon": 15.6257701, "way_id": 196629070, "landuse": "farmland", "closest_distance_restriction": 9.891820590586864}, {"id": 2304702237, "lat": 53.295249, "lon": 15.690665, "way_id": 591910448, "landuse": "meadow", "closest_distance_restriction": 5.620050330932245}, {"id": 2304702304, "lat": 53.2962299, "lon": 15.6918913, "way_id": 591910448, "landuse": "meadow", "closest_distance_restriction": 5.504867646578324}, {"id": 2304702344, "lat": 53.2964278, "lon": 15.6913932, "way_id": 591910448, "landuse": "meadow", "closest_distance_restriction": 5.5281883466542165}, {"id": 2304775009, "lat": 53.2893445, "lon": 15.6311802, "way_id": 196629070, "landuse": "farmland", "closest_distance_restriction": 9.576798350750218}, {"id": 2304775492, "lat": 53.2952675, "lon": 15.6905594, "way_id": 591910449, "landuse": "farmland", "closest_distance_restriction": 5.625837451323714}, {"id": 2304775517, "lat": 53.2961075, "lon": 15.690102, "way_id": 591910449, "landuse": "farmland", "closest_distance_restriction": 5.621027338935188}, {"id": 2304775519, "lat": 53.2962662, "lon": 15.6904917, "way_id": 591910449, "landuse": "farmland", "closest_distance_restriction": 5.590615224605857}, {"id": 2304775530, "lat": 53.2964248, "lon": 15.6911202, "way_id": 591910449, "landuse": "farmland", "closest_distance_restriction": 5.545323898115135}, {"id": 2304780090, "lat": 53.3259152, "lon": 15.592783, "way_id": 386806703, "landuse": "farmland", "closest_distance_restriction": 11.804256500433437}, {"id": 2304780093, "lat": 53.3259372, "lon": 15.5927908, "way_id": 386806703, "landuse": "farmland", "closest_distance_restriction": 11.804014426775643}, {"id": 2304780108, "lat": 53.325959, "lon": 15.5927819, "way_id": 386806703, "landuse": "farmland", "closest_distance_restriction": 11.804872528970662}, {"id": 2304780112, "lat": 53.3259769, "lon": 15.5904712, "way_id": 386806703, "landuse": "farmland", "closest_distance_restriction": 11.957602404093173}, {"id": 2304780115, "lat": 53.3259864, "lon": 15.5904372, "way_id": 386806703, "landuse": "farmland", "closest_distance_restriction": 11.959963344811472}, {"id": 2304780116, "lat": 53.3259991, "lon": 15.5904648, "way_id": 386806703, "landuse": "farmland", "closest_distance_restriction": 11.958297830525927}, {"id": 2304780119, "lat": 53.3260571, "lon": 15.5927416, "way_id": 386806703, "landuse": "farmland", "closest_distance_restriction": 11.80875623113761}, {"id": 2304780127, "lat": 53.3261252, "lon": 15.5894851, "way_id": 386806703, "landuse": "farmland", "closest_distance_restriction": 12.024516061756632}, {"id": 2304780128, "lat": 53.3261292, "lon": 15.5899223, "way_id": 386806703, "landuse": "farmland", "closest_distance_restriction": 11.995710867628917}, {"id": 2304780129, "lat": 53.3261293, "lon": 15.5894112, "way_id": 386806703, "landuse": "farmland", "closest_distance_restriction": 12.029444180044695}, {"id": 2304780133, "lat": 53.3261374, "lon": 15.5898507, "way_id": 386806703, "landuse": "farmland", "closest_distance_restriction": 12.000538018748687}, {"id": 2304780137, "lat": 53.3261632, "lon": 15.5891828, "way_id": 386806703, "landuse": "farmland", "closest_distance_restriction": 12.044938042134016}, {"id": 2304780139, "lat": 53.32618, "lon": 15.589114, "way_id": 386806703, "landuse": "farmland", "closest_distance_restriction": 12.049686923906947}, {"id": 2304780149, "lat": 53.3263105, "lon": 15.5926374, "way_id": 386806703, "landuse": "farmland", "closest_distance_restriction": 11.818838297306003}, {"id": 2304780158, "lat": 53.3263504, "lon": 15.5926059, "way_id": 386806703, "landuse": "farmland", "closest_distance_restriction": 11.821427159929515}, {"id": 2304780177, "lat": 53.326467, "lon": 15.5903279, "way_id": 386806703, "landuse": "farmland", "closest_distance_restriction": 11.973200054513677}, {"id": 2304780184, "lat": 53.3265098, "lon": 15.5903358, "way_id": 386806703, "landuse": "farmland", "closest_distance_restriction": 11.973226638337737}, {"id": 2304780192, "lat": 53.3265644, "lon": 15.5903734, "way_id": 386806703, "landuse": "farmland", "closest_distance_restriction": 11.971447854138043}, {"id": 2304780201, "lat": 53.3266015, "lon": 15.5904135, "way_id": 386806703, "landuse": "farmland", "closest_distance_restriction": 11.969281271970141}, {"id": 2304780225, "lat": 53.3268122, "lon": 15.5907464, "way_id": 386806703, "landuse": "farmland", "closest_distance_restriction": 11.95007270473341}, {"id": 2304780228, "lat": 53.3268234, "lon": 15.5920163, "way_id": 386806703, "landuse": "farmland", "closest_distance_restriction": 11.866482533918242}, {"id": 2304780230, "lat": 53.3268286, "lon": 15.5907721, "way_id": 386806703, "landuse": "farmland", "closest_distance_restriction": 11.948593897195037}, {"id": 2304780231, "lat": 53.3268289, "lon": 15.5908097, "way_id": 386806703, "landuse": "farmland", "closest_distance_restriction": 11.946118391515663}, {"id": 2304780232, "lat": 53.3268309, "lon": 15.5910027, "way_id": 386806703, "landuse": "farmland", "closest_distance_restriction": 11.933417891036598}, {"id": 2304780234, "lat": 53.3268409, "lon": 15.5919564, "way_id": 386806703, "landuse": "farmland", "closest_distance_restriction": 11.870664374555883}, {"id": 2304780235, "lat": 53.3268413, "lon": 15.591994, "way_id": 386806703, "landuse": "farmland", "closest_distance_restriction": 11.868190500314027}, {"id": 2304780273, "lat": 53.3271545, "lon": 15.5877072, "way_id": 389426501, "landuse": "meadow", "closest_distance_restriction": 12.15500227657572}, {"id": 2304780333, "lat": 53.3273791, "lon": 15.5886641, "way_id": 389426501, "landuse": "meadow", "closest_distance_restriction": 12.094935224742569}, {"id": 2304780338, "lat": 53.3274091, "lon": 15.588716, "way_id": 389426501, "landuse": "meadow", "closest_distance_restriction": 12.091922211104146}, {"id": 2304780373, "lat": 53.3276508, "lon": 15.5889467, "way_id": 389426501, "landuse": "meadow", "closest_distance_restriction": 12.080040238435265}, {"id": 2304780382, "lat": 53.3276922, "lon": 15.5889569, "way_id": 389426501, "landuse": "meadow", "closest_distance_restriction": 12.079943360961412}, {"id": 2304780425, "lat": 53.3279947, "lon": 15.5888391, "way_id": 389426501, "landuse": "meadow", "closest_distance_restriction": 12.091957509540949}, {"id": 2304780429, "lat": 53.3280166, "lon": 15.5888306, "way_id": 389426501, "landuse": "meadow", "closest_distance_restriction": 12.092828789071188}, {"id": 2304780431, "lat": 53.328029, "lon": 15.5888621, "way_id": 389426501, "landuse": "meadow", "closest_distance_restriction": 12.09093068244171}, {"id": 2304780471, "lat": 53.3282434, "lon": 15.589255, "way_id": 389426501, "landuse": "meadow", "closest_distance_restriction": 12.068138275431853}, {"id": 2304780473, "lat": 53.328337, "lon": 15.5892906, "way_id": 389426501, "landuse": "meadow", "closest_distance_restriction": 12.067155575248348}, {"id": 2304780475, "lat": 53.3284264, "lon": 15.5891741, "way_id": 389426501, "landuse": "meadow", "closest_distance_restriction": 12.076132939068463}, {"id": 2304780499, "lat": 53.328522, "lon": 15.5890681, "way_id": 389426501, "landuse": "meadow", "closest_distance_restriction": 12.084517092787765}, {"id": 2304780503, "lat": 53.3285475, "lon": 15.5890097, "way_id": 389426501, "landuse": "meadow", "closest_distance_restriction": 12.088737599685842}, {"id": 2304780520, "lat": 53.3286887, "lon": 15.588822, "way_id": 389426501, "landuse": "meadow", "closest_distance_restriction": 12.103186695885304}, {"id": 2304780526, "lat": 53.3287277, "lon": 15.5887875, "way_id": 389426501, "landuse": "meadow", "closest_distance_restriction": 12.10603908709827}, {"id": 2304780607, "lat": 53.3290998, "lon": 15.5885952, "way_id": 389426501, "landuse": "meadow", "closest_distance_restriction": 12.124317069410099}, {"id": 2304780815, "lat": 53.3303157, "lon": 15.5884133, "way_id": 386806701, "landuse": "farmland", "closest_distance_restriction": 12.155602706263803}, {"id": 2304780822, "lat": 53.3303574, "lon": 15.5883968, "way_id": 386806701, "landuse": "farmland", "closest_distance_restriction": 12.157374959929106}, {"id": 2304780865, "lat": 53.3305618, "lon": 15.5884218, "way_id": 386806701, "landuse": "farmland", "closest_distance_restriction": 12.159134457384868}, {"id": 2304780876, "lat": 53.3306055, "lon": 15.5884123, "way_id": 386806701, "landuse": "farmland", "closest_distance_restriction": 12.160490627230768}, {"id": 2304780952, "lat": 53.3308799, "lon": 15.5882529, "way_id": 386806701, "landuse": "farmland", "closest_distance_restriction": 12.175593306925588}, {"id": 2304780995, "lat": 53.3310511, "lon": 15.5881534, "way_id": 386806701, "landuse": "farmland", "closest_distance_restriction": 12.185053016054779}, {"id": 2304782123, "lat": 53.3359697, "lon": 15.5892913, "way_id": 386806695, "landuse": "farmland", "closest_distance_restriction": 12.207506600812009}, {"id": 2304782124, "lat": 53.3359712, "lon": 15.5893647, "way_id": 386806695, "landuse": "farmland", "closest_distance_restriction": 12.202764056591695}, {"id": 2304782133, "lat": 53.3360231, "lon": 15.589719, "way_id": 386806695, "landuse": "farmland", "closest_distance_restriction": 12.180866435486946}, {"id": 2304782136, "lat": 53.3360339, "lon": 15.5886734, "way_id": 386806695, "landuse": "farmland", "closest_distance_restriction": 12.249133048622674}, {"id": 2304782139, "lat": 53.3360448, "lon": 15.5897813, "way_id": 386806695, "landuse": "farmland", "closest_distance_restriction": 12.177297024740044}, {"id": 2304782142, "lat": 53.3360542, "lon": 15.5886111, "way_id": 386806695, "landuse": "farmland", "closest_distance_restriction": 12.25363629335141}, {"id": 2304782147, "lat": 53.3360764, "lon": 15.5885772, "way_id": 386806695, "landuse": "farmland", "closest_distance_restriction": 12.256334004573473}, {"id": 2304782148, "lat": 53.3360779, "lon": 15.5898338, "way_id": 386806695, "landuse": "farmland", "closest_distance_restriction": 12.174620341946602}, {"id": 2304782156, "lat": 53.3361144, "lon": 15.589876, "way_id": 386806695, "landuse": "farmland", "closest_distance_restriction": 12.172691136139543}, {"id": 2304782157, "lat": 53.3361147, "lon": 15.5885415, "way_id": 386806695, "landuse": "farmland", "closest_distance_restriction": 12.259506513772005}, {"id": 2304782168, "lat": 53.3361615, "lon": 15.5885191, "way_id": 386806695, "landuse": "farmland", "closest_distance_restriction": 12.262003970372763}, {"id": 2304782177, "lat": 53.3362056, "lon": 15.5885115, "way_id": 386806695, "landuse": "farmland", "closest_distance_restriction": 12.263480398381061}, {"id": 2304782273, "lat": 53.336781, "lon": 15.5885811, "way_id": 386806695, "landuse": "farmland", "closest_distance_restriction": 12.271943166876044}, {"id": 2304782281, "lat": 53.3368221, "lon": 15.5904481, "way_id": 386806695, "landuse": "farmland", "closest_distance_restriction": 12.15160558788954}, {"id": 2304782282, "lat": 53.3368228, "lon": 15.5886028, "way_id": 386806695, "landuse": "farmland", "closest_distance_restriction": 12.271489385500017}, {"id": 2304782290, "lat": 53.336863, "lon": 15.5904792, "way_id": 386806695, "landuse": "farmland", "closest_distance_restriction": 12.150532615928315}, {"id": 2304782302, "lat": 53.3369493, "lon": 15.5887252, "way_id": 386806695, "landuse": "farmland", "closest_distance_restriction": 12.266442905456893}, {"id": 2304782311, "lat": 53.3369911, "lon": 15.5887398, "way_id": 386806695, "landuse": "farmland", "closest_distance_restriction": 12.266458294503284}, {"id": 2304782329, "lat": 53.3370809, "lon": 15.5906366, "way_id": 386806695, "landuse": "farmland", "closest_distance_restriction": 12.145387354275323}, {"id": 2304782335, "lat": 53.3371189, "lon": 15.5906752, "way_id": 386806695, "landuse": "farmland", "closest_distance_restriction": 12.143772007048641}, {"id": 2304782381, "lat": 53.3374096, "lon": 15.5910745, "way_id": 386806695, "landuse": "farmland", "closest_distance_restriction": 12.124728162192522}, {"id": 2304782398, "lat": 53.3374481, "lon": 15.5911111, "way_id": 386806695, "landuse": "farmland", "closest_distance_restriction": 12.123270611815975}, {"id": 2304782424, "lat": 53.3375443, "lon": 15.5886333, "way_id": 386806695, "landuse": "farmland", "closest_distance_restriction": 12.286281258014805}, {"id": 2304782435, "lat": 53.3375666, "lon": 15.588629, "way_id": 386806695, "landuse": "farmland", "closest_distance_restriction": 12.287086654909627}, {"id": 2304782462, "lat": 53.3376753, "lon": 15.5912481, "way_id": 386806695, "landuse": "farmland", "closest_distance_restriction": 12.119826481515886}, {"id": 2304782468, "lat": 53.3377183, "lon": 15.5912525, "way_id": 386806695, "landuse": "farmland", "closest_distance_restriction": 12.12057664123434}, {"id": 2304782498, "lat": 53.3379218, "lon": 15.5911755, "way_id": 386806695, "landuse": "farmland", "closest_distance_restriction": 12.13048983051105}, {"id": 2304782507, "lat": 53.3379622, "lon": 15.5911461, "way_id": 386806695, "landuse": "farmland", "closest_distance_restriction": 12.133376518855833}, {"id": 2304782611, "lat": 53.3385217, "lon": 15.5905088, "way_id": 386806695, "landuse": "farmland", "closest_distance_restriction": 12.18838110046943}, {"id": 2304782616, "lat": 53.3385403, "lon": 15.5904876, "way_id": 386806695, "landuse": "farmland", "closest_distance_restriction": 12.190214248248695}, {"id": 2304782622, "lat": 53.3385618, "lon": 15.5904991, "way_id": 386806695, "landuse": "farmland", "closest_distance_restriction": 12.190003287642194}, {"id": 2304782641, "lat": 53.3386562, "lon": 15.5905499, "way_id": 386806695, "landuse": "farmland", "closest_distance_restriction": 12.18906324166765}, {"id": 2304782653, "lat": 53.3386986, "lon": 15.5905749, "way_id": 386806695, "landuse": "farmland", "closest_distance_restriction": 12.188503004309547}, {"id": 2304782732, "lat": 53.3390756, "lon": 15.5908188, "way_id": 386806695, "landuse": "farmland", "closest_distance_restriction": 12.182213748057727}, {"id": 2304782743, "lat": 53.3391157, "lon": 15.5908449, "way_id": 386806695, "landuse": "farmland", "closest_distance_restriction": 12.181544196916533}, {"id": 2304782745, "lat": 53.3391175, "lon": 15.590846, "way_id": 386806695, "landuse": "farmland", "closest_distance_restriction": 12.181518811653673}, {"id": 2304782805, "lat": 53.3394015, "lon": 15.5878451, "way_id": 386806695, "landuse": "farmland", "closest_distance_restriction": 12.382709227287513}, {"id": 2304782806, "lat": 53.3394037, "lon": 15.5877702, "way_id": 386806695, "landuse": "farmland", "closest_distance_restriction": 12.3876075100718}, {"id": 2304782807, "lat": 53.3394058, "lon": 15.5871989, "way_id": 386806695, "landuse": "farmland", "closest_distance_restriction": 12.424601505352129}, {"id": 2304782808, "lat": 53.3394059, "lon": 15.5871614, "way_id": 386806695, "landuse": "farmland", "closest_distance_restriction": 12.427029029518048}, {"id": 2304782812, "lat": 53.3394277, "lon": 15.587152, "way_id": 386806695, "landuse": "farmland", "closest_distance_restriction": 12.428185980360691}, {"id": 2304782828, "lat": 53.3394784, "lon": 15.5910796, "way_id": 386806695, "landuse": "farmland", "closest_distance_restriction": 12.175660623447408}, {"id": 2304782842, "lat": 53.3395213, "lon": 15.5911018, "way_id": 386806695, "landuse": "farmland", "closest_distance_restriction": 12.17533375961251}, {"id": 2304782861, "lat": 53.3396057, "lon": 15.5916617, "way_id": 386806695, "landuse": "farmland", "closest_distance_restriction": 12.141369864556923}, {"id": 2304782863, "lat": 53.3396348, "lon": 15.5916044, "way_id": 386806695, "landuse": "farmland", "closest_distance_restriction": 12.145825032883124}, {"id": 2304782892, "lat": 53.3398026, "lon": 15.5912111, "way_id": 386806695, "landuse": "farmland", "closest_distance_restriction": 12.175581605304117}, {"id": 2304782894, "lat": 53.3398102, "lon": 15.5912487, "way_id": 386806695, "landuse": "farmland", "closest_distance_restriction": 12.173353580998631}, {"id": 2304782899, "lat": 53.3398246, "lon": 15.5912196, "way_id": 386806695, "landuse": "farmland", "closest_distance_restriction": 12.175607671518959}, {"id": 2304782932, "lat": 53.339984, "lon": 15.5869106, "way_id": 386806695, "landuse": "farmland", "closest_distance_restriction": 12.457941737009273}, {"id": 2304782937, "lat": 53.3399946, "lon": 15.5867948, "way_id": 386806695, "landuse": "farmland", "closest_distance_restriction": 12.465694112326899}, {"id": 2304782938, "lat": 53.3399958, "lon": 15.5868055, "way_id": 386806695, "landuse": "farmland", "closest_distance_restriction": 12.465033764988561}, {"id": 2304782939, "lat": 53.3399985, "lon": 15.5868319, "way_id": 386806695, "landuse": "farmland", "closest_distance_restriction": 12.463397827555111}, {"id": 2304782940, "lat": 53.3400018, "lon": 15.5868643, "way_id": 386806695, "landuse": "farmland", "closest_distance_restriction": 12.461389789498678}, {"id": 2304782944, "lat": 53.3400057, "lon": 15.5869012, "way_id": 386806695, "landuse": "farmland", "closest_distance_restriction": 12.459106571215855}, {"id": 2304782946, "lat": 53.340014, "lon": 15.5867763, "way_id": 386806695, "landuse": "farmland", "closest_distance_restriction": 12.467387515187824}, {"id": 2304783062, "lat": 53.3405498, "lon": 15.5862608, "way_id": 386806695, "landuse": "farmland", "closest_distance_restriction": 12.514554541151137}, {"id": 2304783070, "lat": 53.3405664, "lon": 15.5862448, "way_id": 386806695, "landuse": "farmland", "closest_distance_restriction": 12.516020895686719}, {"id": 2304783072, "lat": 53.3405887, "lon": 15.5862233, "way_id": 386806695, "landuse": "farmland", "closest_distance_restriction": 12.517991444958414}, {"id": 2304783128, "lat": 53.3407705, "lon": 15.5860484, "way_id": 386806695, "landuse": "farmland", "closest_distance_restriction": 12.534044654651913}, {"id": 2304783131, "lat": 53.34079, "lon": 15.5860297, "way_id": 386806695, "landuse": "farmland", "closest_distance_restriction": 12.535764018262899}, {"id": 2304783135, "lat": 53.340812, "lon": 15.586037, "way_id": 386806695, "landuse": "farmland", "closest_distance_restriction": 12.5358725078019}, {"id": 2304783269, "lat": 53.3413056, "lon": 15.5862012, "way_id": 386806695, "landuse": "farmland", "closest_distance_restriction": 12.538410202803911}, {"id": 2304783302, "lat": 53.3413498, "lon": 15.5862139, "way_id": 386806695, "landuse": "farmland", "closest_distance_restriction": 12.538778680147814}, {"id": 2304836024, "lat": 53.4749004, "lon": 15.72226, "way_id": 221449447, "landuse": "meadow", "closest_distance_restriction": 1.8457912132770746}, {"id": 2304836030, "lat": 53.4750992, "lon": 15.7242543, "way_id": 221449447, "landuse": "meadow", "closest_distance_restriction": 1.9749008553477203}, {"id": 2304836039, "lat": 53.4752425, "lon": 15.7262841, "way_id": 221449479, "landuse": "meadow", "closest_distance_restriction": 2.1043255422458675}, {"id": 2304836043, "lat": 53.4752749, "lon": 15.7259509, "way_id": 221449479, "landuse": "meadow", "closest_distance_restriction": 2.085496645467236}, {"id": 2304836044, "lat": 53.4753714, "lon": 15.7219729, "way_id": 221449447, "landuse": "meadow", "closest_distance_restriction": 1.8518222307195866}, {"id": 2304836047, "lat": 53.4755858, "lon": 15.7249707, "way_id": 221449479, "landuse": "meadow", "closest_distance_restriction": 2.040563696598466}, {"id": 2304836049, "lat": 53.4757181, "lon": 15.7264096, "way_id": 221449479, "landuse": "meadow", "closest_distance_restriction": 2.133220076430261}, {"id": 2304836050, "lat": 53.4758064, "lon": 15.7251699, "way_id": 221449479, "landuse": "meadow", "closest_distance_restriction": 2.0629672282527167}, {"id": 2304836056, "lat": 53.4760328, "lon": 15.7255503, "way_id": 221449479, "landuse": "meadow", "closest_distance_restriction": 2.0965685765642834}, {"id": 2304836061, "lat": 53.4762268, "lon": 15.7216747, "way_id": 221449447, "landuse": "meadow", "closest_distance_restriction": 1.8797778510398848}, {"id": 2304836066, "lat": 53.4765917, "lon": 15.7240699, "way_id": 221449447, "landuse": "meadow", "closest_distance_restriction": 2.0379090691675947}, {"id": 2820238966, "lat": 53.3383219, "lon": 15.5881351, "way_id": 386806695, "landuse": "farmland", "closest_distance_restriction": 12.337196115015736}, {"id": 2820238967, "lat": 53.3383763, "lon": 15.5882339, "way_id": 386806695, "landuse": "farmland", "closest_distance_restriction": 12.332117536831829}, {"id": 2820257600, "lat": 53.3336231, "lon": 15.5839898, "way_id": 386806701, "landuse": "farmland", "closest_distance_restriction": 12.504733893371208}, {"id": 2820263158, "lat": 53.3352758, "lon": 15.5891187, "way_id": 386806695, "landuse": "farmland", "closest_distance_restriction": 12.203613250244643}, {"id": 2820267606, "lat": 53.337245, "lon": 15.5866412, "way_id": 386806695, "landuse": "farmland", "closest_distance_restriction": 12.40862068988362}, {"id": 2820267608, "lat": 53.3374029, "lon": 15.5859139, "way_id": 386806695, "landuse": "farmland", "closest_distance_restriction": 12.459503097479272}, {"id": 2820267803, "lat": 53.3338744, "lon": 15.5843972, "way_id": 386806701, "landuse": "farmland", "closest_distance_restriction": 12.482984413932625}, {"id": 2820267816, "lat": 53.3368389, "lon": 15.5867215, "way_id": 386806695, "landuse": "farmland", "closest_distance_restriction": 12.394114635350622}, {"id": 2820268032, "lat": 53.3367762, "lon": 15.592727, "way_id": 386806695, "landuse": "farmland", "closest_distance_restriction": 12.002573038740998}, {"id": 2820269104, "lat": 53.3358547, "lon": 15.5867309, "way_id": 386806695, "landuse": "farmland", "closest_distance_restriction": 12.371641404404594}, {"id": 2820269105, "lat": 53.3358721, "lon": 15.5906222, "way_id": 386806695, "landuse": "farmland", "closest_distance_restriction": 12.118750319224485}, {"id": 2820269110, "lat": 53.336179, "lon": 15.586764, "way_id": 386806695, "landuse": "farmland", "closest_distance_restriction": 12.376588469985043}, {"id": 2820269113, "lat": 53.3364941, "lon": 15.5924692, "way_id": 386806695, "landuse": "farmland", "closest_distance_restriction": 12.012764433594699}, {"id": 2820269674, "lat": 53.3374565, "lon": 15.585725, "way_id": 386806695, "landuse": "farmland", "closest_distance_restriction": 12.473010668670062}, {"id": 2820269887, "lat": 53.3375354, "lon": 15.5860225, "way_id": 386806695, "landuse": "farmland", "closest_distance_restriction": 12.455524220452359}, {"id": 2820269888, "lat": 53.3375411, "lon": 15.5866081, "way_id": 386806695, "landuse": "farmland", "closest_distance_restriction": 12.417639650632836}, {"id": 2820270211, "lat": 53.3373533, "lon": 15.5923941, "way_id": 386806695, "landuse": "farmland", "closest_distance_restriction": 12.0378081666454}, {"id": 2820270522, "lat": 53.3384096, "lon": 15.5840672, "way_id": 386806695, "landuse": "farmland", "closest_distance_restriction": 12.602989012766892}, {"id": 2820270523, "lat": 53.3384489, "lon": 15.5882263, "way_id": 386806695, "landuse": "farmland", "closest_distance_restriction": 12.334379500281452}, {"id": 2820270526, "lat": 53.3385478, "lon": 15.5840814, "way_id": 386806695, "landuse": "farmland", "closest_distance_restriction": 12.605372643333968}, {"id": 2820270529, "lat": 53.3390711, "lon": 15.5841835, "way_id": 386806695, "landuse": "farmland", "closest_distance_restriction": 12.611434504897074}, {"id": 2820270531, "lat": 53.3391309, "lon": 15.5845041, "way_id": 386806695, "landuse": "farmland", "closest_distance_restriction": 12.59214004607113}, {"id": 2820270532, "lat": 53.3392147, "lon": 15.5847579, "way_id": 386806695, "landuse": "farmland", "closest_distance_restriction": 12.577772253212018}, {"id": 2820270714, "lat": 53.33762, "lon": 15.5864428, "way_id": 386806695, "landuse": "farmland", "closest_distance_restriction": 12.430213219607042}, {"id": 2820270716, "lat": 53.3376257, "lon": 15.5861689, "way_id": 386806695, "landuse": "farmland", "closest_distance_restriction": 12.448125364963902}, {"id": 2820270719, "lat": 53.3377053, "lon": 15.5886287, "way_id": 386806695, "landuse": "farmland", "closest_distance_restriction": 12.290390920408232}, {"id": 2820270720, "lat": 53.33773, "lon": 15.5852479, "way_id": 386806695, "landuse": "farmland", "closest_distance_restriction": 12.510346321481764}, {"id": 2820270750, "lat": 53.3379048, "lon": 15.5884617, "way_id": 386806695, "landuse": "farmland", "closest_distance_restriction": 12.305975992025358}, {"id": 2820270753, "lat": 53.3379331, "lon": 15.5847568, "way_id": 386806695, "landuse": "farmland", "closest_distance_restriction": 12.546977143435107}, {"id": 2820270754, "lat": 53.3379955, "lon": 15.5880364, "way_id": 386806695, "landuse": "farmland", "closest_distance_restriction": 12.335722288020076}, {"id": 2820270756, "lat": 53.3380227, "lon": 15.5878694, "way_id": 386806695, "landuse": "farmland", "closest_distance_restriction": 12.347201259048758}, {"id": 2820270782, "lat": 53.3396055, "lon": 15.5848848, "way_id": 386806695, "landuse": "farmland", "closest_distance_restriction": 12.579282014300116}, {"id": 2820270814, "lat": 53.3380363, "lon": 15.5882263, "way_id": 386806695, "landuse": "farmland", "closest_distance_restriction": 12.32438943020149}, {"id": 2820270816, "lat": 53.3380971, "lon": 15.5920289, "way_id": 386806695, "landuse": "farmland", "closest_distance_restriction": 12.079495982874631}, {"id": 2820270820, "lat": 53.3381451, "lon": 15.5878542, "way_id": 386806695, "landuse": "farmland", "closest_distance_restriction": 12.35112597078147}, {"id": 2820270821, "lat": 53.3381587, "lon": 15.5884844, "way_id": 386806695, "landuse": "farmland", "closest_distance_restriction": 12.310608908715786}, {"id": 2820270824, "lat": 53.3382348, "lon": 15.5844214, "way_id": 386806695, "landuse": "farmland", "closest_distance_restriction": 12.575859265462073}, {"id": 2820270825, "lat": 53.3382358, "lon": 15.5879605, "way_id": 386806695, "landuse": "farmland", "closest_distance_restriction": 12.346424257790042}, {"id": 2820270874, "lat": 53.3388977, "lon": 15.5880592, "way_id": 386806695, "landuse": "farmland", "closest_distance_restriction": 12.356244593344895}, {"id": 2820271944, "lat": 53.3392559, "lon": 15.5880744, "way_id": 386806695, "landuse": "farmland", "closest_distance_restriction": 12.3642113341643}, {"id": 2820271945, "lat": 53.3392898, "lon": 15.5919108, "way_id": 386806695, "landuse": "farmland", "closest_distance_restriction": 12.117119982511577}, {"id": 2820271946, "lat": 53.3394101, "lon": 15.5848982, "way_id": 386806695, "landuse": "farmland", "closest_distance_restriction": 12.573534839899981}, {"id": 2820271951, "lat": 53.3400442, "lon": 15.5845909, "way_id": 386806695, "landuse": "farmland", "closest_distance_restriction": 12.609362213656677}, {"id": 2820272178, "lat": 53.3397411, "lon": 15.5847646, "way_id": 386806695, "landuse": "farmland", "closest_distance_restriction": 12.590462370360349}, {"id": 2820272179, "lat": 53.3398846, "lon": 15.5846577, "way_id": 386806695, "landuse": "farmland", "closest_distance_restriction": 12.600995807660992}, {"id": 2820274300, "lat": 53.3262069, "lon": 15.5881413, "way_id": 386806703, "landuse": "farmland", "closest_distance_restriction": 12.114217457219025}, {"id": 2820278996, "lat": 53.3250931, "lon": 15.5892139, "way_id": 386806703, "landuse": "farmland", "closest_distance_restriction": 12.030209991212423}, {"id": 2820279345, "lat": 53.3246466, "lon": 15.5894862, "way_id": 386806703, "landuse": "farmland", "closest_distance_restriction": 12.007267024767069}, {"id": 2820279394, "lat": 53.3254425, "lon": 15.5887711, "way_id": 386806703, "landuse": "farmland", "closest_distance_restriction": 12.063466965206004}, {"id": 2820279395, "lat": 53.3258744, "lon": 15.5884095, "way_id": 386806703, "landuse": "farmland", "closest_distance_restriction": 12.092456800562474}, {"id": 2820279508, "lat": 53.324797, "lon": 15.589348, "way_id": 386806703, "landuse": "farmland", "closest_distance_restriction": 12.018045789958377}, {"id": 2820298692, "lat": 53.3297254, "lon": 15.5878541, "way_id": 386806701, "landuse": "farmland", "closest_distance_restriction": 12.18279238942931}, {"id": 2820298696, "lat": 53.3299793, "lon": 15.588285, "way_id": 386806701, "landuse": "farmland", "closest_distance_restriction": 12.15853930549277}, {"id": 2820301484, "lat": 53.3285973, "lon": 15.5859113, "way_id": 386806701, "landuse": "farmland", "closest_distance_restriction": 12.293427719892081}, {"id": 2820301487, "lat": 53.3288359, "lon": 15.5876717, "way_id": 389426501, "landuse": "meadow", "closest_distance_restriction": 12.181082059860067}, {"id": 2820301490, "lat": 53.3289054, "lon": 15.5869453, "way_id": 386806701, "landuse": "farmland", "closest_distance_restriction": 12.229921978778004}, {"id": 2820301492, "lat": 53.3289233, "lon": 15.5881034, "way_id": 389426501, "landuse": "meadow", "closest_distance_restriction": 12.153989204736458}, {"id": 2820301494, "lat": 53.3289797, "lon": 15.5883015, "way_id": 389426501, "landuse": "meadow", "closest_distance_restriction": 12.141808594107797}, {"id": 2820301495, "lat": 53.3290009, "lon": 15.5884498, "way_id": 389426501, "landuse": "meadow", "closest_distance_restriction": 12.132374034018175}, {"id": 2820303499, "lat": 53.329547, "lon": 15.5879719, "way_id": 386806701, "landuse": "farmland", "closest_distance_restriction": 12.1722344439309}, {"id": 2820303517, "lat": 53.3285187, "lon": 15.5867779, "way_id": 389426501, "landuse": "meadow", "closest_distance_restriction": 12.235229096576797}, {"id": 2820303518, "lat": 53.3286466, "lon": 15.5870928, "way_id": 389426501, "landuse": "meadow", "closest_distance_restriction": 12.216372551321246}, {"id": 2820303519, "lat": 53.3287771, "lon": 15.5875549, "way_id": 389426501, "landuse": "meadow", "closest_distance_restriction": 12.187890802157282}, {"id": 2820303520, "lat": 53.3288371, "lon": 15.5878241, "way_id": 389426501, "landuse": "meadow", "closest_distance_restriction": 12.171071513574322}, {"id": 2820303521, "lat": 53.3291371, "lon": 15.587766, "way_id": 386806701, "landuse": "farmland", "closest_distance_restriction": 12.179429707849378}, {"id": 2820303606, "lat": 53.3283425, "lon": 15.586281, "way_id": 389426501, "landuse": "meadow", "closest_distance_restriction": 12.265398859121014}, {"id": 2820303607, "lat": 53.3284453, "lon": 15.5865148, "way_id": 389426501, "landuse": "meadow", "closest_distance_restriction": 12.251485517097429}, {"id": 2820303615, "lat": 53.3290288, "lon": 15.5886032, "way_id": 389426501, "landuse": "meadow", "closest_distance_restriction": 12.122707119836988}, {"id": 2820303902, "lat": 53.3292742, "lon": 15.58815, "way_id": 386806701, "landuse": "farmland", "closest_distance_restriction": 12.156278001828499}, {"id": 2820304006, "lat": 53.3298661, "lon": 15.5880609, "way_id": 386806701, "landuse": "farmland", "closest_distance_restriction": 12.171443825026278}, {"id": 3033394136, "lat": 53.6662521, "lon": 16.211373, "way_id": 602721849, "landuse": "meadow", "closest_distance_restriction": 1.5940454753288624}, {"id": 3033394138, "lat": 53.6667632, "lon": 16.2125352, "way_id": 602721849, "landuse": "meadow", "closest_distance_restriction": 1.589888992599718}, {"id": 3192294538, "lat": 53.6146057, "lon": 15.862452, "way_id": 620557672, "landuse": "meadow", "closest_distance_restriction": 1.6809112972299947}, {"id": 3192294540, "lat": 53.6147418, "lon": 15.8619788, "way_id": 620557672, "landuse": "meadow", "closest_distance_restriction": 1.702054460661964}, {"id": 3192294548, "lat": 53.6153882, "lon": 15.8618928, "way_id": 620557672, "landuse": "meadow", "closest_distance_restriction": 1.6301499377508026}, {"id": 3192294549, "lat": 53.6153967, "lon": 15.863685, "way_id": 620557672, "landuse": "meadow", "closest_distance_restriction": 1.6339011755789343}, {"id": 3192294559, "lat": 53.6160601, "lon": 15.8665383, "way_id": 620557672, "landuse": "meadow", "closest_distance_restriction": 1.5702927447287054}, {"id": 3194281855, "lat": 53.5661421, "lon": 16.108213, "way_id": 796608533, "landuse": "meadow", "closest_distance_restriction": 1.576736371178049}, {"id": 3194283073, "lat": 53.5668803, "lon": 16.1090694, "way_id": 796608533, "landuse": "meadow", "closest_distance_restriction": 1.573751236687142}, {"id": 3901506336, "lat": 53.3325369, "lon": 15.5831042, "way_id": 386806701, "landuse": "farmland", "closest_distance_restriction": 12.542349809738456}, {"id": 3901506337, "lat": 53.3326005, "lon": 15.5863136, "way_id": 386806701, "landuse": "farmland", "closest_distance_restriction": 12.333330053397795}, {"id": 3901506338, "lat": 53.3328515, "lon": 15.5827468, "way_id": 386806701, "landuse": "farmland", "closest_distance_restriction": 12.571516120235527}, {"id": 3901506342, "lat": 53.3350372, "lon": 15.5885636, "way_id": 386806695, "landuse": "farmland", "closest_distance_restriction": 12.234703366610551}, {"id": 3901506350, "lat": 53.3401725, "lon": 15.5846816, "way_id": 386806695, "landuse": "farmland", "closest_distance_restriction": 12.606772953915751}, {"id": 3901506351, "lat": 53.3404554, "lon": 15.5850572, "way_id": 386806695, "landuse": "farmland", "closest_distance_restriction": 12.5897904596553}, {"id": 3901506352, "lat": 53.3410601, "lon": 15.5850328, "way_id": 386806695, "landuse": "farmland", "closest_distance_restriction": 12.607183198222472}, {"id": 3901506353, "lat": 53.342139, "lon": 15.5849409, "way_id": 386806695, "landuse": "farmland", "closest_distance_restriction": 12.642156314069718}, {"id": 3901513346, "lat": 53.3249568, "lon": 15.591976, "way_id": 386806703, "landuse": "farmland", "closest_distance_restriction": 11.846178204351313}, {"id": 3901513591, "lat": 53.3245647, "lon": 15.5897179, "way_id": 386806703, "landuse": "farmland", "closest_distance_restriction": 11.991065014874447}, {"id": 3901513592, "lat": 53.3246308, "lon": 15.5901384, "way_id": 386806703, "landuse": "farmland", "closest_distance_restriction": 11.963987308648866}, {"id": 3901513595, "lat": 53.3248056, "lon": 15.590795, "way_id": 386806703, "landuse": "farmland", "closest_distance_restriction": 11.922515811836648}, {"id": 3901513598, "lat": 53.3319403, "lon": 15.582417, "way_id": 386806701, "landuse": "farmland", "closest_distance_restriction": 12.576740561090652}, {"id": 3901513599, "lat": 53.3322272, "lon": 15.5829431, "way_id": 386806701, "landuse": "farmland", "closest_distance_restriction": 12.547327462821332}, {"id": 3901513664, "lat": 53.3248339, "lon": 15.591702, "way_id": 386806703, "landuse": "farmland", "closest_distance_restriction": 11.862897331081717}, {"id": 3901513861, "lat": 53.3252071, "lon": 15.591924, "way_id": 386806703, "landuse": "farmland", "closest_distance_restriction": 11.852483407006556}, {"id": 3901513863, "lat": 53.3252449, "lon": 15.5920468, "way_id": 386806703, "landuse": "farmland", "closest_distance_restriction": 11.844811597298955}, {"id": 3901513917, "lat": 53.3300925, "lon": 15.5847481, "way_id": 386806701, "landuse": "farmland", "closest_distance_restriction": 12.392768387623933}, {"id": 3901513918, "lat": 53.3303996, "lon": 15.5844007, "way_id": 386806701, "landuse": "farmland", "closest_distance_restriction": 12.420535326816776}, {"id": 3901513964, "lat": 53.3250465, "lon": 15.592009, "way_id": 386806703, "landuse": "farmland", "closest_distance_restriction": 11.845019432497187}, {"id": 3901513966, "lat": 53.3253319, "lon": 15.5925743, "way_id": 386806703, "landuse": "farmland", "closest_distance_restriction": 11.810991292791524}, {"id": 3901514026, "lat": 53.3293449, "lon": 15.5853321, "way_id": 386806701, "landuse": "farmland", "closest_distance_restriction": 12.342700413704037}, {"id": 3901514030, "lat": 53.3310793, "lon": 15.5835976, "way_id": 386806701, "landuse": "farmland", "closest_distance_restriction": 12.484499780478155}, {"id": 3901514032, "lat": 53.3319158, "lon": 15.587099, "way_id": 386806701, "landuse": "farmland", "closest_distance_restriction": 12.269388878893187}, {"id": 3901514033, "lat": 53.3320258, "lon": 15.5823163, "way_id": 386806701, "landuse": "farmland", "closest_distance_restriction": 12.58484542824398}, {"id": 3901514038, "lat": 53.3332392, "lon": 15.5833862, "way_id": 386806701, "landuse": "farmland", "closest_distance_restriction": 12.536892271322667}, {"id": 3901514040, "lat": 53.3349543, "lon": 15.5882125, "way_id": 386806695, "landuse": "farmland", "closest_distance_restriction": 12.255843017556462}, {"id": 3901514048, "lat": 53.3408748, "lon": 15.5853595, "way_id": 386806695, "landuse": "farmland", "closest_distance_restriction": 12.581225710927503}, {"id": 3901514049, "lat": 53.3415665, "lon": 15.5848909, "way_id": 386806695, "landuse": "farmland", "closest_distance_restriction": 12.62983037286857}, {"id": 3901514050, "lat": 53.3417717, "lon": 15.5848703, "way_id": 386806695, "landuse": "farmland", "closest_distance_restriction": 12.636693115932939}, {"id": 3901514051, "lat": 53.3420545, "lon": 15.5861858, "way_id": 386806695, "landuse": "farmland", "closest_distance_restriction": 12.559750970996536}, {"id": 3901514052, "lat": 53.3422131, "lon": 15.5861134, "way_id": 386806695, "landuse": "farmland", "closest_distance_restriction": 12.568782290190185}, {"id": 3901514207, "lat": 53.3313084, "lon": 15.5833006, "way_id": 386806701, "landuse": "farmland", "closest_distance_restriction": 12.50786608462032}, {"id": 3901514357, "lat": 53.3323909, "lon": 15.5830942, "way_id": 386806701, "landuse": "farmland", "closest_distance_restriction": 12.540362617326396}, {"id": 3901514360, "lat": 53.3327181, "lon": 15.5828701, "way_id": 386806701, "landuse": "farmland", "closest_distance_restriction": 12.560989770082578}, {"id": 3901514362, "lat": 53.3335111, "lon": 15.5837789, "way_id": 386806701, "landuse": "farmland", "closest_distance_restriction": 12.516372426931863}, {"id": 3901514363, "lat": 53.3339677, "lon": 15.5846009, "way_id": 386806701, "landuse": "farmland", "closest_distance_restriction": 12.471503490592085}, {"id": 3901514364, "lat": 53.3349397, "lon": 15.587715, "way_id": 386806695, "landuse": "farmland", "closest_distance_restriction": 12.287974852804489}, {"id": 3901514365, "lat": 53.3351835, "lon": 15.5874419, "way_id": 386806695, "landuse": "farmland", "closest_distance_restriction": 12.310917136335338}, {"id": 3901514366, "lat": 53.335642, "lon": 15.5870371, "way_id": 386806695, "landuse": "farmland", "closest_distance_restriction": 12.347093566868216}, {"id": 3901514372, "lat": 53.3402993, "lon": 15.5847645, "way_id": 386806695, "landuse": "farmland", "closest_distance_restriction": 12.60466750308716}, {"id": 3901514373, "lat": 53.3405968, "lon": 15.5853108, "way_id": 386806695, "landuse": "farmland", "closest_distance_restriction": 12.577090519314014}, {"id": 3901514374, "lat": 53.3407577, "lon": 15.5854083, "way_id": 386806695, "landuse": "farmland", "closest_distance_restriction": 12.575002581494912}, {"id": 3901514375, "lat": 53.3414795, "lon": 15.5849401, "way_id": 386806695, "landuse": "farmland", "closest_distance_restriction": 12.624324867870698}, {"id": 3901514424, "lat": 53.3422976, "lon": 15.5853754, "way_id": 386806695, "landuse": "farmland", "closest_distance_restriction": 12.61857380245213}, {"id": 3901514425, "lat": 53.3423045, "lon": 15.5859375, "way_id": 386806695, "landuse": "farmland", "closest_distance_restriction": 12.582622371041056}, {"id": 3926016539, "lat": 53.3276424, "lon": 15.5870361, "way_id": 389426501, "landuse": "meadow", "closest_distance_restriction": 12.20582681809397}, {"id": 3926016541, "lat": 53.3279079, "lon": 15.5866551, "way_id": 389426501, "landuse": "meadow", "closest_distance_restriction": 12.2346056537259}, {"id": 3926016656, "lat": 53.3272656, "lon": 15.5875199, "way_id": 389426501, "landuse": "meadow", "closest_distance_restriction": 12.16883211267326}, {"id": 3926016702, "lat": 53.3277623, "lon": 15.5868606, "way_id": 389426501, "landuse": "meadow", "closest_distance_restriction": 12.219043155755182}, {"id": 3926016757, "lat": 53.327347, "lon": 15.587323, "way_id": 389426501, "landuse": "meadow", "closest_distance_restriction": 12.182904517363893}, {"id": 3977736395, "lat": 53.5543363, "lon": 16.10392, "way_id": 796608534, "landuse": "meadow", "closest_distance_restriction": 1.5694274496794243}, {"id": 3977736402, "lat": 53.555378, "lon": 16.1019501, "way_id": 796608534, "landuse": "meadow", "closest_distance_restriction": 1.6766565820325976}, {"id": 3977736405, "lat": 53.5557612, "lon": 16.1016477, "way_id": 796608534, "landuse": "meadow", "closest_distance_restriction": 1.691142896596123}, {"id": 3977736407, "lat": 53.556643, "lon": 16.0998612, "way_id": 796608534, "landuse": "meadow", "closest_distance_restriction": 1.8008294520342252}, {"id": 3977736409, "lat": 53.556981, "lon": 16.0993893, "way_id": 796608534, "landuse": "meadow", "closest_distance_restriction": 1.7714788698246975}, {"id": 3977736413, "lat": 53.558872, "lon": 16.0985348, "way_id": 796608534, "landuse": "meadow", "closest_distance_restriction": 1.5680237669892756}, {"id": 3977736415, "lat": 53.5591564, "lon": 16.0992404, "way_id": 796608534, "landuse": "meadow", "closest_distance_restriction": 1.5720652432074138}, {"id": 3977736416, "lat": 53.5592338, "lon": 16.0998911, "way_id": 796608534, "landuse": "meadow", "closest_distance_restriction": 1.5930957384373037}, {"id": 3977736417, "lat": 53.5596518, "lon": 16.1001732, "way_id": 796608534, "landuse": "meadow", "closest_distance_restriction": 1.5706290060336434}, {"id": 5650437571, "lat": 53.2965306, "lon": 15.6912613, "way_id": 591910448, "landuse": "meadow", "closest_distance_restriction": 5.532461869383613}, {"id": 5650437572, "lat": 53.2964621, "lon": 15.6912366, "way_id": 591910448, "landuse": "meadow", "closest_distance_restriction": 5.53663117934719}, {"id": 5650437573, "lat": 53.2957552, "lon": 15.6909817, "way_id": 591910448, "landuse": "meadow", "closest_distance_restriction": 5.580111254894903}, {"id": 5650437574, "lat": 53.295956, "lon": 15.6921243, "way_id": 591910448, "landuse": "meadow", "closest_distance_restriction": 5.501211553225877}, {"id": 5650437575, "lat": 53.2957549, "lon": 15.6920961, "way_id": 591910448, "landuse": "meadow", "closest_distance_restriction": 5.511006269237766}, {"id": 5650437576, "lat": 53.2956235, "lon": 15.6921528, "way_id": 591910448, "landuse": "meadow", "closest_distance_restriction": 5.512795598924209}, {"id": 5650437577, "lat": 53.2955111, "lon": 15.6922013, "way_id": 591910448, "landuse": "meadow", "closest_distance_restriction": 5.514358568731828}, {"id": 5650437578, "lat": 53.295345, "lon": 15.6919468, "way_id": 591910448, "landuse": "meadow", "closest_distance_restriction": 5.536872488553896}, {"id": 5650437579, "lat": 53.2952305, "lon": 15.6915828, "way_id": 591910448, "landuse": "meadow", "closest_distance_restriction": 5.5640527181261845}, {"id": 5650437580, "lat": 53.2952457, "lon": 15.691125, "way_id": 591910448, "landuse": "meadow", "closest_distance_restriction": 5.591727897546926}, {"id": 5650437581, "lat": 53.2963707, "lon": 15.6917443, "way_id": 591910448, "landuse": "meadow", "closest_distance_restriction": 5.508523900233631}, {"id": 5650437582, "lat": 53.2963558, "lon": 15.6915744, "way_id": 591910448, "landuse": "meadow", "closest_distance_restriction": 5.519683295110427}, {"id": 5650437583, "lat": 53.2962993, "lon": 15.6917804, "way_id": 591910448, "landuse": "meadow", "closest_distance_restriction": 5.509055007903822}, {"id": 5650437584, "lat": 53.2960085, "lon": 15.6909308, "way_id": 591910449, "landuse": "farmland", "closest_distance_restriction": 5.573282047041189}, {"id": 5650437586, "lat": 53.2950233, "lon": 15.6896773, "way_id": 591910449, "landuse": "farmland", "closest_distance_restriction": 5.690325046719103}, {"id": 5650437587, "lat": 53.2949615, "lon": 15.68996, "way_id": 591910449, "landuse": "farmland", "closest_distance_restriction": 5.675348930993161}, {"id": 5650437588, "lat": 53.2951165, "lon": 15.6894036, "way_id": 591910449, "landuse": "farmland", "closest_distance_restriction": 5.7035102258291355}, {"id": 5650437589, "lat": 53.29539, "lon": 15.6894263, "way_id": 591910449, "landuse": "farmland", "closest_distance_restriction": 5.691168421215683}, {"id": 5650437590, "lat": 53.295813, "lon": 15.6896364, "way_id": 591910449, "landuse": "farmland", "closest_distance_restriction": 5.661457238537714}, {"id": 5650437591, "lat": 53.2959332, "lon": 15.6899342, "way_id": 591910449, "landuse": "farmland", "closest_distance_restriction": 5.638237420125287}, {"id": 5861495072, "lat": 53.6464953, "lon": 15.8628532, "way_id": 620397461, "landuse": "meadow", "closest_distance_restriction": 1.57026728279118}, {"id": 5861495073, "lat": 53.6465773, "lon": 15.8631277, "way_id": 620397461, "landuse": "meadow", "closest_distance_restriction": 1.580634715877544}, {"id": 5861495074, "lat": 53.6466148, "lon": 15.8635442, "way_id": 620397461, "landuse": "meadow", "closest_distance_restriction": 1.587104349731869}, {"id": 5861495075, "lat": 53.6469422, "lon": 15.8636271, "way_id": 620397469, "landuse": "meadow", "closest_distance_restriction": 1.6238608534837478}, {"id": 5861495076, "lat": 53.6471256, "lon": 15.8638304, "way_id": 620397469, "landuse": "meadow", "closest_distance_restriction": 1.6454637124185627}, {"id": 5861495077, "lat": 53.6473334, "lon": 15.8638622, "way_id": 620397469, "landuse": "meadow", "closest_distance_restriction": 1.6686635804504175}, {"id": 5861495078, "lat": 53.6475198, "lon": 15.8641784, "way_id": 620397469, "landuse": "meadow", "closest_distance_restriction": 1.6914888992811512}, {"id": 5861495079, "lat": 53.6478958, "lon": 15.8650631, "way_id": 620397469, "landuse": "meadow", "closest_distance_restriction": 1.7403708173593062}, {"id": 5861495080, "lat": 53.6479237, "lon": 15.8654182, "way_id": 620397469, "landuse": "meadow", "closest_distance_restriction": 1.7469170352689716}, {"id": 5861495081, "lat": 53.6481072, "lon": 15.865562, "way_id": 620397469, "landuse": "meadow", "closest_distance_restriction": 1.768554917100741}, {"id": 5861495082, "lat": 53.6482104, "lon": 15.8658008, "way_id": 620397469, "landuse": "meadow", "closest_distance_restriction": 1.7824327784367495}, {"id": 5861495083, "lat": 53.6484059, "lon": 15.8659814, "way_id": 620397469, "landuse": "meadow", "closest_distance_restriction": 1.8058648955663756}, {"id": 5861495084, "lat": 53.648642, "lon": 15.8663584, "way_id": 620397469, "landuse": "meadow", "closest_distance_restriction": 1.8360801214646925}, {"id": 5861495185, "lat": 53.649862, "lon": 15.8706783, "way_id": 620397469, "landuse": "meadow", "closest_distance_restriction": 2.033180386767139}, {"id": 5861495186, "lat": 53.649668, "lon": 15.869548, "way_id": 620397469, "landuse": "meadow", "closest_distance_restriction": 1.9950825453161163}, {"id": 5861495188, "lat": 53.6514529, "lon": 15.870751, "way_id": 620397469, "landuse": "meadow", "closest_distance_restriction": 2.206981737320532}, {"id": 5861495189, "lat": 53.6519756, "lon": 15.8702988, "way_id": 620397469, "landuse": "meadow", "closest_distance_restriction": 2.2555648072216603}, {"id": 5861495234, "lat": 53.6468699, "lon": 15.8636088, "way_id": 620397469, "landuse": "meadow", "closest_distance_restriction": 1.6157437071324725}, {"id": 5861495235, "lat": 53.6467161, "lon": 15.863975, "way_id": 620397469, "landuse": "meadow", "closest_distance_restriction": 1.6011864557287487}, {"id": 5861495236, "lat": 53.6466039, "lon": 15.8641589, "way_id": 620397469, "landuse": "meadow", "closest_distance_restriction": 1.5901723342062788}, {"id": 5861495237, "lat": 53.6467931, "lon": 15.8648188, "way_id": 620397469, "landuse": "meadow", "closest_distance_restriction": 1.616713114754331}, {"id": 5861495266, "lat": 53.6466947, "lon": 15.867664, "way_id": 620397469, "landuse": "meadow", "closest_distance_restriction": 1.643413880692323}, {"id": 5861495270, "lat": 53.6463859, "lon": 15.864808, "way_id": 620397461, "landuse": "meadow", "closest_distance_restriction": 1.5718091789737973}, {"id": 5861495271, "lat": 53.646636, "lon": 15.8652137, "way_id": 620397461, "landuse": "meadow", "closest_distance_restriction": 1.6033975578534707}, {"id": 5861495272, "lat": 53.6468765, "lon": 15.8657384, "way_id": 620397461, "landuse": "meadow", "closest_distance_restriction": 1.6356166996409527}, {"id": 5861495273, "lat": 53.6472159, "lon": 15.8664864, "way_id": 620397469, "landuse": "meadow", "closest_distance_restriction": 1.6820695746791272}, {"id": 5861495274, "lat": 53.6471514, "lon": 15.8660304, "way_id": 620397469, "landuse": "meadow", "closest_distance_restriction": 1.66918318887147}, {"id": 5861495275, "lat": 53.6470265, "lon": 15.8657109, "way_id": 620397469, "landuse": "meadow", "closest_distance_restriction": 1.651711384111815}, {"id": 5861495276, "lat": 53.6471155, "lon": 15.869482, "way_id": 620397469, "landuse": "meadow", "closest_distance_restriction": 1.7179177228993279}, {"id": 5861495291, "lat": 53.646969, "lon": 15.8689528, "way_id": 620397469, "landuse": "meadow", "closest_distance_restriction": 1.694705042604955}, {"id": 5861495292, "lat": 53.6461164, "lon": 15.871114, "way_id": 620397473, "landuse": "meadow", "closest_distance_restriction": 1.637983526227257}, {"id": 5861495406, "lat": 53.652398, "lon": 15.8713518, "way_id": 620397469, "landuse": "meadow", "closest_distance_restriction": 2.3180582312913263}, {"id": 5861495407, "lat": 53.6523145, "lon": 15.8709083, "way_id": 620397469, "landuse": "meadow", "closest_distance_restriction": 2.3026598033131127}, {"id": 5861495408, "lat": 53.6522717, "lon": 15.8704561, "way_id": 620397469, "landuse": "meadow", "closest_distance_restriction": 2.2900570136029046}, {"id": 5861495434, "lat": 53.6507432, "lon": 15.8715856, "way_id": 620397469, "landuse": "meadow", "closest_distance_restriction": 2.1423282877833567}, {"id": 5861495435, "lat": 53.6473947, "lon": 15.8708987, "way_id": 620397469, "landuse": "meadow", "closest_distance_restriction": 1.770544548322484}, {"id": 5861495466, "lat": 53.6463103, "lon": 15.8702636, "way_id": 620397473, "landuse": "meadow", "closest_distance_restriction": 1.6432154029670418}, {"id": 5861495467, "lat": 53.6461391, "lon": 15.8702858, "way_id": 620397473, "landuse": "meadow", "closest_distance_restriction": 1.6252182814490062}, {"id": 5861495468, "lat": 53.6459928, "lon": 15.8703623, "way_id": 620397473, "landuse": "meadow", "closest_distance_restriction": 1.610870863065712}, {"id": 5861495469, "lat": 53.6458816, "lon": 15.8705598, "way_id": 620397473, "landuse": "meadow", "closest_distance_restriction": 1.6025257353127143}, {"id": 5861495470, "lat": 53.6458246, "lon": 15.8706659, "way_id": 620397473, "landuse": "meadow", "closest_distance_restriction": 1.5983999963062174}, {"id": 5861495471, "lat": 53.645649, "lon": 15.8707646, "way_id": 620397473, "landuse": "meadow", "closest_distance_restriction": 1.5815526180200938}, {"id": 5861495472, "lat": 53.6455363, "lon": 15.8707745, "way_id": 620397473, "landuse": "meadow", "closest_distance_restriction": 1.5697533754983037}, {"id": 5862295280, "lat": 53.500609, "lon": 15.8266968, "way_id": 620476784, "landuse": "farmland", "closest_distance_restriction": 1.5763640054585843}, {"id": 5862295281, "lat": 53.5004367, "lon": 15.8256239, "way_id": 620476784, "landuse": "farmland", "closest_distance_restriction": 1.5733033636076261}, {"id": 5862295282, "lat": 53.5000155, "lon": 15.8246905, "way_id": 620476784, "landuse": "farmland", "closest_distance_restriction": 1.586126091055937}, {"id": 5862295283, "lat": 53.4997985, "lon": 15.8240253, "way_id": 620476784, "landuse": "farmland", "closest_distance_restriction": 1.589073994494813}, {"id": 5868521010, "lat": 53.4978523, "lon": 15.717543, "way_id": 621225121, "landuse": "farmland", "closest_distance_restriction": 1.5606483972513183}, {"id": 5868521011, "lat": 53.49833, "lon": 15.7166243, "way_id": 621225121, "landuse": "farmland", "closest_distance_restriction": 1.6218763340129827}, {"id": 5868521012, "lat": 53.4988725, "lon": 15.7154536, "way_id": 621225121, "landuse": "farmland", "closest_distance_restriction": 1.7017999175193652}, {"id": 5868521050, "lat": 53.5007613, "lon": 15.7125681, "way_id": 621225121, "landuse": "farmland", "closest_distance_restriction": 1.9150714763909091}, {"id": 5868521051, "lat": 53.5019157, "lon": 15.7148831, "way_id": 621225121, "landuse": "farmland", "closest_distance_restriction": 1.7912546820755983}, {"id": 5868521052, "lat": 53.5014414, "lon": 15.718237, "way_id": 621225121, "landuse": "farmland", "closest_distance_restriction": 1.563275925119237}, {"id": 6517086368, "lat": 53.5602352, "lon": 16.3666382, "way_id": 694152884, "landuse": "meadow", "closest_distance_restriction": 1.5784793520505735}, {"id": 6517120883, "lat": 53.5558469, "lon": 16.365456, "way_id": 694152884, "landuse": "meadow", "closest_distance_restriction": 1.5900596262989806}, {"id": 6532089144, "lat": 53.643325, "lon": 15.9380828, "way_id": 695624560, "landuse": "meadow", "closest_distance_restriction": 1.6208751092734928}, {"id": 6532089145, "lat": 53.6432604, "lon": 15.9388328, "way_id": 695624560, "landuse": "meadow", "closest_distance_restriction": 1.6268319975688843}, {"id": 6532089162, "lat": 53.6435293, "lon": 15.9341397, "way_id": 695624560, "landuse": "meadow", "closest_distance_restriction": 1.5998322208340494}, {"id": 6532089163, "lat": 53.6436893, "lon": 15.9352461, "way_id": 695624560, "landuse": "meadow", "closest_distance_restriction": 1.6254351817121842}, {"id": 6532089164, "lat": 53.6440222, "lon": 15.9356249, "way_id": 695624560, "landuse": "meadow", "closest_distance_restriction": 1.6655072713533563}, {"id": 6532089165, "lat": 53.6444482, "lon": 15.9380013, "way_id": 695624560, "landuse": "meadow", "closest_distance_restriction": 1.7409816066741417}, {"id": 6589833216, "lat": 53.5218027, "lon": 16.2640906, "way_id": 701694329, "landuse": "farmland", "closest_distance_restriction": 2.1183867473805456}, {"id": 6589833217, "lat": 53.5217772, "lon": 16.2628948, "way_id": 701694329, "landuse": "farmland", "closest_distance_restriction": 2.0789444280244602}, {"id": 6589833226, "lat": 53.5219389, "lon": 16.2603301, "way_id": 701694329, "landuse": "farmland", "closest_distance_restriction": 1.9751168670059973}, {"id": 6589833227, "lat": 53.5219003, "lon": 16.2601026, "way_id": 701694329, "landuse": "farmland", "closest_distance_restriction": 1.9596154643844712}, {"id": 6589833228, "lat": 53.521823, "lon": 16.2599564, "way_id": 701694329, "landuse": "farmland", "closest_distance_restriction": 1.948827858258728}, {"id": 6589833229, "lat": 53.5217424, "lon": 16.2598565, "way_id": 701694329, "landuse": "farmland", "closest_distance_restriction": 1.9410486404076461}, {"id": 6589833237, "lat": 53.5215667, "lon": 16.2597984, "way_id": 701694329, "landuse": "farmland", "closest_distance_restriction": 1.934675146481214}, {"id": 6589833238, "lat": 53.5211083, "lon": 16.2599646, "way_id": 701694329, "landuse": "farmland", "closest_distance_restriction": 1.939821625275885}, {"id": 6589833239, "lat": 53.5209924, "lon": 16.2601189, "way_id": 701694329, "landuse": "farmland", "closest_distance_restriction": 1.9487329509248792}, {"id": 6589833240, "lat": 53.52092, "lon": 16.2603626, "way_id": 701694329, "landuse": "farmland", "closest_distance_restriction": 1.964049856936983}, {"id": 6589833241, "lat": 53.5208669, "lon": 16.2608499, "way_id": 701694329, "landuse": "farmland", "closest_distance_restriction": 1.9956391633964405}, {"id": 6589833242, "lat": 53.5207413, "lon": 16.2612316, "way_id": 701694329, "landuse": "farmland", "closest_distance_restriction": 2.019680067335955}, {"id": 6589833243, "lat": 53.5206351, "lon": 16.261857, "way_id": 701694329, "landuse": "farmland", "closest_distance_restriction": 2.060065762690526}, {"id": 6589833244, "lat": 53.5205675, "lon": 16.262921, "way_id": 701694329, "landuse": "farmland", "closest_distance_restriction": 2.129761535506348}, {"id": 6589833245, "lat": 53.5205834, "lon": 16.2637146, "way_id": 701694329, "landuse": "farmland", "closest_distance_restriction": 2.182233929076559}, {"id": 6589833246, "lat": 53.5205388, "lon": 16.2640039, "way_id": 701694329, "landuse": "farmland", "closest_distance_restriction": 2.2010236116633357}, {"id": 6589833247, "lat": 53.5204082, "lon": 16.2645827, "way_id": 701694329, "landuse": "farmland", "closest_distance_restriction": 2.238423477688069}, {"id": 6589833248, "lat": 53.5203572, "lon": 16.2649846, "way_id": 701694329, "landuse": "farmland", "closest_distance_restriction": 2.2646749082630695}, {"id": 6589833249, "lat": 53.5203604, "lon": 16.2653329, "way_id": 701694329, "landuse": "farmland", "closest_distance_restriction": 2.2876910493980906}, {"id": 6589833250, "lat": 53.5203955, "lon": 16.2655258, "way_id": 701694329, "landuse": "farmland", "closest_distance_restriction": 2.3006194713206876}, {"id": 6589833251, "lat": 53.5204687, "lon": 16.2657562, "way_id": 701694329, "landuse": "farmland", "closest_distance_restriction": 2.295557783380062}, {"id": 6589833252, "lat": 53.5208287, "lon": 16.2660938, "way_id": 701694329, "landuse": "farmland", "closest_distance_restriction": 2.2600477000210044}, {"id": 6589833396, "lat": 53.5230618, "lon": 16.2670282, "way_id": 701694354, "landuse": "farmland", "closest_distance_restriction": 2.059338130097472}, {"id": 6589833397, "lat": 53.5233112, "lon": 16.2670187, "way_id": 701694354, "landuse": "farmland", "closest_distance_restriction": 2.0317821099795976}, {"id": 6589833398, "lat": 53.5244861, "lon": 16.2660856, "way_id": 701694354, "landuse": "farmland", "closest_distance_restriction": 1.8943689429249893}, {"id": 6589833399, "lat": 53.524617, "lon": 16.2661296, "way_id": 701694354, "landuse": "farmland", "closest_distance_restriction": 1.8802519749946625}, {"id": 6589833400, "lat": 53.5247498, "lon": 16.2664339, "way_id": 701694354, "landuse": "farmland", "closest_distance_restriction": 1.8680841529634866}, {"id": 6589833732, "lat": 53.5224864, "lon": 16.2667874, "way_id": 701694354, "landuse": "farmland", "closest_distance_restriction": 2.1206918497958567}, {"id": 6589833733, "lat": 53.5223857, "lon": 16.2667453, "way_id": 701694329, "landuse": "farmland", "closest_distance_restriction": 2.1314577265228203}]}