{"nodes": [{"id": 545075519, "lat": 50.1881816, "lon": 19.3352689, "way_id": 172776315, "landuse": "meadow", "closest_distance_restriction": 1.5814987313951063}, {"id": 545076210, "lat": 50.1885811, "lon": 19.3356396, "way_id": 172776315, "landuse": "meadow", "closest_distance_restriction": 1.6210158989461076}, {"id": 545076228, "lat": 50.1888132, "lon": 19.3362307, "way_id": 172776315, "landuse": "meadow", "closest_distance_restriction": 1.6407107404653587}, {"id": 545076237, "lat": 50.19009, "lon": 19.34645, "way_id": 172776318, "landuse": "meadow", "closest_distance_restriction": 1.5975620682923832}, {"id": 545076238, "lat": 50.19084, "lon": 19.34242, "way_id": 172776318, "landuse": "meadow", "closest_distance_restriction": 1.8401284579491282}, {"id": 545076239, "lat": 50.1904315, "lon": 19.3449413, "way_id": 172776318, "landuse": "meadow", "closest_distance_restriction": 1.691625184955383}, {"id": 545076240, "lat": 50.1908567, "lon": 19.3428926, "way_id": 172776318, "landuse": "meadow", "closest_distance_restriction": 1.819705656757554}, {"id": 545076241, "lat": 50.19162, "lon": 19.34064, "way_id": 172776318, "landuse": "meadow", "closest_distance_restriction": 1.9421826519335375}, {"id": 545076298, "lat": 50.1907, "lon": 19.34836, "way_id": 172776318, "landuse": "meadow", "closest_distance_restriction": 1.5821541372889558}, {"id": 545076300, "lat": 50.1911909, "lon": 19.3481685, "way_id": 172776318, "landuse": "meadow", "closest_distance_restriction": 1.6364199446575527}, {"id": 545076317, "lat": 50.1924248, "lon": 19.3409791, "way_id": 172776318, "landuse": "meadow", "closest_distance_restriction": 2.0329168047475923}, {"id": 545076318, "lat": 50.1919426, "lon": 19.3422843, "way_id": 172776318, "landuse": "meadow", "closest_distance_restriction": 1.9405141924997509}, {"id": 545076319, "lat": 50.191104, "lon": 19.346851, "way_id": 172776318, "landuse": "meadow", "closest_distance_restriction": 1.6757899984889075}, {"id": 545076321, "lat": 50.1920512, "lon": 19.3436511, "way_id": 172776318, "landuse": "meadow", "closest_distance_restriction": 1.8909001616543244}, {"id": 1835829735, "lat": 50.1891382, "lon": 19.3365236, "way_id": 172776315, "landuse": "meadow", "closest_distance_restriction": 1.674134555544675}, {"id": 1835829740, "lat": 50.1886566, "lon": 19.3364609, "way_id": 172776315, "landuse": "meadow", "closest_distance_restriction": 1.621438511326137}, {"id": 1836343902, "lat": 50.1905507, "lon": 19.3465104, "way_id": 172776318, "landuse": "meadow", "closest_distance_restriction": 1.6373612604240038}, {"id": 1836343905, "lat": 50.191558, "lon": 19.344856, "way_id": 172776318, "landuse": "meadow", "closest_distance_restriction": 1.796363412350125}, {"id": 1836343909, "lat": 50.1911531, "lon": 19.3414855, "way_id": 172776318, "landuse": "meadow", "closest_distance_restriction": 1.8942382652957308}, {"id": 1836343911, "lat": 50.1905366, "lon": 19.3440406, "way_id": 172776318, "landuse": "meadow", "closest_distance_restriction": 1.7403270658264667}, {"id": 1836343919, "lat": 50.1905957, "lon": 19.3433314, "way_id": 172776318, "landuse": "meadow", "closest_distance_restriction": 1.7773974368570895}, {"id": 1836343922, "lat": 50.1913526, "lon": 19.3477141, "way_id": 172776318, "landuse": "meadow", "closest_distance_restriction": 1.6679671640669433}, {"id": 1836343929, "lat": 50.1905864, "lon": 19.348124, "way_id": 172776318, "landuse": "meadow", "closest_distance_restriction": 1.5796068403883026}, {"id": 1836343931, "lat": 50.1916047, "lon": 19.3454772, "way_id": 172776318, "landuse": "meadow", "closest_distance_restriction": 1.7756678879629528}, {"id": 1836343938, "lat": 50.1903686, "lon": 19.3440728, "way_id": 172776318, "landuse": "meadow", "closest_distance_restriction": 1.7243498909598916}, {"id": 1836343941, "lat": 50.1914306, "lon": 19.346431, "way_id": 172776318, "landuse": "meadow", "closest_distance_restriction": 1.722446968847466}, {"id": 1836343942, "lat": 50.1909642, "lon": 19.3465157, "way_id": 172776318, "landuse": "meadow", "closest_distance_restriction": 1.6755161867723036}, {"id": 1836343943, "lat": 50.1902251, "lon": 19.344577, "way_id": 172776318, "landuse": "meadow", "closest_distance_restriction": 1.6894329780557173}, {"id": 1836343946, "lat": 50.1917843, "lon": 19.3402918, "way_id": 172776318, "landuse": "meadow", "closest_distance_restriction": 1.9592834119486113}, {"id": 1836343947, "lat": 50.1913413, "lon": 19.3453946, "way_id": 172776318, "landuse": "meadow", "closest_distance_restriction": 1.7547131632618422}, {"id": 1836343949, "lat": 50.1914808, "lon": 19.3468937, "way_id": 172776318, "landuse": "meadow", "closest_distance_restriction": 1.7098753059464908}, {"id": 1836343953, "lat": 50.1912067, "lon": 19.3461231, "way_id": 172776318, "landuse": "meadow", "closest_distance_restriction": 1.7133768942456533}, {"id": 1844587945, "lat": 50.2028772, "lon": 19.3804057, "way_id": 193315202, "landuse": "farmland", "closest_distance_restriction": 1.605408765454057}, {"id": 1844588136, "lat": 50.2026429, "lon": 19.3809557, "way_id": 193315202, "landuse": "farmland", "closest_distance_restriction": 1.5811265891021455}, {"id": 1850630988, "lat": 50.061465, "lon": 19.409666, "way_id": 266531931, "landuse": "farmland", "closest_distance_restriction": 1.5692969217130583}, {"id": 1850630997, "lat": 50.066225, "lon": 19.4038137, "way_id": 360757390, "landuse": "farmland", "closest_distance_restriction": 1.7081169990407286}, {"id": 1850631033, "lat": 50.0665236, "lon": 19.4055999, "way_id": 360757390, "landuse": "farmland", "closest_distance_restriction": 1.7455329610604378}, {"id": 1850631035, "lat": 50.0669885, "lon": 19.3953752, "way_id": 360757390, "landuse": "farmland", "closest_distance_restriction": 1.6007169811495598}, {"id": 1850631247, "lat": 50.0695847, "lon": 19.3890881, "way_id": 732409437, "landuse": "farmland", "closest_distance_restriction": 1.597993948294446}, {"id": 1850631280, "lat": 50.0666373, "lon": 19.3973493, "way_id": 360757390, "landuse": "farmland", "closest_distance_restriction": 1.5872417004144894}, {"id": 1850631435, "lat": 50.0671655, "lon": 19.3963719, "way_id": 360757390, "landuse": "farmland", "closest_distance_restriction": 1.631037670850146}, {"id": 1850631549, "lat": 50.066713, "lon": 19.3966841, "way_id": 360757390, "landuse": "farmland", "closest_distance_restriction": 1.5856403398178673}, {"id": 1917740294, "lat": 50.0617465, "lon": 19.5671121, "way_id": 457727612, "landuse": "farmland", "closest_distance_restriction": 1.5695912738517805}, {"id": 1917740396, "lat": 50.0618567, "lon": 19.5683137, "way_id": 457727612, "landuse": "farmland", "closest_distance_restriction": 1.5761658911035195}, {"id": 1917740627, "lat": 50.0615963, "lon": 19.5672719, "way_id": 457727612, "landuse": "farmland", "closest_distance_restriction": 1.5881698004633065}, {"id": 1917740802, "lat": 50.061644, "lon": 19.5687233, "way_id": 457727612, "landuse": "farmland", "closest_distance_restriction": 1.6063683797075103}, {"id": 1917740905, "lat": 50.061493, "lon": 19.5674436, "way_id": 457727612, "landuse": "farmland", "closest_distance_restriction": 1.6018475428949412}, {"id": 1917741039, "lat": 50.062248, "lon": 19.5699629, "way_id": 457727612, "landuse": "farmland", "closest_distance_restriction": 1.567516710682696}, {"id": 2038221672, "lat": 50.2021391, "lon": 19.3743986, "way_id": 193315202, "landuse": "farmland", "closest_distance_restriction": 1.5603400566206804}, {"id": 2038221676, "lat": 50.2024805, "lon": 19.3741397, "way_id": 193315202, "landuse": "farmland", "closest_distance_restriction": 1.6007162477023356}, {"id": 2038221677, "lat": 50.2027295, "lon": 19.3737702, "way_id": 193315202, "landuse": "farmland", "closest_distance_restriction": 1.6324003962692686}, {"id": 2038221684, "lat": 50.2030904, "lon": 19.3728367, "way_id": 193315202, "landuse": "farmland", "closest_distance_restriction": 1.6844458035712646}, {"id": 2038221693, "lat": 50.203439, "lon": 19.3724672, "way_id": 193315202, "landuse": "farmland", "closest_distance_restriction": 1.727908108877839}, {"id": 2038221708, "lat": 50.2039991, "lon": 19.3727589, "way_id": 193315202, "landuse": "farmland", "closest_distance_restriction": 1.7845095030147482}, {"id": 2038221721, "lat": 50.2046339, "lon": 19.3732451, "way_id": 193315202, "landuse": "farmland", "closest_distance_restriction": 1.8474324776116493}, {"id": 2038221735, "lat": 50.2053149, "lon": 19.3735427, "way_id": 193315202, "landuse": "farmland", "closest_distance_restriction": 1.9186426237223853}, {"id": 2038221741, "lat": 50.2055877, "lon": 19.3726488, "way_id": 193315202, "landuse": "farmland", "closest_distance_restriction": 1.9593789099977679}, {"id": 2038221752, "lat": 50.205843, "lon": 19.3759629, "way_id": 193315202, "landuse": "farmland", "closest_distance_restriction": 1.9524222981458152}, {"id": 2038221755, "lat": 50.2059222, "lon": 19.3752753, "way_id": 193315202, "landuse": "farmland", "closest_distance_restriction": 1.9683562585496868}, {"id": 2038221762, "lat": 50.2060894, "lon": 19.3741752, "way_id": 193315202, "landuse": "farmland", "closest_distance_restriction": 1.9975385463599058}, {"id": 2038221768, "lat": 50.2063447, "lon": 19.3731301, "way_id": 193315202, "landuse": "farmland", "closest_distance_restriction": 2.036358164720815}, {"id": 2038221784, "lat": 50.2077816, "lon": 19.3876317, "way_id": 193315202, "landuse": "farmland", "closest_distance_restriction": 1.5752554296065233}, {"id": 2038221788, "lat": 50.2078784, "lon": 19.3878105, "way_id": 193315202, "landuse": "farmland", "closest_distance_restriction": 1.5735698846820154}, {"id": 2038221789, "lat": 50.2079152, "lon": 19.3796508, "way_id": 193315202, "landuse": "farmland", "closest_distance_restriction": 2.03248922036666}, {"id": 2038221790, "lat": 50.2079152, "lon": 19.3800397, "way_id": 193315202, "landuse": "farmland", "closest_distance_restriction": 2.0092932772317718}, {"id": 2038221791, "lat": 50.207909, "lon": 19.3812795, "way_id": 193315202, "landuse": "farmland", "closest_distance_restriction": 1.9357394896788669}, {"id": 2038221792, "lat": 50.2079152, "lon": 19.3814156, "way_id": 193315202, "landuse": "farmland", "closest_distance_restriction": 1.9281774742194173}, {"id": 2038221793, "lat": 50.2079339, "lon": 19.3805307, "way_id": 193315202, "landuse": "farmland", "closest_distance_restriction": 1.981330408886474}, {"id": 2038221794, "lat": 50.2079432, "lon": 19.3810218, "way_id": 193315202, "landuse": "farmland", "closest_distance_restriction": 1.9529969473506608}, {"id": 2038221795, "lat": 50.2079312, "lon": 19.3870679, "way_id": 193315202, "landuse": "farmland", "closest_distance_restriction": 1.6158411459513147}, {"id": 2038221799, "lat": 50.2079619, "lon": 19.3814837, "way_id": 193315202, "landuse": "farmland", "closest_distance_restriction": 1.9271829359575616}, {"id": 2038221801, "lat": 50.2080043, "lon": 19.3815006, "way_id": 193315202, "landuse": "farmland", "closest_distance_restriction": 1.9289136260163642}, {"id": 2038221802, "lat": 50.2080304, "lon": 19.3792035, "way_id": 193315202, "landuse": "farmland", "closest_distance_restriction": 2.066190586255225}, {"id": 2038221803, "lat": 50.208028, "lon": 19.3882505, "way_id": 193315202, "landuse": "farmland", "closest_distance_restriction": 1.5631243038263123}, {"id": 2038221804, "lat": 50.2080456, "lon": 19.387948, "way_id": 193315202, "landuse": "farmland", "closest_distance_restriction": 1.5796690650295353}, {"id": 2038221808, "lat": 50.2080852, "lon": 19.3815541, "way_id": 193315202, "landuse": "farmland", "closest_distance_restriction": 1.93101386577266}, {"id": 2038221810, "lat": 50.2081517, "lon": 19.3787221, "way_id": 193315202, "landuse": "farmland", "closest_distance_restriction": 2.102323121348105}, {"id": 2038221812, "lat": 50.20816, "lon": 19.3884155, "way_id": 193315202, "landuse": "farmland", "closest_distance_restriction": 1.5654766241525777}, {"id": 2038221813, "lat": 50.2081941, "lon": 19.3815881, "way_id": 193315202, "landuse": "farmland", "closest_distance_restriction": 1.9361081265734057}, {"id": 2038221815, "lat": 50.208248, "lon": 19.3868754, "way_id": 193315202, "landuse": "farmland", "closest_distance_restriction": 1.6499969383470376}, {"id": 2038221817, "lat": 50.2082793, "lon": 19.3781922, "way_id": 193315202, "landuse": "farmland", "closest_distance_restriction": 2.141771549383663}, {"id": 2038221818, "lat": 50.2082744, "lon": 19.3861328, "way_id": 193315202, "landuse": "farmland", "closest_distance_restriction": 1.690594870042714}, {"id": 2038221819, "lat": 50.2083096, "lon": 19.3869029, "way_id": 193315202, "landuse": "farmland", "closest_distance_restriction": 1.6533238688847585}, {"id": 2038221820, "lat": 50.2083446, "lon": 19.3781047, "way_id": 193315202, "landuse": "farmland", "closest_distance_restriction": 2.150914099251822}, {"id": 2038221821, "lat": 50.2083279, "lon": 19.3815784, "way_id": 193315202, "landuse": "farmland", "closest_distance_restriction": 1.9454121594662526}, {"id": 2038221822, "lat": 50.2083449, "lon": 19.3837813, "way_id": 193315202, "landuse": "farmland", "closest_distance_restriction": 1.822410872650958}, {"id": 2038221823, "lat": 50.2083449, "lon": 19.3839738, "way_id": 193315202, "landuse": "farmland", "closest_distance_restriction": 1.8118055241130064}, {"id": 2038221827, "lat": 50.2084629, "lon": 19.3780901, "way_id": 193315202, "landuse": "farmland", "closest_distance_restriction": 2.1588512792138497}, {"id": 2038221828, "lat": 50.2084804, "lon": 19.3815395, "way_id": 193315202, "landuse": "farmland", "closest_distance_restriction": 1.9576927983456962}, {"id": 2038221830, "lat": 50.2085675, "lon": 19.3815978, "way_id": 193315202, "landuse": "farmland", "closest_distance_restriction": 1.9601502570742557}, {"id": 2038221831, "lat": 50.2085561, "lon": 19.3834238, "way_id": 193315202, "landuse": "farmland", "closest_distance_restriction": 1.8569680456390678}, {"id": 2038221833, "lat": 50.2085842, "lon": 19.3781387, "way_id": 193315202, "landuse": "farmland", "closest_distance_restriction": 2.1632454655043274}, {"id": 2038221838, "lat": 50.2087231, "lon": 19.381734, "way_id": 193315202, "landuse": "farmland", "closest_distance_restriction": 1.962861050232083}, {"id": 2038221841, "lat": 50.2087853, "lon": 19.3818458, "way_id": 193315202, "landuse": "farmland", "closest_distance_restriction": 1.9607687312096926}, {"id": 2038221842, "lat": 50.2087822, "lon": 19.3820257, "way_id": 193315202, "landuse": "farmland", "closest_distance_restriction": 1.9504433809941584}, {"id": 2038221843, "lat": 50.2087884, "lon": 19.3821132, "way_id": 193315202, "landuse": "farmland", "closest_distance_restriction": 1.9459601721191269}, {"id": 2038221844, "lat": 50.2088168, "lon": 19.3783289, "way_id": 193315202, "landuse": "farmland", "closest_distance_restriction": 2.1661512674803256}, {"id": 2038221845, "lat": 50.2088113, "lon": 19.3844414, "way_id": 193315202, "landuse": "farmland", "closest_distance_restriction": 1.820047581066507}, {"id": 2038221847, "lat": 50.208832, "lon": 19.3821083, "way_id": 193315202, "landuse": "farmland", "closest_distance_restriction": 1.9492264336160343}, {"id": 2038221848, "lat": 50.2088729, "lon": 19.38286, "way_id": 193315202, "landuse": "farmland", "closest_distance_restriction": 1.9103257719731244}, {"id": 2038221850, "lat": 50.2089502, "lon": 19.3817972, "way_id": 193315202, "landuse": "farmland", "closest_distance_restriction": 1.9747576461835021}, {"id": 2038221853, "lat": 50.2089973, "lon": 19.3785696, "way_id": 193315202, "landuse": "farmland", "closest_distance_restriction": 2.1632053820965274}, {"id": 2038221855, "lat": 50.2090589, "lon": 19.3787896, "way_id": 193315202, "landuse": "farmland", "closest_distance_restriction": 2.154210058346282}, {"id": 2038221856, "lat": 50.2091205, "lon": 19.3777101, "way_id": 193315202, "landuse": "farmland", "closest_distance_restriction": 2.2215286037658974}, {"id": 2038221857, "lat": 50.2091017, "lon": 19.3823236, "way_id": 193315202, "landuse": "farmland", "closest_distance_restriction": 1.9559873244959227}, {"id": 2038221858, "lat": 50.2091381, "lon": 19.3788515, "way_id": 193315202, "landuse": "farmland", "closest_distance_restriction": 2.155641266826919}, {"id": 2038221859, "lat": 50.2091645, "lon": 19.3774832, "way_id": 193315202, "landuse": "farmland", "closest_distance_restriction": 2.237672320472209}, {"id": 2038221860, "lat": 50.2092129, "lon": 19.3778957, "way_id": 193315202, "landuse": "farmland", "closest_distance_restriction": 2.216329779231712}, {"id": 2038221861, "lat": 50.2092129, "lon": 19.3787758, "way_id": 193315202, "landuse": "farmland", "closest_distance_restriction": 2.1648318654971077}, {"id": 2038221862, "lat": 50.2092249, "lon": 19.3815398, "way_id": 193315202, "landuse": "farmland", "closest_distance_restriction": 2.0080518751047545}, {"id": 2038221863, "lat": 50.2092424, "lon": 19.3773718, "way_id": 193315202, "landuse": "farmland", "closest_distance_restriction": 2.249075023251792}, {"id": 2038221864, "lat": 50.2093097, "lon": 19.3785421, "way_id": 193315202, "landuse": "farmland", "closest_distance_restriction": 2.184626887786458}, {"id": 2038221865, "lat": 50.2093405, "lon": 19.3780333, "way_id": 193315202, "landuse": "farmland", "closest_distance_restriction": 2.2162809248700706}, {"id": 2038221866, "lat": 50.2093713, "lon": 19.3782602, "way_id": 193315202, "landuse": "farmland", "closest_distance_restriction": 2.204982277011372}, {"id": 2106912203, "lat": 50.2059352, "lon": 19.3760011, "way_id": 193315202, "landuse": "farmland", "closest_distance_restriction": 1.9622149763461645}, {"id": 2291526651, "lat": 50.2025536, "lon": 19.3794298, "way_id": 193315202, "landuse": "farmland", "closest_distance_restriction": 1.5687092024012708}, {"id": 2291526653, "lat": 50.2027226, "lon": 19.3797465, "way_id": 193315202, "landuse": "farmland", "closest_distance_restriction": 1.5874027086021614}, {"id": 2291526654, "lat": 50.2027349, "lon": 19.3799808, "way_id": 193315202, "landuse": "farmland", "closest_distance_restriction": 1.5889044158123078}, {"id": 2720649430, "lat": 50.0619484, "lon": 19.4096974, "way_id": 266531931, "landuse": "farmland", "closest_distance_restriction": 1.6048805493399512}, {"id": 2720649440, "lat": 50.065269, "lon": 19.4063281, "way_id": 402951541, "landuse": "farmland", "closest_distance_restriction": 1.7129082104933908}, {"id": 2720649441, "lat": 50.065336, "lon": 19.4065446, "way_id": 266531931, "landuse": "farmland", "closest_distance_restriction": 1.7279594911830893}, {"id": 2720649442, "lat": 50.0653713, "lon": 19.4065517, "way_id": 266531931, "landuse": "farmland", "closest_distance_restriction": 1.7314430752815104}, {"id": 2720649443, "lat": 50.0655108, "lon": 19.4070343, "way_id": 266531931, "landuse": "farmland", "closest_distance_restriction": 1.7331542604890209}, {"id": 2720649445, "lat": 50.0659136, "lon": 19.4088292, "way_id": 266531931, "landuse": "farmland", "closest_distance_restriction": 1.6051970419519104}, {"id": 2725066535, "lat": 50.0527598, "lon": 19.5802685, "way_id": 406995613, "landuse": "farmland", "closest_distance_restriction": 1.795964303800775}, {"id": 2725066536, "lat": 50.0526771, "lon": 19.5811429, "way_id": 406995613, "landuse": "farmland", "closest_distance_restriction": 1.7615259474742684}, {"id": 2725066537, "lat": 50.0526117, "lon": 19.5804617, "way_id": 406995613, "landuse": "farmland", "closest_distance_restriction": 1.7751660763667283}, {"id": 2725066538, "lat": 50.0529389, "lon": 19.5815506, "way_id": 406995613, "landuse": "farmland", "closest_distance_restriction": 1.7768024829175677}, {"id": 2725066539, "lat": 50.0531215, "lon": 19.5819047, "way_id": 406995613, "landuse": "farmland", "closest_distance_restriction": 1.7861025131950181}, {"id": 2725066540, "lat": 50.0521984, "lon": 19.5796355, "way_id": 406995613, "landuse": "farmland", "closest_distance_restriction": 1.760432036852139}, {"id": 2725066541, "lat": 50.0525118, "lon": 19.5799038, "way_id": 406995613, "landuse": "farmland", "closest_distance_restriction": 1.7826628562408466}, {"id": 3316523537, "lat": 50.1248923, "lon": 19.2962581, "way_id": 324969830, "landuse": "meadow", "closest_distance_restriction": 1.600106696276634}, {"id": 3316523966, "lat": 50.1248786, "lon": 19.2951637, "way_id": 324969830, "landuse": "meadow", "closest_distance_restriction": 1.5837937038233942}, {"id": 3328600556, "lat": 50.0263437, "lon": 19.5166414, "way_id": 326239129, "landuse": "farmland", "closest_distance_restriction": 3.357211839989185}, {"id": 3328600557, "lat": 50.0262126, "lon": 19.5162566, "way_id": 326239129, "landuse": "farmland", "closest_distance_restriction": 3.3590972278656186}, {"id": 3328600558, "lat": 50.0261676, "lon": 19.5161284, "way_id": 326239129, "landuse": "farmland", "closest_distance_restriction": 3.3599234188859946}, {"id": 3328600559, "lat": 50.0261377, "lon": 19.5160759, "way_id": 326239129, "landuse": "farmland", "closest_distance_restriction": 3.3614368661558696}, {"id": 3328600560, "lat": 50.0257351, "lon": 19.5154959, "way_id": 326239129, "landuse": "farmland", "closest_distance_restriction": 3.3860030685670623}, {"id": 3328600561, "lat": 50.0254916, "lon": 19.5151548, "way_id": 326239129, "landuse": "farmland", "closest_distance_restriction": 3.401569979145042}, {"id": 3328600562, "lat": 50.0258193, "lon": 19.5163208, "way_id": 326239129, "landuse": "farmland", "closest_distance_restriction": 3.4008949073858927}, {"id": 3328600563, "lat": 50.0260272, "lon": 19.5171777, "way_id": 326239129, "landuse": "farmland", "closest_distance_restriction": 3.4052632461522188}, {"id": 3328600564, "lat": 50.0262633, "lon": 19.5183633, "way_id": 326239129, "landuse": "farmland", "closest_distance_restriction": 3.3351582715129653}, {"id": 3328600565, "lat": 50.0263779, "lon": 19.5188984, "way_id": 326239129, "landuse": "farmland", "closest_distance_restriction": 3.295043894726888}, {"id": 3328600566, "lat": 50.0265861, "lon": 19.5199062, "way_id": 326239129, "landuse": "farmland", "closest_distance_restriction": 3.2196947651502024}, {"id": 3328600567, "lat": 50.0266623, "lon": 19.5202705, "way_id": 326239129, "landuse": "farmland", "closest_distance_restriction": 3.1924375832391934}, {"id": 3328600568, "lat": 50.026783, "lon": 19.5206715, "way_id": 326239129, "landuse": "farmland", "closest_distance_restriction": 3.161532511812766}, {"id": 3328600569, "lat": 50.0267864, "lon": 19.5206809, "way_id": 326239129, "landuse": "farmland", "closest_distance_restriction": 3.1607942583523}, {"id": 3328600570, "lat": 50.0268864, "lon": 19.5209639, "way_id": 326239129, "landuse": "farmland", "closest_distance_restriction": 3.1386327153102838}, {"id": 3328600571, "lat": 50.0269544, "lon": 19.5211758, "way_id": 326239129, "landuse": "farmland", "closest_distance_restriction": 3.1222133941350654}, {"id": 3328600572, "lat": 50.0269734, "lon": 19.5211919, "way_id": 326239129, "landuse": "farmland", "closest_distance_restriction": 3.1206329810369153}, {"id": 3328600573, "lat": 50.027019, "lon": 19.5211007, "way_id": 326239129, "landuse": "farmland", "closest_distance_restriction": 3.1259031776833024}, {"id": 3328600574, "lat": 50.0270595, "lon": 19.5210148, "way_id": 326239129, "landuse": "farmland", "closest_distance_restriction": 3.1309367774464136}, {"id": 3328600575, "lat": 50.0271526, "lon": 19.5206916, "way_id": 326239129, "landuse": "farmland", "closest_distance_restriction": 3.1513322010722957}, {"id": 3328600576, "lat": 50.0272947, "lon": 19.5201217, "way_id": 326239129, "landuse": "farmland", "closest_distance_restriction": 3.1879578100106865}, {"id": 3328600577, "lat": 50.0273365, "lon": 19.5199681, "way_id": 326239129, "landuse": "farmland", "closest_distance_restriction": 3.1977820902255374}, {"id": 3328600578, "lat": 50.0273374, "lon": 19.5198588, "way_id": 326239129, "landuse": "farmland", "closest_distance_restriction": 3.2054150396840178}, {"id": 3328600579, "lat": 50.0273309, "lon": 19.5196248, "way_id": 326239129, "landuse": "farmland", "closest_distance_restriction": 3.2219438630576143}, {"id": 3328600580, "lat": 50.0273357, "lon": 19.519492, "way_id": 326239129, "landuse": "farmland", "closest_distance_restriction": 3.2311396574150058}, {"id": 3328600581, "lat": 50.0273964, "lon": 19.5193901, "way_id": 326239129, "landuse": "farmland", "closest_distance_restriction": 3.2369607873160073}, {"id": 3328600582, "lat": 50.0275222, "lon": 19.5191372, "way_id": 326239129, "landuse": "farmland", "closest_distance_restriction": 3.252014394677355}, {"id": 3328600583, "lat": 50.0275491, "lon": 19.5190444, "way_id": 326239129, "landuse": "farmland", "closest_distance_restriction": 3.257962012628654}, {"id": 3328600584, "lat": 50.0275584, "lon": 19.5189389, "way_id": 326239129, "landuse": "farmland", "closest_distance_restriction": 3.2651714216184287}, {"id": 3328600585, "lat": 50.0275608, "lon": 19.5188061, "way_id": 326239129, "landuse": "farmland", "closest_distance_restriction": 3.2744415163867493}, {"id": 3328600586, "lat": 50.0275093, "lon": 19.5186314, "way_id": 326239129, "landuse": "farmland", "closest_distance_restriction": 3.287770839849384}, {"id": 3328600587, "lat": 50.0274112, "lon": 19.5183367, "way_id": 326239129, "landuse": "farmland", "closest_distance_restriction": 3.3039144488733885}, {"id": 3328600588, "lat": 50.0273434, "lon": 19.518182, "way_id": 326239129, "landuse": "farmland", "closest_distance_restriction": 3.305526251867764}, {"id": 3328600589, "lat": 50.0270874, "lon": 19.5177017, "way_id": 326239129, "landuse": "farmland", "closest_distance_restriction": 3.3153961103687624}, {"id": 3328600591, "lat": 50.0269382, "lon": 19.5174177, "way_id": 326239129, "landuse": "farmland", "closest_distance_restriction": 3.3212827408077277}, {"id": 3328600592, "lat": 50.0268689, "lon": 19.5174282, "way_id": 326239129, "landuse": "farmland", "closest_distance_restriction": 3.3285350771461424}, {"id": 3328602193, "lat": 50.0268116, "lon": 19.5174634, "way_id": 326239129, "landuse": "farmland", "closest_distance_restriction": 3.335363788461371}, {"id": 3328602194, "lat": 50.0267122, "lon": 19.5174561, "way_id": 326239129, "landuse": "farmland", "closest_distance_restriction": 3.3450718838275426}, {"id": 3328602195, "lat": 50.0266327, "lon": 19.5174052, "way_id": 326239129, "landuse": "farmland", "closest_distance_restriction": 3.3514399406576985}, {"id": 3328602196, "lat": 50.0265731, "lon": 19.5173579, "way_id": 326239129, "landuse": "farmland", "closest_distance_restriction": 3.3559406366077114}, {"id": 3328602197, "lat": 50.0265252, "lon": 19.5172451, "way_id": 326239129, "landuse": "farmland", "closest_distance_restriction": 3.3572585469705576}, {"id": 3328602199, "lat": 50.0268111, "lon": 19.5209098, "way_id": 326239130, "landuse": "farmland", "closest_distance_restriction": 3.1442394762380563}, {"id": 3328602200, "lat": 50.0267303, "lon": 19.520667, "way_id": 326239130, "landuse": "farmland", "closest_distance_restriction": 3.1631416262931085}, {"id": 3328602201, "lat": 50.0266475, "lon": 19.5204423, "way_id": 326239130, "landuse": "farmland", "closest_distance_restriction": 3.1808409065857495}, {"id": 3328602202, "lat": 50.0265763, "lon": 19.5203374, "way_id": 326239130, "landuse": "farmland", "closest_distance_restriction": 3.1899208796403005}, {"id": 3328602203, "lat": 50.0265763, "lon": 19.5201366, "way_id": 326239130, "landuse": "farmland", "closest_distance_restriction": 3.2038973203467527}, {"id": 3328602204, "lat": 50.0265666, "lon": 19.5200077, "way_id": 326239130, "landuse": "farmland", "closest_distance_restriction": 3.213112586576766}, {"id": 3328602205, "lat": 50.026403, "lon": 19.5192825, "way_id": 326239130, "landuse": "farmland", "closest_distance_restriction": 3.2676829054685625}, {"id": 3328602206, "lat": 50.0262817, "lon": 19.5186592, "way_id": 326239130, "landuse": "farmland", "closest_distance_restriction": 3.314106459034583}, {"id": 3328602207, "lat": 50.0259717, "lon": 19.5172327, "way_id": 326239130, "landuse": "farmland", "closest_distance_restriction": 3.4125180455682913}, {"id": 3328602208, "lat": 50.0258427, "lon": 19.5166094, "way_id": 326239130, "landuse": "farmland", "closest_distance_restriction": 3.406950188123056}, {"id": 3328602209, "lat": 50.0257465, "lon": 19.5162497, "way_id": 326239130, "landuse": "farmland", "closest_distance_restriction": 3.406237896893178}, {"id": 3328602210, "lat": 50.0256194, "lon": 19.5158212, "way_id": 326239130, "landuse": "farmland", "closest_distance_restriction": 3.4069627015934}, {"id": 3328602211, "lat": 50.0254423, "lon": 19.5151679, "way_id": 326239130, "landuse": "farmland", "closest_distance_restriction": 3.406994302993592}, {"id": 3328602212, "lat": 50.0253845, "lon": 19.5150061, "way_id": 326239130, "landuse": "farmland", "closest_distance_restriction": 3.408553389449752}, {"id": 3328602213, "lat": 50.025269, "lon": 19.5148053, "way_id": 326239130, "landuse": "farmland", "closest_distance_restriction": 3.4150739130585426}, {"id": 3328602214, "lat": 50.0250125, "lon": 19.514442, "way_id": 326239130, "landuse": "farmland", "closest_distance_restriction": 3.4320376188289248}, {"id": 3328602215, "lat": 50.0248504, "lon": 19.5147202, "way_id": 326239130, "landuse": "farmland", "closest_distance_restriction": 3.456073546081096}, {"id": 3328602216, "lat": 50.0246232, "lon": 19.5151572, "way_id": 326239130, "landuse": "farmland", "closest_distance_restriction": 3.491080266465428}, {"id": 3328602218, "lat": 50.0243904, "lon": 19.5157918, "way_id": 326239130, "landuse": "farmland", "closest_distance_restriction": 3.532119684934451}, {"id": 3328602220, "lat": 50.024246, "lon": 19.5164342, "way_id": 326239130, "landuse": "farmland", "closest_distance_restriction": 3.522816019929046}, {"id": 3328602222, "lat": 50.024195, "lon": 19.5170267, "way_id": 326239130, "landuse": "farmland", "closest_distance_restriction": 3.4833604551545347}, {"id": 3328602223, "lat": 50.024202, "lon": 19.5177929, "way_id": 326239130, "landuse": "farmland", "closest_distance_restriction": 3.430313988965375}, {"id": 3328602224, "lat": 50.0242341, "lon": 19.5181076, "way_id": 326239130, "landuse": "farmland", "closest_distance_restriction": 3.4076847761112425}, {"id": 3328602225, "lat": 50.0243332, "lon": 19.518798, "way_id": 326239130, "landuse": "farmland", "closest_distance_restriction": 3.3572032683072393}, {"id": 3328602226, "lat": 50.0245289, "lon": 19.5199596, "way_id": 326239130, "landuse": "farmland", "closest_distance_restriction": 3.271419649529496}, {"id": 3328602227, "lat": 50.024682, "lon": 19.5209311, "way_id": 326239130, "landuse": "farmland", "closest_distance_restriction": 3.1999863521407224}, {"id": 3328602229, "lat": 50.0247742, "lon": 19.5215271, "way_id": 326239130, "landuse": "farmland", "closest_distance_restriction": 3.156214671459988}, {"id": 3328602230, "lat": 50.0248859, "lon": 19.5219556, "way_id": 326239130, "landuse": "farmland", "closest_distance_restriction": 3.123408190239291}, {"id": 3328602231, "lat": 50.0248705, "lon": 19.5220006, "way_id": 326239130, "landuse": "farmland", "closest_distance_restriction": 3.120760590250256}, {"id": 3328602232, "lat": 50.0249417, "lon": 19.5220426, "way_id": 326239130, "landuse": "farmland", "closest_distance_restriction": 3.1157786477630967}, {"id": 3328602233, "lat": 50.0251188, "lon": 19.5220306, "way_id": 326239130, "landuse": "farmland", "closest_distance_restriction": 3.111493055925726}, {"id": 3328602234, "lat": 50.0253133, "lon": 19.5219796, "way_id": 326239130, "landuse": "farmland", "closest_distance_restriction": 3.1095397151611484}, {"id": 3328602235, "lat": 50.0254789, "lon": 19.5218867, "way_id": 326239130, "landuse": "farmland", "closest_distance_restriction": 3.1114253657525515}, {"id": 3328602236, "lat": 50.0255251, "lon": 19.5218568, "way_id": 326239130, "landuse": "farmland", "closest_distance_restriction": 3.112249201935432}, {"id": 3328602237, "lat": 50.0256059, "lon": 19.5217668, "way_id": 326239130, "landuse": "farmland", "closest_distance_restriction": 3.116329007870356}, {"id": 3328602238, "lat": 50.0257368, "lon": 19.521581, "way_id": 326239130, "landuse": "farmland", "closest_distance_restriction": 3.125788154985185}, {"id": 3328602239, "lat": 50.0257965, "lon": 19.5214222, "way_id": 326239130, "landuse": "farmland", "closest_distance_restriction": 3.135281596873396}, {"id": 3328602240, "lat": 50.0258216, "lon": 19.5213563, "way_id": 326239130, "landuse": "farmland", "closest_distance_restriction": 3.139220672919223}, {"id": 3328602241, "lat": 50.0258293, "lon": 19.5213173, "way_id": 326239130, "landuse": "farmland", "closest_distance_restriction": 3.141736136715047}, {"id": 3328602242, "lat": 50.0258986, "lon": 19.5212364, "way_id": 326239130, "landuse": "farmland", "closest_distance_restriction": 3.1455727027242912}, {"id": 3328602243, "lat": 50.0258986, "lon": 19.5211465, "way_id": 326239130, "landuse": "farmland", "closest_distance_restriction": 3.1517869737105317}, {"id": 3328602244, "lat": 50.0258755, "lon": 19.5208438, "way_id": 326239130, "landuse": "farmland", "closest_distance_restriction": 3.17336121964026}, {"id": 3328602245, "lat": 50.0258004, "lon": 19.5203733, "way_id": 326239130, "landuse": "farmland", "closest_distance_restriction": 3.2079920010618794}, {"id": 3328602246, "lat": 50.025733, "lon": 19.5199598, "way_id": 326239130, "landuse": "farmland", "closest_distance_restriction": 3.238466443803745}, {"id": 3328602247, "lat": 50.0257099, "lon": 19.5198789, "way_id": 326239130, "landuse": "farmland", "closest_distance_restriction": 3.2447055888171747}, {"id": 3328602248, "lat": 50.0256964, "lon": 19.519789, "way_id": 326239130, "landuse": "farmland", "closest_distance_restriction": 3.251298866453381}, {"id": 3328602249, "lat": 50.0256906, "lon": 19.5196421, "way_id": 326239130, "landuse": "farmland", "closest_distance_restriction": 3.261618782913559}, {"id": 3328602250, "lat": 50.0256675, "lon": 19.5192226, "way_id": 326239130, "landuse": "farmland", "closest_distance_restriction": 3.291277047489542}, {"id": 3328602251, "lat": 50.025631, "lon": 19.5181647, "way_id": 326239130, "landuse": "farmland", "closest_distance_restriction": 3.3655092041115497}, {"id": 3328602252, "lat": 50.0259698, "lon": 19.5182456, "way_id": 326239130, "landuse": "farmland", "closest_distance_restriction": 3.3508613080583562}, {"id": 3328602253, "lat": 50.0260218, "lon": 19.5184764, "way_id": 326239130, "landuse": "farmland", "closest_distance_restriction": 3.3334776120524996}, {"id": 3328602254, "lat": 50.0260545, "lon": 19.5187221, "way_id": 326239130, "landuse": "farmland", "closest_distance_restriction": 3.315562460590848}, {"id": 3328602255, "lat": 50.0260699, "lon": 19.5192915, "way_id": 326239130, "landuse": "farmland", "closest_distance_restriction": 3.275628485292908}, {"id": 3328602256, "lat": 50.0260391, "lon": 19.5194084, "way_id": 326239130, "landuse": "farmland", "closest_distance_restriction": 3.268330308958065}, {"id": 3328602257, "lat": 50.0260179, "lon": 19.5196781, "way_id": 326239130, "landuse": "farmland", "closest_distance_restriction": 3.250188451930221}, {"id": 3328602258, "lat": 50.0260333, "lon": 19.5199088, "way_id": 326239130, "landuse": "farmland", "closest_distance_restriction": 3.233780631006413}, {"id": 3328602259, "lat": 50.0260603, "lon": 19.5200737, "way_id": 326239130, "landuse": "farmland", "closest_distance_restriction": 3.221624492657034}, {"id": 3328602260, "lat": 50.0261084, "lon": 19.5201726, "way_id": 326239130, "landuse": "farmland", "closest_distance_restriction": 3.2134803838150394}, {"id": 3328602261, "lat": 50.0263125, "lon": 19.5204393, "way_id": 326239130, "landuse": "farmland", "closest_distance_restriction": 3.189586089245801}, {"id": 3328602262, "lat": 50.0265301, "lon": 19.520658, "way_id": 326239130, "landuse": "farmland", "closest_distance_restriction": 3.1687830967802575}, {"id": 3328602263, "lat": 50.0266359, "lon": 19.5207389, "way_id": 326239130, "landuse": "farmland", "closest_distance_restriction": 3.1604839628079833}, {"id": 3328602264, "lat": 50.0255796, "lon": 19.5137042, "way_id": 326239131, "landuse": "farmland", "closest_distance_restriction": 3.3542372861421947}, {"id": 3328602265, "lat": 50.0251483, "lon": 19.5141139, "way_id": 326239131, "landuse": "farmland", "closest_distance_restriction": 3.4094903906350504}, {"id": 3328602266, "lat": 50.0252751, "lon": 19.5145631, "way_id": 326239131, "landuse": "farmland", "closest_distance_restriction": 3.4080300575081943}, {"id": 3328602267, "lat": 50.0253044, "lon": 19.5146813, "way_id": 326239131, "landuse": "farmland", "closest_distance_restriction": 3.4081253521838355}, {"id": 3328602268, "lat": 50.0253336, "lon": 19.5147668, "way_id": 326239131, "landuse": "farmland", "closest_distance_restriction": 3.4073832315749373}, {"id": 3328602269, "lat": 50.0253944, "lon": 19.5148815, "way_id": 326239131, "landuse": "farmland", "closest_distance_restriction": 3.4041805765152047}, {"id": 3328602270, "lat": 50.0254493, "lon": 19.5149779, "way_id": 326239131, "landuse": "farmland", "closest_distance_restriction": 3.401120966311508}, {"id": 3328602271, "lat": 50.0255276, "lon": 19.5150816, "way_id": 326239131, "landuse": "farmland", "closest_distance_restriction": 3.395875798438791}, {"id": 3328602272, "lat": 50.0257731, "lon": 19.5154418, "way_id": 326239131, "landuse": "farmland", "closest_distance_restriction": 3.380604280150579}, {"id": 3328602273, "lat": 50.0259449, "lon": 19.5156965, "way_id": 326239131, "landuse": "farmland", "closest_distance_restriction": 3.3701990265952753}, {"id": 3328602274, "lat": 50.0259764, "lon": 19.5157438, "way_id": 326239131, "landuse": "farmland", "closest_distance_restriction": 3.3683271689977166}, {"id": 3328602275, "lat": 50.025987, "lon": 19.5157274, "way_id": 326239131, "landuse": "farmland", "closest_distance_restriction": 3.3667797092842933}, {"id": 3328602276, "lat": 50.02598, "lon": 19.5156456, "way_id": 326239131, "landuse": "farmland", "closest_distance_restriction": 3.365174373999527}, {"id": 3328602277, "lat": 50.0259449, "lon": 19.5155018, "way_id": 326239131, "landuse": "farmland", "closest_distance_restriction": 3.364705766035029}, {"id": 3328602278, "lat": 50.025904, "lon": 19.5151332, "way_id": 326239131, "landuse": "farmland", "closest_distance_restriction": 3.358634090114485}, {"id": 3328965864, "lat": 50.051853, "lon": 19.5834231, "way_id": 326275077, "landuse": "farmland", "closest_distance_restriction": 1.6157861506023226}, {"id": 3328965865, "lat": 50.0517676, "lon": 19.5836501, "way_id": 326275077, "landuse": "farmland", "closest_distance_restriction": 1.6013921918520662}, {"id": 3328965866, "lat": 50.0516838, "lon": 19.5835718, "way_id": 326275077, "landuse": "farmland", "closest_distance_restriction": 1.5944876565876183}, {"id": 3328965867, "lat": 50.051394, "lon": 19.583204, "way_id": 326275077, "landuse": "farmland", "closest_distance_restriction": 1.5734290114947522}, {"id": 3328965870, "lat": 50.0512201, "lon": 19.5826697, "way_id": 326275077, "landuse": "farmland", "closest_distance_restriction": 1.5696514115689233}, {"id": 3328965871, "lat": 50.0517218, "lon": 19.5836172, "way_id": 326275077, "landuse": "farmland", "closest_distance_restriction": 1.5973762697401142}, {"id": 3328965872, "lat": 50.0517416, "lon": 19.5836521, "way_id": 326275077, "landuse": "farmland", "closest_distance_restriction": 1.598618609257854}, {"id": 3328965873, "lat": 50.0517857, "lon": 19.5842004, "way_id": 326275079, "landuse": "farmland", "closest_distance_restriction": 1.5906619852816937}, {"id": 3328965874, "lat": 50.0516128, "lon": 19.5846443, "way_id": 326275079, "landuse": "farmland", "closest_distance_restriction": 1.562736951815278}, {"id": 3328965884, "lat": 50.0514274, "lon": 19.5836763, "way_id": 326275079, "landuse": "farmland", "closest_distance_restriction": 1.5651348292693026}, {"id": 3328965885, "lat": 50.0516393, "lon": 19.5839504, "way_id": 326275079, "landuse": "farmland", "closest_distance_restriction": 1.5808794320574187}, {"id": 3328965886, "lat": 50.0516564, "lon": 19.58401, "way_id": 326275079, "landuse": "farmland", "closest_distance_restriction": 1.5813086130191356}, {"id": 3328965887, "lat": 50.0516833, "lon": 19.5840829, "way_id": 326275079, "landuse": "farmland", "closest_distance_restriction": 1.5824830989168481}, {"id": 3328967541, "lat": 50.0545521, "lon": 19.5841318, "way_id": 326274924, "landuse": "farmland", "closest_distance_restriction": 1.886790623654968}, {"id": 3328967542, "lat": 50.0545328, "lon": 19.5842822, "way_id": 326274924, "landuse": "farmland", "closest_distance_restriction": 1.881909181258842}, {"id": 3328967543, "lat": 50.0544969, "lon": 19.5843853, "way_id": 326274924, "landuse": "farmland", "closest_distance_restriction": 1.8761556575626543}, {"id": 3328967544, "lat": 50.05413, "lon": 19.584033, "way_id": 326274924, "landuse": "farmland", "closest_distance_restriction": 1.8434870472150486}, {"id": 3328967545, "lat": 50.0535119, "lon": 19.5833067, "way_id": 326274924, "landuse": "farmland", "closest_distance_restriction": 1.7929317058355778}, {"id": 3328967546, "lat": 50.0534672, "lon": 19.5832608, "way_id": 326274924, "landuse": "farmland", "closest_distance_restriction": 1.7892326164998296}, {"id": 3328967547, "lat": 50.0534509, "lon": 19.5832291, "way_id": 326274924, "landuse": "farmland", "closest_distance_restriction": 1.7882227982412469}, {"id": 3328967548, "lat": 50.0534479, "lon": 19.5831594, "way_id": 326274924, "landuse": "farmland", "closest_distance_restriction": 1.7894794092329565}, {"id": 3328967549, "lat": 50.0534672, "lon": 19.5829076, "way_id": 326274924, "landuse": "farmland", "closest_distance_restriction": 1.7972950397246323}, {"id": 3328967550, "lat": 50.0536441, "lon": 19.5831024, "way_id": 326274924, "landuse": "farmland", "closest_distance_restriction": 1.8114620237294332}, {"id": 3328967551, "lat": 50.0534035, "lon": 19.5829086, "way_id": 326274925, "landuse": "farmland", "closest_distance_restriction": 1.7905770624503266}, {"id": 3328967552, "lat": 50.0534066, "lon": 19.5833141, "way_id": 326274925, "landuse": "farmland", "closest_distance_restriction": 1.7816417153789357}, {"id": 3328967553, "lat": 50.0533954, "lon": 19.5833157, "way_id": 326274925, "landuse": "farmland", "closest_distance_restriction": 1.7804230561868564}, {"id": 3328967554, "lat": 50.0533903, "lon": 19.5832856, "way_id": 326274925, "landuse": "farmland", "closest_distance_restriction": 1.7805578786316267}, {"id": 3328967555, "lat": 50.0532581, "lon": 19.5831826, "way_id": 326274925, "landuse": "farmland", "closest_distance_restriction": 1.768947600179533}, {"id": 3328967556, "lat": 50.0530578, "lon": 19.5829847, "way_id": 326274925, "landuse": "farmland", "closest_distance_restriction": 1.7524910319567815}, {"id": 3328967557, "lat": 50.0530486, "lon": 19.5829577, "way_id": 326274925, "landuse": "farmland", "closest_distance_restriction": 1.7521655956391586}, {"id": 3328967558, "lat": 50.0530456, "lon": 19.5828595, "way_id": 326274925, "landuse": "farmland", "closest_distance_restriction": 1.7541942044918388}, {"id": 3328967559, "lat": 50.0530537, "lon": 19.5827534, "way_id": 326274925, "landuse": "farmland", "closest_distance_restriction": 1.7576009890630893}, {"id": 3328967560, "lat": 50.0530588, "lon": 19.5827043, "way_id": 326274925, "landuse": "farmland", "closest_distance_restriction": 1.7593277770715363}, {"id": 3328967561, "lat": 50.0530893, "lon": 19.5826695, "way_id": 326274925, "landuse": "farmland", "closest_distance_restriction": 1.7633639762454407}, {"id": 3328967562, "lat": 50.0531991, "lon": 19.5827328, "way_id": 326274925, "landuse": "farmland", "closest_distance_restriction": 1.773311873160697}, {"id": 3393204879, "lat": 50.0434705, "lon": 19.5431157, "way_id": 332209679, "landuse": "farmland", "closest_distance_restriction": 1.6898331461639777}, {"id": 3393204880, "lat": 50.0428995, "lon": 19.5421582, "way_id": 332209679, "landuse": "farmland", "closest_distance_restriction": 1.7163061201661487}, {"id": 3393204881, "lat": 50.0428493, "lon": 19.5421093, "way_id": 332209679, "landuse": "farmland", "closest_distance_restriction": 1.716650739407395}, {"id": 3393204882, "lat": 50.0426862, "lon": 19.5423341, "way_id": 332209679, "landuse": "farmland", "closest_distance_restriction": 1.6938486148712912}, {"id": 3393204883, "lat": 50.0426569, "lon": 19.542536, "way_id": 332209679, "landuse": "farmland", "closest_distance_restriction": 1.67963841977304}, {"id": 3393204884, "lat": 50.0426004, "lon": 19.5427379, "way_id": 332209679, "landuse": "farmland", "closest_distance_restriction": 1.6639774633142805}, {"id": 3393204885, "lat": 50.0425565, "lon": 19.5429821, "way_id": 332209679, "landuse": "farmland", "closest_distance_restriction": 1.646351775977106}, {"id": 3393204886, "lat": 50.0424749, "lon": 19.5431482, "way_id": 332209679, "landuse": "farmland", "closest_distance_restriction": 1.6315809325970674}, {"id": 3393204887, "lat": 50.0423495, "lon": 19.5434218, "way_id": 332209679, "landuse": "farmland", "closest_distance_restriction": 1.6077394438838868}, {"id": 3393204888, "lat": 50.0421341, "lon": 19.543513, "way_id": 332209679, "landuse": "farmland", "closest_distance_restriction": 1.5905930854336843}, {"id": 3393204889, "lat": 50.0419912, "lon": 19.5436417, "way_id": 332209679, "landuse": "farmland", "closest_distance_restriction": 1.5750211056122083}, {"id": 3393204890, "lat": 50.0418809, "lon": 19.543741, "way_id": 332209679, "landuse": "farmland", "closest_distance_restriction": 1.5630453867264094}, {"id": 3393209398, "lat": 50.0429712, "lon": 19.5418637, "way_id": 332209680, "landuse": "farmland", "closest_distance_restriction": 1.7385602544393715}, {"id": 3393209399, "lat": 50.0431745, "lon": 19.5421075, "way_id": 332209680, "landuse": "farmland", "closest_distance_restriction": 1.7345374342613686}, {"id": 3393209400, "lat": 50.043455, "lon": 19.5426242, "way_id": 332209680, "landuse": "farmland", "closest_distance_restriction": 1.718749969658941}, {"id": 3393209401, "lat": 50.0435765, "lon": 19.5425442, "way_id": 332209680, "landuse": "farmland", "closest_distance_restriction": 1.7306978598082803}, {"id": 3393209402, "lat": 50.0439882, "lon": 19.5422116, "way_id": 332209680, "landuse": "farmland", "closest_distance_restriction": 1.7751857266033102}, {"id": 3393209403, "lat": 50.0440019, "lon": 19.5421982, "way_id": 332209680, "landuse": "farmland", "closest_distance_restriction": 1.7768129544645828}, {"id": 3393209404, "lat": 50.04416, "lon": 19.5424968, "way_id": 332209680, "landuse": "farmland", "closest_distance_restriction": 1.7685344484935555}, {"id": 3393209405, "lat": 50.0442782, "lon": 19.5423486, "way_id": 332209680, "landuse": "farmland", "closest_distance_restriction": 1.7846200806599133}, {"id": 3393209406, "lat": 50.0445297, "lon": 19.5420723, "way_id": 332209680, "landuse": "farmland", "closest_distance_restriction": 1.8165835291696444}, {"id": 3393209407, "lat": 50.0443213, "lon": 19.541568, "way_id": 332209680, "landuse": "farmland", "closest_distance_restriction": 1.833872223260931}, {"id": 3393209408, "lat": 50.0442661, "lon": 19.541568, "way_id": 332209680, "landuse": "farmland", "closest_distance_restriction": 1.8305532334361037}, {"id": 3393209409, "lat": 50.0441456, "lon": 19.541729, "way_id": 332209680, "landuse": "farmland", "closest_distance_restriction": 1.8136511306856555}, {"id": 3393209410, "lat": 50.0440129, "lon": 19.5418121, "way_id": 332209680, "landuse": "farmland", "closest_distance_restriction": 1.8007432226873368}, {"id": 3393209411, "lat": 50.043913, "lon": 19.5417786, "way_id": 332209680, "landuse": "farmland", "closest_distance_restriction": 1.796880212996558}, {"id": 3393209412, "lat": 50.043851, "lon": 19.5417142, "way_id": 332209680, "landuse": "farmland", "closest_distance_restriction": 1.797166576789237}, {"id": 3393209413, "lat": 50.0437689, "lon": 19.5416813, "way_id": 332209680, "landuse": "farmland", "closest_distance_restriction": 1.7944077312462812}, {"id": 3393209414, "lat": 50.043657, "lon": 19.5417622, "way_id": 332209680, "landuse": "farmland", "closest_distance_restriction": 1.7830228101383119}, {"id": 3393209415, "lat": 50.0434857, "lon": 19.5419001, "way_id": 332209680, "landuse": "farmland", "closest_distance_restriction": 1.7647954854920054}, {"id": 3393209416, "lat": 50.0431643, "lon": 19.5415615, "way_id": 332209680, "landuse": "farmland", "closest_distance_restriction": 1.7678684537115337}, {"id": 3653086257, "lat": 50.0670957, "lon": 19.3959787, "way_id": 360757390, "landuse": "farmland", "closest_distance_restriction": 1.618744831676935}, {"id": 3653086258, "lat": 50.0670654, "lon": 19.3958083, "way_id": 360757390, "landuse": "farmland", "closest_distance_restriction": 1.6135460766126555}, {"id": 3653086259, "lat": 50.0670176, "lon": 19.3955388, "way_id": 360757390, "landuse": "farmland", "closest_distance_restriction": 1.605505481753865}, {"id": 3653086260, "lat": 50.0669251, "lon": 19.3952481, "way_id": 360757390, "landuse": "farmland", "closest_distance_restriction": 1.5925511409187458}, {"id": 3653086289, "lat": 50.064817, "lon": 19.4037271, "way_id": 360757390, "landuse": "farmland", "closest_distance_restriction": 1.5690507981256894}, {"id": 3653086290, "lat": 50.0648602, "lon": 19.4042073, "way_id": 360757390, "landuse": "farmland", "closest_distance_restriction": 1.5910415246654823}, {"id": 3653086291, "lat": 50.0649218, "lon": 19.4045338, "way_id": 360757390, "landuse": "farmland", "closest_distance_restriction": 1.6092678560779343}, {"id": 3653086292, "lat": 50.0649773, "lon": 19.4047546, "way_id": 360757390, "landuse": "farmland", "closest_distance_restriction": 1.6229762073614045}, {"id": 3653086293, "lat": 50.065039, "lon": 19.4049083, "way_id": 360757390, "landuse": "farmland", "closest_distance_restriction": 1.634702991811807}, {"id": 3653086294, "lat": 50.0650883, "lon": 19.4051099, "way_id": 360757390, "landuse": "farmland", "closest_distance_restriction": 1.6471742285387245}, {"id": 3653086295, "lat": 50.0651992, "lon": 19.4052732, "way_id": 360757390, "landuse": "farmland", "closest_distance_restriction": 1.663887578249086}, {"id": 3653086296, "lat": 50.0652978, "lon": 19.4054748, "way_id": 360757390, "landuse": "farmland", "closest_distance_restriction": 1.6809818627750053}, {"id": 3653086297, "lat": 50.0653718, "lon": 19.4057149, "way_id": 360757390, "landuse": "farmland", "closest_distance_restriction": 1.6973627977441}, {"id": 3653086298, "lat": 50.0654889, "lon": 19.4060318, "way_id": 360757390, "landuse": "farmland", "closest_distance_restriction": 1.7208485451756321}, {"id": 3653086299, "lat": 50.0655382, "lon": 19.4061854, "way_id": 360757390, "landuse": "farmland", "closest_distance_restriction": 1.7315762304764706}, {"id": 3653086300, "lat": 50.0657108, "lon": 19.4061278, "way_id": 360757390, "landuse": "farmland", "closest_distance_restriction": 1.7450981595062516}, {"id": 3653086301, "lat": 50.0658195, "lon": 19.4061291, "way_id": 360757390, "landuse": "farmland", "closest_distance_restriction": 1.755168139683616}, {"id": 3653086302, "lat": 50.0659243, "lon": 19.4060708, "way_id": 360757390, "landuse": "farmland", "closest_distance_restriction": 1.7608220386035587}, {"id": 3653086303, "lat": 50.0660141, "lon": 19.4060533, "way_id": 360757390, "landuse": "farmland", "closest_distance_restriction": 1.7560748599938387}, {"id": 3653086304, "lat": 50.0660964, "lon": 19.4060417, "way_id": 360757390, "landuse": "farmland", "closest_distance_restriction": 1.751503708501333}, {"id": 3653086305, "lat": 50.0665994, "lon": 19.4058608, "way_id": 360757390, "landuse": "farmland", "closest_distance_restriction": 1.7257913908460099}, {"id": 3653086312, "lat": 50.0660962, "lon": 19.4036737, "way_id": 360757390, "landuse": "farmland", "closest_distance_restriction": 1.6907651785929758}, {"id": 3653086313, "lat": 50.0660542, "lon": 19.4034506, "way_id": 360757390, "landuse": "farmland", "closest_distance_restriction": 1.6791265826472395}, {"id": 3653086314, "lat": 50.0660239, "lon": 19.40329, "way_id": 360757390, "landuse": "farmland", "closest_distance_restriction": 1.6707938248761223}, {"id": 3653086315, "lat": 50.0659719, "lon": 19.4030139, "way_id": 360757390, "landuse": "farmland", "closest_distance_restriction": 1.6565808302871063}, {"id": 3653086316, "lat": 50.0659262, "lon": 19.402771, "way_id": 360757390, "landuse": "farmland", "closest_distance_restriction": 1.64419215744748}, {"id": 3653086317, "lat": 50.0658766, "lon": 19.4025079, "way_id": 360757390, "landuse": "farmland", "closest_distance_restriction": 1.6308829660858926}, {"id": 3653086318, "lat": 50.0658239, "lon": 19.4022282, "way_id": 360757390, "landuse": "farmland", "closest_distance_restriction": 1.6168767296411457}, {"id": 3653086319, "lat": 50.0657586, "lon": 19.4018813, "way_id": 360757390, "landuse": "farmland", "closest_distance_restriction": 1.599717261627684}, {"id": 3653086320, "lat": 50.0656625, "lon": 19.4013713, "way_id": 360757390, "landuse": "farmland", "closest_distance_restriction": 1.574908395365465}, {"id": 3653086321, "lat": 50.0656124, "lon": 19.4011055, "way_id": 360757390, "landuse": "farmland", "closest_distance_restriction": 1.5621861997198192}, {"id": 3653086379, "lat": 50.0663567, "lon": 19.3975881, "way_id": 360757390, "landuse": "farmland", "closest_distance_restriction": 1.5607806612913768}, {"id": 3653086380, "lat": 50.0663831, "lon": 19.3975657, "way_id": 360757390, "landuse": "farmland", "closest_distance_restriction": 1.5632559790760956}, {"id": 3653086381, "lat": 50.0664257, "lon": 19.3975294, "way_id": 360757390, "landuse": "farmland", "closest_distance_restriction": 1.5672544630243048}, {"id": 3653086382, "lat": 50.0664997, "lon": 19.3974664, "way_id": 360757390, "landuse": "farmland", "closest_distance_restriction": 1.5742209918079781}, {"id": 3653086383, "lat": 50.066543, "lon": 19.3974296, "way_id": 360757390, "landuse": "farmland", "closest_distance_restriction": 1.5783099597866304}, {"id": 3653086384, "lat": 50.0665767, "lon": 19.3974009, "way_id": 360757390, "landuse": "farmland", "closest_distance_restriction": 1.5814972684478357}, {"id": 3653086385, "lat": 50.0666111, "lon": 19.3973716, "way_id": 360757390, "landuse": "farmland", "closest_distance_restriction": 1.584755980423758}, {"id": 3653086386, "lat": 50.0666445, "lon": 19.3972858, "way_id": 360757390, "landuse": "farmland", "closest_distance_restriction": 1.5870227778322987}, {"id": 3653086387, "lat": 50.0666599, "lon": 19.3971507, "way_id": 360757390, "landuse": "farmland", "closest_distance_restriction": 1.5866102031220677}, {"id": 3653086388, "lat": 50.0666658, "lon": 19.3970992, "way_id": 360757390, "landuse": "farmland", "closest_distance_restriction": 1.5864720330888011}, {"id": 3653086389, "lat": 50.066674, "lon": 19.3970266, "way_id": 360757390, "landuse": "farmland", "closest_distance_restriction": 1.5862794091596426}, {"id": 3653086390, "lat": 50.0666846, "lon": 19.3969338, "way_id": 360757390, "landuse": "farmland", "closest_distance_restriction": 1.5860714744699669}, {"id": 3653086391, "lat": 50.0666909, "lon": 19.3968782, "way_id": 360757390, "landuse": "farmland", "closest_distance_restriction": 1.585955015593049}, {"id": 3653086392, "lat": 50.0667013, "lon": 19.396787, "way_id": 360757390, "landuse": "farmland", "closest_distance_restriction": 1.5857933688553965}, {"id": 3653086393, "lat": 50.0667064, "lon": 19.3967425, "way_id": 360757390, "landuse": "farmland", "closest_distance_restriction": 1.585727272997293}, {"id": 3653086394, "lat": 50.0667632, "lon": 19.3966494, "way_id": 360757390, "landuse": "farmland", "closest_distance_restriction": 1.5906458076871206}, {"id": 3653086395, "lat": 50.0668019, "lon": 19.3966228, "way_id": 360757390, "landuse": "farmland", "closest_distance_restriction": 1.5945118736440844}, {"id": 3653086396, "lat": 50.0668398, "lon": 19.3965966, "way_id": 360757390, "landuse": "farmland", "closest_distance_restriction": 1.5983003749306772}, {"id": 3653086397, "lat": 50.0669321, "lon": 19.3965329, "way_id": 360757390, "landuse": "farmland", "closest_distance_restriction": 1.6075460854395784}, {"id": 3653086398, "lat": 50.0669949, "lon": 19.3964896, "way_id": 360757390, "landuse": "farmland", "closest_distance_restriction": 1.613851658738848}, {"id": 3653086399, "lat": 50.0670373, "lon": 19.3964604, "way_id": 360757390, "landuse": "farmland", "closest_distance_restriction": 1.6181158492217034}, {"id": 3653086400, "lat": 50.0670772, "lon": 19.3964328, "way_id": 360757390, "landuse": "farmland", "closest_distance_restriction": 1.6221318010342711}, {"id": 3653086401, "lat": 50.0671342, "lon": 19.3963935, "way_id": 360757390, "landuse": "farmland", "closest_distance_restriction": 1.627878403961314}, {"id": 3792381709, "lat": 50.0375731, "lon": 19.458927, "way_id": 375898746, "landuse": "farmland", "closest_distance_restriction": 1.9362434626814835}, {"id": 3792381710, "lat": 50.0378039, "lon": 19.4580955, "way_id": 375898746, "landuse": "farmland", "closest_distance_restriction": 1.916052519333912}, {"id": 3792381711, "lat": 50.0378728, "lon": 19.4578595, "way_id": 375898746, "landuse": "farmland", "closest_distance_restriction": 1.9103071379284557}, {"id": 3792381712, "lat": 50.0390133, "lon": 19.4593347, "way_id": 375898746, "landuse": "farmland", "closest_distance_restriction": 1.7744580589768448}, {"id": 3792381713, "lat": 50.0387127, "lon": 19.4599451, "way_id": 375898746, "landuse": "farmland", "closest_distance_restriction": 1.8055598028031774}, {"id": 3792381714, "lat": 50.038493, "lon": 19.4597692, "way_id": 375898746, "landuse": "farmland", "closest_distance_restriction": 1.8305051390655465}, {"id": 3792381715, "lat": 50.0379994, "lon": 19.4594468, "way_id": 375898746, "landuse": "farmland", "closest_distance_restriction": 1.8865029904283477}, {"id": 3792381716, "lat": 50.0378404, "lon": 19.4593784, "way_id": 375898746, "landuse": "farmland", "closest_distance_restriction": 1.9044359629758736}, {"id": 3792381717, "lat": 50.0386123, "lon": 19.4598669, "way_id": 375898746, "landuse": "farmland", "closest_distance_restriction": 1.816943822438848}, {"id": 4053486891, "lat": 50.0651164, "lon": 19.405854, "way_id": 402951541, "landuse": "farmland", "closest_distance_restriction": 1.6795525340024673}, {"id": 4053486892, "lat": 50.0649159, "lon": 19.4053756, "way_id": 402951541, "landuse": "farmland", "closest_distance_restriction": 1.6418167746964936}, {"id": 4053486893, "lat": 50.0646113, "lon": 19.4043989, "way_id": 402951541, "landuse": "farmland", "closest_distance_restriction": 1.5750150197166093}, {"id": 4058906241, "lat": 50.0373724, "lon": 19.4197612, "way_id": 403541292, "landuse": "farmland", "closest_distance_restriction": 2.054754450200329}, {"id": 4058906242, "lat": 50.0370117, "lon": 19.4196623, "way_id": 403541292, "landuse": "farmland", "closest_distance_restriction": 2.070812791401232}, {"id": 4058906243, "lat": 50.0356783, "lon": 19.419259, "way_id": 403541292, "landuse": "farmland", "closest_distance_restriction": 2.133738075718988}, {"id": 4058906244, "lat": 50.0356123, "lon": 19.4195951, "way_id": 403541292, "landuse": "farmland", "closest_distance_restriction": 2.1572720755526436}, {"id": 4058906245, "lat": 50.0363844, "lon": 19.4198205, "way_id": 403541292, "landuse": "farmland", "closest_distance_restriction": 2.1195728408553927}, {"id": 4058906246, "lat": 50.036872, "lon": 19.419947, "way_id": 403541292, "landuse": "farmland", "closest_distance_restriction": 2.0963494852654954}, {"id": 4090310210, "lat": 50.0508903, "lon": 19.580142, "way_id": 406995613, "landuse": "farmland", "closest_distance_restriction": 1.6152629730459127}, {"id": 4090310255, "lat": 50.0519211, "lon": 19.5791262, "way_id": 406995613, "landuse": "farmland", "closest_distance_restriction": 1.7506927914613273}, {"id": 4090310257, "lat": 50.0512604, "lon": 19.5785667, "way_id": 406995613, "landuse": "farmland", "closest_distance_restriction": 1.7076075959133836}, {"id": 4090310258, "lat": 50.0514265, "lon": 19.5804504, "way_id": 406995613, "landuse": "farmland", "closest_distance_restriction": 1.6574223835970125}, {"id": 4090310259, "lat": 50.0521346, "lon": 19.5812535, "way_id": 406995613, "landuse": "farmland", "closest_distance_restriction": 1.7032445537288745}, {"id": 4090310260, "lat": 50.0527119, "lon": 19.5820027, "way_id": 406995613, "landuse": "farmland", "closest_distance_restriction": 1.7412104662607204}, {"id": 4090310261, "lat": 50.0525965, "lon": 19.5822245, "way_id": 406995613, "landuse": "farmland", "closest_distance_restriction": 1.7234194760478407}, {"id": 4090310262, "lat": 50.0529467, "lon": 19.5827639, "way_id": 406995613, "landuse": "farmland", "closest_distance_restriction": 1.7461590150062667}, {"id": 4090310263, "lat": 50.0530467, "lon": 19.5821885, "way_id": 406995613, "landuse": "farmland", "closest_distance_restriction": 1.7709797728880299}, {"id": 4355153455, "lat": 50.0264355, "lon": 19.513256, "way_id": 437719332, "landuse": "farmland", "closest_distance_restriction": 3.2539055488952124}, {"id": 4355153456, "lat": 50.0260214, "lon": 19.5135051, "way_id": 437719332, "landuse": "farmland", "closest_distance_restriction": 3.3032699008676087}, {"id": 4355153457, "lat": 50.0263008, "lon": 19.5150631, "way_id": 437719332, "landuse": "farmland", "closest_distance_restriction": 3.316022913669503}, {"id": 4355153458, "lat": 50.0269461, "lon": 19.5172024, "way_id": 437719332, "landuse": "farmland", "closest_distance_restriction": 3.313760883244227}, {"id": 4355153459, "lat": 50.027477, "lon": 19.5171549, "way_id": 437719332, "landuse": "farmland", "closest_distance_restriction": 3.25923084265434}, {"id": 4355153460, "lat": 50.0271518, "lon": 19.5159093, "way_id": 437719332, "landuse": "farmland", "closest_distance_restriction": 3.253733012425744}, {"id": 4355153461, "lat": 50.0274135, "lon": 19.5157076, "way_id": 437719332, "landuse": "farmland", "closest_distance_restriction": 3.221277564559736}, {"id": 4355153462, "lat": 50.0269511, "lon": 19.5145767, "way_id": 437719332, "landuse": "farmland", "closest_distance_restriction": 3.23589194908466}, {"id": 4355153477, "lat": 50.0291332, "lon": 19.5106956, "way_id": 437719334, "landuse": "farmland", "closest_distance_restriction": 2.9090799003349916}, {"id": 4355153478, "lat": 50.0292678, "lon": 19.510312, "way_id": 437719334, "landuse": "farmland", "closest_distance_restriction": 2.8858324909679918}, {"id": 4355153479, "lat": 50.0295041, "lon": 19.5098533, "way_id": 437719334, "landuse": "farmland", "closest_distance_restriction": 2.850301753122933}, {"id": 4355153480, "lat": 50.0302153, "lon": 19.5096833, "way_id": 437719334, "landuse": "farmland", "closest_distance_restriction": 2.7715674592087485}, {"id": 4355153481, "lat": 50.0308174, "lon": 19.5095923, "way_id": 437719334, "landuse": "farmland", "closest_distance_restriction": 2.7062261273839034}, {"id": 4355153482, "lat": 50.0313914, "lon": 19.5093867, "way_id": 437719334, "landuse": "farmland", "closest_distance_restriction": 2.641162917290463}, {"id": 4355153483, "lat": 50.0323592, "lon": 19.5089597, "way_id": 437719334, "landuse": "farmland", "closest_distance_restriction": 2.5295650322146797}, {"id": 4355153484, "lat": 50.0327732, "lon": 19.5087264, "way_id": 437719334, "landuse": "farmland", "closest_distance_restriction": 2.4806072604193523}, {"id": 4355153485, "lat": 50.0328901, "lon": 19.5086394, "way_id": 437719334, "landuse": "farmland", "closest_distance_restriction": 2.4662731341944624}, {"id": 4355153486, "lat": 50.0330704, "lon": 19.5087066, "way_id": 437719334, "landuse": "farmland", "closest_distance_restriction": 2.449050528111434}, {"id": 4355153487, "lat": 50.0334971, "lon": 19.5098138, "way_id": 437719334, "landuse": "farmland", "closest_distance_restriction": 2.433207878232646}, {"id": 4355153488, "lat": 50.0324506, "lon": 19.5102409, "way_id": 437719334, "landuse": "farmland", "closest_distance_restriction": 2.5525381463559667}, {"id": 4355154189, "lat": 50.0316073, "lon": 19.5106165, "way_id": 437719334, "landuse": "farmland", "closest_distance_restriction": 2.649586516071072}, {"id": 4355154190, "lat": 50.0300934, "lon": 19.511269, "way_id": 437719334, "landuse": "farmland", "closest_distance_restriction": 2.823330072980173}, {"id": 4355154191, "lat": 50.0301163, "lon": 19.5106798, "way_id": 437719334, "landuse": "farmland", "closest_distance_restriction": 2.80600015860427}, {"id": 4470361199, "lat": 50.0601331, "lon": 19.604867, "way_id": 844989116, "landuse": "meadow", "closest_distance_restriction": 2.5934078314889506}, {"id": 4470361209, "lat": 50.060233, "lon": 19.6045512, "way_id": 844989116, "landuse": "meadow", "closest_distance_restriction": 2.5988703075148205}, {"id": 4470361235, "lat": 50.0604446, "lon": 19.6045907, "way_id": 844989116, "landuse": "meadow", "closest_distance_restriction": 2.6224131049612125}, {"id": 4470361245, "lat": 50.0605445, "lon": 19.6047277, "way_id": 844989116, "landuse": "meadow", "closest_distance_restriction": 2.628827311671584}, {"id": 4470361253, "lat": 50.0605877, "lon": 19.6052779, "way_id": 844989116, "landuse": "meadow", "closest_distance_restriction": 2.645306948905069}, {"id": 4470361259, "lat": 50.0606277, "lon": 19.6047241, "way_id": 844989116, "landuse": "meadow", "closest_distance_restriction": 2.6207844041983495}, {"id": 4470361266, "lat": 50.0607248, "lon": 19.6046952, "way_id": 844989116, "landuse": "meadow", "closest_distance_restriction": 2.6104894764835342}, {"id": 4470361274, "lat": 50.060786, "lon": 19.6050597, "way_id": 844989116, "landuse": "meadow", "closest_distance_restriction": 2.618354555232553}, {"id": 4470361275, "lat": 50.0607949, "lon": 19.6046998, "way_id": 844989116, "landuse": "meadow", "closest_distance_restriction": 2.6040093476731525}, {"id": 4470361286, "lat": 50.0608813, "lon": 19.6050852, "way_id": 844989116, "landuse": "meadow", "closest_distance_restriction": 2.6103350877482265}, {"id": 4470361294, "lat": 50.0609723, "lon": 19.6052222, "way_id": 844989116, "landuse": "meadow", "closest_distance_restriction": 2.606995751514096}, {"id": 4470361303, "lat": 50.061099, "lon": 19.6049088, "way_id": 844989116, "landuse": "meadow", "closest_distance_restriction": 2.583138153171486}, {"id": 4470361310, "lat": 50.0611556, "lon": 19.604925, "way_id": 844989116, "landuse": "meadow", "closest_distance_restriction": 2.5784284569192004}, {"id": 4470361314, "lat": 50.0612182, "lon": 19.6051595, "way_id": 844989116, "landuse": "meadow", "closest_distance_restriction": 2.5815339703656974}, {"id": 4470361318, "lat": 50.0613315, "lon": 19.6048693, "way_id": 844989116, "landuse": "meadow", "closest_distance_restriction": 2.559774077825092}, {"id": 4470361322, "lat": 50.0613672, "lon": 19.6052454, "way_id": 844989116, "landuse": "meadow", "closest_distance_restriction": 2.5709285067214687}, {"id": 4470361324, "lat": 50.0613732, "lon": 19.6049622, "way_id": 844989116, "landuse": "meadow", "closest_distance_restriction": 2.55942554363805}, {"id": 4960126290, "lat": 50.0368758, "lon": 19.4750355, "way_id": 506247960, "landuse": "meadow", "closest_distance_restriction": 2.2120414044637853}, {"id": 4960126291, "lat": 50.0367028, "lon": 19.4751284, "way_id": 506247960, "landuse": "meadow", "closest_distance_restriction": 2.232293866062119}, {"id": 4960126292, "lat": 50.0365591, "lon": 19.4751341, "way_id": 506247960, "landuse": "meadow", "closest_distance_restriction": 2.2470025165921954}, {"id": 4960126293, "lat": 50.0364665, "lon": 19.4752251, "way_id": 506247960, "landuse": "meadow", "closest_distance_restriction": 2.259065620138877}, {"id": 4960126294, "lat": 50.0359792, "lon": 19.47499, "way_id": 506247960, "landuse": "meadow", "closest_distance_restriction": 2.3017419362174456}, {"id": 4960126295, "lat": 50.0360279, "lon": 19.4745063, "way_id": 506247960, "landuse": "meadow", "closest_distance_restriction": 2.2831783606506093}, {"id": 4960126296, "lat": 50.0362375, "lon": 19.4746068, "way_id": 506247960, "landuse": "meadow", "closest_distance_restriction": 2.2645243333232177}, {"id": 4960126297, "lat": 50.0363471, "lon": 19.4747851, "way_id": 506247960, "landuse": "meadow", "closest_distance_restriction": 2.2583940667353217}, {"id": 4960126298, "lat": 50.0365335, "lon": 19.4749672, "way_id": 506247960, "landuse": "meadow", "closest_distance_restriction": 2.2446982929949453}, {"id": 5635796967, "lat": 50.0436615, "lon": 19.5431298, "way_id": 590250849, "landuse": "meadow", "closest_distance_restriction": 1.7003832461132409}, {"id": 5635796975, "lat": 50.0433204, "lon": 19.5445536, "way_id": 590250849, "landuse": "meadow", "closest_distance_restriction": 1.5945314248889022}, {"id": 5635796976, "lat": 50.043451, "lon": 19.5441023, "way_id": 590250849, "landuse": "meadow", "closest_distance_restriction": 1.6294201316390187}, {"id": 5635796977, "lat": 50.0436377, "lon": 19.5435535, "way_id": 590250849, "landuse": "meadow", "closest_distance_restriction": 1.6735707108592688}, {"id": 5635796978, "lat": 50.0436925, "lon": 19.5431998, "way_id": 590250849, "landuse": "meadow", "closest_distance_restriction": 1.698055543065404}, {"id": 5700189863, "lat": 50.0337725, "lon": 19.481035, "way_id": 599005649, "landuse": "farmland", "closest_distance_restriction": 2.4974365295355065}, {"id": 5700189864, "lat": 50.033195, "lon": 19.4808722, "way_id": 599005649, "landuse": "farmland", "closest_distance_restriction": 2.55996833556287}, {"id": 5700189865, "lat": 50.0328313, "lon": 19.4805997, "way_id": 599005649, "landuse": "farmland", "closest_distance_restriction": 2.604843433575341}, {"id": 5700189866, "lat": 50.032704, "lon": 19.4804652, "way_id": 599005649, "landuse": "farmland", "closest_distance_restriction": 2.621805126128358}, {"id": 5700189867, "lat": 50.0323743, "lon": 19.4802989, "way_id": 599005649, "landuse": "farmland", "closest_distance_restriction": 2.659899648505484}, {"id": 5700189868, "lat": 50.0323675, "lon": 19.4803555, "way_id": 599005649, "landuse": "farmland", "closest_distance_restriction": 2.658769716242518}, {"id": 5700189869, "lat": 50.0326471, "lon": 19.4809536, "way_id": 599005649, "landuse": "farmland", "closest_distance_restriction": 2.611999163740463}, {"id": 5700189870, "lat": 50.0323971, "lon": 19.4813925, "way_id": 599005649, "landuse": "farmland", "closest_distance_restriction": 2.623578079845706}, {"id": 5700189871, "lat": 50.0319788, "lon": 19.4808297, "way_id": 599005649, "landuse": "farmland", "closest_distance_restriction": 2.6827977749920655}, {"id": 5700189872, "lat": 50.0317719, "lon": 19.4812155, "way_id": 599005649, "landuse": "farmland", "closest_distance_restriction": 2.69196125047527}, {"id": 5700189873, "lat": 50.031565, "lon": 19.4824153, "way_id": 599005649, "landuse": "farmland", "closest_distance_restriction": 2.6784818966382242}, {"id": 5700189874, "lat": 50.0320651, "lon": 19.4832612, "way_id": 599005649, "landuse": "farmland", "closest_distance_restriction": 2.6040110408442416}, {"id": 5700189875, "lat": 50.0322698, "lon": 19.4831479, "way_id": 599005649, "landuse": "farmland", "closest_distance_restriction": 2.5860101244614135}, {"id": 5700189876, "lat": 50.0325335, "lon": 19.4829143, "way_id": 599005649, "landuse": "farmland", "closest_distance_restriction": 2.5654124200018518}, {"id": 5700189877, "lat": 50.0329086, "lon": 19.4836045, "way_id": 599005649, "landuse": "farmland", "closest_distance_restriction": 2.507910490340993}, {"id": 5700189878, "lat": 50.033261, "lon": 19.4832435, "way_id": 599005649, "landuse": "farmland", "closest_distance_restriction": 2.4817864700661905}, {"id": 5700189879, "lat": 50.0335519, "lon": 19.4827303, "way_id": 599005649, "landuse": "farmland", "closest_distance_restriction": 2.4669807836241415}, {"id": 5700189880, "lat": 50.0338679, "lon": 19.4822242, "way_id": 599005649, "landuse": "farmland", "closest_distance_restriction": 2.4503214991490796}, {"id": 5700189881, "lat": 50.0340498, "lon": 19.4818384, "way_id": 599005649, "landuse": "farmland", "closest_distance_restriction": 2.4441273223028026}, {"id": 5700189882, "lat": 50.0341476, "lon": 19.4816544, "way_id": 599005649, "landuse": "farmland", "closest_distance_restriction": 2.440237954427237}, {"id": 5700189883, "lat": 50.0342931, "lon": 19.4815482, "way_id": 599005649, "landuse": "farmland", "closest_distance_restriction": 2.429213883707586}, {"id": 5700189884, "lat": 50.0341817, "lon": 19.4813854, "way_id": 599005649, "landuse": "farmland", "closest_distance_restriction": 2.4455305256581084}, {"id": 5700189885, "lat": 50.035702, "lon": 19.484953, "way_id": 599005651, "landuse": "farmland", "closest_distance_restriction": 2.184209145071385}, {"id": 5700189886, "lat": 50.0350714, "lon": 19.4842127, "way_id": 599005651, "landuse": "farmland", "closest_distance_restriction": 2.2695596574860013}, {"id": 5700189887, "lat": 50.0349405, "lon": 19.484717, "way_id": 599005651, "landuse": "farmland", "closest_distance_restriction": 2.2687684258388625}, {"id": 5700189888, "lat": 50.0347269, "lon": 19.4851944, "way_id": 599005651, "landuse": "farmland", "closest_distance_restriction": 2.2778970456435084}, {"id": 5700189889, "lat": 50.0343616, "lon": 19.4856397, "way_id": 599005651, "landuse": "farmland", "closest_distance_restriction": 2.304340240329999}, {"id": 5700189890, "lat": 50.0340997, "lon": 19.4858435, "way_id": 599005651, "landuse": "farmland", "closest_distance_restriction": 2.326620843349621}, {"id": 5700189891, "lat": 50.0344168, "lon": 19.4867018, "way_id": 599005651, "landuse": "farmland", "closest_distance_restriction": 2.273005224810838}, {"id": 5700189892, "lat": 50.0345753, "lon": 19.4864175, "way_id": 599005651, "landuse": "farmland", "closest_distance_restriction": 2.263009100252748}, {"id": 5700189893, "lat": 50.030174, "lon": 19.4870553, "way_id": 599005653, "landuse": "farmland", "closest_distance_restriction": 2.7171357433541177}, {"id": 5700189894, "lat": 50.0298689, "lon": 19.4871511, "way_id": 599005653, "landuse": "farmland", "closest_distance_restriction": 2.748150320003597}, {"id": 5700189895, "lat": 50.029673, "lon": 19.487247, "way_id": 599005653, "landuse": "farmland", "closest_distance_restriction": 2.7674920189644463}, {"id": 5700189896, "lat": 50.0294714, "lon": 19.4875346, "way_id": 599005653, "landuse": "farmland", "closest_distance_restriction": 2.7841558206157173}, {"id": 5700189897, "lat": 50.0298969, "lon": 19.487979, "way_id": 599005653, "landuse": "farmland", "closest_distance_restriction": 2.730635900235319}, {"id": 5700189898, "lat": 50.0298549, "lon": 19.4881969, "way_id": 599005653, "landuse": "farmland", "closest_distance_restriction": 2.731564269209707}, {"id": 5700189899, "lat": 50.0299361, "lon": 19.4882361, "way_id": 599005653, "landuse": "farmland", "closest_distance_restriction": 2.722133825601429}, {"id": 5700189900, "lat": 50.0290963, "lon": 19.4849158, "way_id": 599005654, "landuse": "farmland", "closest_distance_restriction": 2.8750005529995604}, {"id": 5700189901, "lat": 50.0290208, "lon": 19.4848461, "way_id": 599005654, "landuse": "farmland", "closest_distance_restriction": 2.8845020659291247}, {"id": 5700189902, "lat": 50.0286989, "lon": 19.4856522, "way_id": 599005654, "landuse": "farmland", "closest_distance_restriction": 2.9021089948388057}, {"id": 5700189903, "lat": 50.0285505, "lon": 19.4862317, "way_id": 599005654, "landuse": "farmland", "closest_distance_restriction": 2.9067699054308274}, {"id": 5700189904, "lat": 50.0291215, "lon": 19.4866762, "way_id": 599005654, "landuse": "farmland", "closest_distance_restriction": 2.8371850957257547}, {"id": 5700189905, "lat": 50.0291243, "lon": 19.4874518, "way_id": 599005655, "landuse": "farmland", "closest_distance_restriction": 2.823038097905264}, {"id": 5700189906, "lat": 50.0291271, "lon": 19.4878178, "way_id": 599005655, "landuse": "farmland", "closest_distance_restriction": 2.8165559021598754}, {"id": 5700189907, "lat": 50.0282678, "lon": 19.4874213, "way_id": 599005655, "landuse": "farmland", "closest_distance_restriction": 2.9160745726594968}, {"id": 5700189908, "lat": 50.028293, "lon": 19.487016, "way_id": 599005655, "landuse": "farmland", "closest_distance_restriction": 2.920260847424109}, {"id": 6077683044, "lat": 50.0272224, "lon": 19.5171777, "way_id": 437719332, "landuse": "farmland", "closest_distance_restriction": 3.2853622172439603}, {"id": 6077683065, "lat": 50.0272013, "lon": 19.5171231, "way_id": 437719332, "landuse": "farmland", "closest_distance_restriction": 3.285760513836193}, {"id": 6372727928, "lat": 50.032418, "lon": 19.4304561, "way_id": 680588228, "landuse": "meadow", "closest_distance_restriction": 2.9956008264403584}, {"id": 6372727929, "lat": 50.0314746, "lon": 19.4295626, "way_id": 680588228, "landuse": "meadow", "closest_distance_restriction": 3.0031601430539148}, {"id": 6372727930, "lat": 50.0310398, "lon": 19.4289179, "way_id": 680588228, "landuse": "meadow", "closest_distance_restriction": 2.9950711573819087}, {"id": 6372727931, "lat": 50.0307317, "lon": 19.4252356, "way_id": 680588228, "landuse": "meadow", "closest_distance_restriction": 2.8127309315026303}, {"id": 6372727932, "lat": 50.0301055, "lon": 19.4224262, "way_id": 680588228, "landuse": "meadow", "closest_distance_restriction": 2.7134883042099163}, {"id": 6372727933, "lat": 50.0296443, "lon": 19.4215633, "way_id": 680588228, "landuse": "meadow", "closest_distance_restriction": 2.707308322684948}, {"id": 6372727934, "lat": 50.0295131, "lon": 19.4208256, "way_id": 680588228, "landuse": "meadow", "closest_distance_restriction": 2.6821915852652576}, {"id": 6372727935, "lat": 50.0305307, "lon": 19.4206115, "way_id": 680588228, "landuse": "meadow", "closest_distance_restriction": 2.5890254811927376}, {"id": 6372727936, "lat": 50.0312374, "lon": 19.422446, "way_id": 680588228, "landuse": "meadow", "closest_distance_restriction": 2.627074389863903}, {"id": 6372727937, "lat": 50.0315315, "lon": 19.4234406, "way_id": 680588228, "landuse": "meadow", "closest_distance_restriction": 2.657700521176689}, {"id": 6372727938, "lat": 50.0319821, "lon": 19.4259207, "way_id": 680588228, "landuse": "meadow", "closest_distance_restriction": 2.7616498822068443}, {"id": 6434628741, "lat": 50.0300796, "lon": 19.4183081, "way_id": 822908089, "landuse": "farmland", "closest_distance_restriction": 2.516198925190939}, {"id": 6434628742, "lat": 50.0301571, "lon": 19.4183189, "way_id": 822908089, "landuse": "farmland", "closest_distance_restriction": 2.5101269045560337}, {"id": 6434628743, "lat": 50.0307619, "lon": 19.4198638, "way_id": 822908089, "landuse": "farmland", "closest_distance_restriction": 2.533611866680772}, {"id": 6434628744, "lat": 50.0311031, "lon": 19.4197968, "way_id": 822908089, "landuse": "farmland", "closest_distance_restriction": 2.502807596241941}, {"id": 6832602966, "lat": 50.2086875, "lon": 19.3893361, "way_id": 193315202, "landuse": "farmland", "closest_distance_restriction": 1.5649222290550622}, {"id": 6858472054, "lat": 50.0692124, "lon": 19.3892719, "way_id": 732409437, "landuse": "farmland", "closest_distance_restriction": 1.6401767797389601}, {"id": 6858472058, "lat": 50.0674511, "lon": 19.3946194, "way_id": 732409437, "landuse": "farmland", "closest_distance_restriction": 1.6456838336291457}, {"id": 6858472059, "lat": 50.066976, "lon": 19.3949309, "way_id": 732409437, "landuse": "farmland", "closest_distance_restriction": 1.5954566804519972}, {"id": 6879445150, "lat": 50.0307631, "lon": 19.4166677, "way_id": 734567809, "landuse": "farmland", "closest_distance_restriction": 2.3828298399018295}, {"id": 6879445151, "lat": 50.0306008, "lon": 19.4163442, "way_id": 734567809, "landuse": "farmland", "closest_distance_restriction": 2.382353132872286}, {"id": 6879445152, "lat": 50.0304623, "lon": 19.4161439, "way_id": 734567809, "landuse": "farmland", "closest_distance_restriction": 2.3855646094388328}, {"id": 6879445153, "lat": 50.0303416, "lon": 19.4160207, "way_id": 734567809, "landuse": "farmland", "closest_distance_restriction": 2.3907525151423936}, {"id": 6879445154, "lat": 50.0302347, "lon": 19.415956, "way_id": 734567809, "landuse": "farmland", "closest_distance_restriction": 2.3973551880116557}, {"id": 6879445155, "lat": 50.0301159, "lon": 19.4159344, "way_id": 734567809, "landuse": "farmland", "closest_distance_restriction": 2.406922829215744}, {"id": 6879445156, "lat": 50.0298369, "lon": 19.4159344, "way_id": 734567809, "landuse": "farmland", "closest_distance_restriction": 2.431698303958802}, {"id": 6879445157, "lat": 50.0294153, "lon": 19.4154507, "way_id": 734567809, "landuse": "farmland", "closest_distance_restriction": 2.449191078793133}, {"id": 6879445158, "lat": 50.0293796, "lon": 19.4155, "way_id": 734567809, "landuse": "farmland", "closest_distance_restriction": 2.4544676663349883}, {"id": 6879445159, "lat": 50.0294845, "lon": 19.4159252, "way_id": 734567809, "landuse": "farmland", "closest_distance_restriction": 2.46280565903381}, {"id": 6879445160, "lat": 50.0296172, "lon": 19.4163473, "way_id": 734567809, "landuse": "farmland", "closest_distance_restriction": 2.468940761014762}, {"id": 6879445161, "lat": 50.0297953, "lon": 19.416794, "way_id": 734567809, "landuse": "farmland", "closest_distance_restriction": 2.4726041338100413}, {"id": 6879445162, "lat": 50.0299952, "lon": 19.4171576, "way_id": 734567809, "landuse": "farmland", "closest_distance_restriction": 2.4712289527476208}, {"id": 6879445163, "lat": 50.0302505, "lon": 19.4175335, "way_id": 734567809, "landuse": "farmland", "closest_distance_restriction": 2.466130886177619}, {"id": 6879445164, "lat": 50.0307671, "lon": 19.4168187, "way_id": 734567809, "landuse": "farmland", "closest_distance_restriction": 2.389328818190843}, {"id": 6879445169, "lat": 50.0297618, "lon": 19.415799, "way_id": 734567810, "landuse": "farmland", "closest_distance_restriction": 2.432628774934748}, {"id": 6879445170, "lat": 50.0296396, "lon": 19.4156814, "way_id": 734567810, "landuse": "farmland", "closest_distance_restriction": 2.438604678637227}, {"id": 6879445171, "lat": 50.0294917, "lon": 19.4154412, "way_id": 734567810, "landuse": "farmland", "closest_distance_restriction": 2.441883146077151}, {"id": 6879445172, "lat": 50.0298036, "lon": 19.4142649, "way_id": 734567810, "landuse": "farmland", "closest_distance_restriction": 2.3652769036098538}, {"id": 6879445173, "lat": 50.0301139, "lon": 19.4144576, "way_id": 734567810, "landuse": "farmland", "closest_distance_restriction": 2.3447952502291804}, {"id": 6879445174, "lat": 50.0304611, "lon": 19.4145978, "way_id": 734567810, "landuse": "farmland", "closest_distance_restriction": 2.3192037429085537}, {"id": 6879445175, "lat": 50.0308212, "lon": 19.4148105, "way_id": 734567810, "landuse": "farmland", "closest_distance_restriction": 2.295969410440001}, {"id": 6879445176, "lat": 50.0311877, "lon": 19.4152535, "way_id": 734567810, "landuse": "farmland", "closest_distance_restriction": 2.2828463291679406}, {"id": 6879445177, "lat": 50.031027, "lon": 19.415744, "way_id": 734567810, "landuse": "farmland", "closest_distance_restriction": 2.3185746560557425}, {"id": 6879445178, "lat": 50.0307891, "lon": 19.4166024, "way_id": 734567810, "landuse": "farmland", "closest_distance_restriction": 2.3776398036785182}, {"id": 6879445179, "lat": 50.030773, "lon": 19.4166299, "way_id": 734567810, "landuse": "farmland", "closest_distance_restriction": 2.3802688753712964}, {"id": 6879445180, "lat": 50.0306524, "lon": 19.4163846, "way_id": 734567810, "landuse": "farmland", "closest_distance_restriction": 2.3796734071178345}, {"id": 6879445181, "lat": 50.0305206, "lon": 19.4161594, "way_id": 734567810, "landuse": "farmland", "closest_distance_restriction": 2.3811487670740226}, {"id": 6879445182, "lat": 50.030302, "lon": 19.4159517, "way_id": 734567810, "landuse": "farmland", "closest_distance_restriction": 2.391230936415771}, {"id": 6879445183, "lat": 50.0301476, "lon": 19.4158841, "way_id": 734567810, "landuse": "farmland", "closest_distance_restriction": 2.4019426774910437}, {"id": 6879445184, "lat": 50.0298309, "lon": 19.4158516, "way_id": 734567810, "landuse": "farmland", "closest_distance_restriction": 2.4286966634903187}, {"id": 7104712982, "lat": 50.1922006, "lon": 19.3406986, "way_id": 172776318, "landuse": "meadow", "closest_distance_restriction": 2.0068728694126765}, {"id": 7257525185, "lat": 50.0603025, "lon": 19.5915169, "way_id": 777671596, "landuse": "farmland", "closest_distance_restriction": 2.311353414421769}, {"id": 7257525186, "lat": 50.0600919, "lon": 19.5915406, "way_id": 777671596, "landuse": "farmland", "closest_distance_restriction": 2.334642539099469}, {"id": 7257525187, "lat": 50.059982, "lon": 19.5918354, "way_id": 777671596, "landuse": "farmland", "closest_distance_restriction": 2.3508459456147297}, {"id": 7257525188, "lat": 50.059802, "lon": 19.591013, "way_id": 777671596, "landuse": "farmland", "closest_distance_restriction": 2.3592087388832645}, {"id": 7257525189, "lat": 50.0601041, "lon": 19.5903142, "way_id": 777671596, "landuse": "farmland", "closest_distance_restriction": 2.3176155407402663}, {"id": 7257525190, "lat": 50.0603421, "lon": 19.590338, "way_id": 777671596, "landuse": "farmland", "closest_distance_restriction": 2.291777782398055}, {"id": 7257525191, "lat": 50.0604673, "lon": 19.5905234, "way_id": 777671596, "landuse": "farmland", "closest_distance_restriction": 2.28026023915529}, {"id": 7257525192, "lat": 50.0603971, "lon": 19.591303, "way_id": 777671596, "landuse": "farmland", "closest_distance_restriction": 2.2980475867987757}, {"id": 7309119903, "lat": 50.0408504, "lon": 19.4838801, "way_id": 782681745, "landuse": "meadow", "closest_distance_restriction": 1.7134908121178285}, {"id": 7309119904, "lat": 50.0399061, "lon": 19.4873562, "way_id": 782681745, "landuse": "meadow", "closest_distance_restriction": 1.6870890039629787}, {"id": 7309119905, "lat": 50.0392401, "lon": 19.4874146, "way_id": 782681745, "landuse": "meadow", "closest_distance_restriction": 1.7533698865451863}, {"id": 7309119906, "lat": 50.0391776, "lon": 19.4869375, "way_id": 782681745, "landuse": "meadow", "closest_distance_restriction": 1.7732616168817668}, {"id": 7309119907, "lat": 50.0394371, "lon": 19.4866454, "way_id": 782681745, "landuse": "meadow", "closest_distance_restriction": 1.7555611773189805}, {"id": 7309119908, "lat": 50.0395528, "lon": 19.4857301, "way_id": 782681745, "landuse": "meadow", "closest_distance_restriction": 1.7725144281184726}, {"id": 7309119909, "lat": 50.0392557, "lon": 19.4853504, "way_id": 782681745, "landuse": "meadow", "closest_distance_restriction": 1.8142710723906215}, {"id": 7309119910, "lat": 50.0390619, "lon": 19.4856765, "way_id": 782681745, "landuse": "meadow", "closest_distance_restriction": 1.823042527259458}, {"id": 7309119911, "lat": 50.0387335, "lon": 19.4852481, "way_id": 782681745, "landuse": "meadow", "closest_distance_restriction": 1.8693591207854043}, {"id": 7309119912, "lat": 50.0383427, "lon": 19.4858615, "way_id": 782681745, "landuse": "meadow", "closest_distance_restriction": 1.8895125634629368}, {"id": 7309119913, "lat": 50.037045, "lon": 19.4837876, "way_id": 782681745, "landuse": "meadow", "closest_distance_restriction": 2.0839628363055795}, {"id": 7309119914, "lat": 50.0376954, "lon": 19.4832959, "way_id": 782681745, "landuse": "meadow", "closest_distance_restriction": 2.036303220953498}, {"id": 7309119915, "lat": 50.0380331, "lon": 19.483033, "way_id": 782681745, "landuse": "meadow", "closest_distance_restriction": 2.0126472529437427}, {"id": 7309119916, "lat": 50.0385584, "lon": 19.4830962, "way_id": 782681745, "landuse": "meadow", "closest_distance_restriction": 1.9598022029767441}, {"id": 7309119917, "lat": 50.0388774, "lon": 19.4830962, "way_id": 782681745, "landuse": "meadow", "closest_distance_restriction": 1.9292786736279564}, {"id": 7309119918, "lat": 50.0392464, "lon": 19.4830135, "way_id": 782681745, "landuse": "meadow", "closest_distance_restriction": 1.8972811793213713}, {"id": 7309119919, "lat": 50.0394183, "lon": 19.4830427, "way_id": 782681745, "landuse": "meadow", "closest_distance_restriction": 1.8799381854909973}, {"id": 7309119920, "lat": 50.0396216, "lon": 19.4832959, "way_id": 782681745, "landuse": "meadow", "closest_distance_restriction": 1.8511919896372926}, {"id": 7309119921, "lat": 50.0399905, "lon": 19.4834322, "way_id": 782681745, "landuse": "meadow", "closest_distance_restriction": 1.8112562859244392}, {"id": 7309119922, "lat": 50.0404439, "lon": 19.4836074, "way_id": 782681745, "landuse": "meadow", "closest_distance_restriction": 1.7620178981498673}, {"id": 7359860979, "lat": 50.1248167, "lon": 19.2948633, "way_id": 324969830, "landuse": "meadow", "closest_distance_restriction": 1.5663053308034243}, {"id": 7683155198, "lat": 50.0350141, "lon": 19.4073642, "way_id": 822908081, "landuse": "farmland", "closest_distance_restriction": 1.6106728279085416}, {"id": 7683155200, "lat": 50.0354314, "lon": 19.4077668, "way_id": 822908082, "landuse": "farmland", "closest_distance_restriction": 1.5869732270496015}, {"id": 7683155201, "lat": 50.0349719, "lon": 19.4076223, "way_id": 822908082, "landuse": "farmland", "closest_distance_restriction": 1.624383871554791}, {"id": 7683155202, "lat": 50.0348526, "lon": 19.4083101, "way_id": 822908082, "landuse": "farmland", "closest_distance_restriction": 1.662068905120872}, {"id": 7683155203, "lat": 50.0352657, "lon": 19.4084477, "way_id": 822908082, "landuse": "farmland", "closest_distance_restriction": 1.6293934613254515}, {"id": 7683155204, "lat": 50.0352016, "lon": 19.4087434, "way_id": 822908082, "landuse": "farmland", "closest_distance_restriction": 1.6472697905846194}, {"id": 7683155205, "lat": 50.0347908, "lon": 19.4085921, "way_id": 822908082, "landuse": "farmland", "closest_distance_restriction": 1.678913044625886}, {"id": 7683155206, "lat": 50.0345124, "lon": 19.41015, "way_id": 822908082, "landuse": "farmland", "closest_distance_restriction": 1.7680247625281824}, {"id": 7683155207, "lat": 50.035089, "lon": 19.4101775, "way_id": 822908082, "landuse": "farmland", "closest_distance_restriction": 1.7178655920967765}, {"id": 7683155208, "lat": 50.0354203, "lon": 19.4098542, "way_id": 822908082, "landuse": "farmland", "closest_distance_restriction": 1.674585128515833}, {"id": 7683155209, "lat": 50.0359637, "lon": 19.4094725, "way_id": 822908082, "landuse": "farmland", "closest_distance_restriction": 1.6101530019747878}, {"id": 7683155210, "lat": 50.0359924, "lon": 19.4093934, "way_id": 822908082, "landuse": "farmland", "closest_distance_restriction": 1.6041554987666573}, {"id": 7683155211, "lat": 50.035935, "lon": 19.4090701, "way_id": 822908082, "landuse": "farmland", "closest_distance_restriction": 1.5950984316398373}, {"id": 7683155212, "lat": 50.0358245, "lon": 19.4087813, "way_id": 822908082, "landuse": "farmland", "closest_distance_restriction": 1.5925650210424447}, {"id": 7683155213, "lat": 50.0356014, "lon": 19.4086059, "way_id": 822908082, "landuse": "farmland", "closest_distance_restriction": 1.6052859120209537}, {"id": 7683155214, "lat": 50.0355727, "lon": 19.4085509, "way_id": 822908082, "landuse": "farmland", "closest_distance_restriction": 1.605608656279997}, {"id": 7683155215, "lat": 50.0355992, "lon": 19.4084408, "way_id": 822908082, "landuse": "farmland", "closest_distance_restriction": 1.5986630513359783}, {"id": 7683155217, "lat": 50.0341827, "lon": 19.4042467, "way_id": 822908084, "landuse": "farmland", "closest_distance_restriction": 1.5906339609000513}, {"id": 7683155218, "lat": 50.0339501, "lon": 19.4044747, "way_id": 822908084, "landuse": "farmland", "closest_distance_restriction": 1.6208120588950843}, {"id": 7683155219, "lat": 50.0335866, "lon": 19.4047912, "way_id": 822908084, "landuse": "farmland", "closest_distance_restriction": 1.6668730314801474}, {"id": 7683155220, "lat": 50.0334987, "lon": 19.404877, "way_id": 822908084, "landuse": "farmland", "closest_distance_restriction": 1.678276075883154}, {"id": 7683155221, "lat": 50.0334212, "lon": 19.404928, "way_id": 822908084, "landuse": "farmland", "closest_distance_restriction": 1.6876316077538476}, {"id": 7683155222, "lat": 50.0333006, "lon": 19.4050058, "way_id": 822908084, "landuse": "farmland", "closest_distance_restriction": 1.7021457271725935}, {"id": 7683155223, "lat": 50.0328647, "lon": 19.4074225, "way_id": 822908084, "landuse": "farmland", "closest_distance_restriction": 1.8204814933135478}, {"id": 7683155224, "lat": 50.0335039, "lon": 19.4075888, "way_id": 822908084, "landuse": "farmland", "closest_distance_restriction": 1.7636670860862744}, {"id": 7683155225, "lat": 50.03461, "lon": 19.4078918, "way_id": 822908084, "landuse": "farmland", "closest_distance_restriction": 1.6687120563982343}, {"id": 7683155228, "lat": 50.0348801, "lon": 19.4078567, "way_id": 822908084, "landuse": "farmland", "closest_distance_restriction": 1.6419465390059065}, {"id": 7683155229, "lat": 50.0348485, "lon": 19.4079203, "way_id": 822908084, "landuse": "farmland", "closest_distance_restriction": 1.6473476919870391}, {"id": 7683155230, "lat": 50.0347736, "lon": 19.4079437, "way_id": 822908084, "landuse": "farmland", "closest_distance_restriction": 1.6552755969143085}, {"id": 7683155277, "lat": 50.0320581, "lon": 19.418769, "way_id": 822908089, "landuse": "farmland", "closest_distance_restriction": 2.3754335415619057}, {"id": 7683155278, "lat": 50.031631, "lon": 19.4187854, "way_id": 822908089, "landuse": "farmland", "closest_distance_restriction": 2.410468875115346}, {"id": 7683155279, "lat": 50.0311566, "lon": 19.4186459, "way_id": 822908089, "landuse": "farmland", "closest_distance_restriction": 2.4422533997748723}, {"id": 7683155280, "lat": 50.0306188, "lon": 19.418375, "way_id": 822908089, "landuse": "farmland", "closest_distance_restriction": 2.473883582323696}, {"id": 7683155281, "lat": 50.0300916, "lon": 19.4178087, "way_id": 822908089, "landuse": "farmland", "closest_distance_restriction": 2.4922746224261676}, {"id": 7683155282, "lat": 50.0300019, "lon": 19.4178579, "way_id": 822908089, "landuse": "farmland", "closest_distance_restriction": 2.502200316446415}, {"id": 7683155283, "lat": 50.0300019, "lon": 19.4180221, "way_id": 822908089, "landuse": "farmland", "closest_distance_restriction": 2.5096854484213638}, {"id": 7683155284, "lat": 50.0320845, "lon": 19.4196389, "way_id": 822908089, "landuse": "farmland", "closest_distance_restriction": 2.417159587642594}, {"id": 7683171685, "lat": 50.0356177, "lon": 19.4192, "way_id": 822908090, "landuse": "farmland", "closest_distance_restriction": 2.1345079262418576}, {"id": 7683171686, "lat": 50.0354402, "lon": 19.4199624, "way_id": 822908090, "landuse": "farmland", "closest_distance_restriction": 2.1897373099659756}, {"id": 7683171687, "lat": 50.0350383, "lon": 19.4198561, "way_id": 822908090, "landuse": "farmland", "closest_distance_restriction": 2.211090221716298}, {"id": 7683171688, "lat": 50.0350032, "lon": 19.4201112, "way_id": 822908090, "landuse": "farmland", "closest_distance_restriction": 2.227828027344446}, {"id": 7683171689, "lat": 50.0346852, "lon": 19.4197103, "way_id": 822908090, "landuse": "farmland", "closest_distance_restriction": 2.227540934155453}, {"id": 7683171690, "lat": 50.0346872, "lon": 19.4194369, "way_id": 822908090, "landuse": "farmland", "closest_distance_restriction": 2.212306328117374}, {"id": 7683171691, "lat": 50.0344082, "lon": 19.4194066, "way_id": 822908090, "landuse": "farmland", "closest_distance_restriction": 2.2305300699123807}, {"id": 7683171692, "lat": 50.0341663, "lon": 19.4191758, "way_id": 822908090, "landuse": "farmland", "closest_distance_restriction": 2.235511722977761}, {"id": 7683171693, "lat": 50.0339186, "lon": 19.4189966, "way_id": 822908090, "landuse": "farmland", "closest_distance_restriction": 2.2441050908531173}, {"id": 7683171694, "lat": 50.0336962, "lon": 19.4188569, "way_id": 822908090, "landuse": "farmland", "closest_distance_restriction": 2.2532599744091377}, {"id": 7683171695, "lat": 50.033345, "lon": 19.4186564, "way_id": 822908090, "landuse": "farmland", "closest_distance_restriction": 2.269324039206764}, {"id": 7683171696, "lat": 50.032947, "lon": 19.4185076, "way_id": 822908090, "landuse": "farmland", "closest_distance_restriction": 2.2923095916771827}, {"id": 7683171697, "lat": 50.0326719, "lon": 19.4184134, "way_id": 822908090, "landuse": "farmland", "closest_distance_restriction": 2.309024990996463}, {"id": 7683171698, "lat": 50.0326602, "lon": 19.41838, "way_id": 822908090, "landuse": "farmland", "closest_distance_restriction": 2.3082589783163248}, {"id": 7683171699, "lat": 50.0327363, "lon": 19.4179731, "way_id": 822908090, "landuse": "farmland", "closest_distance_restriction": 2.2817848208647153}, {"id": 7683171700, "lat": 50.0330738, "lon": 19.4180216, "way_id": 822908090, "landuse": "farmland", "closest_distance_restriction": 2.2576701309035476}, {"id": 7683171701, "lat": 50.0333294, "lon": 19.4180733, "way_id": 822908090, "landuse": "farmland", "closest_distance_restriction": 2.2404241221268193}, {"id": 7683171702, "lat": 50.0338893, "lon": 19.4182403, "way_id": 822908090, "landuse": "farmland", "closest_distance_restriction": 2.2062957408586876}, {"id": 7683171703, "lat": 50.0337488, "lon": 19.4185046, "way_id": 822908090, "landuse": "farmland", "closest_distance_restriction": 2.230763619946848}, {"id": 7683171704, "lat": 50.0332494, "lon": 19.4183709, "way_id": 822908090, "landuse": "farmland", "closest_distance_restriction": 2.261894125994925}, {"id": 7683171705, "lat": 50.0332533, "lon": 19.4183952, "way_id": 822908090, "landuse": "farmland", "closest_distance_restriction": 2.2628447459825347}, {"id": 7683171706, "lat": 50.0339303, "lon": 19.4186017, "way_id": 822908090, "landuse": "farmland", "closest_distance_restriction": 2.222261655497438}, {"id": 7683171707, "lat": 50.0341566, "lon": 19.4186078, "way_id": 822908090, "landuse": "farmland", "closest_distance_restriction": 2.2057659099579734}, {"id": 7683171708, "lat": 50.034656, "lon": 19.4185471, "way_id": 822908090, "landuse": "farmland", "closest_distance_restriction": 2.16593242556551}, {"id": 7683171709, "lat": 50.0346872, "lon": 19.4191788, "way_id": 822908090, "landuse": "farmland", "closest_distance_restriction": 2.19812106027285}, {"id": 7683171710, "lat": 50.0317289, "lon": 19.4093526, "way_id": 822908091, "landuse": "farmland", "closest_distance_restriction": 1.997462327658059}, {"id": 7683171711, "lat": 50.0315938, "lon": 19.4092007, "way_id": 822908091, "landuse": "farmland", "closest_distance_restriction": 2.005241268657797}, {"id": 7683171712, "lat": 50.0315513, "lon": 19.4089982, "way_id": 822908091, "landuse": "farmland", "closest_distance_restriction": 2.0023917520276635}, {"id": 7683171713, "lat": 50.0315063, "lon": 19.4089593, "way_id": 822908091, "landuse": "farmland", "closest_distance_restriction": 2.0054545901848275}, {"id": 7683171714, "lat": 50.0314563, "lon": 19.4089632, "way_id": 822908091, "landuse": "farmland", "closest_distance_restriction": 2.0104734967815467}, {"id": 7683171715, "lat": 50.0312211, "lon": 19.4091228, "way_id": 822908091, "landuse": "farmland", "closest_distance_restriction": 2.0388997386399663}, {"id": 7683171716, "lat": 50.0311386, "lon": 19.4092319, "way_id": 822908091, "landuse": "farmland", "closest_distance_restriction": 2.0506771189975987}, {"id": 7683171717, "lat": 50.031071, "lon": 19.4093643, "way_id": 822908091, "landuse": "farmland", "closest_distance_restriction": 2.0617982256110747}, {"id": 7683171718, "lat": 50.0313312, "lon": 19.4097965, "way_id": 822908091, "landuse": "farmland", "closest_distance_restriction": 2.0515808284751476}, {"id": 7683171719, "lat": 50.0312007, "lon": 19.4124809, "way_id": 822908092, "landuse": "farmland", "closest_distance_restriction": 2.1651658017576323}, {"id": 7683171720, "lat": 50.0306332, "lon": 19.4124937, "way_id": 822908092, "landuse": "farmland", "closest_distance_restriction": 2.218285050740286}, {"id": 7683171721, "lat": 50.0306661, "lon": 19.4129866, "way_id": 822908092, "landuse": "farmland", "closest_distance_restriction": 2.234651402821593}, {"id": 7683171722, "lat": 50.0306209, "lon": 19.4134475, "way_id": 822908092, "landuse": "farmland", "closest_distance_restriction": 2.2573074846260535}, {"id": 7683171723, "lat": 50.0305222, "lon": 19.4134475, "way_id": 822908092, "landuse": "farmland", "closest_distance_restriction": 2.2663610360438624}, {"id": 7683171724, "lat": 50.0303495, "lon": 19.4144525, "way_id": 822908092, "landuse": "farmland", "closest_distance_restriction": 2.3232172646065052}, {"id": 7683171725, "lat": 50.030699, "lon": 19.4146381, "way_id": 822908092, "landuse": "farmland", "closest_distance_restriction": 2.299539207336194}, {"id": 7683171726, "lat": 50.0309745, "lon": 19.4148238, "way_id": 822908092, "landuse": "farmland", "closest_distance_restriction": 2.2829181357290373}, {"id": 7683171727, "lat": 50.0311925, "lon": 19.4134603, "way_id": 822908092, "landuse": "farmland", "closest_distance_restriction": 2.2057491455573612}, {"id": 7883402662, "lat": 50.0604024, "lon": 19.6050497, "way_id": 844989116, "landuse": "meadow", "closest_distance_restriction": 2.625619130411783}]}