{"nodes": [{"id": 1845364403, "lat": 52.1426269, "lon": 17.7178962, "way_id": 173778659, "landuse": "meadow", "closest_distance_restriction": 3.0871831153028393}, {"id": 1845364417, "lat": 52.141231, "lon": 17.7169091, "way_id": 173778646, "landuse": "meadow", "closest_distance_restriction": 3.160640880974026}, {"id": 1845364419, "lat": 52.1467484, "lon": 17.7197416, "way_id": 173778659, "landuse": "meadow", "closest_distance_restriction": 2.8606425574501397}, {"id": 1845364498, "lat": 52.1426137, "lon": 17.7183039, "way_id": 173778659, "landuse": "meadow", "closest_distance_restriction": 3.107025939196544}, {"id": 1845364514, "lat": 52.1447075, "lon": 17.7171881, "way_id": 173778659, "landuse": "meadow", "closest_distance_restriction": 2.8858542324473055}, {"id": 1845364527, "lat": 52.1447338, "lon": 17.7190764, "way_id": 173778659, "landuse": "meadow", "closest_distance_restriction": 2.9757114468950645}, {"id": 1845364528, "lat": 52.1443651, "lon": 17.7174027, "way_id": 173778659, "landuse": "meadow", "closest_distance_restriction": 2.9232929885812062}, {"id": 1845364649, "lat": 52.1442466, "lon": 17.7197416, "way_id": 173778659, "landuse": "meadow", "closest_distance_restriction": 3.0459528567669}, {"id": 1845364669, "lat": 52.1424689, "lon": 17.7174241, "way_id": 173778659, "landuse": "meadow", "closest_distance_restriction": 3.078754640253739}, {"id": 1845364732, "lat": 52.1442729, "lon": 17.7190335, "way_id": 173778659, "landuse": "meadow", "closest_distance_restriction": 3.0091903102553323}, {"id": 1845364902, "lat": 52.1435882, "lon": 17.7173383, "way_id": 173778659, "landuse": "meadow", "closest_distance_restriction": 2.982755462530171}, {"id": 1845365051, "lat": 52.1436277, "lon": 17.7176602, "way_id": 173778659, "landuse": "meadow", "closest_distance_restriction": 2.9946025231036284}, {"id": 1845365139, "lat": 52.1459189, "lon": 17.7208574, "way_id": 173778659, "landuse": "meadow", "closest_distance_restriction": 2.978231846666142}, {"id": 1845365142, "lat": 52.1454054, "lon": 17.7204711, "way_id": 173778659, "landuse": "meadow", "closest_distance_restriction": 2.995517727699197}, {"id": 1845365170, "lat": 52.1440886, "lon": 17.7178318, "way_id": 173778659, "landuse": "meadow", "closest_distance_restriction": 2.9657476691867526}, {"id": 1845365210, "lat": 52.1444573, "lon": 17.7200205, "way_id": 173778659, "landuse": "meadow", "closest_distance_restriction": 3.0436468255316127}, {"id": 1845365216, "lat": 52.1435882, "lon": 17.7189691, "way_id": 173778659, "landuse": "meadow", "closest_distance_restriction": 3.0598072603124673}, {"id": 1845365233, "lat": 52.1463271, "lon": 17.7196557, "way_id": 173778659, "landuse": "meadow", "closest_distance_restriction": 2.886347448626493}, {"id": 1845365235, "lat": 52.1411652, "lon": 17.7158577, "way_id": 173778646, "landuse": "meadow", "closest_distance_restriction": 3.1213093009439845}, {"id": 1845365267, "lat": 52.1388342, "lon": 17.7189905, "way_id": 173778646, "landuse": "meadow", "closest_distance_restriction": 3.457234756417095}, {"id": 1845365360, "lat": 52.1390054, "lon": 17.7161581, "way_id": 173778646, "landuse": "meadow", "closest_distance_restriction": 3.324229678254629}, {"id": 1845365433, "lat": 52.1385049, "lon": 17.7162654, "way_id": 173778646, "landuse": "meadow", "closest_distance_restriction": 3.3732916026441817}, {"id": 1845365468, "lat": 52.1467353, "lon": 17.7191193, "way_id": 173778659, "landuse": "meadow", "closest_distance_restriction": 2.8290555911067305}, {"id": 1845365482, "lat": 52.1443519, "lon": 17.717231, "way_id": 173778659, "landuse": "meadow", "closest_distance_restriction": 2.916180195423852}, {"id": 1963320464, "lat": 52.3076255, "lon": 17.6166096, "way_id": 185674312, "landuse": "farmland", "closest_distance_restriction": 1.5804602248206694}, {"id": 1963339791, "lat": 52.2968129, "lon": 17.6507643, "way_id": 185674312, "landuse": "farmland", "closest_distance_restriction": 4.012225085910094}, {"id": 1963339792, "lat": 52.3029481, "lon": 17.6175859, "way_id": 185674312, "landuse": "farmland", "closest_distance_restriction": 1.6608968955021826}, {"id": 1963339805, "lat": 52.3042733, "lon": 17.6428303, "way_id": 185674312, "landuse": "farmland", "closest_distance_restriction": 3.3525415552032376}, {"id": 1963339809, "lat": 52.3018919, "lon": 17.6309326, "way_id": 185674312, "landuse": "farmland", "closest_distance_restriction": 2.5750128997263197}, {"id": 1963339811, "lat": 52.3069696, "lon": 17.6197102, "way_id": 185674312, "landuse": "farmland", "closest_distance_restriction": 1.7823282511383856}, {"id": 1963339815, "lat": 52.3059068, "lon": 17.6221028, "way_id": 185674312, "landuse": "farmland", "closest_distance_restriction": 1.9395818092501833}, {"id": 1963339819, "lat": 52.3035182, "lon": 17.6464942, "way_id": 185674312, "landuse": "farmland", "closest_distance_restriction": 3.606105990686337}, {"id": 1963339823, "lat": 52.3029809, "lon": 17.6506946, "way_id": 185674312, "landuse": "farmland", "closest_distance_restriction": 3.895306910964924}, {"id": 1963339827, "lat": 52.2969845, "lon": 17.6439676, "way_id": 185674312, "landuse": "farmland", "closest_distance_restriction": 3.5608883370536155}, {"id": 1963339830, "lat": 52.3050475, "lon": 17.6286903, "way_id": 185674312, "landuse": "farmland", "closest_distance_restriction": 2.3884682042159797}, {"id": 1963339832, "lat": 52.3063136, "lon": 17.6244953, "way_id": 185674312, "landuse": "farmland", "closest_distance_restriction": 2.103201292620809}, {"id": 1963339836, "lat": 52.300127, "lon": 17.6395151, "way_id": 185674312, "landuse": "farmland", "closest_distance_restriction": 3.1844574671661356}, {"id": 1963339838, "lat": 52.3001008, "lon": 17.6394508, "way_id": 185674312, "landuse": "farmland", "closest_distance_restriction": 3.180739418721297}, {"id": 1963339842, "lat": 52.3060446, "lon": 17.6211694, "way_id": 185674312, "landuse": "farmland", "closest_distance_restriction": 1.8763692404496235}, {"id": 1963339844, "lat": 52.3004813, "lon": 17.6402554, "way_id": 185674312, "landuse": "farmland", "closest_distance_restriction": 3.2265107108890514}, {"id": 1963339847, "lat": 52.2987426, "lon": 17.6363716, "way_id": 185674312, "landuse": "farmland", "closest_distance_restriction": 3.0109918200921877}, {"id": 1963339851, "lat": 52.2969714, "lon": 17.6508233, "way_id": 185674312, "landuse": "farmland", "closest_distance_restriction": 4.011804799623054}, {"id": 1963339853, "lat": 52.2984926, "lon": 17.6375571, "way_id": 185674312, "landuse": "farmland", "closest_distance_restriction": 3.096051545637049}, {"id": 1963339858, "lat": 52.3032237, "lon": 17.6400408, "way_id": 185674312, "landuse": "farmland", "closest_distance_restriction": 3.17115320730826}, {"id": 1963339860, "lat": 52.3035255, "lon": 17.6244631, "way_id": 185674312, "landuse": "farmland", "closest_distance_restriction": 2.1138960684505887}, {"id": 1963339863, "lat": 52.2966171, "lon": 17.6503834, "way_id": 185674312, "landuse": "farmland", "closest_distance_restriction": 3.9925906433158183}, {"id": 1963339877, "lat": 52.3030065, "lon": 17.6503888, "way_id": 185674312, "landuse": "farmland", "closest_distance_restriction": 3.8743556964568424}, {"id": 1963339879, "lat": 52.2977916, "lon": 17.6405022, "way_id": 185674312, "landuse": "farmland", "closest_distance_restriction": 3.309766729684041}, {"id": 1963339880, "lat": 52.3044636, "lon": 17.6423261, "way_id": 185674312, "landuse": "farmland", "closest_distance_restriction": 3.3173458191567042}, {"id": 1963339881, "lat": 52.3056444, "lon": 17.6253751, "way_id": 185674312, "landuse": "farmland", "closest_distance_restriction": 2.1619487947853537}, {"id": 1963339883, "lat": 52.3033483, "lon": 17.6473901, "way_id": 185674312, "landuse": "farmland", "closest_distance_restriction": 3.6681907103426736}, {"id": 1963339884, "lat": 52.3001204, "lon": 17.6365754, "way_id": 185674312, "landuse": "farmland", "closest_distance_restriction": 2.9888062447106383}, {"id": 1963339887, "lat": 52.3018591, "lon": 17.6228538, "way_id": 185674312, "landuse": "farmland", "closest_distance_restriction": 2.0359742231732763}, {"id": 1963339888, "lat": 52.3035976, "lon": 17.6449225, "way_id": 185674312, "landuse": "farmland", "closest_distance_restriction": 3.4988887892873826}, {"id": 1963339890, "lat": 52.3016813, "lon": 17.6235882, "way_id": 185674312, "landuse": "farmland", "closest_distance_restriction": 2.0889687397204737}, {"id": 1963339892, "lat": 52.3060249, "lon": 17.6220491, "way_id": 185674312, "landuse": "farmland", "closest_distance_restriction": 1.9361266013215308}, {"id": 1963339894, "lat": 52.3031777, "lon": 17.6385281, "way_id": 185674312, "landuse": "farmland", "closest_distance_restriction": 3.0691697441382515}, {"id": 1963339895, "lat": 52.304621, "lon": 17.6396117, "way_id": 185674312, "landuse": "farmland", "closest_distance_restriction": 3.132233359799453}, {"id": 1963339896, "lat": 52.3046014, "lon": 17.6400408, "way_id": 185674312, "landuse": "farmland", "closest_distance_restriction": 3.161471263807624}, {"id": 1963339898, "lat": 52.3020552, "lon": 17.6299933, "way_id": 185674312, "landuse": "farmland", "closest_distance_restriction": 2.5090360543114314}, {"id": 1963339900, "lat": 52.303551, "lon": 17.6462689, "way_id": 185674312, "landuse": "farmland", "closest_distance_restriction": 3.590576187700906}, {"id": 1963339902, "lat": 52.3032106, "lon": 17.6384315, "way_id": 185674312, "landuse": "farmland", "closest_distance_restriction": 3.062294944822106}, {"id": 1963339903, "lat": 52.3059856, "lon": 17.623358, "way_id": 185674312, "landuse": "farmland", "closest_distance_restriction": 2.025032182931677}, {"id": 1963339906, "lat": 52.3029547, "lon": 17.6174357, "way_id": 185674312, "landuse": "farmland", "closest_distance_restriction": 1.6507246310738939}, {"id": 1963339907, "lat": 52.3018847, "lon": 17.6330725, "way_id": 185674312, "landuse": "farmland", "closest_distance_restriction": 2.7187574726624}, {"id": 1963339920, "lat": 52.302626, "lon": 17.6193288, "way_id": 185674312, "landuse": "farmland", "closest_distance_restriction": 1.7840292780397524}, {"id": 1963339925, "lat": 52.3005272, "lon": 17.6402876, "way_id": 185674312, "landuse": "farmland", "closest_distance_restriction": 3.227748814043568}, {"id": 1963339927, "lat": 52.3000614, "lon": 17.6366291, "way_id": 185674312, "landuse": "farmland", "closest_distance_restriction": 2.993747767277807}, {"id": 1963339930, "lat": 52.2991166, "lon": 17.634677, "way_id": 185674312, "landuse": "farmland", "closest_distance_restriction": 2.888956800570141}, {"id": 1963339933, "lat": 52.301905, "lon": 17.6224568, "way_id": 185674312, "landuse": "farmland", "closest_distance_restriction": 2.0085102235449472}, {"id": 1963339935, "lat": 52.2962037, "lon": 17.6502869, "way_id": 185674312, "landuse": "farmland", "closest_distance_restriction": 3.998158120612687}, {"id": 1963339938, "lat": 52.306267, "lon": 17.6194147, "way_id": 185674312, "landuse": "farmland", "closest_distance_restriction": 1.7577977506823619}, {"id": 1963339941, "lat": 52.3058471, "lon": 17.6288453, "way_id": 185674312, "landuse": "farmland", "closest_distance_restriction": 2.397925776322802}, {"id": 1963339945, "lat": 52.2965843, "lon": 17.6453087, "way_id": 185674312, "landuse": "farmland", "closest_distance_restriction": 3.6608087877776008}, {"id": 1963339947, "lat": 52.3029613, "lon": 17.6178434, "way_id": 185674312, "landuse": "farmland", "closest_distance_restriction": 1.6778400093486325}, {"id": 1963339951, "lat": 52.3046276, "lon": 17.6412532, "way_id": 185674312, "landuse": "farmland", "closest_distance_restriction": 3.2437332881167036}, {"id": 1963339952, "lat": 52.304562, "lon": 17.6410386, "way_id": 185674312, "landuse": "farmland", "closest_distance_restriction": 3.229433193245078}, {"id": 1963339955, "lat": 52.3058012, "lon": 17.6289633, "way_id": 185674312, "landuse": "farmland", "closest_distance_restriction": 2.405921091809327}, {"id": 1963339957, "lat": 52.3044505, "lon": 17.6385925, "way_id": 185674312, "landuse": "farmland", "closest_distance_restriction": 3.063798683444533}, {"id": 1963339958, "lat": 52.3062808, "lon": 17.6247742, "way_id": 185674312, "landuse": "farmland", "closest_distance_restriction": 2.1220410140854695}, {"id": 1963339961, "lat": 52.3033877, "lon": 17.6468429, "way_id": 185674312, "landuse": "farmland", "closest_distance_restriction": 3.630766600502399}, {"id": 1963339963, "lat": 52.2986048, "lon": 17.6369617, "way_id": 185674312, "landuse": "farmland", "closest_distance_restriction": 3.0537140219404293}, {"id": 1963339965, "lat": 52.3019503, "lon": 17.6223973, "way_id": 185674312, "landuse": "farmland", "closest_distance_restriction": 2.0034990978502445}, {"id": 1963339968, "lat": 52.2956394, "lon": 17.6499436, "way_id": 185674312, "landuse": "farmland", "closest_distance_restriction": 3.9928018036363846}, {"id": 1963339969, "lat": 52.3018656, "lon": 17.6226178, "way_id": 185674312, "landuse": "farmland", "closest_distance_restriction": 2.0201353794068364}, {"id": 1963339982, "lat": 52.301819, "lon": 17.6338449, "way_id": 185674312, "landuse": "farmland", "closest_distance_restriction": 2.771773871175264}, {"id": 1963339983, "lat": 52.3062873, "lon": 17.6194957, "way_id": 185674312, "landuse": "farmland", "closest_distance_restriction": 1.7633827142901801}, {"id": 1963339985, "lat": 52.3041749, "lon": 17.6429484, "way_id": 185674312, "landuse": "farmland", "closest_distance_restriction": 3.3611014200744846}, {"id": 1963339986, "lat": 52.2998777, "lon": 17.6313939, "way_id": 185674312, "landuse": "farmland", "closest_distance_restriction": 2.651659155290561}, {"id": 1963339987, "lat": 52.2986836, "lon": 17.6364896, "way_id": 185674312, "landuse": "farmland", "closest_distance_restriction": 3.0204369399714355}, {"id": 1963339989, "lat": 52.3055585, "lon": 17.6250366, "way_id": 185674312, "landuse": "farmland", "closest_distance_restriction": 2.138986838055115}, {"id": 1963339990, "lat": 52.3037216, "lon": 17.6446918, "way_id": 185674312, "landuse": "farmland", "closest_distance_restriction": 3.4823340137526593}, {"id": 1963339993, "lat": 52.2955728, "lon": 17.6498738, "way_id": 185674312, "landuse": "farmland", "closest_distance_restriction": 3.990332970766261}, {"id": 1963339996, "lat": 52.3016098, "lon": 17.6359746, "way_id": 185674312, "landuse": "farmland", "closest_distance_restriction": 2.9184411226485}, {"id": 1963339999, "lat": 52.3045817, "lon": 17.6395259, "way_id": 185674312, "landuse": "farmland", "closest_distance_restriction": 3.126576684142989}, {"id": 1963340002, "lat": 52.306366, "lon": 17.6242056, "way_id": 185674312, "landuse": "farmland", "closest_distance_restriction": 2.083711848089358}, {"id": 1963340004, "lat": 52.3035648, "lon": 17.6456735, "way_id": 185674312, "landuse": "farmland", "closest_distance_restriction": 3.550081372040586}, {"id": 1963340007, "lat": 52.3040103, "lon": 17.6432434, "way_id": 185674312, "landuse": "farmland", "closest_distance_restriction": 3.3821088187567288}, {"id": 1963340009, "lat": 52.297306, "lon": 17.642605, "way_id": 185674312, "landuse": "farmland", "closest_distance_restriction": 3.462003672299599}, {"id": 1963340010, "lat": 52.3004551, "lon": 17.6395151, "way_id": 185674312, "landuse": "farmland", "closest_distance_restriction": 3.1775441167015086}, {"id": 1963340012, "lat": 52.3037675, "lon": 17.6238457, "way_id": 185674312, "landuse": "farmland", "closest_distance_restriction": 2.0692225615048896}, {"id": 1963340014, "lat": 52.3061168, "lon": 17.6198604, "way_id": 185674312, "landuse": "farmland", "closest_distance_restriction": 1.7875770033011908}, {"id": 1963340016, "lat": 52.3033549, "lon": 17.6470468, "way_id": 185674312, "landuse": "farmland", "closest_distance_restriction": 3.6448561485972655}, {"id": 1963340018, "lat": 52.3059068, "lon": 17.6233366, "way_id": 185674312, "landuse": "farmland", "closest_distance_restriction": 2.0234621277628486}, {"id": 1963340030, "lat": 52.3057422, "lon": 17.6290599, "way_id": 185674312, "landuse": "farmland", "closest_distance_restriction": 2.4124697097725036}, {"id": 1963340032, "lat": 52.3061824, "lon": 17.6194527, "way_id": 185674312, "landuse": "farmland", "closest_distance_restriction": 1.7600714274530567}, {"id": 1963340035, "lat": 52.3063982, "lon": 17.6238028, "way_id": 185674312, "landuse": "farmland", "closest_distance_restriction": 2.0564737830041455}, {"id": 1963340037, "lat": 52.3081169, "lon": 17.617108, "way_id": 185674312, "landuse": "farmland", "closest_distance_restriction": 1.6221730282659763}, {"id": 1963340038, "lat": 52.3081067, "lon": 17.6170127, "way_id": 185674312, "landuse": "farmland", "closest_distance_restriction": 1.615595588979396}, {"id": 1963340042, "lat": 52.3067852, "lon": 17.6200691, "way_id": 185674312, "landuse": "farmland", "closest_distance_restriction": 1.8051754124304713}, {"id": 1963340043, "lat": 52.3020093, "lon": 17.6301757, "way_id": 185674312, "landuse": "farmland", "closest_distance_restriction": 2.522103006882854}, {"id": 1963340047, "lat": 52.302666, "lon": 17.6533446, "way_id": 185674312, "landuse": "farmland", "closest_distance_restriction": 4.0777299239112414}, {"id": 1963340049, "lat": 52.3062407, "lon": 17.6255516, "way_id": 185674312, "landuse": "farmland", "closest_distance_restriction": 2.1747462704752754}, {"id": 1963340051, "lat": 52.3039388, "lon": 17.6238516, "way_id": 185674312, "landuse": "farmland", "closest_distance_restriction": 2.0677235054690604}, {"id": 1963340056, "lat": 52.3036757, "lon": 17.6449493, "way_id": 185674312, "landuse": "farmland", "closest_distance_restriction": 3.5001337407725424}, {"id": 1963340058, "lat": 52.3060118, "lon": 17.627553, "way_id": 185674312, "landuse": "farmland", "closest_distance_restriction": 2.3102597775783145}, {"id": 1963340061, "lat": 52.3036895, "lon": 17.624034, "way_id": 185674312, "landuse": "farmland", "closest_distance_restriction": 2.0828726276288343}, {"id": 1963340064, "lat": 52.3018978, "lon": 17.6318387, "way_id": 185674312, "landuse": "farmland", "closest_distance_restriction": 2.6356951002509885}, {"id": 1963340068, "lat": 52.3044111, "lon": 17.6384208, "way_id": 185674312, "landuse": "farmland", "closest_distance_restriction": 3.0523411817960397}, {"id": 1963340070, "lat": 52.3052108, "lon": 17.6289204, "way_id": 185674312, "landuse": "farmland", "closest_distance_restriction": 2.4036190535567314}, {"id": 1963340073, "lat": 52.3019243, "lon": 17.6324266, "way_id": 185674312, "landuse": "farmland", "closest_distance_restriction": 2.6746920648616954}, {"id": 1963340076, "lat": 52.3060315, "lon": 17.6214269, "way_id": 185674312, "landuse": "farmland", "closest_distance_restriction": 1.8938446649661194}, {"id": 1963340079, "lat": 52.2955541, "lon": 17.6496217, "way_id": 185674312, "landuse": "farmland", "closest_distance_restriction": 3.9744815724579983}, {"id": 1963340083, "lat": 52.3045358, "lon": 17.6391289, "way_id": 185674312, "landuse": "farmland", "closest_distance_restriction": 3.0998171183847507}, {"id": 1963340094, "lat": 52.306694, "lon": 17.6208582, "way_id": 185674312, "landuse": "farmland", "closest_distance_restriction": 1.8580827353121614}, {"id": 1963340096, "lat": 52.3064251, "lon": 17.6234331, "way_id": 185674312, "landuse": "farmland", "closest_distance_restriction": 2.0314714703143943}, {"id": 1963340097, "lat": 52.3060118, "lon": 17.623122, "way_id": 185674312, "landuse": "farmland", "closest_distance_restriction": 2.009035623076463}, {"id": 1963340098, "lat": 52.305939, "lon": 17.621142, "way_id": 185674312, "landuse": "farmland", "closest_distance_restriction": 1.8743078376011422}, {"id": 1963340100, "lat": 52.3019043, "lon": 17.6315704, "way_id": 185674312, "landuse": "farmland", "closest_distance_restriction": 2.6175739449079085}, {"id": 1963340101, "lat": 52.3059068, "lon": 17.6286152, "way_id": 185674312, "landuse": "farmland", "closest_distance_restriction": 2.382333927284957}, {"id": 1963340103, "lat": 52.3080644, "lon": 17.6172796, "way_id": 185674312, "landuse": "farmland", "closest_distance_restriction": 1.6327321180927203}, {"id": 1963340104, "lat": 52.3029284, "lon": 17.618058, "way_id": 185674312, "landuse": "farmland", "closest_distance_restriction": 1.6928538143288485}, {"id": 1963340107, "lat": 52.3064776, "lon": 17.6230147, "way_id": 185674312, "landuse": "farmland", "closest_distance_restriction": 2.003288531961257}, {"id": 1963340110, "lat": 52.304667, "lon": 17.6413283, "way_id": 185674312, "landuse": "farmland", "closest_distance_restriction": 3.2486761671086724}, {"id": 1963340113, "lat": 52.2986436, "lon": 17.6366666, "way_id": 185674312, "landuse": "farmland", "closest_distance_restriction": 3.033214217609309}, {"id": 1963340115, "lat": 52.3046866, "lon": 17.6414678, "way_id": 185674312, "landuse": "farmland", "closest_distance_restriction": 3.2580778693529306}, {"id": 1963340116, "lat": 52.3030006, "lon": 17.6171568, "way_id": 185674312, "landuse": "farmland", "closest_distance_restriction": 1.6311444334808114}, {"id": 1963340119, "lat": 52.3038594, "lon": 17.6442197, "way_id": 185674312, "landuse": "farmland", "closest_distance_restriction": 3.449350211987899}, {"id": 1963340121, "lat": 52.3067006, "lon": 17.6205256, "way_id": 185674312, "landuse": "farmland", "closest_distance_restriction": 1.8355538800081148}, {"id": 1963340124, "lat": 52.3005069, "lon": 17.6286629, "way_id": 185674312, "landuse": "farmland", "closest_distance_restriction": 2.4545876703019722}, {"id": 1963340125, "lat": 52.3036429, "lon": 17.6446596, "way_id": 185674312, "landuse": "farmland", "closest_distance_restriction": 3.4807171543878175}, {"id": 1963340127, "lat": 52.3019371, "lon": 17.6321498, "way_id": 185674312, "landuse": "farmland", "closest_distance_restriction": 2.6558818165725255}, {"id": 1963340130, "lat": 52.3045882, "lon": 17.6403198, "way_id": 185674312, "landuse": "farmland", "closest_distance_restriction": 3.180483879630779}, {"id": 1963340142, "lat": 52.300501, "lon": 17.6395259, "way_id": 185674312, "landuse": "farmland", "closest_distance_restriction": 3.1773312331718953}, {"id": 1963340143, "lat": 52.2966893, "lon": 17.6448474, "way_id": 185674312, "landuse": "farmland", "closest_distance_restriction": 3.6274320544905456}, {"id": 1963340146, "lat": 52.30592, "lon": 17.6213732, "way_id": 185674312, "landuse": "farmland", "closest_distance_restriction": 1.8899978091980847}, {"id": 1963340148, "lat": 52.3019175, "lon": 17.6306799, "way_id": 185674312, "landuse": "farmland", "closest_distance_restriction": 2.5575961857039844}, {"id": 1963340149, "lat": 52.3019575, "lon": 17.6303532, "way_id": 185674312, "landuse": "farmland", "closest_distance_restriction": 2.5349527970995918}, {"id": 1963340152, "lat": 52.3050796, "lon": 17.6288346, "way_id": 185674312, "landuse": "farmland", "closest_distance_restriction": 2.3981679626052306}, {"id": 1963340153, "lat": 52.3022192, "lon": 17.6293603, "way_id": 185674312, "landuse": "farmland", "closest_distance_restriction": 2.4636349391986805}, {"id": 1963340156, "lat": 52.3059265, "lon": 17.6228216, "way_id": 185674312, "landuse": "farmland", "closest_distance_restriction": 1.9884753354230573}, {"id": 1963340158, "lat": 52.2983887, "lon": 17.638056, "way_id": 185674312, "landuse": "farmland", "closest_distance_restriction": 3.1318134569001854}, {"id": 1963340160, "lat": 52.3020027, "lon": 17.6221827, "way_id": 185674312, "landuse": "farmland", "closest_distance_restriction": 1.9880149159479812}, {"id": 1963340163, "lat": 52.3038666, "lon": 17.6438496, "way_id": 185674312, "landuse": "farmland", "closest_distance_restriction": 3.424183304211802}, {"id": 1963340164, "lat": 52.3029481, "lon": 17.6266625, "way_id": 185674312, "landuse": "farmland", "closest_distance_restriction": 2.270300755654156}, {"id": 1963340168, "lat": 52.3018125, "lon": 17.6327077, "way_id": 185674312, "landuse": "farmland", "closest_distance_restriction": 2.695539761397148}, {"id": 1963340170, "lat": 52.3067268, "lon": 17.6203218, "way_id": 185674312, "landuse": "farmland", "closest_distance_restriction": 1.821902360583811}, {"id": 1963340171, "lat": 52.2967024, "lon": 17.6504049, "way_id": 185674312, "landuse": "farmland", "closest_distance_restriction": 3.991612667288125}, {"id": 1963340175, "lat": 52.3045554, "lon": 17.6408133, "way_id": 185674312, "landuse": "farmland", "closest_distance_restriction": 3.214156040673189}, {"id": 1963340176, "lat": 52.3038535, "lon": 17.6440642, "way_id": 185674312, "landuse": "farmland", "closest_distance_restriction": 3.438835705680024}, {"id": 1963340177, "lat": 52.3018328, "lon": 17.6324132, "way_id": 185674312, "landuse": "farmland", "closest_distance_restriction": 2.675412723696418}, {"id": 1963340180, "lat": 52.2989985, "lon": 17.6352456, "way_id": 185674312, "landuse": "farmland", "closest_distance_restriction": 2.9296899997658197}, {"id": 1963340182, "lat": 52.295541, "lon": 17.6497397, "way_id": 185674312, "landuse": "farmland", "closest_distance_restriction": 3.98258930529051}, {"id": 1963340194, "lat": 52.3018978, "lon": 17.6327291, "way_id": 185674312, "landuse": "farmland", "closest_distance_restriction": 2.695468231960855}, {"id": 1963340198, "lat": 52.3034599, "lon": 17.624785, "way_id": 185674312, "landuse": "farmland", "closest_distance_restriction": 2.1364808719186428}, {"id": 1963340200, "lat": 52.302731, "lon": 17.6532534, "way_id": 185674312, "landuse": "farmland", "closest_distance_restriction": 4.070954275810591}, {"id": 1963340204, "lat": 52.3056569, "lon": 17.6291028, "way_id": 185674312, "landuse": "farmland", "closest_distance_restriction": 2.41539034925682}, {"id": 1963340205, "lat": 52.3061751, "lon": 17.6263348, "way_id": 185674312, "landuse": "farmland", "closest_distance_restriction": 2.2277939010081975}, {"id": 1963340207, "lat": 52.3062473, "lon": 17.6252833, "way_id": 185674312, "landuse": "farmland", "closest_distance_restriction": 2.1565319373699796}, {"id": 1963340209, "lat": 52.3032565, "lon": 17.6255253, "way_id": 185674312, "landuse": "farmland", "closest_distance_restriction": 2.189179193208109}, {"id": 1963340210, "lat": 52.301577, "lon": 17.6365647, "way_id": 185674312, "landuse": "farmland", "closest_distance_restriction": 2.958643958556089}, {"id": 1963340214, "lat": 52.3060315, "lon": 17.622725, "way_id": 185674312, "landuse": "farmland", "closest_distance_restriction": 1.982086408508113}, {"id": 1963340216, "lat": 52.302338, "lon": 17.6288083, "way_id": 185674312, "landuse": "farmland", "closest_distance_restriction": 2.424500081483342}, {"id": 1963340221, "lat": 52.3046538, "lon": 17.6416287, "way_id": 185674312, "landuse": "farmland", "closest_distance_restriction": 3.2691403607426612}, {"id": 1963340222, "lat": 52.2967877, "lon": 17.6506624, "way_id": 185674312, "landuse": "farmland", "closest_distance_restriction": 4.006203720321922}, {"id": 1963340226, "lat": 52.3061292, "lon": 17.6205626, "way_id": 185674312, "landuse": "farmland", "closest_distance_restriction": 1.8353387407090844}, {"id": 1963340227, "lat": 52.3026063, "lon": 17.6278153, "way_id": 185674312, "landuse": "farmland", "closest_distance_restriction": 2.353258281838023}, {"id": 1963340228, "lat": 52.3060118, "lon": 17.6206544, "way_id": 185674312, "landuse": "farmland", "closest_distance_restriction": 1.8412909399224866}, {"id": 1963340233, "lat": 52.2967614, "lon": 17.6504907, "way_id": 185674312, "landuse": "farmland", "closest_distance_restriction": 3.9956206364262674}, {"id": 1963340235, "lat": 52.3023118, "lon": 17.6290121, "way_id": 185674312, "landuse": "farmland", "closest_distance_restriction": 2.438641374374074}, {"id": 1963340262, "lat": 52.3016032, "lon": 17.6364467, "way_id": 185674312, "landuse": "farmland", "closest_distance_restriction": 2.9502656554091007}, {"id": 1963340264, "lat": 52.2958625, "lon": 17.650083, "way_id": 185674312, "landuse": "farmland", "closest_distance_restriction": 3.9950265469430484}, {"id": 1963340268, "lat": 52.3046407, "lon": 17.639955, "way_id": 185674312, "landuse": "farmland", "closest_distance_restriction": 3.1554740224165148}, {"id": 1963340269, "lat": 52.3038463, "lon": 17.6238028, "way_id": 185674312, "landuse": "farmland", "closest_distance_restriction": 2.0654254674005585}, {"id": 1963340271, "lat": 52.3039381, "lon": 17.6434794, "way_id": 185674312, "landuse": "farmland", "closest_distance_restriction": 3.3985869200192593}, {"id": 1963340273, "lat": 52.304089, "lon": 17.643061, "way_id": 185674312, "landuse": "farmland", "closest_distance_restriction": 3.3692460242586053}, {"id": 1963340274, "lat": 52.303204, "lon": 17.6495681, "way_id": 185674312, "landuse": "farmland", "closest_distance_restriction": 3.817054389600597}, {"id": 1963340276, "lat": 52.2960462, "lon": 17.6475618, "way_id": 185674312, "landuse": "farmland", "closest_distance_restriction": 3.8246425426643347}, {"id": 1963340278, "lat": 52.3032302, "lon": 17.6492998, "way_id": 185674312, "landuse": "farmland", "closest_distance_restriction": 3.7986476965360643}, {"id": 1963340280, "lat": 52.2968861, "lon": 17.644268, "way_id": 185674312, "landuse": "farmland", "closest_distance_restriction": 3.5835289477843464}, {"id": 1963340282, "lat": 52.2967877, "lon": 17.6445362, "way_id": 185674312, "landuse": "farmland", "closest_distance_restriction": 3.6040713083187415}, {"id": 1963340284, "lat": 52.3046407, "lon": 17.6398155, "way_id": 185674312, "landuse": "farmland", "closest_distance_restriction": 3.145995980687432}, {"id": 1963340288, "lat": 52.3029278, "lon": 17.6515475, "way_id": 185674312, "landuse": "farmland", "closest_distance_restriction": 3.953583380589451}, {"id": 1963340289, "lat": 52.3032689, "lon": 17.6399818, "way_id": 185674312, "landuse": "farmland", "closest_distance_restriction": 3.166721742907304}, {"id": 1963340291, "lat": 52.3030918, "lon": 17.650024, "way_id": 185674312, "landuse": "farmland", "closest_distance_restriction": 3.8488962300601894}, {"id": 1963340294, "lat": 52.3053551, "lon": 17.6248971, "way_id": 185674312, "landuse": "farmland", "closest_distance_restriction": 2.129798240635646}, {"id": 1963340296, "lat": 52.3019306, "lon": 17.6320103, "way_id": 185674312, "landuse": "farmland", "closest_distance_restriction": 2.646630531904014}, {"id": 1963340297, "lat": 52.3056313, "lon": 17.6249888, "way_id": 185674312, "landuse": "farmland", "closest_distance_restriction": 2.135689647339427}, {"id": 1963340300, "lat": 52.3043586, "lon": 17.6382813, "way_id": 185674312, "landuse": "farmland", "closest_distance_restriction": 3.043149996010735}, {"id": 1963340302, "lat": 52.3033352, "lon": 17.6478514, "way_id": 185674312, "landuse": "farmland", "closest_distance_restriction": 3.6995799021904614}, {"id": 2348344834, "lat": 52.1798468, "lon": 17.5072562, "way_id": 537791081, "landuse": "farmland", "closest_distance_restriction": 1.5626437366502735}, {"id": 2348344835, "lat": 52.1785846, "lon": 17.5062602, "way_id": 537791081, "landuse": "farmland", "closest_distance_restriction": 1.6642542378015008}, {"id": 2348355310, "lat": 52.15913, "lon": 17.4347143, "way_id": 782798876, "landuse": "farmland", "closest_distance_restriction": 1.6616373841560383}, {"id": 2348355313, "lat": 52.161259, "lon": 17.4322516, "way_id": 782798876, "landuse": "farmland", "closest_distance_restriction": 1.9513066300381585}, {"id": 2353801202, "lat": 52.1435898, "lon": 17.4221602, "way_id": 782798876, "landuse": "farmland", "closest_distance_restriction": 1.7232496936534383}, {"id": 2353801203, "lat": 52.1445651, "lon": 17.4214257, "way_id": 782798876, "landuse": "farmland", "closest_distance_restriction": 1.7600259413874195}, {"id": 2353801204, "lat": 52.1448187, "lon": 17.4220372, "way_id": 782798876, "landuse": "farmland", "closest_distance_restriction": 1.7161673833636695}, {"id": 2353801205, "lat": 52.1447792, "lon": 17.4227863, "way_id": 782798876, "landuse": "farmland", "closest_distance_restriction": 1.665529890300006}, {"id": 2353801206, "lat": 52.1459088, "lon": 17.4221784, "way_id": 782798876, "landuse": "farmland", "closest_distance_restriction": 1.7019303624028437}, {"id": 2353801207, "lat": 52.1458906, "lon": 17.4225172, "way_id": 782798876, "landuse": "farmland", "closest_distance_restriction": 1.6788189899526287}, {"id": 2353801210, "lat": 52.1478727, "lon": 17.421665, "way_id": 782798876, "landuse": "farmland", "closest_distance_restriction": 1.750077473401084}, {"id": 2353801223, "lat": 52.1570906, "lon": 17.4306686, "way_id": 782798876, "landuse": "farmland", "closest_distance_restriction": 1.6497720079045384}, {"id": 2353801224, "lat": 52.1581674, "lon": 17.429055, "way_id": 782798876, "landuse": "farmland", "closest_distance_restriction": 1.812387539733792}, {"id": 2353801225, "lat": 52.1589682, "lon": 17.4274793, "way_id": 782798876, "landuse": "farmland", "closest_distance_restriction": 1.9510685046653307}, {"id": 2353801226, "lat": 52.1600443, "lon": 17.4250693, "way_id": 782798876, "landuse": "farmland", "closest_distance_restriction": 2.151680060150256}, {"id": 2353805368, "lat": 52.1377544, "lon": 17.4248681, "way_id": 782798876, "landuse": "farmland", "closest_distance_restriction": 1.7707838762957098}, {"id": 2353805502, "lat": 52.1418241, "lon": 17.4231528, "way_id": 782798876, "landuse": "farmland", "closest_distance_restriction": 1.6985289488865152}, {"id": 2353806850, "lat": 52.1341466, "lon": 17.4327654, "way_id": 782223012, "landuse": "farmland", "closest_distance_restriction": 1.6374473318112865}, {"id": 2353806858, "lat": 52.1301684, "lon": 17.4228795, "way_id": 782223012, "landuse": "farmland", "closest_distance_restriction": 2.343961497369146}, {"id": 2353806863, "lat": 52.1291198, "lon": 17.4260757, "way_id": 782223012, "landuse": "farmland", "closest_distance_restriction": 2.1038865962570577}, {"id": 2353806864, "lat": 52.1301051, "lon": 17.4303094, "way_id": 782223012, "landuse": "farmland", "closest_distance_restriction": 1.8562133692181693}, {"id": 2353806866, "lat": 52.129703, "lon": 17.4303636, "way_id": 782223012, "landuse": "farmland", "closest_distance_restriction": 1.8388032036278759}, {"id": 2353806868, "lat": 52.1369634, "lon": 17.4290036, "way_id": 782223012, "landuse": "farmland", "closest_distance_restriction": 1.5894096256851415}, {"id": 2353808518, "lat": 52.1268755, "lon": 17.4264494, "way_id": 782223012, "landuse": "farmland", "closest_distance_restriction": 2.035160246364702}, {"id": 2353808519, "lat": 52.128404, "lon": 17.4245089, "way_id": 782223012, "landuse": "farmland", "closest_distance_restriction": 2.191904275414216}, {"id": 2353808520, "lat": 52.1281343, "lon": 17.4245272, "way_id": 782223012, "landuse": "farmland", "closest_distance_restriction": 2.185301818660334}, {"id": 2353808521, "lat": 52.1276074, "lon": 17.4309224, "way_id": 782223012, "landuse": "farmland", "closest_distance_restriction": 1.7452774484900433}, {"id": 2353808522, "lat": 52.1288985, "lon": 17.4316304, "way_id": 782223012, "landuse": "farmland", "closest_distance_restriction": 1.7304919600561206}, {"id": 2353808525, "lat": 52.1276622, "lon": 17.4326739, "way_id": 782223012, "landuse": "farmland", "closest_distance_restriction": 1.629076468471461}, {"id": 2353808526, "lat": 52.1271452, "lon": 17.4310079, "way_id": 782223012, "landuse": "farmland", "closest_distance_restriction": 1.7308597436904452}, {"id": 2353808527, "lat": 52.1259651, "lon": 17.4311178, "way_id": 782223012, "landuse": "farmland", "closest_distance_restriction": 1.7080184432430625}, {"id": 2353808528, "lat": 52.1269429, "lon": 17.4318684, "way_id": 782223012, "landuse": "farmland", "closest_distance_restriction": 1.6694007110386753}, {"id": 2353808529, "lat": 52.1255155, "lon": 17.4254457, "way_id": 782223012, "landuse": "farmland", "closest_distance_restriction": 2.0915733106996504}, {"id": 2353808530, "lat": 52.1262461, "lon": 17.4251496, "way_id": 782223012, "landuse": "farmland", "closest_distance_restriction": 2.116634773670327}, {"id": 2353808531, "lat": 52.1266282, "lon": 17.4208474, "way_id": 782223012, "landuse": "farmland", "closest_distance_restriction": 2.4128382576675764}, {"id": 2353808532, "lat": 52.1270825, "lon": 17.4212597, "way_id": 782223012, "landuse": "farmland", "closest_distance_restriction": 2.389769838566345}, {"id": 2353808533, "lat": 52.127887, "lon": 17.42255, "way_id": 782223012, "landuse": "farmland", "closest_distance_restriction": 2.314048211911658}, {"id": 2353808534, "lat": 52.1273138, "lon": 17.421122, "way_id": 782223012, "landuse": "farmland", "closest_distance_restriction": 2.4020386048286597}, {"id": 2353808535, "lat": 52.130407, "lon": 17.4196735, "way_id": 782223012, "landuse": "farmland", "closest_distance_restriction": 2.5484085366956917}, {"id": 2353808536, "lat": 52.1304943, "lon": 17.4174789, "way_id": 782223012, "landuse": "farmland", "closest_distance_restriction": 2.654141328446835}, {"id": 2353808538, "lat": 52.1309326, "lon": 17.4154834, "way_id": 782223012, "landuse": "farmland", "closest_distance_restriction": 2.729260194661535}, {"id": 2353811166, "lat": 52.1332691, "lon": 17.433872, "way_id": 782223012, "landuse": "farmland", "closest_distance_restriction": 1.674680695642541}, {"id": 2353811168, "lat": 52.1323162, "lon": 17.4352795, "way_id": 782223012, "landuse": "farmland", "closest_distance_restriction": 1.649777494283546}, {"id": 2353811169, "lat": 52.1332501, "lon": 17.435145, "way_id": 782223012, "landuse": "farmland", "closest_distance_restriction": 1.631247530903337}, {"id": 2353811170, "lat": 52.1327736, "lon": 17.4357763, "way_id": 782223012, "landuse": "farmland", "closest_distance_restriction": 1.6477248067036532}, {"id": 2353811171, "lat": 52.1323607, "lon": 17.4358695, "way_id": 782223012, "landuse": "farmland", "closest_distance_restriction": 1.6178697651646272}, {"id": 2353811173, "lat": 52.1329007, "lon": 17.4374219, "way_id": 782223012, "landuse": "farmland", "closest_distance_restriction": 1.562701485253648}, {"id": 2353811174, "lat": 52.1328498, "lon": 17.4362834, "way_id": 782223012, "landuse": "farmland", "closest_distance_restriction": 1.6234407296538487}, {"id": 2353811175, "lat": 52.1327609, "lon": 17.4363041, "way_id": 782223012, "landuse": "farmland", "closest_distance_restriction": 1.6167919459431757}, {"id": 3595205036, "lat": 52.0998167, "lon": 17.4171702, "way_id": 781904522, "landuse": "farmland", "closest_distance_restriction": 3.4692586763068367}, {"id": 3595205046, "lat": 52.1001841, "lon": 17.4153525, "way_id": 781904522, "landuse": "farmland", "closest_distance_restriction": 3.557776875682461}, {"id": 3595205050, "lat": 52.1003282, "lon": 17.4174517, "way_id": 781904522, "landuse": "farmland", "closest_distance_restriction": 3.424487007082025}, {"id": 3595205065, "lat": 52.1007676, "lon": 17.4156457, "way_id": 781904522, "landuse": "farmland", "closest_distance_restriction": 3.509200042737934}, {"id": 3595205070, "lat": 52.1008972, "lon": 17.4165135, "way_id": 781904522, "landuse": "farmland", "closest_distance_restriction": 3.450167833563189}, {"id": 3670950173, "lat": 52.2866524, "lon": 17.6761382, "way_id": 426234573, "landuse": "farmland", "closest_distance_restriction": 6.000855090082339}, {"id": 3670950174, "lat": 52.286915, "lon": 17.676208, "way_id": 426234573, "landuse": "farmland", "closest_distance_restriction": 5.9950430115267475}, {"id": 3670950175, "lat": 52.2866308, "lon": 17.6760025, "way_id": 426234573, "landuse": "farmland", "closest_distance_restriction": 5.993072637193673}, {"id": 3670950176, "lat": 52.2868211, "lon": 17.6758791, "way_id": 426234573, "landuse": "farmland", "closest_distance_restriction": 5.977748326023072}, {"id": 3670950177, "lat": 52.2867588, "lon": 17.6759381, "way_id": 426234573, "landuse": "farmland", "closest_distance_restriction": 5.983943945455197}, {"id": 3670950179, "lat": 52.2865999, "lon": 17.6760363, "way_id": 426234573, "landuse": "farmland", "closest_distance_restriction": 5.99644063144933}, {"id": 3670950180, "lat": 52.2868867, "lon": 17.6757611, "way_id": 426234573, "landuse": "farmland", "closest_distance_restriction": 5.967670504003993}, {"id": 3670950181, "lat": 52.286787, "lon": 17.6761758, "way_id": 426234573, "landuse": "farmland", "closest_distance_restriction": 5.997974584682087}, {"id": 3670950182, "lat": 52.2865967, "lon": 17.6760792, "way_id": 426234573, "landuse": "farmland", "closest_distance_restriction": 5.999295126323007}, {"id": 3670950183, "lat": 52.2878341, "lon": 17.6731741, "way_id": 426234573, "landuse": "farmland", "closest_distance_restriction": 5.766039857171475}, {"id": 3670950184, "lat": 52.286659, "lon": 17.6759773, "way_id": 426234573, "landuse": "farmland", "closest_distance_restriction": 5.990358973393726}, {"id": 3670951235, "lat": 52.2880319, "lon": 17.6685326, "way_id": 362848853, "landuse": "farmland", "closest_distance_restriction": 5.4628542212170075}, {"id": 3670951236, "lat": 52.2880516, "lon": 17.6688303, "way_id": 362848853, "landuse": "farmland", "closest_distance_restriction": 5.480962858917485}, {"id": 3670951237, "lat": 52.2888654, "lon": 17.6692219, "way_id": 362848853, "landuse": "farmland", "closest_distance_restriction": 5.474185078520458}, {"id": 3670951238, "lat": 52.2892569, "lon": 17.6694225, "way_id": 362848853, "landuse": "farmland", "closest_distance_restriction": 5.4722830959824}, {"id": 3670951239, "lat": 52.288073, "lon": 17.6688491, "way_id": 362848853, "landuse": "farmland", "closest_distance_restriction": 5.481303903830131}, {"id": 3670951240, "lat": 52.2880434, "lon": 17.6683716, "way_id": 362848853, "landuse": "farmland", "closest_distance_restriction": 5.452178556028491}, {"id": 3670951241, "lat": 52.2880319, "lon": 17.6687445, "way_id": 362848853, "landuse": "farmland", "closest_distance_restriction": 5.476302171908194}, {"id": 3670951242, "lat": 52.2880402, "lon": 17.6687981, "way_id": 362848853, "landuse": "farmland", "closest_distance_restriction": 5.479373273885787}, {"id": 3670951243, "lat": 52.2881468, "lon": 17.6688866, "way_id": 362848853, "landuse": "farmland", "closest_distance_restriction": 5.480753155670148}, {"id": 3670951626, "lat": 52.2886705, "lon": 17.6698565, "way_id": 426234573, "landuse": "farmland", "closest_distance_restriction": 5.522162925165582}, {"id": 3670951627, "lat": 52.2889199, "lon": 17.6700818, "way_id": 426234573, "landuse": "farmland", "closest_distance_restriction": 5.527118327899742}, {"id": 3670951628, "lat": 52.2889035, "lon": 17.6700496, "way_id": 426234573, "landuse": "farmland", "closest_distance_restriction": 5.525674411242333}, {"id": 3670951629, "lat": 52.2873579, "lon": 17.6744645, "way_id": 426234573, "landuse": "farmland", "closest_distance_restriction": 5.8667237552260785}, {"id": 3670951630, "lat": 52.2879519, "lon": 17.6689338, "way_id": 426234573, "landuse": "farmland", "closest_distance_restriction": 5.491515404805714}, {"id": 3670951631, "lat": 52.2883535, "lon": 17.6717003, "way_id": 426234573, "landuse": "farmland", "closest_distance_restriction": 5.6520576838691525}, {"id": 3670951633, "lat": 52.2888346, "lon": 17.6693469, "way_id": 426234573, "landuse": "farmland", "closest_distance_restriction": 5.4833458451804225}, {"id": 3670960150, "lat": 52.2894446, "lon": 17.6688625, "way_id": 362848853, "landuse": "farmland", "closest_distance_restriction": 5.429410428918089}, {"id": 3670960155, "lat": 52.2894462, "lon": 17.6688303, "way_id": 362848853, "landuse": "farmland", "closest_distance_restriction": 5.427286405757111}, {"id": 3670960158, "lat": 52.2894396, "lon": 17.6687954, "way_id": 362848853, "landuse": "farmland", "closest_distance_restriction": 5.425293633668684}, {"id": 3670960159, "lat": 52.2880683, "lon": 17.668164, "way_id": 362848853, "landuse": "farmland", "closest_distance_restriction": 5.438010507494669}, {"id": 3670960161, "lat": 52.2893989, "lon": 17.6687327, "way_id": 362848853, "landuse": "farmland", "closest_distance_restriction": 5.422787456316969}, {"id": 3670960163, "lat": 52.2894249, "lon": 17.6687632, "way_id": 362848853, "landuse": "farmland", "closest_distance_restriction": 5.423775310163735}, {"id": 4022397470, "lat": 52.1195384, "lon": 17.4213627, "way_id": 782223012, "landuse": "farmland", "closest_distance_restriction": 2.4198464708476255}, {"id": 4022397474, "lat": 52.1198157, "lon": 17.4213193, "way_id": 782223012, "landuse": "farmland", "closest_distance_restriction": 2.416427269799577}, {"id": 4022397475, "lat": 52.1198479, "lon": 17.4219927, "way_id": 782223012, "landuse": "farmland", "closest_distance_restriction": 2.370662898503776}, {"id": 4255407699, "lat": 52.2693052, "lon": 17.6872265, "way_id": 426234573, "landuse": "farmland", "closest_distance_restriction": 4.895218839791223}, {"id": 4255407700, "lat": 52.2693153, "lon": 17.6872881, "way_id": 426234573, "landuse": "farmland", "closest_distance_restriction": 4.898221489055829}, {"id": 4255407701, "lat": 52.2693203, "lon": 17.6871197, "way_id": 426234573, "landuse": "farmland", "closest_distance_restriction": 4.89319863052136}, {"id": 4255407702, "lat": 52.2693379, "lon": 17.6873209, "way_id": 426234573, "landuse": "farmland", "closest_distance_restriction": 4.901498976746965}, {"id": 4255407703, "lat": 52.2693806, "lon": 17.6869924, "way_id": 426234573, "landuse": "farmland", "closest_distance_restriction": 4.894935448823912}, {"id": 4255407704, "lat": 52.2693856, "lon": 17.6873373, "way_id": 426234573, "landuse": "farmland", "closest_distance_restriction": 4.906684446069637}, {"id": 4255407705, "lat": 52.269456, "lon": 17.6869184, "way_id": 426234573, "landuse": "farmland", "closest_distance_restriction": 4.89989994778576}, {"id": 4255407706, "lat": 52.2694862, "lon": 17.6868363, "way_id": 426234573, "landuse": "farmland", "closest_distance_restriction": 4.9001946520470225}, {"id": 4255407707, "lat": 52.2695088, "lon": 17.6867336, "way_id": 426234573, "landuse": "farmland", "closest_distance_restriction": 4.8990894005920955}, {"id": 4255407708, "lat": 52.269642, "lon": 17.6872593, "way_id": 426234573, "landuse": "farmland", "closest_distance_restriction": 4.929147748644635}, {"id": 4255407709, "lat": 52.2698531, "lon": 17.6860108, "way_id": 426234573, "landuse": "farmland", "closest_distance_restriction": 4.909871369140078}, {"id": 4255407710, "lat": 52.2704135, "lon": 17.684865, "way_id": 426234573, "landuse": "farmland", "closest_distance_restriction": 4.929986149726761}, {"id": 4255407711, "lat": 52.2705945, "lon": 17.6868651, "way_id": 426234573, "landuse": "farmland", "closest_distance_restriction": 5.009874023843553}, {"id": 4255407712, "lat": 52.2709011, "lon": 17.6838671, "way_id": 426234573, "landuse": "farmland", "closest_distance_restriction": 4.949033082932817}, {"id": 4255407715, "lat": 52.271092, "lon": 17.6835262, "way_id": 426234573, "landuse": "farmland", "closest_distance_restriction": 4.958321930704453}, {"id": 4255407717, "lat": 52.2711775, "lon": 17.6833414, "way_id": 426234573, "landuse": "farmland", "closest_distance_restriction": 4.961619735454247}, {"id": 4255407722, "lat": 52.2712755, "lon": 17.6831894, "way_id": 426234573, "landuse": "farmland", "closest_distance_restriction": 4.967162276668522}, {"id": 4255407725, "lat": 52.2714112, "lon": 17.6830416, "way_id": 426234573, "landuse": "farmland", "closest_distance_restriction": 4.976674680392764}, {"id": 4255407728, "lat": 52.2714992, "lon": 17.6829594, "way_id": 426234573, "landuse": "farmland", "closest_distance_restriction": 4.983253703645182}, {"id": 4255407731, "lat": 52.2716148, "lon": 17.6828403, "way_id": 426234573, "landuse": "farmland", "closest_distance_restriction": 4.991609834332111}, {"id": 4255407735, "lat": 52.2716977, "lon": 17.6863969, "way_id": 426234573, "landuse": "farmland", "closest_distance_restriction": 5.1043439769654375}, {"id": 4255407740, "lat": 52.271856, "lon": 17.6825405, "way_id": 426234573, "landuse": "farmland", "closest_distance_restriction": 5.007728043851262}, {"id": 4255407746, "lat": 52.2720546, "lon": 17.6823023, "way_id": 426234573, "landuse": "farmland", "closest_distance_restriction": 5.021367335581134}, {"id": 4255407747, "lat": 52.2722556, "lon": 17.6821052, "way_id": 426234573, "landuse": "farmland", "closest_distance_restriction": 5.036477353762234}, {"id": 4255407748, "lat": 52.2724968, "lon": 17.6818834, "way_id": 426234573, "landuse": "farmland", "closest_distance_restriction": 5.055121842383539}, {"id": 4255407750, "lat": 52.2726853, "lon": 17.6817356, "way_id": 426234573, "landuse": "farmland", "closest_distance_restriction": 5.070453993652072}, {"id": 4255407751, "lat": 52.2728838, "lon": 17.6816124, "way_id": 426234573, "landuse": "farmland", "closest_distance_restriction": 5.087520266304188}, {"id": 4255407753, "lat": 52.2730522, "lon": 17.6858466, "way_id": 426234573, "landuse": "farmland", "closest_distance_restriction": 5.222927596684615}, {"id": 4255407754, "lat": 52.2730799, "lon": 17.6814892, "way_id": 426234573, "landuse": "farmland", "closest_distance_restriction": 5.104392427143725}, {"id": 4255407755, "lat": 52.2732306, "lon": 17.6813701, "way_id": 426234573, "landuse": "farmland", "closest_distance_restriction": 5.116757375338421}, {"id": 4255407756, "lat": 52.2733839, "lon": 17.6812715, "way_id": 426234573, "landuse": "farmland", "closest_distance_restriction": 5.129957614432787}, {"id": 4255407758, "lat": 52.2736201, "lon": 17.6811648, "way_id": 426234573, "landuse": "farmland", "closest_distance_restriction": 5.15151713443101}, {"id": 4255407759, "lat": 52.2738036, "lon": 17.6811073, "way_id": 426234573, "landuse": "farmland", "closest_distance_restriction": 5.168951374743981}, {"id": 4255407760, "lat": 52.2739669, "lon": 17.6810785, "way_id": 426234573, "landuse": "farmland", "closest_distance_restriction": 5.18505556979685}, {"id": 4255407761, "lat": 52.2740674, "lon": 17.6810415, "way_id": 426234573, "landuse": "farmland", "closest_distance_restriction": 5.1944851383639215}, {"id": 4255407762, "lat": 52.274183, "lon": 17.6853619, "way_id": 426234573, "landuse": "farmland", "closest_distance_restriction": 5.322649579903786}, {"id": 4255407764, "lat": 52.2742408, "lon": 17.6809389, "way_id": 426234573, "landuse": "farmland", "closest_distance_restriction": 5.209797440544355}, {"id": 4255407766, "lat": 52.2743011, "lon": 17.680906, "way_id": 426234573, "landuse": "farmland", "closest_distance_restriction": 5.215200478648834}, {"id": 4255407768, "lat": 52.2743539, "lon": 17.680906, "way_id": 426234573, "landuse": "farmland", "closest_distance_restriction": 5.220657288511785}, {"id": 4255407775, "lat": 52.2745751, "lon": 17.6807992, "way_id": 426234573, "landuse": "farmland", "closest_distance_restriction": 5.240864021798762}, {"id": 4255407778, "lat": 52.2753013, "lon": 17.6848814, "way_id": 426234573, "landuse": "farmland", "closest_distance_restriction": 5.422499477486109}, {"id": 4255407779, "lat": 52.2753691, "lon": 17.6802736, "way_id": 426234573, "landuse": "farmland", "closest_distance_restriction": 5.310345442237363}, {"id": 4255407780, "lat": 52.2753993, "lon": 17.6802695, "way_id": 426234573, "landuse": "farmland", "closest_distance_restriction": 5.313386831147026}, {"id": 4255407781, "lat": 52.2754194, "lon": 17.6803023, "way_id": 426234573, "landuse": "farmland", "closest_distance_restriction": 5.316267532716559}, {"id": 4255407783, "lat": 52.2755023, "lon": 17.6802243, "way_id": 426234573, "landuse": "farmland", "closest_distance_restriction": 5.3230127143542765}, {"id": 4255407784, "lat": 52.2755048, "lon": 17.6801791, "way_id": 426234573, "landuse": "farmland", "closest_distance_restriction": 5.322188158462867}, {"id": 4255407785, "lat": 52.2755852, "lon": 17.6806637, "way_id": 426234573, "landuse": "farmland", "closest_distance_restriction": 5.342246914329023}, {"id": 4255407786, "lat": 52.2757536, "lon": 17.6799409, "way_id": 426234573, "landuse": "farmland", "closest_distance_restriction": 5.342424434358081}, {"id": 4255407788, "lat": 52.2759144, "lon": 17.6809758, "way_id": 426234573, "landuse": "farmland", "closest_distance_restriction": 5.384027155154667}, {"id": 4255407789, "lat": 52.2760024, "lon": 17.6796658, "way_id": 426234573, "landuse": "farmland", "closest_distance_restriction": 5.361913728670981}, {"id": 4255407790, "lat": 52.2761757, "lon": 17.6816001, "way_id": 426234573, "landuse": "farmland", "closest_distance_restriction": 5.426456485841727}, {"id": 4255407791, "lat": 52.2762034, "lon": 17.6816042, "way_id": 426234573, "landuse": "farmland", "closest_distance_restriction": 5.429427340934623}, {"id": 4255407792, "lat": 52.2762159, "lon": 17.6815631, "way_id": 426234573, "landuse": "farmland", "closest_distance_restriction": 5.429707101870903}, {"id": 4255407794, "lat": 52.2763441, "lon": 17.6844338, "way_id": 426234573, "landuse": "farmland", "closest_distance_restriction": 5.516692995605679}, {"id": 4255407795, "lat": 52.2766054, "lon": 17.6789224, "way_id": 426234573, "landuse": "farmland", "closest_distance_restriction": 5.407984846042978}, {"id": 4255407797, "lat": 52.2769195, "lon": 17.6785733, "way_id": 426234573, "landuse": "farmland", "closest_distance_restriction": 5.433185986359514}, {"id": 4255407798, "lat": 52.2770175, "lon": 17.6784255, "way_id": 426234573, "landuse": "farmland", "closest_distance_restriction": 5.440237500937263}, {"id": 4255407799, "lat": 52.2770351, "lon": 17.684134, "way_id": 426234573, "landuse": "farmland", "closest_distance_restriction": 5.579568977474615}, {"id": 4255407800, "lat": 52.2770954, "lon": 17.678253, "way_id": 426234573, "landuse": "farmland", "closest_distance_restriction": 5.444664578923885}, {"id": 4255407801, "lat": 52.2771482, "lon": 17.6841135, "way_id": 426234573, "landuse": "farmland", "closest_distance_restriction": 5.590645645406895}, {"id": 4255407802, "lat": 52.2771859, "lon": 17.6779162, "way_id": 426234573, "landuse": "farmland", "closest_distance_restriction": 5.446911959493549}, {"id": 4255407803, "lat": 52.2772462, "lon": 17.6777109, "way_id": 426234573, "landuse": "farmland", "closest_distance_restriction": 5.4488800674816025}, {"id": 4255407804, "lat": 52.2773015, "lon": 17.6841258, "way_id": 426234573, "landuse": "farmland", "closest_distance_restriction": 5.606712649931539}, {"id": 4255407805, "lat": 52.2773291, "lon": 17.6775507, "way_id": 426234573, "landuse": "farmland", "closest_distance_restriction": 5.454233984734143}, {"id": 4255407807, "lat": 52.2774824, "lon": 17.6771934, "way_id": 426234573, "landuse": "farmland", "closest_distance_restriction": 5.462945931207842}, {"id": 4255407808, "lat": 52.2776457, "lon": 17.6767868, "way_id": 426234573, "landuse": "farmland", "closest_distance_restriction": 5.471856467537262}, {"id": 4255407809, "lat": 52.2777713, "lon": 17.6763803, "way_id": 426234573, "landuse": "farmland", "closest_distance_restriction": 5.476949203288834}, {"id": 4255407810, "lat": 52.2778342, "lon": 17.6762242, "way_id": 426234573, "landuse": "farmland", "closest_distance_restriction": 5.480509595667046}, {"id": 4255407812, "lat": 52.2779522, "lon": 17.6760476, "way_id": 426234573, "landuse": "farmland", "closest_distance_restriction": 5.489553943791488}, {"id": 4255407813, "lat": 52.2780804, "lon": 17.6759532, "way_id": 426234573, "landuse": "farmland", "closest_distance_restriction": 5.501338882421448}, {"id": 4255407814, "lat": 52.2781834, "lon": 17.6758217, "way_id": 426234573, "landuse": "farmland", "closest_distance_restriction": 5.5096453427836645}, {"id": 4255407815, "lat": 52.278206, "lon": 17.6750538, "way_id": 426234573, "landuse": "farmland", "closest_distance_restriction": 5.496930350187861}, {"id": 4255407816, "lat": 52.278206, "lon": 17.6843311, "way_id": 426234573, "landuse": "farmland", "closest_distance_restriction": 5.705039739657962}, {"id": 4255407817, "lat": 52.2782211, "lon": 17.6749922, "way_id": 426234573, "landuse": "farmland", "closest_distance_restriction": 5.49734718764811}, {"id": 4255407818, "lat": 52.2782387, "lon": 17.6751605, "way_id": 426234573, "landuse": "farmland", "closest_distance_restriction": 5.502487693230278}, {"id": 4255407819, "lat": 52.2782663, "lon": 17.675678, "way_id": 426234573, "landuse": "farmland", "closest_distance_restriction": 5.515596971613853}, {"id": 4255407820, "lat": 52.2782839, "lon": 17.67491, "way_id": 426234573, "landuse": "farmland", "closest_distance_restriction": 5.502457696458202}, {"id": 4255407821, "lat": 52.2782889, "lon": 17.6753002, "way_id": 426234573, "landuse": "farmland", "closest_distance_restriction": 5.510560131967187}, {"id": 4255407822, "lat": 52.278304, "lon": 17.675563, "way_id": 426234573, "landuse": "farmland", "closest_distance_restriction": 5.5173309482527735}, {"id": 4255407823, "lat": 52.2783065, "lon": 17.6753946, "way_id": 426234573, "landuse": "farmland", "closest_distance_restriction": 5.514282880492687}, {"id": 4255407824, "lat": 52.2783241, "lon": 17.6748854, "way_id": 426234573, "landuse": "farmland", "closest_distance_restriction": 5.506272292948224}, {"id": 4255407825, "lat": 52.2784598, "lon": 17.674832, "way_id": 426234573, "landuse": "farmland", "closest_distance_restriction": 5.519726435315607}, {"id": 4255407828, "lat": 52.2786055, "lon": 17.6747129, "way_id": 426234573, "landuse": "farmland", "closest_distance_restriction": 5.533010467274453}, {"id": 4255407834, "lat": 52.2789372, "lon": 17.6744336, "way_id": 426234573, "landuse": "farmland", "closest_distance_restriction": 5.563202520979597}, {"id": 4255407843, "lat": 52.2791005, "lon": 17.6845365, "way_id": 426234573, "landuse": "farmland", "closest_distance_restriction": 5.802448806871151}, {"id": 4255407847, "lat": 52.2792136, "lon": 17.674257, "way_id": 426234573, "landuse": "farmland", "closest_distance_restriction": 5.589503976017178}, {"id": 4255407851, "lat": 52.2793342, "lon": 17.6742201, "way_id": 426234573, "landuse": "farmland", "closest_distance_restriction": 5.601737875783929}, {"id": 4255407852, "lat": 52.2794397, "lon": 17.6742365, "way_id": 426234573, "landuse": "farmland", "closest_distance_restriction": 5.613335877573964}, {"id": 4255407856, "lat": 52.2795176, "lon": 17.6742735, "way_id": 426234573, "landuse": "farmland", "closest_distance_restriction": 5.6223558025747415}, {"id": 4255407860, "lat": 52.2796784, "lon": 17.684672, "way_id": 426234573, "landuse": "farmland", "closest_distance_restriction": 5.865505955553208}, {"id": 4255407863, "lat": 52.279882, "lon": 17.6744952, "way_id": 426234573, "landuse": "farmland", "closest_distance_restriction": 5.665440719266983}, {"id": 4255407867, "lat": 52.2801521, "lon": 17.6839862, "way_id": 426234573, "landuse": "farmland", "closest_distance_restriction": 5.897380942773132}, {"id": 4255407868, "lat": 52.2801521, "lon": 17.6840087, "way_id": 426234573, "landuse": "farmland", "closest_distance_restriction": 5.897935275969922}, {"id": 4255407869, "lat": 52.2801898, "lon": 17.6839184, "way_id": 426234573, "landuse": "farmland", "closest_distance_restriction": 5.899621613450266}, {"id": 4255407871, "lat": 52.2803908, "lon": 17.683633, "way_id": 426234573, "landuse": "farmland", "closest_distance_restriction": 5.913510240432778}, {"id": 4255407872, "lat": 52.2804058, "lon": 17.6836371, "way_id": 426234573, "landuse": "farmland", "closest_distance_restriction": 5.915167843790782}, {"id": 4255407873, "lat": 52.2804222, "lon": 17.6848322, "way_id": 426234573, "landuse": "farmland", "closest_distance_restriction": 5.9463677340486445}, {"id": 4255407875, "lat": 52.28049, "lon": 17.6846166, "way_id": 426234573, "landuse": "farmland", "closest_distance_restriction": 5.947989720711786}, {"id": 4255407876, "lat": 52.2805528, "lon": 17.6848568, "way_id": 426234573, "landuse": "farmland", "closest_distance_restriction": 5.960484725861913}, {"id": 4255407877, "lat": 52.2805616, "lon": 17.6847685, "way_id": 426234573, "landuse": "farmland", "closest_distance_restriction": 5.959186001882452}, {"id": 4255407879, "lat": 52.2805691, "lon": 17.6848486, "way_id": 426234573, "landuse": "farmland", "closest_distance_restriction": 5.961964650614178}, {"id": 4255407880, "lat": 52.2805717, "lon": 17.6848178, "way_id": 426234573, "landuse": "farmland", "closest_distance_restriction": 5.961462826532447}, {"id": 4255407881, "lat": 52.280598, "lon": 17.6750209, "way_id": 426234573, "landuse": "farmland", "closest_distance_restriction": 5.751767529487459}, {"id": 4255407884, "lat": 52.2807513, "lon": 17.6842367, "way_id": 426234573, "landuse": "farmland", "closest_distance_restriction": 5.965664327292769}, {"id": 4255407886, "lat": 52.280843, "lon": 17.6843722, "way_id": 426234573, "landuse": "farmland", "closest_distance_restriction": 5.978501682823831}, {"id": 4255407887, "lat": 52.2808782, "lon": 17.6751708, "way_id": 426234573, "landuse": "farmland", "closest_distance_restriction": 5.784523497760471}, {"id": 4255407890, "lat": 52.2809196, "lon": 17.6751893, "way_id": 426234573, "landuse": "farmland", "closest_distance_restriction": 5.789295712115017}, {"id": 4255407891, "lat": 52.2809385, "lon": 17.6844892, "way_id": 426234573, "landuse": "farmland", "closest_distance_restriction": 5.99128110247891}, {"id": 4255407892, "lat": 52.2809448, "lon": 17.6751852, "way_id": 426234573, "landuse": "farmland", "closest_distance_restriction": 5.791916179841176}, {"id": 4255407893, "lat": 52.2809712, "lon": 17.6751421, "way_id": 426234573, "landuse": "farmland", "closest_distance_restriction": 5.7939445322392755}, {"id": 4255407894, "lat": 52.2810026, "lon": 17.6750558, "way_id": 426234573, "landuse": "farmland", "closest_distance_restriction": 5.795715180414912}, {"id": 4255407895, "lat": 52.2810038, "lon": 17.6845447, "way_id": 426234573, "landuse": "farmland", "closest_distance_restriction": 5.999416570530192}, {"id": 4255407899, "lat": 52.281098, "lon": 17.6849533, "way_id": 426234573, "landuse": "farmland", "closest_distance_restriction": 6.019288928277344}, {"id": 4255407900, "lat": 52.2811081, "lon": 17.6849882, "way_id": 426234573, "landuse": "farmland", "closest_distance_restriction": 6.0212026123711135}, {"id": 4255407901, "lat": 52.2811093, "lon": 17.6846022, "way_id": 426234573, "landuse": "farmland", "closest_distance_restriction": 6.011767896221296}, {"id": 4255407902, "lat": 52.2811206, "lon": 17.6846186, "way_id": 426234573, "landuse": "farmland", "closest_distance_restriction": 6.0133431579400725}, {"id": 4255407903, "lat": 52.2811232, "lon": 17.6846433, "way_id": 426234573, "landuse": "farmland", "closest_distance_restriction": 6.014221445157119}, {"id": 4255407904, "lat": 52.2811897, "lon": 17.6850416, "way_id": 426234573, "landuse": "farmland", "closest_distance_restriction": 6.030976107129935}, {"id": 4255407906, "lat": 52.2812107, "lon": 17.6745021, "way_id": 426234573, "landuse": "farmland", "closest_distance_restriction": 5.807966210183011}, {"id": 4255407910, "lat": 52.2813041, "lon": 17.6851012, "way_id": 426234573, "landuse": "farmland", "closest_distance_restriction": 6.0442982251190625}, {"id": 4255407917, "lat": 52.2813958, "lon": 17.6851977, "way_id": 426234573, "landuse": "farmland", "closest_distance_restriction": 6.056189935779896}, {"id": 4255407919, "lat": 52.2814082, "lon": 17.6739551, "way_id": 426234573, "landuse": "farmland", "closest_distance_restriction": 5.8195050956704595}, {"id": 4255407922, "lat": 52.2814377, "lon": 17.6739261, "way_id": 426234573, "landuse": "farmland", "closest_distance_restriction": 5.822170650574512}, {"id": 4255407927, "lat": 52.2814626, "lon": 17.6739319, "way_id": 426234573, "landuse": "farmland", "closest_distance_restriction": 5.824948191647613}, {"id": 4255407928, "lat": 52.2814699, "lon": 17.6853065, "way_id": 426234573, "landuse": "farmland", "closest_distance_restriction": 6.066568625835441}, {"id": 4255407929, "lat": 52.2815004, "lon": 17.6739956, "way_id": 426234573, "landuse": "farmland", "closest_distance_restriction": 5.830120951851253}, {"id": 4255407931, "lat": 52.2815394, "lon": 17.6740362, "way_id": 426234573, "landuse": "farmland", "closest_distance_restriction": 5.835020877668356}, {"id": 4255407934, "lat": 52.2816175, "lon": 17.6740749, "way_id": 426234573, "landuse": "farmland", "closest_distance_restriction": 5.844089981065859}, {"id": 4255407936, "lat": 52.281705, "lon": 17.674102, "way_id": 426234573, "landuse": "farmland", "closest_distance_restriction": 5.853966810062033}, {"id": 4255407937, "lat": 52.2817098, "lon": 17.6856864, "way_id": 426234573, "landuse": "farmland", "closest_distance_restriction": 6.100880549074478}, {"id": 4255407940, "lat": 52.2818114, "lon": 17.674102, "way_id": 426234573, "landuse": "farmland", "closest_distance_restriction": 5.865402751268713}, {"id": 4255407942, "lat": 52.2819037, "lon": 17.6740788, "way_id": 426234573, "landuse": "farmland", "closest_distance_restriction": 5.874921258528017}, {"id": 4255407944, "lat": 52.2820025, "lon": 17.6861628, "way_id": 426234573, "landuse": "farmland", "closest_distance_restriction": 6.143114639004057}, {"id": 4255407946, "lat": 52.2820125, "lon": 17.6740053, "way_id": 426234573, "landuse": "farmland", "closest_distance_restriction": 5.88534665413837}, {"id": 4255407951, "lat": 52.2821473, "lon": 17.6739048, "way_id": 426234573, "landuse": "farmland", "closest_distance_restriction": 5.8981161536305295}, {"id": 4255407957, "lat": 52.2822224, "lon": 17.6865427, "way_id": 426234573, "landuse": "farmland", "closest_distance_restriction": 6.175438254042337}, {"id": 4255407960, "lat": 52.2822443, "lon": 17.6738081, "way_id": 426234573, "landuse": "farmland", "closest_distance_restriction": 5.906899947850467}, {"id": 4255407967, "lat": 52.2823578, "lon": 17.6736651, "way_id": 426234573, "landuse": "farmland", "closest_distance_restriction": 5.916690046035581}, {"id": 4255407968, "lat": 52.2824008, "lon": 17.6868466, "way_id": 426234573, "landuse": "farmland", "closest_distance_restriction": 6.201577869227347}, {"id": 4255407973, "lat": 52.282559, "lon": 17.6870786, "way_id": 426234573, "landuse": "farmland", "closest_distance_restriction": 6.223814617942913}, {"id": 4255407974, "lat": 52.2825825, "lon": 17.673294, "way_id": 426234573, "landuse": "farmland", "closest_distance_restriction": 5.934688288039532}, {"id": 4255407975, "lat": 52.2825854, "lon": 17.6871074, "way_id": 426234573, "landuse": "farmland", "closest_distance_restriction": 6.227272110226462}, {"id": 4255407976, "lat": 52.2826043, "lon": 17.6871053, "way_id": 426234573, "landuse": "farmland", "closest_distance_restriction": 6.229164841155182}, {"id": 4255407977, "lat": 52.2826231, "lon": 17.6870458, "way_id": 426234573, "landuse": "farmland", "closest_distance_restriction": 6.229577487475312}, {"id": 4255407980, "lat": 52.2827475, "lon": 17.6866905, "way_id": 426234573, "landuse": "farmland", "closest_distance_restriction": 6.233363081465689}, {"id": 4255407984, "lat": 52.282871, "lon": 17.6727836, "way_id": 426234573, "landuse": "farmland", "closest_distance_restriction": 5.95494116937963}, {"id": 4255407987, "lat": 52.2830578, "lon": 17.6859041, "way_id": 426234573, "landuse": "farmland", "closest_distance_restriction": 6.245798568203522}, {"id": 4255407988, "lat": 52.2831146, "lon": 17.6724009, "way_id": 426234573, "landuse": "farmland", "closest_distance_restriction": 5.919852167338482}, {"id": 4255407989, "lat": 52.2831572, "lon": 17.672339, "way_id": 426234573, "landuse": "farmland", "closest_distance_restriction": 5.914028597958973}, {"id": 4255407993, "lat": 52.2832069, "lon": 17.6723158, "way_id": 426234573, "landuse": "farmland", "closest_distance_restriction": 5.91025580647208}, {"id": 4255407995, "lat": 52.2832778, "lon": 17.6723429, "way_id": 426234573, "landuse": "farmland", "closest_distance_restriction": 5.908590303279627}, {"id": 4255408002, "lat": 52.2835226, "lon": 17.6847829, "way_id": 426234573, "landuse": "farmland", "closest_distance_restriction": 6.266938754485483}, {"id": 4255408009, "lat": 52.2838289, "lon": 17.6728687, "way_id": 426234573, "landuse": "farmland", "closest_distance_restriction": 5.915537789296267}, {"id": 4255408011, "lat": 52.2839283, "lon": 17.6837705, "way_id": 426234573, "landuse": "farmland", "closest_distance_restriction": 6.285662769287293}, {"id": 4255408015, "lat": 52.28416, "lon": 17.6731896, "way_id": 426234573, "landuse": "farmland", "closest_distance_restriction": 5.920427383803435}, {"id": 4255408020, "lat": 52.2843066, "lon": 17.6733171, "way_id": 426234573, "landuse": "farmland", "closest_distance_restriction": 5.921781495090693}, {"id": 4255408023, "lat": 52.284373, "lon": 17.6826617, "way_id": 426234573, "landuse": "farmland", "closest_distance_restriction": 6.307379325747045}, {"id": 4255408024, "lat": 52.2844225, "lon": 17.6734022, "way_id": 426234573, "landuse": "farmland", "closest_distance_restriction": 5.9219137625936416}, {"id": 4255408032, "lat": 52.2848293, "lon": 17.6736651, "way_id": 426234573, "landuse": "farmland", "closest_distance_restriction": 5.920405044159028}, {"id": 4255408034, "lat": 52.2848579, "lon": 17.6814461, "way_id": 426234573, "landuse": "farmland", "closest_distance_restriction": 6.332301557858489}, {"id": 4255408042, "lat": 52.285187, "lon": 17.6806493, "way_id": 426234573, "landuse": "farmland", "closest_distance_restriction": 6.345646244656013}, {"id": 4255408044, "lat": 52.2852397, "lon": 17.6805302, "way_id": 426234573, "landuse": "farmland", "closest_distance_restriction": 6.335978819257981}, {"id": 4255408045, "lat": 52.2852523, "lon": 17.6804748, "way_id": 426234573, "landuse": "farmland", "closest_distance_restriction": 6.331958701114733}, {"id": 4255408046, "lat": 52.2852645, "lon": 17.6804327, "way_id": 426234573, "landuse": "farmland", "closest_distance_restriction": 6.328798720539422}, {"id": 4255408048, "lat": 52.2853047, "lon": 17.6804249, "way_id": 426234573, "landuse": "farmland", "closest_distance_restriction": 6.326697221107008}, {"id": 4255408049, "lat": 52.2853307, "lon": 17.6803476, "way_id": 426234573, "landuse": "farmland", "closest_distance_restriction": 6.320751789121984}, {"id": 4255408050, "lat": 52.2853892, "lon": 17.6801298, "way_id": 426234573, "landuse": "farmland", "closest_distance_restriction": 6.304589205778103}, {"id": 4255408051, "lat": 52.2856128, "lon": 17.6795549, "way_id": 426234573, "landuse": "farmland", "closest_distance_restriction": 6.259173284340894}, {"id": 4255408053, "lat": 52.2860284, "lon": 17.6743803, "way_id": 426234573, "landuse": "farmland", "closest_distance_restriction": 5.914505743241642}, {"id": 4255408054, "lat": 52.2860638, "lon": 17.6743919, "way_id": 426234573, "landuse": "farmland", "closest_distance_restriction": 5.913781924668803}, {"id": 4255408055, "lat": 52.2860804, "lon": 17.6743881, "way_id": 426234573, "landuse": "farmland", "closest_distance_restriction": 5.912859420876368}, {"id": 4255408056, "lat": 52.2860958, "lon": 17.6743726, "way_id": 426234573, "landuse": "farmland", "closest_distance_restriction": 5.911247066848701}, {"id": 4255408057, "lat": 52.2862235, "lon": 17.6738139, "way_id": 426234573, "landuse": "farmland", "closest_distance_restriction": 5.870686912791876}, {"id": 4255408058, "lat": 52.2862509, "lon": 17.6779819, "way_id": 426234573, "landuse": "farmland", "closest_distance_restriction": 6.133947978104935}, {"id": 4255408060, "lat": 52.2866279, "lon": 17.6715851, "way_id": 426234573, "landuse": "farmland", "closest_distance_restriction": 5.7132153789697995}, {"id": 4255408061, "lat": 52.2869167, "lon": 17.6762858, "way_id": 426234573, "landuse": "farmland", "closest_distance_restriction": 5.999936476644091}, {"id": 4255408062, "lat": 52.2869229, "lon": 17.6762406, "way_id": 426234573, "landuse": "farmland", "closest_distance_restriction": 5.996814614244977}, {"id": 4255408063, "lat": 52.2869236, "lon": 17.6762601, "way_id": 426234573, "landuse": "farmland", "closest_distance_restriction": 5.998030576259868}, {"id": 4255408064, "lat": 52.2869282, "lon": 17.6698377, "way_id": 426234573, "landuse": "farmland", "closest_distance_restriction": 5.590479125227823}, {"id": 4255408066, "lat": 52.2871671, "lon": 17.6684807, "way_id": 426234573, "landuse": "farmland", "closest_distance_restriction": 5.494949156088465}, {"id": 4255408067, "lat": 52.2871907, "lon": 17.6684614, "way_id": 426234573, "landuse": "farmland", "closest_distance_restriction": 5.492747272480133}, {"id": 7170203850, "lat": 52.1027393, "lon": 17.4507373, "way_id": 781904522, "landuse": "farmland", "closest_distance_restriction": 1.574505130254633}, {"id": 7170203851, "lat": 52.1025751, "lon": 17.4499611, "way_id": 781904522, "landuse": "farmland", "closest_distance_restriction": 1.6153505704585698}, {"id": 7170203852, "lat": 52.1024744, "lon": 17.4491274, "way_id": 781904522, "landuse": "farmland", "closest_distance_restriction": 1.6529194404202407}, {"id": 7170203858, "lat": 52.1028717, "lon": 17.4457092, "way_id": 781904522, "landuse": "farmland", "closest_distance_restriction": 1.7458147756320022}, {"id": 7170203859, "lat": 52.1032602, "lon": 17.4447001, "way_id": 781904522, "landuse": "farmland", "closest_distance_restriction": 1.755182429048697}, {"id": 7170203860, "lat": 52.10345, "lon": 17.4442042, "way_id": 781904522, "landuse": "farmland", "closest_distance_restriction": 1.7612379833993863}, {"id": 7170203861, "lat": 52.1036814, "lon": 17.4435588, "way_id": 781904522, "landuse": "farmland", "closest_distance_restriction": 1.7717067837724496}, {"id": 7170203862, "lat": 52.1039003, "lon": 17.4428847, "way_id": 781904522, "landuse": "farmland", "closest_distance_restriction": 1.7859401968142838}, {"id": 7170203863, "lat": 52.1040248, "lon": 17.4425325, "way_id": 781904522, "landuse": "farmland", "closest_distance_restriction": 1.7931417489464603}, {"id": 7170203864, "lat": 52.1042526, "lon": 17.4415493, "way_id": 781904522, "landuse": "farmland", "closest_distance_restriction": 1.82432104912158}, {"id": 7170203865, "lat": 52.1043621, "lon": 17.4408622, "way_id": 781904522, "landuse": "farmland", "closest_distance_restriction": 1.8510957625649584}, {"id": 7170203866, "lat": 52.1045157, "lon": 17.4396721, "way_id": 781904522, "landuse": "farmland", "closest_distance_restriction": 1.9020434307507517}, {"id": 7170203867, "lat": 52.1045987, "lon": 17.4385078, "way_id": 781904522, "landuse": "farmland", "closest_distance_restriction": 1.9585746687976016}, {"id": 7170203868, "lat": 52.1046128, "lon": 17.4379299, "way_id": 781904522, "landuse": "farmland", "closest_distance_restriction": 1.989041323799937}, {"id": 7170203869, "lat": 52.1045969, "lon": 17.4372572, "way_id": 781904522, "landuse": "farmland", "closest_distance_restriction": 2.0270163433383734}, {"id": 7170203870, "lat": 52.1045669, "lon": 17.4364781, "way_id": 781904522, "landuse": "farmland", "closest_distance_restriction": 2.07214819827218}, {"id": 7170203871, "lat": 52.1045086, "lon": 17.4358083, "way_id": 781904522, "landuse": "farmland", "closest_distance_restriction": 2.113313571050564}, {"id": 7170203872, "lat": 52.1044362, "lon": 17.4352448, "way_id": 781904522, "landuse": "farmland", "closest_distance_restriction": 2.149569552524091}, {"id": 7170203873, "lat": 52.1043303, "lon": 17.434552, "way_id": 781904522, "landuse": "farmland", "closest_distance_restriction": 2.195336990981406}, {"id": 7170203874, "lat": 52.1041502, "lon": 17.4337126, "way_id": 781904522, "landuse": "farmland", "closest_distance_restriction": 2.2541344731284454}, {"id": 7170203875, "lat": 52.1039259, "lon": 17.4328357, "way_id": 781904522, "landuse": "farmland", "closest_distance_restriction": 2.3178663251270017}, {"id": 7170203876, "lat": 52.1037493, "lon": 17.4322493, "way_id": 781904522, "landuse": "farmland", "closest_distance_restriction": 2.3621345387152277}, {"id": 7170203877, "lat": 52.1035692, "lon": 17.4317289, "way_id": 781904522, "landuse": "farmland", "closest_distance_restriction": 2.402847246025121}, {"id": 7170203878, "lat": 52.1033591, "lon": 17.4311827, "way_id": 781904522, "landuse": "farmland", "closest_distance_restriction": 2.446857712180464}, {"id": 7170203879, "lat": 52.1030889, "lon": 17.4305848, "way_id": 781904522, "landuse": "farmland", "closest_distance_restriction": 2.4974730825548312}, {"id": 7170203880, "lat": 52.1027852, "lon": 17.4299868, "way_id": 781904522, "landuse": "farmland", "closest_distance_restriction": 2.5501370919716813}, {"id": 7170203881, "lat": 52.102538, "lon": 17.4295412, "way_id": 781904522, "landuse": "farmland", "closest_distance_restriction": 2.5906661143755194}, {"id": 7170203882, "lat": 52.1022042, "lon": 17.4290726, "way_id": 781904522, "landuse": "farmland", "closest_distance_restriction": 2.6378454493700523}, {"id": 7170203883, "lat": 52.1004383, "lon": 17.4265974, "way_id": 781904522, "landuse": "farmland", "closest_distance_restriction": 2.888243259576841}, {"id": 7170203884, "lat": 52.1000445, "lon": 17.4260627, "way_id": 781904522, "landuse": "farmland", "closest_distance_restriction": 2.943326586867079}, {"id": 7170203889, "lat": 52.0989531, "lon": 17.4226905, "way_id": 781904522, "landuse": "farmland", "closest_distance_restriction": 3.201605869556763}, {"id": 7170203890, "lat": 52.0989178, "lon": 17.4219689, "way_id": 781904522, "landuse": "farmland", "closest_distance_restriction": 3.2444479262012904}, {"id": 7170203891, "lat": 52.0989443, "lon": 17.4214198, "way_id": 781904522, "landuse": "farmland", "closest_distance_restriction": 3.2738619566434366}, {"id": 7170203892, "lat": 52.0989938, "lon": 17.4208132, "way_id": 781904522, "landuse": "farmland", "closest_distance_restriction": 3.305310983242326}, {"id": 7170203893, "lat": 52.0990785, "lon": 17.4202498, "way_id": 781904522, "landuse": "farmland", "closest_distance_restriction": 3.3323829648193275}, {"id": 7170203894, "lat": 52.0993293, "lon": 17.4190136, "way_id": 781904522, "landuse": "farmland", "closest_distance_restriction": 3.3888435322062795}, {"id": 7170203896, "lat": 52.1002617, "lon": 17.4145576, "way_id": 781904522, "landuse": "farmland", "closest_distance_restriction": 3.6012962775195816}, {"id": 7170203897, "lat": 52.1003518, "lon": 17.4140862, "way_id": 781904522, "landuse": "farmland", "closest_distance_restriction": 3.6249486268068773}, {"id": 7170203898, "lat": 52.1005125, "lon": 17.412965, "way_id": 781904522, "landuse": "farmland", "closest_distance_restriction": 3.684553005702215}, {"id": 7170203899, "lat": 52.100569, "lon": 17.412252, "way_id": 781904522, "landuse": "farmland", "closest_distance_restriction": 3.725108746068392}, {"id": 7170203900, "lat": 52.1006026, "lon": 17.4115563, "way_id": 781904522, "landuse": "farmland", "closest_distance_restriction": 3.7659394681278022}, {"id": 7170203901, "lat": 52.100599, "lon": 17.4107945, "way_id": 781904522, "landuse": "farmland", "closest_distance_restriction": 3.812800895192328}, {"id": 7170203902, "lat": 52.1005725, "lon": 17.4101103, "way_id": 781904522, "landuse": "farmland", "closest_distance_restriction": 3.8561260263930763}, {"id": 7170203903, "lat": 52.1005407, "lon": 17.4095641, "way_id": 781904522, "landuse": "farmland", "closest_distance_restriction": 3.891281783802439}, {"id": 7170203904, "lat": 52.1003765, "lon": 17.4084831, "way_id": 781904522, "landuse": "farmland", "closest_distance_restriction": 3.9657944438844854}, {"id": 7280553796, "lat": 52.1150181, "lon": 17.3875809, "way_id": 782223012, "landuse": "farmland", "closest_distance_restriction": 4.780560413699483}, {"id": 7280553797, "lat": 52.1154662, "lon": 17.3878223, "way_id": 782223012, "landuse": "farmland", "closest_distance_restriction": 4.754086048122546}, {"id": 7280553798, "lat": 52.1165038, "lon": 17.3888791, "way_id": 782223012, "landuse": "farmland", "closest_distance_restriction": 4.6610382109695685}, {"id": 7280553799, "lat": 52.1171297, "lon": 17.3895711, "way_id": 782223012, "landuse": "farmland", "closest_distance_restriction": 4.602278222743311}, {"id": 7280553800, "lat": 52.1173207, "lon": 17.3895711, "way_id": 782223012, "landuse": "farmland", "closest_distance_restriction": 4.59872475225834}, {"id": 7280553801, "lat": 52.1182299, "lon": 17.3905957, "way_id": 782223012, "landuse": "farmland", "closest_distance_restriction": 4.51389998534029}, {"id": 7280553802, "lat": 52.1193135, "lon": 17.3919743, "way_id": 782223012, "landuse": "farmland", "closest_distance_restriction": 4.404480550517958}, {"id": 7280553803, "lat": 52.1203478, "lon": 17.3934764, "way_id": 782223012, "landuse": "farmland", "closest_distance_restriction": 4.289864205343492}, {"id": 7280553804, "lat": 52.1211614, "lon": 17.3917276, "way_id": 782223012, "landuse": "farmland", "closest_distance_restriction": 4.40095180870199}, {"id": 7280553805, "lat": 52.1215138, "lon": 17.3917919, "way_id": 782223012, "landuse": "farmland", "closest_distance_restriction": 4.393789913922427}, {"id": 7280553806, "lat": 52.1217015, "lon": 17.3913199, "way_id": 782223012, "landuse": "farmland", "closest_distance_restriction": 4.4246119088387665}, {"id": 7280553807, "lat": 52.1219024, "lon": 17.3911375, "way_id": 782223012, "landuse": "farmland", "closest_distance_restriction": 4.435728428828727}, {"id": 7280553808, "lat": 52.1222713, "lon": 17.3916256, "way_id": 782223012, "landuse": "farmland", "closest_distance_restriction": 4.40032375162904}, {"id": 7280553809, "lat": 52.1209934, "lon": 17.3945063, "way_id": 782223012, "landuse": "farmland", "closest_distance_restriction": 4.213318554723037}, {"id": 7280553810, "lat": 52.1212239, "lon": 17.3949569, "way_id": 782223012, "landuse": "farmland", "closest_distance_restriction": 4.180592812004508}, {"id": 7280553811, "lat": 52.1213195, "lon": 17.3953485, "way_id": 782223012, "landuse": "farmland", "closest_distance_restriction": 4.153120918176684}, {"id": 7280553812, "lat": 52.1212338, "lon": 17.3959064, "way_id": 782223012, "landuse": "farmland", "closest_distance_restriction": 4.115879958321662}, {"id": 7280553813, "lat": 52.1213129, "lon": 17.3965931, "way_id": 782223012, "landuse": "farmland", "closest_distance_restriction": 4.068453794070623}, {"id": 7280553814, "lat": 52.1211712, "lon": 17.3972261, "way_id": 782223012, "landuse": "farmland", "closest_distance_restriction": 4.026630716232292}, {"id": 7280553815, "lat": 52.1210527, "lon": 17.3974997, "way_id": 782223012, "landuse": "farmland", "closest_distance_restriction": 4.009122567312578}, {"id": 7280553816, "lat": 52.1211284, "lon": 17.3976231, "way_id": 782223012, "landuse": "farmland", "closest_distance_restriction": 4.0000144711229755}, {"id": 7280553817, "lat": 52.1210428, "lon": 17.3979074, "way_id": 782223012, "landuse": "farmland", "closest_distance_restriction": 3.981485934251613}, {"id": 7280553818, "lat": 52.1212305, "lon": 17.3979771, "way_id": 782223012, "landuse": "farmland", "closest_distance_restriction": 3.974990247361242}, {"id": 7280553819, "lat": 52.1210823, "lon": 17.3984063, "way_id": 782223012, "landuse": "farmland", "closest_distance_restriction": 3.9471723453673238}, {"id": 7280553820, "lat": 52.1213458, "lon": 17.3990822, "way_id": 782223012, "landuse": "farmland", "closest_distance_restriction": 3.8987539236119253}, {"id": 7280553821, "lat": 52.1211844, "lon": 17.3994738, "way_id": 782223012, "landuse": "farmland", "closest_distance_restriction": 3.873586729336753}, {"id": 7280553824, "lat": 52.1213656, "lon": 17.3997527, "way_id": 782223012, "landuse": "farmland", "closest_distance_restriction": 3.8529476001060283}, {"id": 7280553825, "lat": 52.1220803, "lon": 17.3982078, "way_id": 782223012, "landuse": "farmland", "closest_distance_restriction": 3.952685069611443}, {"id": 7280553826, "lat": 52.1222944, "lon": 17.3981434, "way_id": 782223012, "landuse": "farmland", "closest_distance_restriction": 3.9557658133440365}, {"id": 7280553827, "lat": 52.122604, "lon": 17.3990607, "way_id": 782223012, "landuse": "farmland", "closest_distance_restriction": 3.8915611502344234}, {"id": 7280553828, "lat": 52.1225019, "lon": 17.3993128, "way_id": 782223012, "landuse": "farmland", "closest_distance_restriction": 3.874884691809055}, {"id": 7280553829, "lat": 52.1226929, "lon": 17.3995221, "way_id": 782223012, "landuse": "farmland", "closest_distance_restriction": 3.8596662797152885}, {"id": 7280553830, "lat": 52.123019, "lon": 17.4009973, "way_id": 782223012, "landuse": "farmland", "closest_distance_restriction": 3.757664225835328}, {"id": 7280553836, "lat": 52.1213392, "lon": 17.4047792, "way_id": 782223012, "landuse": "farmland", "closest_distance_restriction": 3.511244429429357}, {"id": 7280553837, "lat": 52.1210164, "lon": 17.4053854, "way_id": 782223012, "landuse": "farmland", "closest_distance_restriction": 3.473427687176396}, {"id": 7280553839, "lat": 52.1205421, "lon": 17.4048114, "way_id": 782223012, "landuse": "farmland", "closest_distance_restriction": 3.518028951304746}, {"id": 7280553840, "lat": 52.1203478, "lon": 17.4041623, "way_id": 782223012, "landuse": "farmland", "closest_distance_restriction": 3.564553009408419}, {"id": 7280553841, "lat": 52.1202358, "lon": 17.4043339, "way_id": 782223012, "landuse": "farmland", "closest_distance_restriction": 3.554419347577019}, {"id": 7280553842, "lat": 52.1200711, "lon": 17.40435, "way_id": 782223012, "landuse": "farmland", "closest_distance_restriction": 3.555612415186027}, {"id": 7280553843, "lat": 52.1196396, "lon": 17.4040228, "way_id": 782223012, "landuse": "farmland", "closest_distance_restriction": 3.584155491470993}, {"id": 7280553844, "lat": 52.1188359, "lon": 17.4046665, "way_id": 782223012, "landuse": "farmland", "closest_distance_restriction": 3.5543746988831737}, {"id": 7280553845, "lat": 52.1185988, "lon": 17.4039665, "way_id": 782223012, "landuse": "farmland", "closest_distance_restriction": 3.6059259431601673}, {"id": 7280553867, "lat": 52.1146756, "lon": 17.3875755, "way_id": 782223012, "landuse": "farmland", "closest_distance_restriction": 4.78915290605082}, {"id": 7300237115, "lat": 52.1067759, "lon": 17.4192897, "way_id": 781904522, "landuse": "farmland", "closest_distance_restriction": 3.011877298727897}, {"id": 7300237300, "lat": 52.1029905, "lon": 17.4461539, "way_id": 781904522, "landuse": "farmland", "closest_distance_restriction": 1.7169571487545012}, {"id": 7300237359, "lat": 52.1004504, "lon": 17.4076137, "way_id": 781904522, "landuse": "farmland", "closest_distance_restriction": 4.016070486559021}, {"id": 7300237363, "lat": 52.1009927, "lon": 17.4069981, "way_id": 781904522, "landuse": "farmland", "closest_distance_restriction": 4.029480905353349}, {"id": 7300237369, "lat": 52.1014405, "lon": 17.4072785, "way_id": 781904522, "landuse": "farmland", "closest_distance_restriction": 3.9920006778393726}, {"id": 7300237370, "lat": 52.1020361, "lon": 17.4069254, "way_id": 781904522, "landuse": "farmland", "closest_distance_restriction": 3.9885504918245998}, {"id": 7300237379, "lat": 52.1008645, "lon": 17.4087451, "way_id": 781904522, "landuse": "farmland", "closest_distance_restriction": 3.926599739271281}, {"id": 7300237426, "lat": 52.1095969, "lon": 17.4123229, "way_id": 781904522, "landuse": "farmland", "closest_distance_restriction": 3.367920426391294}, {"id": 7300237888, "lat": 52.1004193, "lon": 17.4077082, "way_id": 781904522, "landuse": "farmland", "closest_distance_restriction": 4.011675196527611}, {"id": 7300237889, "lat": 52.1004918, "lon": 17.4074882, "way_id": 781904522, "landuse": "farmland", "closest_distance_restriction": 4.021916222887944}, {"id": 7300237890, "lat": 52.1006928, "lon": 17.4071342, "way_id": 781904522, "landuse": "farmland", "closest_distance_restriction": 4.034615720009224}, {"id": 7300237891, "lat": 52.1010948, "lon": 17.4069518, "way_id": 781904522, "landuse": "farmland", "closest_distance_restriction": 4.0277969691964595}, {"id": 7300237892, "lat": 52.1015034, "lon": 17.4068767, "way_id": 781904522, "landuse": "farmland", "closest_distance_restriction": 4.014471113428229}, {"id": 7300237893, "lat": 52.1018988, "lon": 17.4065977, "way_id": 781904522, "landuse": "farmland", "closest_distance_restriction": 4.015057313180054}, {"id": 7300237894, "lat": 52.1022547, "lon": 17.4061203, "way_id": 781904522, "landuse": "farmland", "closest_distance_restriction": 4.030429614597891}, {"id": 7300237895, "lat": 52.1023272, "lon": 17.4061364, "way_id": 781904522, "landuse": "farmland", "closest_distance_restriction": 4.026434051705604}, {"id": 7300237896, "lat": 52.1022811, "lon": 17.4067801, "way_id": 781904522, "landuse": "farmland", "closest_distance_restriction": 3.987495180590375}, {"id": 7300237897, "lat": 52.1007521, "lon": 17.4076867, "way_id": 781904522, "landuse": "farmland", "closest_distance_restriction": 3.9975272584389727}, {"id": 7300237898, "lat": 52.1009366, "lon": 17.4094248, "way_id": 781904522, "landuse": "farmland", "closest_distance_restriction": 3.881102004767535}, {"id": 7300237899, "lat": 52.1015858, "lon": 17.409119, "way_id": 781904522, "landuse": "farmland", "closest_distance_restriction": 3.870320242594928}, {"id": 7300237900, "lat": 52.1020471, "lon": 17.4089152, "way_id": 781904522, "landuse": "farmland", "closest_distance_restriction": 3.8626809699885265}, {"id": 7300237901, "lat": 52.1022844, "lon": 17.4088937, "way_id": 781904522, "landuse": "farmland", "closest_distance_restriction": 3.8537780385034495}, {"id": 7300237902, "lat": 52.1025282, "lon": 17.4089098, "way_id": 781904522, "landuse": "farmland", "closest_distance_restriction": 3.8423858958272388}, {"id": 7300237903, "lat": 52.1025414, "lon": 17.407102, "way_id": 781904522, "landuse": "farmland", "closest_distance_restriction": 3.9563456901023706}, {"id": 7300237904, "lat": 52.1026435, "lon": 17.4068606, "way_id": 781904522, "landuse": "farmland", "closest_distance_restriction": 3.9675244829015224}, {"id": 7300237905, "lat": 52.1028478, "lon": 17.4065602, "way_id": 781904522, "landuse": "farmland", "closest_distance_restriction": 3.9784498265897135}, {"id": 7300237906, "lat": 52.1031543, "lon": 17.4062973, "way_id": 781904522, "landuse": "farmland", "closest_distance_restriction": 3.9832024901326424}, {"id": 7300237907, "lat": 52.103431, "lon": 17.4062329, "way_id": 781904522, "landuse": "farmland", "closest_distance_restriction": 3.9767050105810786}, {"id": 7300237908, "lat": 52.1037441, "lon": 17.4064368, "way_id": 781904522, "landuse": "farmland", "closest_distance_restriction": 3.9518178324540156}, {"id": 7300237909, "lat": 52.1040307, "lon": 17.4067372, "way_id": 781904522, "landuse": "farmland", "closest_distance_restriction": 3.921876272714601}, {"id": 7300237910, "lat": 52.1044558, "lon": 17.4075204, "way_id": 781904522, "landuse": "farmland", "closest_distance_restriction": 3.855890645527983}, {"id": 7300237911, "lat": 52.1047985, "lon": 17.4078208, "way_id": 781904522, "landuse": "farmland", "closest_distance_restriction": 3.824281809404526}, {"id": 7300237912, "lat": 52.1049961, "lon": 17.4077457, "way_id": 781904522, "landuse": "farmland", "closest_distance_restriction": 3.82228057372437}, {"id": 7300237913, "lat": 52.1052433, "lon": 17.4074721, "way_id": 781904522, "landuse": "farmland", "closest_distance_restriction": 3.8316576548751837}, {"id": 7300237914, "lat": 52.1055728, "lon": 17.406984, "way_id": 781904522, "landuse": "farmland", "closest_distance_restriction": 3.8526307149499166}, {"id": 7300237915, "lat": 52.1058924, "lon": 17.4061954, "way_id": 781904522, "landuse": "farmland", "closest_distance_restriction": 3.894136890666743}, {"id": 7300237916, "lat": 52.1061592, "lon": 17.4059057, "way_id": 781904522, "landuse": "farmland", "closest_distance_restriction": 3.9050175260914393}, {"id": 7300237917, "lat": 52.1064591, "lon": 17.4059594, "way_id": 781904522, "landuse": "farmland", "closest_distance_restriction": 3.8925955287207348}, {"id": 7300237918, "lat": 52.1066271, "lon": 17.4062812, "way_id": 781904522, "landuse": "farmland", "closest_distance_restriction": 3.8665026870398322}, {"id": 7300237919, "lat": 52.1070686, "lon": 17.4072468, "way_id": 781904522, "landuse": "farmland", "closest_distance_restriction": 3.790195386346185}, {"id": 7300237920, "lat": 52.1074475, "lon": 17.407456, "way_id": 781904522, "landuse": "farmland", "closest_distance_restriction": 3.7659417171258167}, {"id": 7300237921, "lat": 52.1070159, "lon": 17.4090707, "way_id": 781904522, "landuse": "farmland", "closest_distance_restriction": 3.6713098762476104}, {"id": 7300237922, "lat": 52.1065645, "lon": 17.4109214, "way_id": 781904522, "landuse": "farmland", "closest_distance_restriction": 3.5633769836679616}, {"id": 7300237923, "lat": 52.1061296, "lon": 17.4105889, "way_id": 781904522, "landuse": "farmland", "closest_distance_restriction": 3.5990871559777324}, {"id": 7300237924, "lat": 52.1060703, "lon": 17.4107122, "way_id": 781904522, "landuse": "farmland", "closest_distance_restriction": 3.5929893771071497}, {"id": 7300237925, "lat": 52.1057737, "lon": 17.4114096, "way_id": 781904522, "landuse": "farmland", "closest_distance_restriction": 3.557572896174913}, {"id": 7300237926, "lat": 52.1058034, "lon": 17.4123537, "way_id": 781904522, "landuse": "farmland", "closest_distance_restriction": 3.495264392939871}, {"id": 7300237927, "lat": 52.1058825, "lon": 17.4129546, "way_id": 781904522, "landuse": "farmland", "closest_distance_restriction": 3.4535383642125677}, {"id": 7300237928, "lat": 52.1060044, "lon": 17.4132228, "way_id": 781904522, "landuse": "farmland", "closest_distance_restriction": 3.431895162655793}, {"id": 7300237929, "lat": 52.1062218, "lon": 17.4136305, "way_id": 781904522, "landuse": "farmland", "closest_distance_restriction": 3.397920542128096}, {"id": 7300237930, "lat": 52.1062713, "lon": 17.4135286, "way_id": 781904522, "landuse": "farmland", "closest_distance_restriction": 3.402850119706046}, {"id": 7300237931, "lat": 52.1064657, "lon": 17.4137807, "way_id": 781904522, "landuse": "farmland", "closest_distance_restriction": 3.3798711111138418}, {"id": 7300237932, "lat": 52.1064162, "lon": 17.4141777, "way_id": 781904522, "landuse": "farmland", "closest_distance_restriction": 3.355715139254841}, {"id": 7300237933, "lat": 52.1069236, "lon": 17.4145693, "way_id": 781904522, "landuse": "farmland", "closest_distance_restriction": 3.313303457095833}, {"id": 7300237934, "lat": 52.1071477, "lon": 17.4146336, "way_id": 781904522, "landuse": "farmland", "closest_distance_restriction": 3.301884055409616}, {"id": 7300237935, "lat": 52.1074409, "lon": 17.4145532, "way_id": 781904522, "landuse": "farmland", "closest_distance_restriction": 3.2979735902079788}, {"id": 7300237936, "lat": 52.1077078, "lon": 17.4145907, "way_id": 781904522, "landuse": "farmland", "closest_distance_restriction": 3.2874162142033265}, {"id": 7300237937, "lat": 52.1078198, "lon": 17.413668, "way_id": 781904522, "landuse": "farmland", "closest_distance_restriction": 3.344893743478417}, {"id": 7300237938, "lat": 52.1073552, "lon": 17.4136251, "way_id": 781904522, "landuse": "farmland", "closest_distance_restriction": 3.3615291417432203}, {"id": 7300237939, "lat": 52.1072696, "lon": 17.4133193, "way_id": 781904522, "landuse": "farmland", "closest_distance_restriction": 3.384225383539902}, {"id": 7300237940, "lat": 52.1072828, "lon": 17.4123162, "way_id": 781904522, "landuse": "farmland", "closest_distance_restriction": 3.4497381994334178}, {"id": 7300237941, "lat": 52.1072004, "lon": 17.411415, "way_id": 781904522, "landuse": "farmland", "closest_distance_restriction": 3.5114838815088745}, {"id": 7300237942, "lat": 52.1070884, "lon": 17.4113882, "way_id": 781904522, "landuse": "farmland", "closest_distance_restriction": 3.5165989061068457}, {"id": 7300237943, "lat": 52.1071543, "lon": 17.4122679, "way_id": 781904522, "landuse": "farmland", "closest_distance_restriction": 3.456792454581823}, {"id": 7300237944, "lat": 52.1071411, "lon": 17.4131906, "way_id": 781904522, "landuse": "farmland", "closest_distance_restriction": 3.3966284697000035}, {"id": 7300237945, "lat": 52.1070422, "lon": 17.4136358, "way_id": 781904522, "landuse": "farmland", "closest_distance_restriction": 3.3705443646640583}, {"id": 7300237946, "lat": 52.106347, "lon": 17.4132925, "way_id": 781904522, "landuse": "farmland", "closest_distance_restriction": 3.4156436116630826}, {"id": 7300237947, "lat": 52.1060011, "lon": 17.4125576, "way_id": 781904522, "landuse": "farmland", "closest_distance_restriction": 3.475192258953923}, {"id": 7300237948, "lat": 52.1059846, "lon": 17.411828, "way_id": 781904522, "landuse": "farmland", "closest_distance_restriction": 3.5231794592873045}, {"id": 7300237949, "lat": 52.1060209, "lon": 17.4112433, "way_id": 781904522, "landuse": "farmland", "closest_distance_restriction": 3.560013149159373}, {"id": 7300237950, "lat": 52.1061955, "lon": 17.4108195, "way_id": 781904522, "landuse": "farmland", "closest_distance_restriction": 3.581880114332462}, {"id": 7300237951, "lat": 52.1064228, "lon": 17.4109966, "way_id": 781904522, "landuse": "farmland", "closest_distance_restriction": 3.5629582069941326}, {"id": 7300237952, "lat": 52.1066996, "lon": 17.4111253, "way_id": 781904522, "landuse": "farmland", "closest_distance_restriction": 3.545778912426752}, {"id": 7300237953, "lat": 52.1068742, "lon": 17.4110985, "way_id": 781904522, "landuse": "farmland", "closest_distance_restriction": 3.5421372841755607}, {"id": 7300237954, "lat": 52.1074475, "lon": 17.4110448, "way_id": 781904522, "landuse": "farmland", "closest_distance_restriction": 3.528648165572123}, {"id": 7300237955, "lat": 52.1077901, "lon": 17.4111092, "way_id": 781904522, "landuse": "farmland", "closest_distance_restriction": 3.5147322217710246}, {"id": 7300237956, "lat": 52.1081888, "lon": 17.4112004, "way_id": 781904522, "landuse": "farmland", "closest_distance_restriction": 3.49791876318576}, {"id": 7300237957, "lat": 52.1086764, "lon": 17.4114418, "way_id": 781904522, "landuse": "farmland", "closest_distance_restriction": 3.466728251613617}, {"id": 7300237958, "lat": 52.1089861, "lon": 17.41171, "way_id": 781904522, "landuse": "farmland", "closest_distance_restriction": 3.4350763292030506}, {"id": 7300237959, "lat": 52.1090817, "lon": 17.4120319, "way_id": 781904522, "landuse": "farmland", "closest_distance_restriction": 3.4106581756614616}, {"id": 7300237960, "lat": 52.109309, "lon": 17.4120426, "way_id": 781904522, "landuse": "farmland", "closest_distance_restriction": 3.398977481801088}, {"id": 7300237966, "lat": 52.1094342, "lon": 17.4121875, "way_id": 781904522, "landuse": "farmland", "closest_distance_restriction": 3.384038366182106}, {"id": 7300237967, "lat": 52.1097307, "lon": 17.4124342, "way_id": 781904522, "landuse": "farmland", "closest_distance_restriction": 3.3547027381794243}, {"id": 7300237968, "lat": 52.1101524, "lon": 17.4125254, "way_id": 781904522, "landuse": "farmland", "closest_distance_restriction": 3.3293788102136896}, {"id": 7300237969, "lat": 52.1102183, "lon": 17.412681, "way_id": 781904522, "landuse": "farmland", "closest_distance_restriction": 3.316673280482845}, {"id": 7300237970, "lat": 52.1107026, "lon": 17.412858, "way_id": 781904522, "landuse": "farmland", "closest_distance_restriction": 3.283699254435691}, {"id": 7300237971, "lat": 52.1109793, "lon": 17.4127722, "way_id": 781904522, "landuse": "farmland", "closest_distance_restriction": 3.276865415435914}, {"id": 7300237972, "lat": 52.1113186, "lon": 17.4128473, "way_id": 781904522, "landuse": "farmland", "closest_distance_restriction": 3.2574998322153728}, {"id": 7300237973, "lat": 52.1118425, "lon": 17.4132925, "way_id": 781904522, "landuse": "farmland", "closest_distance_restriction": 3.2073648151704277}, {"id": 7300237974, "lat": 52.1122279, "lon": 17.4141133, "way_id": 781904522, "landuse": "farmland", "closest_distance_restriction": 3.1394695043888166}, {"id": 7300237975, "lat": 52.1123234, "lon": 17.4149394, "way_id": 781904522, "landuse": "farmland", "closest_distance_restriction": 3.0830990498803543}, {"id": 7300237976, "lat": 52.1122608, "lon": 17.4159425, "way_id": 781904522, "landuse": "farmland", "closest_distance_restriction": 3.0221625094376723}, {"id": 7300237977, "lat": 52.1118853, "lon": 17.4168599, "way_id": 781904522, "landuse": "farmland", "closest_distance_restriction": 2.9806338383334805}, {"id": 7300237978, "lat": 52.1115855, "lon": 17.4168438, "way_id": 781904522, "landuse": "farmland", "closest_distance_restriction": 2.9950550158235254}, {"id": 7300237979, "lat": 52.1114603, "lon": 17.4181634, "way_id": 781904522, "landuse": "farmland", "closest_distance_restriction": 2.9188274259930758}, {"id": 7300237980, "lat": 52.1113878, "lon": 17.4183619, "way_id": 781904522, "landuse": "farmland", "closest_distance_restriction": 2.9099750911687705}, {"id": 7300237981, "lat": 52.1111177, "lon": 17.4185282, "way_id": 781904522, "landuse": "farmland", "closest_distance_restriction": 2.912686472029189}, {"id": 7300237982, "lat": 52.1104291, "lon": 17.4185228, "way_id": 781904522, "landuse": "farmland", "closest_distance_restriction": 2.947230674848144}, {"id": 7300237983, "lat": 52.1093683, "lon": 17.4185926, "way_id": 781904522, "landuse": "farmland", "closest_distance_restriction": 2.976398659853007}, {"id": 7300237984, "lat": 52.108884, "lon": 17.4188232, "way_id": 781904522, "landuse": "farmland", "closest_distance_restriction": 2.9742525086728913}, {"id": 7300237985, "lat": 52.1084161, "lon": 17.4192202, "way_id": 781904522, "landuse": "farmland", "closest_distance_restriction": 2.9617310493405475}, {"id": 7300237986, "lat": 52.1082876, "lon": 17.4199927, "way_id": 781904522, "landuse": "farmland", "closest_distance_restriction": 2.9149714868365146}, {"id": 7300237987, "lat": 52.1078659, "lon": 17.4203092, "way_id": 781904522, "landuse": "farmland", "closest_distance_restriction": 2.9078398451387932}, {"id": 7300237988, "lat": 52.1073289, "lon": 17.4203306, "way_id": 781904522, "landuse": "farmland", "closest_distance_restriction": 2.924777280664622}, {"id": 7300237989, "lat": 52.1070653, "lon": 17.4200195, "way_id": 781904522, "landuse": "farmland", "closest_distance_restriction": 2.9542784574288987}, {"id": 7300237990, "lat": 52.106693, "lon": 17.4190807, "way_id": 781904522, "landuse": "farmland", "closest_distance_restriction": 3.0283856118912054}, {"id": 7300237991, "lat": 52.1066699, "lon": 17.418952, "way_id": 781904522, "landuse": "farmland", "closest_distance_restriction": 3.037531081578346}, {"id": 7300237992, "lat": 52.1064657, "lon": 17.4189091, "way_id": 781904522, "landuse": "farmland", "closest_distance_restriction": 3.0478297346088725}, {"id": 7300237993, "lat": 52.1061658, "lon": 17.4191612, "way_id": 781904522, "landuse": "farmland", "closest_distance_restriction": 3.043006068192767}, {"id": 7300237994, "lat": 52.1060505, "lon": 17.4193758, "way_id": 781904522, "landuse": "farmland", "closest_distance_restriction": 3.0337481777381354}, {"id": 7300237995, "lat": 52.1059022, "lon": 17.4197298, "way_id": 781904522, "landuse": "farmland", "closest_distance_restriction": 3.0170123425693}, {"id": 7300237996, "lat": 52.1056914, "lon": 17.4200463, "way_id": 781904522, "landuse": "farmland", "closest_distance_restriction": 3.005404411071511}, {"id": 7300237997, "lat": 52.105754, "lon": 17.4205345, "way_id": 781904522, "landuse": "farmland", "closest_distance_restriction": 2.9718481647178794}, {"id": 7300237998, "lat": 52.1059747, "lon": 17.4209046, "way_id": 781904522, "landuse": "farmland", "closest_distance_restriction": 2.939313578722885}, {"id": 7300237999, "lat": 52.1070126, "lon": 17.4219614, "way_id": 781904522, "landuse": "farmland", "closest_distance_restriction": 2.8310730902450945}, {"id": 7300238000, "lat": 52.1072926, "lon": 17.4220633, "way_id": 781904522, "landuse": "farmland", "closest_distance_restriction": 2.814096346636297}, {"id": 7300238001, "lat": 52.1075991, "lon": 17.4221921, "way_id": 781904522, "landuse": "farmland", "closest_distance_restriction": 2.794695709103446}, {"id": 7300238002, "lat": 52.1090355, "lon": 17.423619, "way_id": 781904522, "landuse": "farmland", "closest_distance_restriction": 2.653956041796251}, {"id": 7300238003, "lat": 52.1100898, "lon": 17.4253517, "way_id": 781904522, "landuse": "farmland", "closest_distance_restriction": 2.5090586900642733}, {"id": 7300238004, "lat": 52.1103336, "lon": 17.4257809, "way_id": 781904522, "landuse": "farmland", "closest_distance_restriction": 2.4740492863758883}, {"id": 7300238005, "lat": 52.1107092, "lon": 17.4262369, "way_id": 781904522, "landuse": "farmland", "closest_distance_restriction": 2.4340636769890915}, {"id": 7300238006, "lat": 52.1110781, "lon": 17.4268323, "way_id": 781904522, "landuse": "farmland", "closest_distance_restriction": 2.3854001922592825}, {"id": 7300238007, "lat": 52.1113153, "lon": 17.4275297, "way_id": 781904522, "landuse": "farmland", "closest_distance_restriction": 2.333304672871438}, {"id": 7300238008, "lat": 52.1113582, "lon": 17.4282002, "way_id": 781904522, "landuse": "farmland", "closest_distance_restriction": 2.287523616832021}, {"id": 7300238009, "lat": 52.1112956, "lon": 17.4288547, "way_id": 781904522, "landuse": "farmland", "closest_distance_restriction": 2.2453186883414276}, {"id": 7300238010, "lat": 52.1111144, "lon": 17.429198, "way_id": 781904522, "landuse": "farmland", "closest_distance_restriction": 2.2269028050455493}, {"id": 7300238011, "lat": 52.110976, "lon": 17.4295682, "way_id": 781904522, "landuse": "farmland", "closest_distance_restriction": 2.205856379539518}, {"id": 7300238012, "lat": 52.1097505, "lon": 17.4303567, "way_id": 781904522, "landuse": "farmland", "closest_distance_restriction": 2.190405427638519}, {"id": 7300238013, "lat": 52.1099943, "lon": 17.4316388, "way_id": 781904522, "landuse": "farmland", "closest_distance_restriction": 2.09875023646023}, {"id": 7300238014, "lat": 52.1109266, "lon": 17.431258, "way_id": 781904522, "landuse": "farmland", "closest_distance_restriction": 2.0952481110971712}, {"id": 7300238015, "lat": 52.1111407, "lon": 17.4313223, "way_id": 781904522, "landuse": "farmland", "closest_distance_restriction": 2.0851519028714742}, {"id": 7300238016, "lat": 52.1114307, "lon": 17.4312419, "way_id": 781904522, "landuse": "farmland", "closest_distance_restriction": 2.082992363815146}, {"id": 7300238017, "lat": 52.1116316, "lon": 17.431156, "way_id": 781904522, "landuse": "farmland", "closest_distance_restriction": 2.083810901355715}, {"id": 7300238018, "lat": 52.1120039, "lon": 17.4313599, "way_id": 781904522, "landuse": "farmland", "closest_distance_restriction": 2.061685825766472}, {"id": 7300238019, "lat": 52.1121291, "lon": 17.4316388, "way_id": 781904522, "landuse": "farmland", "closest_distance_restriction": 2.040301955835242}, {"id": 7300238020, "lat": 52.1121324, "lon": 17.4325132, "way_id": 781904522, "landuse": "farmland", "closest_distance_restriction": 1.98165854691145}, {"id": 7300238021, "lat": 52.1120434, "lon": 17.4330175, "way_id": 781904522, "landuse": "farmland", "closest_distance_restriction": 1.9499163928491492}, {"id": 7300238022, "lat": 52.1117766, "lon": 17.4335056, "way_id": 781904522, "landuse": "farmland", "closest_distance_restriction": 1.9237214483625331}, {"id": 7300238023, "lat": 52.1112033, "lon": 17.4337631, "way_id": 781904522, "landuse": "farmland", "closest_distance_restriction": 1.9219680331766618}, {"id": 7300238024, "lat": 52.1107223, "lon": 17.4341923, "way_id": 781904522, "landuse": "farmland", "closest_distance_restriction": 1.9083017338466266}, {"id": 7300238025, "lat": 52.1105444, "lon": 17.4348682, "way_id": 781904522, "landuse": "farmland", "closest_distance_restriction": 1.8700332600583869}, {"id": 7300238026, "lat": 52.110584, "lon": 17.4351686, "way_id": 781904522, "landuse": "farmland", "closest_distance_restriction": 1.8491508664294687}, {"id": 7300238027, "lat": 52.1103797, "lon": 17.4359035, "way_id": 781904522, "landuse": "farmland", "closest_distance_restriction": 1.8086321138826078}, {"id": 7300238028, "lat": 52.1099547, "lon": 17.4352813, "way_id": 781904522, "landuse": "farmland", "closest_distance_restriction": 1.8643860899202844}, {"id": 7300238029, "lat": 52.1101985, "lon": 17.4368316, "way_id": 781904522, "landuse": "farmland", "closest_distance_restriction": 1.75562902740823}, {"id": 7300238030, "lat": 52.1099877, "lon": 17.4379474, "way_id": 781904522, "landuse": "farmland", "closest_distance_restriction": 1.6928763943924812}, {"id": 7300238031, "lat": 52.1094441, "lon": 17.438972, "way_id": 781904522, "landuse": "farmland", "closest_distance_restriction": 1.6524062324551425}, {"id": 7300238032, "lat": 52.1092892, "lon": 17.4392188, "way_id": 781904522, "landuse": "farmland", "closest_distance_restriction": 1.6444292799673002}, {"id": 7300238033, "lat": 52.1094012, "lon": 17.4402755, "way_id": 781904522, "landuse": "farmland", "closest_distance_restriction": 1.574038605851414}, {"id": 7300238035, "lat": 52.1095857, "lon": 17.4403131, "way_id": 781904522, "landuse": "farmland", "closest_distance_restriction": 1.5627841060320014}, {"id": 7300238044, "lat": 52.1101985, "lon": 17.4397981, "way_id": 781904522, "landuse": "farmland", "closest_distance_restriction": 1.5670301434765406}, {"id": 7300238045, "lat": 52.1102084, "lon": 17.4390417, "way_id": 781904522, "landuse": "farmland", "closest_distance_restriction": 1.6143854293436333}, {"id": 7300238046, "lat": 52.1105247, "lon": 17.438736, "way_id": 781904522, "landuse": "farmland", "closest_distance_restriction": 1.621083472670329}, {"id": 7300238219, "lat": 52.1024634, "lon": 17.4488449, "way_id": 781904522, "landuse": "farmland", "closest_distance_restriction": 1.66370116675894}, {"id": 7300238220, "lat": 52.1025463, "lon": 17.4488479, "way_id": 781904522, "landuse": "farmland", "closest_distance_restriction": 1.6556641779801506}, {"id": 7300238221, "lat": 52.1029928, "lon": 17.4491402, "way_id": 781904522, "landuse": "farmland", "closest_distance_restriction": 1.6028018985113806}, {"id": 7300238248, "lat": 52.1033388, "lon": 17.446965, "way_id": 781904522, "landuse": "farmland", "closest_distance_restriction": 1.6528840919045955}, {"id": 7300238249, "lat": 52.1032202, "lon": 17.4466056, "way_id": 781904522, "landuse": "farmland", "closest_distance_restriction": 1.6780457959379682}, {"id": 7300238250, "lat": 52.1030982, "lon": 17.4462569, "way_id": 781904522, "landuse": "farmland", "closest_distance_restriction": 1.7031552419374805}, {"id": 7300238251, "lat": 52.1027974, "lon": 17.4459693, "way_id": 781904522, "landuse": "farmland", "closest_distance_restriction": 1.741703699963246}, {"id": 7300238252, "lat": 52.0998047, "lon": 17.4255395, "way_id": 781904522, "landuse": "farmland", "closest_distance_restriction": 2.987902456763518}, {"id": 7300238253, "lat": 52.0995724, "lon": 17.424936, "way_id": 781904522, "landuse": "farmland", "closest_distance_restriction": 3.036470677630627}, {"id": 7300238254, "lat": 52.0993631, "lon": 17.424303, "way_id": 781904522, "landuse": "farmland", "closest_distance_restriction": 3.085212512647874}, {"id": 7300238255, "lat": 52.0996235, "lon": 17.4240643, "way_id": 781904522, "landuse": "farmland", "closest_distance_restriction": 3.0820257459924143}, {"id": 7300238256, "lat": 52.0993977, "lon": 17.4239194, "way_id": 781904522, "landuse": "farmland", "closest_distance_restriction": 3.104461300190155}, {"id": 7300238257, "lat": 52.099256, "lon": 17.4236566, "way_id": 781904522, "landuse": "farmland", "closest_distance_restriction": 3.12819788249802}, {"id": 7300238258, "lat": 52.099037, "lon": 17.4232468, "way_id": 781904522, "landuse": "farmland", "closest_distance_restriction": 3.1650913123301003}, {"id": 7300238259, "lat": 52.0989379, "lon": 17.4223805, "way_id": 781904522, "landuse": "farmland", "closest_distance_restriction": 3.2199899014026028}, {"id": 7300238260, "lat": 52.0997317, "lon": 17.4171213, "way_id": 781904522, "landuse": "farmland", "closest_distance_restriction": 3.476868852400706}, {"id": 7300238261, "lat": 52.1001115, "lon": 17.4152963, "way_id": 781904522, "landuse": "farmland", "closest_distance_restriction": 3.565043235717104}, {"id": 7300238262, "lat": 52.1002591, "lon": 17.4079095, "way_id": 781904522, "landuse": "farmland", "closest_distance_restriction": 4.0067928180985}, {"id": 7304265231, "lat": 52.1329543, "lon": 17.4002025, "way_id": 782223012, "landuse": "farmland", "closest_distance_restriction": 3.512730007918503}, {"id": 7304320758, "lat": 52.1321449, "lon": 17.4307827, "way_id": 782223012, "landuse": "farmland", "closest_distance_restriction": 1.8969248352585069}, {"id": 7304320763, "lat": 52.1317066, "lon": 17.4298042, "way_id": 782223012, "landuse": "farmland", "closest_distance_restriction": 1.9524576407105207}, {"id": 7304320772, "lat": 52.1280714, "lon": 17.4335855, "way_id": 782223012, "landuse": "farmland", "closest_distance_restriction": 1.5782020450156897}, {"id": 7304320773, "lat": 52.1287912, "lon": 17.4335888, "way_id": 782223012, "landuse": "farmland", "closest_distance_restriction": 1.5986646010460235}, {"id": 7304320795, "lat": 52.1315024, "lon": 17.411558, "way_id": 782223012, "landuse": "farmland", "closest_distance_restriction": 2.910301460101169}, {"id": 7304320815, "lat": 52.1298736, "lon": 17.3987425, "way_id": 782223012, "landuse": "farmland", "closest_distance_restriction": 3.754345796245348}, {"id": 7304320819, "lat": 52.1324486, "lon": 17.4008914, "way_id": 782223012, "landuse": "farmland", "closest_distance_restriction": 3.49373098174562}, {"id": 7304320821, "lat": 52.1319525, "lon": 17.4016292, "way_id": 782223012, "landuse": "farmland", "closest_distance_restriction": 3.4727108024605506}, {"id": 7304320834, "lat": 52.1266453, "lon": 17.3868093, "way_id": 782223012, "landuse": "farmland", "closest_distance_restriction": 4.642131604795936}, {"id": 7304320836, "lat": 52.1272998, "lon": 17.3880357, "way_id": 782223012, "landuse": "farmland", "closest_distance_restriction": 4.534313158346962}, {"id": 7304320842, "lat": 52.1284199, "lon": 17.3906769, "way_id": 782223012, "landuse": "farmland", "closest_distance_restriction": 4.317100025207557}, {"id": 7304320843, "lat": 52.1272148, "lon": 17.3924249, "way_id": 782223012, "landuse": "farmland", "closest_distance_restriction": 4.274703983252033}, {"id": 7304320844, "lat": 52.1275234, "lon": 17.3952928, "way_id": 782223012, "landuse": "farmland", "closest_distance_restriction": 4.087571073680621}, {"id": 7304320845, "lat": 52.1269322, "lon": 17.3946991, "way_id": 782223012, "landuse": "farmland", "closest_distance_restriction": 4.1557617852372735}, {"id": 7304320856, "lat": 52.1277412, "lon": 17.3933046, "way_id": 782223012, "landuse": "farmland", "closest_distance_restriction": 4.1937919851187555}, {"id": 7304320958, "lat": 52.1229039, "lon": 17.3857438, "way_id": 782223012, "landuse": "farmland", "closest_distance_restriction": 4.79892225882068}, {"id": 7304320959, "lat": 52.1235124, "lon": 17.3856542, "way_id": 782223012, "landuse": "farmland", "closest_distance_restriction": 4.803562027477669}, {"id": 7304321035, "lat": 52.12624, "lon": 17.3852527, "way_id": 782223012, "landuse": "farmland", "closest_distance_restriction": 4.75719522585171}, {"id": 7304321036, "lat": 52.1262729, "lon": 17.3857838, "way_id": 782223012, "landuse": "farmland", "closest_distance_restriction": 4.7233545482294295}, {"id": 7304321037, "lat": 52.1254298, "lon": 17.3859233, "way_id": 782223012, "landuse": "farmland", "closest_distance_restriction": 4.759174216772669}, {"id": 7304321038, "lat": 52.1254562, "lon": 17.3869264, "way_id": 782223012, "landuse": "farmland", "closest_distance_restriction": 4.697779339240754}, {"id": 7304321039, "lat": 52.1275804, "lon": 17.3867172, "way_id": 782223012, "landuse": "farmland", "closest_distance_restriction": 4.600577851165582}, {"id": 7304321040, "lat": 52.1278504, "lon": 17.3883694, "way_id": 782223012, "landuse": "farmland", "closest_distance_restriction": 4.486257102776496}, {"id": 7304321041, "lat": 52.1268591, "lon": 17.3877686, "way_id": 782223012, "landuse": "farmland", "closest_distance_restriction": 4.573086419560005}, {"id": 7304321042, "lat": 52.1267768, "lon": 17.3882943, "way_id": 782223012, "landuse": "farmland", "closest_distance_restriction": 4.545623588807057}, {"id": 7304321043, "lat": 52.1272115, "lon": 17.388525, "way_id": 782223012, "landuse": "farmland", "closest_distance_restriction": 4.5091716571416125}, {"id": 7304321044, "lat": 52.1271489, "lon": 17.3890078, "way_id": 782223012, "landuse": "farmland", "closest_distance_restriction": 4.4832175553809215}, {"id": 7304321045, "lat": 52.1277121, "lon": 17.3892331, "way_id": 782223012, "landuse": "farmland", "closest_distance_restriction": 4.440656966896163}, {"id": 7304321046, "lat": 52.1275079, "lon": 17.3900807, "way_id": 782223012, "landuse": "farmland", "closest_distance_restriction": 4.399813118918189}, {"id": 7304321047, "lat": 52.1272873, "lon": 17.3911643, "way_id": 782223012, "landuse": "farmland", "closest_distance_restriction": 4.346180293043813}, {"id": 7304321048, "lat": 52.1272411, "lon": 17.3917544, "way_id": 782223012, "landuse": "farmland", "closest_distance_restriction": 4.313311216569557}, {"id": 7304321049, "lat": 52.1271983, "lon": 17.3931116, "way_id": 782223012, "landuse": "farmland", "closest_distance_restriction": 4.234741996022241}, {"id": 7304321050, "lat": 52.1270436, "lon": 17.3939431, "way_id": 782223012, "landuse": "farmland", "closest_distance_restriction": 4.194038403902525}, {"id": 7304321051, "lat": 52.126869, "lon": 17.3951286, "way_id": 782223012, "landuse": "farmland", "closest_distance_restriction": 4.134156361574081}, {"id": 7304321052, "lat": 52.1269513, "lon": 17.3957723, "way_id": 782223012, "landuse": "farmland", "closest_distance_restriction": 4.091776313677821}, {"id": 7304321053, "lat": 52.1272214, "lon": 17.3959118, "way_id": 782223012, "landuse": "farmland", "closest_distance_restriction": 4.068162898092462}, {"id": 7304321054, "lat": 52.1273663, "lon": 17.3958045, "way_id": 782223012, "landuse": "farmland", "closest_distance_restriction": 4.0662410588101325}, {"id": 7304321055, "lat": 52.1277088, "lon": 17.3946887, "way_id": 782223012, "landuse": "farmland", "closest_distance_restriction": 4.113091021814568}, {"id": 7304321056, "lat": 52.1277648, "lon": 17.3934066, "way_id": 782223012, "landuse": "farmland", "closest_distance_restriction": 4.186427870619048}, {"id": 7304321057, "lat": 52.1276158, "lon": 17.3927334, "way_id": 782223012, "landuse": "farmland", "closest_distance_restriction": 4.234673920132283}, {"id": 7304321058, "lat": 52.127633, "lon": 17.3924196, "way_id": 782223012, "landuse": "farmland", "closest_distance_restriction": 4.252542114727532}, {"id": 7304321059, "lat": 52.1279031, "lon": 17.3914969, "way_id": 782223012, "landuse": "farmland", "closest_distance_restriction": 4.293806190892468}, {"id": 7304321060, "lat": 52.1280513, "lon": 17.3904616, "way_id": 782223012, "landuse": "farmland", "closest_distance_restriction": 4.3488311047045825}, {"id": 7304321061, "lat": 52.1291347, "lon": 17.3910946, "way_id": 782223012, "landuse": "farmland", "closest_distance_restriction": 4.256150803996741}, {"id": 7304321062, "lat": 52.1298032, "lon": 17.3931974, "way_id": 782223012, "landuse": "farmland", "closest_distance_restriction": 4.094550893451552}, {"id": 7304321063, "lat": 52.129935, "lon": 17.3939645, "way_id": 782223012, "landuse": "farmland", "closest_distance_restriction": 4.041079452770257}, {"id": 7304321064, "lat": 52.1302116, "lon": 17.3959118, "way_id": 782223012, "landuse": "farmland", "closest_distance_restriction": 3.908336907402698}, {"id": 7304321065, "lat": 52.1300403, "lon": 17.3959064, "way_id": 782223012, "landuse": "farmland", "closest_distance_restriction": 3.9172357140117944}, {"id": 7304321066, "lat": 52.1299251, "lon": 17.3979235, "way_id": 782223012, "landuse": "farmland", "closest_distance_restriction": 3.8009048944244506}, {"id": 7304321067, "lat": 52.1302116, "lon": 17.3980254, "way_id": 782223012, "landuse": "farmland", "closest_distance_restriction": 3.779902542106597}, {"id": 7304321068, "lat": 52.1297999, "lon": 17.3986047, "way_id": 782223012, "landuse": "farmland", "closest_distance_restriction": 3.766520882003937}, {"id": 7304321069, "lat": 52.1302906, "lon": 17.3995221, "way_id": 782223012, "landuse": "farmland", "closest_distance_restriction": 3.685501423268335}, {"id": 7304321070, "lat": 52.1303367, "lon": 17.4002677, "way_id": 782223012, "landuse": "farmland", "closest_distance_restriction": 3.638280366161531}, {"id": 7304321071, "lat": 52.1304948, "lon": 17.4003589, "way_id": 782223012, "landuse": "farmland", "closest_distance_restriction": 3.6244398762579864}, {"id": 7304321072, "lat": 52.1309031, "lon": 17.4010456, "way_id": 782223012, "landuse": "farmland", "closest_distance_restriction": 3.561684717342481}, {"id": 7304321073, "lat": 52.1310875, "lon": 17.4008524, "way_id": 782223012, "landuse": "farmland", "closest_distance_restriction": 3.5637726260864357}, {"id": 7304321074, "lat": 52.1313543, "lon": 17.4012494, "way_id": 782223012, "landuse": "farmland", "closest_distance_restriction": 3.5260308989252707}, {"id": 7304321075, "lat": 52.1320556, "lon": 17.4016947, "way_id": 782223012, "landuse": "farmland", "closest_distance_restriction": 3.4635843278391194}, {"id": 7304321076, "lat": 52.1318087, "lon": 17.4035776, "way_id": 782223012, "landuse": "farmland", "closest_distance_restriction": 3.361816970045792}, {"id": 7304321077, "lat": 52.1313707, "lon": 17.40435, "way_id": 782223012, "landuse": "farmland", "closest_distance_restriction": 3.338695455115441}, {"id": 7304321078, "lat": 52.1315222, "lon": 17.4046075, "way_id": 782223012, "landuse": "farmland", "closest_distance_restriction": 3.3151553121476973}, {"id": 7304321079, "lat": 52.1313049, "lon": 17.4057877, "way_id": 782223012, "landuse": "farmland", "closest_distance_restriction": 3.256915904253592}, {"id": 7304321080, "lat": 52.1314135, "lon": 17.4058521, "way_id": 782223012, "landuse": "farmland", "closest_distance_restriction": 3.247080518381519}, {"id": 7304321081, "lat": 52.1318054, "lon": 17.4045753, "way_id": 782223012, "landuse": "farmland", "closest_distance_restriction": 3.3019592805916362}, {"id": 7304321082, "lat": 52.1323948, "lon": 17.4019843, "way_id": 782223012, "landuse": "farmland", "closest_distance_restriction": 3.42915470023501}, {"id": 7304321083, "lat": 52.1325463, "lon": 17.3989052, "way_id": 782223012, "landuse": "farmland", "closest_distance_restriction": 3.6121054808894804}, {"id": 7304321084, "lat": 52.1326253, "lon": 17.398358, "way_id": 782223012, "landuse": "farmland", "closest_distance_restriction": 3.6425729258154766}, {"id": 7304321085, "lat": 52.1330402, "lon": 17.399227, "way_id": 782223012, "landuse": "farmland", "closest_distance_restriction": 3.569663776561252}, {"id": 7304321086, "lat": 52.1329348, "lon": 17.4004233, "way_id": 782223012, "landuse": "farmland", "closest_distance_restriction": 3.499896721186707}, {"id": 7304321087, "lat": 52.1334815, "lon": 17.4007666, "way_id": 782223012, "landuse": "farmland", "closest_distance_restriction": 3.453718013327583}, {"id": 7304321088, "lat": 52.1332147, "lon": 17.4022204, "way_id": 782223012, "landuse": "farmland", "closest_distance_restriction": 3.3754227170918454}, {"id": 7304321089, "lat": 52.1335967, "lon": 17.4025154, "way_id": 782223012, "landuse": "farmland", "closest_distance_restriction": 3.3394555823662646}, {"id": 7304321090, "lat": 52.1335605, "lon": 17.4029714, "way_id": 782223012, "landuse": "farmland", "closest_distance_restriction": 3.3127861471572975}, {"id": 7304321091, "lat": 52.1334321, "lon": 17.4033469, "way_id": 782223012, "landuse": "farmland", "closest_distance_restriction": 3.295504124205785}, {"id": 7304321092, "lat": 52.1333168, "lon": 17.4032396, "way_id": 782223012, "landuse": "farmland", "closest_distance_restriction": 3.307569999682491}, {"id": 7304321093, "lat": 52.1330139, "lon": 17.4035668, "way_id": 782223012, "landuse": "farmland", "closest_distance_restriction": 3.3019043925831224}, {"id": 7304321094, "lat": 52.1329678, "lon": 17.4036688, "way_id": 782223012, "landuse": "farmland", "closest_distance_restriction": 3.2978809464785477}, {"id": 7304321095, "lat": 52.1329546, "lon": 17.4039209, "way_id": 782223012, "landuse": "farmland", "closest_distance_restriction": 3.2830657189368413}, {"id": 7304321096, "lat": 52.1333366, "lon": 17.4036956, "way_id": 782223012, "landuse": "farmland", "closest_distance_restriction": 3.2784784851331694}, {"id": 7304321097, "lat": 52.1335473, "lon": 17.4034381, "way_id": 782223012, "landuse": "farmland", "closest_distance_restriction": 3.2844622241289745}, {"id": 7304321098, "lat": 52.1337251, "lon": 17.4026012, "way_id": 782223012, "landuse": "farmland", "closest_distance_restriction": 3.3282600683840875}, {"id": 7304321099, "lat": 52.1340215, "lon": 17.4027622, "way_id": 782223012, "landuse": "farmland", "closest_distance_restriction": 3.3048633385599486}, {"id": 7304321100, "lat": 52.1341993, "lon": 17.4019682, "way_id": 782223012, "landuse": "farmland", "closest_distance_restriction": 3.3467958749397213}, {"id": 7304321101, "lat": 52.1344561, "lon": 17.401185, "way_id": 782223012, "landuse": "farmland", "closest_distance_restriction": 3.3851812297029498}, {"id": 7304321102, "lat": 52.1346866, "lon": 17.4012709, "way_id": 782223012, "landuse": "farmland", "closest_distance_restriction": 3.370140291772761}, {"id": 7304321103, "lat": 52.1343771, "lon": 17.4066031, "way_id": 782223012, "landuse": "farmland", "closest_distance_restriction": 3.049672076227323}, {"id": 7304321104, "lat": 52.1343178, "lon": 17.4068284, "way_id": 782223012, "landuse": "farmland", "closest_distance_restriction": 3.0385403139007856}, {"id": 7304321105, "lat": 52.131868, "lon": 17.4099076, "way_id": 782223012, "landuse": "farmland", "closest_distance_restriction": 2.9833335067182105}, {"id": 7304321106, "lat": 52.1315518, "lon": 17.4113238, "way_id": 782223012, "landuse": "farmland", "closest_distance_restriction": 2.920628642567057}, {"id": 7304321107, "lat": 52.1312686, "lon": 17.4126649, "way_id": 782223012, "landuse": "farmland", "closest_distance_restriction": 2.862358318666829}, {"id": 7304321108, "lat": 52.1311962, "lon": 17.4134695, "way_id": 782223012, "landuse": "farmland", "closest_distance_restriction": 2.8220948979714953}, {"id": 7304321109, "lat": 52.1292829, "lon": 17.4230021, "way_id": 782223012, "landuse": "farmland", "closest_distance_restriction": 2.312402653124468}, {"id": 7304321110, "lat": 52.1294838, "lon": 17.4242949, "way_id": 782223012, "landuse": "farmland", "closest_distance_restriction": 2.231539531828774}, {"id": 7304321111, "lat": 52.1297138, "lon": 17.42592, "way_id": 782223012, "landuse": "farmland", "closest_distance_restriction": 2.1304051096552987}, {"id": 7304321112, "lat": 52.1289042, "lon": 17.4243593, "way_id": 782223012, "landuse": "farmland", "closest_distance_restriction": 2.2128988043796345}, {"id": 7304321113, "lat": 52.1266848, "lon": 17.4316703, "way_id": 782223012, "landuse": "farmland", "closest_distance_restriction": 1.6788426255286732}, {"id": 7304321114, "lat": 52.1266121, "lon": 17.4325991, "way_id": 782223012, "landuse": "farmland", "closest_distance_restriction": 1.6149254010853407}, {"id": 7304321115, "lat": 52.1268492, "lon": 17.4326742, "way_id": 782223012, "landuse": "farmland", "closest_distance_restriction": 1.6134616494902982}, {"id": 7304321116, "lat": 52.1281221, "lon": 17.4329104, "way_id": 782223012, "landuse": "farmland", "closest_distance_restriction": 1.624330693875701}, {"id": 7304321122, "lat": 52.1288669, "lon": 17.4304963, "way_id": 782223012, "landuse": "farmland", "closest_distance_restriction": 1.8043149771806124}, {"id": 7304321123, "lat": 52.1303367, "lon": 17.4314296, "way_id": 782223012, "landuse": "farmland", "closest_distance_restriction": 1.7927488118599966}, {"id": 7304321124, "lat": 52.1312785, "lon": 17.4312633, "way_id": 782223012, "landuse": "farmland", "closest_distance_restriction": 1.8421562932927882}, {"id": 7304321125, "lat": 52.1312489, "lon": 17.4292678, "way_id": 782223012, "landuse": "farmland", "closest_distance_restriction": 1.966831386049596}, {"id": 7304321126, "lat": 52.1311731, "lon": 17.4292731, "way_id": 782223012, "landuse": "farmland", "closest_distance_restriction": 1.9634091428153158}, {"id": 7304321127, "lat": 52.1310019, "lon": 17.4301261, "way_id": 782223012, "landuse": "farmland", "closest_distance_restriction": 1.9022543359466002}, {"id": 7304321128, "lat": 52.1306067, "lon": 17.4302226, "way_id": 782223012, "landuse": "farmland", "closest_distance_restriction": 1.8804357738718138}, {"id": 7304321129, "lat": 52.1303997, "lon": 17.4291694, "way_id": 782223012, "landuse": "farmland", "closest_distance_restriction": 1.9404373678766442}, {"id": 7304321130, "lat": 52.1315351, "lon": 17.4289646, "way_id": 782223012, "landuse": "farmland", "closest_distance_restriction": 1.9979046741633995}, {"id": 7304321131, "lat": 52.1317296, "lon": 17.4299169, "way_id": 782223012, "landuse": "farmland", "closest_distance_restriction": 1.9464182899570408}, {"id": 7304321132, "lat": 52.1319042, "lon": 17.4299115, "way_id": 782223012, "landuse": "farmland", "closest_distance_restriction": 1.953794983904375}, {"id": 7304321133, "lat": 52.132217, "lon": 17.4310434, "way_id": 782223012, "landuse": "farmland", "closest_distance_restriction": 1.880005587390869}, {"id": 7304321134, "lat": 52.1324541, "lon": 17.4310327, "way_id": 782223012, "landuse": "farmland", "closest_distance_restriction": 1.8590899826736416}, {"id": 7304321135, "lat": 52.1326352, "lon": 17.4320733, "way_id": 782223012, "landuse": "farmland", "closest_distance_restriction": 1.8014709457311757}, {"id": 7304321136, "lat": 52.1326352, "lon": 17.4328458, "way_id": 782223012, "landuse": "farmland", "closest_distance_restriction": 1.7719485938840338}, {"id": 7304321137, "lat": 52.1323553, "lon": 17.433334, "way_id": 782223012, "landuse": "farmland", "closest_distance_restriction": 1.7673342673505967}, {"id": 7304321138, "lat": 52.1320326, "lon": 17.4338061, "way_id": 782223012, "landuse": "farmland", "closest_distance_restriction": 1.7219329429852095}, {"id": 7304321139, "lat": 52.132105, "lon": 17.4351418, "way_id": 782223012, "landuse": "farmland", "closest_distance_restriction": 1.646056454655399}, {"id": 7304321140, "lat": 52.1321544, "lon": 17.4362844, "way_id": 782223012, "landuse": "farmland", "closest_distance_restriction": 1.5817375659605932}, {"id": 7304321142, "lat": 52.1332036, "lon": 17.433038, "way_id": 782223012, "landuse": "farmland", "closest_distance_restriction": 1.7121048829337682}, {"id": 7304321213, "lat": 52.1195072, "lon": 17.4294119, "way_id": 782223012, "landuse": "farmland", "closest_distance_restriction": 1.8871844451607547}, {"id": 7304321214, "lat": 52.1195438, "lon": 17.4275901, "way_id": 782223012, "landuse": "farmland", "closest_distance_restriction": 2.0061087169966303}, {"id": 7304321215, "lat": 52.1195345, "lon": 17.4271685, "way_id": 782223012, "landuse": "farmland", "closest_distance_restriction": 2.034219923518444}, {"id": 7304321216, "lat": 52.1203512, "lon": 17.4254769, "way_id": 782223012, "landuse": "farmland", "closest_distance_restriction": 2.1263980417651753}, {"id": 7304321217, "lat": 52.1208023, "lon": 17.425864, "way_id": 782223012, "landuse": "farmland", "closest_distance_restriction": 2.091033792948328}, {"id": 7304321218, "lat": 52.1209835, "lon": 17.4255046, "way_id": 782223012, "landuse": "farmland", "closest_distance_restriction": 2.1117533370407218}, {"id": 7304321219, "lat": 52.1213293, "lon": 17.4262771, "way_id": 782223012, "landuse": "farmland", "closest_distance_restriction": 2.0535737278256367}, {"id": 7304321220, "lat": 52.1216241, "lon": 17.4242279, "way_id": 782223012, "landuse": "farmland", "closest_distance_restriction": 2.187537746966176}, {"id": 7304321221, "lat": 52.1216538, "lon": 17.4241246, "way_id": 782223012, "landuse": "farmland", "closest_distance_restriction": 2.1941154505310076}, {"id": 7304321222, "lat": 52.1215986, "lon": 17.4239463, "way_id": 782223012, "landuse": "farmland", "closest_distance_restriction": 2.206967885292507}, {"id": 7304321223, "lat": 52.1213162, "lon": 17.4240415, "way_id": 782223012, "landuse": "farmland", "closest_distance_restriction": 2.204763509763948}, {"id": 7304321224, "lat": 52.1212453, "lon": 17.4240321, "way_id": 782223012, "landuse": "farmland", "closest_distance_restriction": 2.206532311649823}, {"id": 7304321225, "lat": 52.1210041, "lon": 17.4241032, "way_id": 782223012, "landuse": "farmland", "closest_distance_restriction": 2.2058012003229814}, {"id": 7304321226, "lat": 52.1208979, "lon": 17.4241783, "way_id": 782223012, "landuse": "farmland", "closest_distance_restriction": 2.2026360791487156}, {"id": 7304321227, "lat": 52.1205092, "lon": 17.4240267, "way_id": 782223012, "landuse": "farmland", "closest_distance_restriction": 2.220284287206391}, {"id": 7304321228, "lat": 52.1201897, "lon": 17.4125844, "way_id": 782223012, "landuse": "farmland", "closest_distance_restriction": 2.9968709949916117}, {"id": 7304321229, "lat": 52.1197618, "lon": 17.4131809, "way_id": 782223012, "landuse": "farmland", "closest_distance_restriction": 2.964026800782647}, {"id": 7304321230, "lat": 52.1190797, "lon": 17.409634, "way_id": 782223012, "landuse": "farmland", "closest_distance_restriction": 3.2155500169714486}, {"id": 7304321231, "lat": 52.1189689, "lon": 17.4085233, "way_id": 782223012, "landuse": "farmland", "closest_distance_restriction": 3.292370566731991}, {"id": 7304321232, "lat": 52.1209934, "lon": 17.4060881, "way_id": 782223012, "landuse": "farmland", "closest_distance_restriction": 3.4259560580043082}, {"id": 7304321233, "lat": 52.1214413, "lon": 17.4046612, "way_id": 782223012, "landuse": "farmland", "closest_distance_restriction": 3.518282411371346}, {"id": 7304321237, "lat": 52.114468, "lon": 17.3869854, "way_id": 782223012, "landuse": "farmland", "closest_distance_restriction": 4.833556650573391}, {"id": 7304321238, "lat": 52.1145734, "lon": 17.3873931, "way_id": 782223012, "landuse": "farmland", "closest_distance_restriction": 4.803809497386144}, {"id": 7304321592, "lat": 52.1218591, "lon": 17.4027827, "way_id": 782223012, "landuse": "farmland", "closest_distance_restriction": 3.6425507877982053}, {"id": 7304321593, "lat": 52.1220786, "lon": 17.4032718, "way_id": 782223012, "landuse": "farmland", "closest_distance_restriction": 3.607607376294378}, {"id": 7304321594, "lat": 52.1213507, "lon": 17.4043339, "way_id": 782223012, "landuse": "farmland", "closest_distance_restriction": 3.541415236432682}, {"id": 7304321597, "lat": 52.1209012, "lon": 17.4060345, "way_id": 782223012, "landuse": "farmland", "closest_distance_restriction": 3.430657299462169}, {"id": 7304321598, "lat": 52.120496, "lon": 17.4048436, "way_id": 782223012, "landuse": "farmland", "closest_distance_restriction": 3.516431781593241}, {"id": 7304321599, "lat": 52.1198867, "lon": 17.4321431, "way_id": 782223012, "landuse": "farmland", "closest_distance_restriction": 1.696299420326412}, {"id": 7304321600, "lat": 52.1198867, "lon": 17.4324703, "way_id": 782223012, "landuse": "farmland", "closest_distance_restriction": 1.6748535362824248}, {"id": 7304321601, "lat": 52.1194684, "lon": 17.4325615, "way_id": 782223012, "landuse": "farmland", "closest_distance_restriction": 1.6826258118554587}, {"id": 7304321602, "lat": 52.1194684, "lon": 17.4322021, "way_id": 782223012, "landuse": "farmland", "closest_distance_restriction": 1.7059867959003507}, {"id": 7304321603, "lat": 52.1198537, "lon": 17.4293348, "way_id": 782223012, "landuse": "farmland", "closest_distance_restriction": 1.8821443176723693}, {"id": 7304321604, "lat": 52.1212561, "lon": 17.4284781, "way_id": 782223012, "landuse": "farmland", "closest_distance_restriction": 1.906531273448514}, {"id": 7304321605, "lat": 52.1212486, "lon": 17.4290585, "way_id": 782223012, "landuse": "farmland", "closest_distance_restriction": 1.8676219321975887}, {"id": 7304321606, "lat": 52.120389, "lon": 17.4291953, "way_id": 782223012, "landuse": "farmland", "closest_distance_restriction": 1.877273868240482}, {"id": 7304321607, "lat": 52.1202523, "lon": 17.4297613, "way_id": 782223012, "landuse": "farmland", "closest_distance_restriction": 1.8431105623026014}, {"id": 7304321608, "lat": 52.1207628, "lon": 17.4296755, "way_id": 782223012, "landuse": "farmland", "closest_distance_restriction": 1.836391009136324}, {"id": 7304321609, "lat": 52.120776, "lon": 17.429949, "way_id": 782223012, "landuse": "farmland", "closest_distance_restriction": 1.8178129678894708}, {"id": 7304321610, "lat": 52.1206541, "lon": 17.429992, "way_id": 782223012, "landuse": "farmland", "closest_distance_restriction": 1.817775001717655}, {"id": 7304321611, "lat": 52.120664, "lon": 17.430169, "way_id": 782223012, "landuse": "farmland", "closest_distance_restriction": 1.8057335879656045}, {"id": 7304321612, "lat": 52.1203906, "lon": 17.4301958, "way_id": 782223012, "landuse": "farmland", "closest_distance_restriction": 1.8106877949110234}, {"id": 7304321613, "lat": 52.1204301, "lon": 17.4311238, "way_id": 782223012, "landuse": "farmland", "closest_distance_restriction": 1.748045242438081}, {"id": 7304321614, "lat": 52.1202226, "lon": 17.4311453, "way_id": 782223012, "landuse": "farmland", "closest_distance_restriction": 1.7521991132269668}, {"id": 7304321616, "lat": 52.1194684, "lon": 17.4308342, "way_id": 782223012, "landuse": "farmland", "closest_distance_restriction": 1.7951872314237611}, {"id": 7304321618, "lat": 52.119946, "lon": 17.4275136, "way_id": 782223012, "landuse": "farmland", "closest_distance_restriction": 2.0002824028097193}, {"id": 7304321621, "lat": 52.1199427, "lon": 17.4271005, "way_id": 782223012, "landuse": "farmland", "closest_distance_restriction": 2.0278072568042504}, {"id": 7304321622, "lat": 52.1212174, "lon": 17.4243057, "way_id": 782223012, "landuse": "farmland", "closest_distance_restriction": 2.1885108575061687}, {"id": 7304321623, "lat": 52.1212437, "lon": 17.4244934, "way_id": 782223012, "landuse": "farmland", "closest_distance_restriction": 2.175404430162214}, {"id": 7304321624, "lat": 52.1214874, "lon": 17.4244344, "way_id": 782223012, "landuse": "farmland", "closest_distance_restriction": 2.1755586846388915}, {"id": 7304321625, "lat": 52.1217542, "lon": 17.4253946, "way_id": 782223012, "landuse": "farmland", "closest_distance_restriction": 2.1066942429174516}, {"id": 7304321626, "lat": 52.1216554, "lon": 17.4255341, "way_id": 782223012, "landuse": "farmland", "closest_distance_restriction": 2.0986597774715796}, {"id": 7304321627, "lat": 52.1216027, "lon": 17.4259365, "way_id": 782223012, "landuse": "farmland", "closest_distance_restriction": 2.072215287834435}, {"id": 7304321628, "lat": 52.1214084, "lon": 17.4261779, "way_id": 782223012, "landuse": "farmland", "closest_distance_restriction": 2.0589557488168224}, {"id": 7304321630, "lat": 52.1213063, "lon": 17.4276423, "way_id": 782223012, "landuse": "farmland", "closest_distance_restriction": 1.9619067221763378}, {"id": 7304321631, "lat": 52.1212799, "lon": 17.4284738, "way_id": 782223012, "landuse": "farmland", "closest_distance_restriction": 1.9063786326110783}, {"id": 7304321632, "lat": 52.119946, "lon": 17.4287152, "way_id": 782223012, "landuse": "farmland", "closest_distance_restriction": 1.920590492527389}, {"id": 7304321633, "lat": 52.1200316, "lon": 17.4278891, "way_id": 782223012, "landuse": "farmland", "closest_distance_restriction": 1.973136790430193}, {"id": 7304321634, "lat": 52.1203643, "lon": 17.4255878, "way_id": 782223012, "landuse": "farmland", "closest_distance_restriction": 2.118687899482316}, {"id": 7304321638, "lat": 52.1208946, "lon": 17.426092, "way_id": 782223012, "landuse": "farmland", "closest_distance_restriction": 2.073908866169882}, {"id": 7304321639, "lat": 52.1213228, "lon": 17.4268913, "way_id": 782223012, "landuse": "farmland", "closest_distance_restriction": 2.0122486526326595}, {"id": 7304321640, "lat": 52.120137, "lon": 17.4271005, "way_id": 782223012, "landuse": "farmland", "closest_distance_restriction": 2.022952876006308}, {"id": 7304321676, "lat": 52.1195655, "lon": 17.4256387, "way_id": 782223012, "landuse": "farmland", "closest_distance_restriction": 2.134653440614054}, {"id": 7304321677, "lat": 52.1200975, "lon": 17.421999, "way_id": 782223012, "landuse": "farmland", "closest_distance_restriction": 2.364817464518946}, {"id": 7304321678, "lat": 52.1201321, "lon": 17.4230987, "way_id": 782223012, "landuse": "farmland", "closest_distance_restriction": 2.290394182707378}, {"id": 7304321680, "lat": 52.1198801, "lon": 17.422007, "way_id": 782223012, "landuse": "farmland", "closest_distance_restriction": 2.368989035953476}, {"id": 7304321745, "lat": 52.1202457, "lon": 17.4127239, "way_id": 782223012, "landuse": "farmland", "closest_distance_restriction": 2.9865412530923705}, {"id": 7304321746, "lat": 52.1203643, "lon": 17.4129599, "way_id": 782223012, "landuse": "farmland", "closest_distance_restriction": 2.968707296822352}, {"id": 7304321747, "lat": 52.120361, "lon": 17.4134481, "way_id": 782223012, "landuse": "farmland", "closest_distance_restriction": 2.9357664585252965}, {"id": 7304321748, "lat": 52.1200579, "lon": 17.4171066, "way_id": 782223012, "landuse": "farmland", "closest_distance_restriction": 2.694255000079905}, {"id": 7304321749, "lat": 52.1200612, "lon": 17.4175358, "way_id": 782223012, "landuse": "farmland", "closest_distance_restriction": 2.6653115488119132}, {"id": 7304321750, "lat": 52.120384, "lon": 17.4175626, "way_id": 782223012, "landuse": "farmland", "closest_distance_restriction": 2.6576391024769217}, {"id": 7304321751, "lat": 52.1203742, "lon": 17.4179971, "way_id": 782223012, "landuse": "farmland", "closest_distance_restriction": 2.6285188687451053}, {"id": 7304321752, "lat": 52.1201403, "lon": 17.4179757, "way_id": 782223012, "landuse": "farmland", "closest_distance_restriction": 2.634222037178101}, {"id": 7304321753, "lat": 52.1201469, "lon": 17.4184638, "way_id": 782223012, "landuse": "farmland", "closest_distance_restriction": 2.601255266173731}, {"id": 7304321754, "lat": 52.1194321, "lon": 17.4185121, "way_id": 782223012, "landuse": "farmland", "closest_distance_restriction": 2.612746307492271}, {"id": 7304321816, "lat": 52.1193498, "lon": 17.4084431, "way_id": 782223012, "landuse": "farmland", "closest_distance_restriction": 3.2906439538181274}, {"id": 7304321817, "lat": 52.1194058, "lon": 17.4087864, "way_id": 782223012, "landuse": "farmland", "closest_distance_restriction": 3.2665070441817226}, {"id": 7304321818, "lat": 52.1190467, "lon": 17.4090278, "way_id": 782223012, "landuse": "farmland", "closest_distance_restriction": 3.2569448105318637}, {"id": 7304321819, "lat": 52.1190072, "lon": 17.4085236, "way_id": 782223012, "landuse": "farmland", "closest_distance_restriction": 3.29160951259311}, {"id": 7304321820, "lat": 52.1198867, "lon": 17.4100846, "way_id": 782223012, "landuse": "farmland", "closest_distance_restriction": 3.1706492510390523}, {"id": 7304321821, "lat": 52.1198208, "lon": 17.4109322, "way_id": 782223012, "landuse": "farmland", "closest_distance_restriction": 3.1145589477769975}, {"id": 7304321822, "lat": 52.1191291, "lon": 17.4107015, "way_id": 782223012, "landuse": "farmland", "closest_distance_restriction": 3.142836589723134}, {"id": 7304321824, "lat": 52.1191653, "lon": 17.409811, "way_id": 782223012, "landuse": "farmland", "closest_distance_restriction": 3.20199477440258}, {"id": 7304321825, "lat": 52.1197846, "lon": 17.4118388, "way_id": 782223012, "landuse": "farmland", "closest_distance_restriction": 3.0540504246743834}, {"id": 7304321826, "lat": 52.1196528, "lon": 17.4131584, "way_id": 782223012, "landuse": "farmland", "closest_distance_restriction": 2.9675544424237135}, {"id": 7304321829, "lat": 52.1202424, "lon": 17.4135715, "way_id": 782223012, "landuse": "farmland", "closest_distance_restriction": 2.929348564182661}, {"id": 7304321830, "lat": 52.1200217, "lon": 17.4137539, "way_id": 782223012, "landuse": "farmland", "closest_distance_restriction": 2.9207762988065786}, {"id": 7304321831, "lat": 52.1199954, "lon": 17.4147624, "way_id": 782223012, "landuse": "farmland", "closest_distance_restriction": 2.853262064720793}, {"id": 7304321832, "lat": 52.1197022, "lon": 17.4147409, "way_id": 782223012, "landuse": "farmland", "closest_distance_restriction": 2.8601500360149292}, {"id": 7304321834, "lat": 52.1191752, "lon": 17.41171, "way_id": 782223012, "landuse": "farmland", "closest_distance_restriction": 3.074169793915888}, {"id": 7304321842, "lat": 52.1196989, "lon": 17.415213, "way_id": 782223012, "landuse": "farmland", "closest_distance_restriction": 2.828469223277366}, {"id": 7304321843, "lat": 52.1197681, "lon": 17.4164039, "way_id": 782223012, "landuse": "farmland", "closest_distance_restriction": 2.74707253622768}, {"id": 7304321844, "lat": 52.1196825, "lon": 17.4164253, "way_id": 782223012, "landuse": "farmland", "closest_distance_restriction": 2.747333997844876}, {"id": 7304321845, "lat": 52.1197319, "lon": 17.417053, "way_id": 782223012, "landuse": "farmland", "closest_distance_restriction": 2.7041904190110557}, {"id": 7304322320, "lat": 52.1044366, "lon": 17.4074849, "way_id": 781904522, "landuse": "farmland", "closest_distance_restriction": 3.858874932157654}, {"id": 7304322335, "lat": 52.1024936, "lon": 17.4089075, "way_id": 781904522, "landuse": "farmland", "closest_distance_restriction": 3.8439940123901835}, {"id": 7304322368, "lat": 52.1007636, "lon": 17.4167337, "way_id": 781904522, "landuse": "farmland", "closest_distance_restriction": 3.4440581056194244}, {"id": 7310215954, "lat": 52.1469795, "lon": 17.4215886, "way_id": 782798876, "landuse": "farmland", "closest_distance_restriction": 1.7459333442164486}, {"id": 7310216329, "lat": 52.1369026, "lon": 17.4292785, "way_id": 782223012, "landuse": "farmland", "closest_distance_restriction": 1.5791586350668267}, {"id": 7310216391, "lat": 52.160348, "lon": 17.4268651, "way_id": 782798876, "landuse": "farmland", "closest_distance_restriction": 2.091820754834055}, {"id": 7310216392, "lat": 52.1602362, "lon": 17.4262037, "way_id": 782798876, "landuse": "farmland", "closest_distance_restriction": 2.113179689376695}, {"id": 7310216446, "lat": 52.1566733, "lon": 17.4311185, "way_id": 782798876, "landuse": "farmland", "closest_distance_restriction": 1.5950528639694324}, {"id": 7310216447, "lat": 52.1587433, "lon": 17.4280018, "way_id": 782798876, "landuse": "farmland", "closest_distance_restriction": 1.9083245355921659}, {"id": 7310216492, "lat": 52.1477605, "lon": 17.4211546, "way_id": 782798876, "landuse": "farmland", "closest_distance_restriction": 1.7831948735320235}, {"id": 7310216493, "lat": 52.1481726, "lon": 17.4236226, "way_id": 782798876, "landuse": "farmland", "closest_distance_restriction": 1.6223378223722362}, {"id": 7310216496, "lat": 52.1483071, "lon": 17.4244999, "way_id": 782798876, "landuse": "farmland", "closest_distance_restriction": 1.5656402030314773}, {"id": 7310216570, "lat": 52.1369444, "lon": 17.4283954, "way_id": 782798876, "landuse": "farmland", "closest_distance_restriction": 1.6232062457468235}, {"id": 7310216572, "lat": 52.147184, "lon": 17.4214464, "way_id": 782798876, "landuse": "farmland", "closest_distance_restriction": 1.7572458827364743}, {"id": 7310216573, "lat": 52.1465125, "lon": 17.4219131, "way_id": 782798876, "landuse": "farmland", "closest_distance_restriction": 1.7211682167669202}, {"id": 7310216574, "lat": 52.1461701, "lon": 17.4225891, "way_id": 782798876, "landuse": "farmland", "closest_distance_restriction": 1.67408118404698}, {"id": 7310216575, "lat": 52.1405473, "lon": 17.42378, "way_id": 782798876, "landuse": "farmland", "closest_distance_restriction": 1.702121442745928}, {"id": 7310216588, "lat": 52.1482226, "lon": 17.4245068, "way_id": 782798876, "landuse": "farmland", "closest_distance_restriction": 1.5636290642807955}, {"id": 7310216590, "lat": 52.1471626, "lon": 17.4239945, "way_id": 782798876, "landuse": "farmland", "closest_distance_restriction": 1.583766655157166}, {"id": 7310216591, "lat": 52.1481057, "lon": 17.4236485, "way_id": 782798876, "landuse": "farmland", "closest_distance_restriction": 1.619472839211295}]}