{"nodes": [{"id": 256252416, "lat": 51.3296252, "lon": 14.9853139, "way_id": 244585081, "landuse": "farmland", "closest_distance_restriction": 5.001118672681016}, {"id": 256252417, "lat": 51.3312559, "lon": 14.9851812, "way_id": 244585081, "landuse": "farmland", "closest_distance_restriction": 5.132972201039338}, {"id": 256252418, "lat": 51.3321561, "lon": 14.9840046, "way_id": 244585081, "landuse": "farmland", "closest_distance_restriction": 5.261421505803913}, {"id": 283707304, "lat": 51.0163697, "lon": 15.1615059, "way_id": 319884142, "landuse": "meadow", "closest_distance_restriction": 2.049581562676487}, {"id": 283707513, "lat": 51.0158492, "lon": 15.1587923, "way_id": 319884142, "landuse": "meadow", "closest_distance_restriction": 1.8562562618038332}, {"id": 283729487, "lat": 50.944067, "lon": 15.014439, "way_id": 319883631, "landuse": "farmland", "closest_distance_restriction": 2.413025095917547}, {"id": 283729505, "lat": 50.9452317, "lon": 15.016048, "way_id": 319883631, "landuse": "farmland", "closest_distance_restriction": 2.3655423045040824}, {"id": 501825163, "lat": 51.3368604, "lon": 14.9845972, "way_id": 244584814, "landuse": "meadow", "closest_distance_restriction": 5.613225233515919}, {"id": 501825164, "lat": 51.3364499, "lon": 14.9847817, "way_id": 244584814, "landuse": "meadow", "closest_distance_restriction": 5.57053966841734}, {"id": 501825165, "lat": 51.3359939, "lon": 14.9851616, "way_id": 512575480, "landuse": "meadow", "closest_distance_restriction": 5.515115461254122}, {"id": 501825167, "lat": 51.3349803, "lon": 14.9877316, "way_id": 512575480, "landuse": "meadow", "closest_distance_restriction": 5.312482042712001}, {"id": 916941212, "lat": 51.3373528, "lon": 14.9840147, "way_id": 244584814, "landuse": "meadow", "closest_distance_restriction": 5.6810608232702995}, {"id": 916941213, "lat": 51.3375108, "lon": 14.98494, "way_id": 244584814, "landuse": "meadow", "closest_distance_restriction": 5.652134213225665}, {"id": 1211970943, "lat": 51.3003908, "lon": 15.0117848, "way_id": 267472345, "landuse": "meadow", "closest_distance_restriction": 1.5883007603337451}, {"id": 1212088279, "lat": 51.3314996, "lon": 14.974504, "way_id": 244585081, "landuse": "farmland", "closest_distance_restriction": 5.704199587342128}, {"id": 1212088654, "lat": 51.3309097, "lon": 14.973986, "way_id": 244585081, "landuse": "farmland", "closest_distance_restriction": 5.6909378902057774}, {"id": 1212910995, "lat": 51.3008367, "lon": 15.0124266, "way_id": 267472345, "landuse": "meadow", "closest_distance_restriction": 1.5640789481006305}, {"id": 1212911187, "lat": 51.3008169, "lon": 15.012115, "way_id": 267472345, "landuse": "meadow", "closest_distance_restriction": 1.5834028730487406}, {"id": 1212911365, "lat": 51.3007435, "lon": 15.0123995, "way_id": 267472345, "landuse": "meadow", "closest_distance_restriction": 1.5620089740577277}, {"id": 1212911520, "lat": 51.3007617, "lon": 15.0118396, "way_id": 267472345, "landuse": "meadow", "closest_distance_restriction": 1.5990268539150987}, {"id": 1270391597, "lat": 51.3284595, "lon": 14.993846, "way_id": 244584907, "landuse": "meadow", "closest_distance_restriction": 4.489564042198641}, {"id": 1350038524, "lat": 51.3274199, "lon": 14.983579, "way_id": 244585081, "landuse": "farmland", "closest_distance_restriction": 4.929218484098791}, {"id": 1350038536, "lat": 51.3284137, "lon": 14.9826977, "way_id": 244585081, "landuse": "farmland", "closest_distance_restriction": 5.047288406694455}, {"id": 1350038555, "lat": 51.3278829, "lon": 14.9813315, "way_id": 244585081, "landuse": "farmland", "closest_distance_restriction": 5.082400145477507}, {"id": 1350038574, "lat": 51.3271536, "lon": 14.9819046, "way_id": 244585081, "landuse": "farmland", "closest_distance_restriction": 5.0004159030531135}, {"id": 1396213055, "lat": 51.3358362, "lon": 14.9854873, "way_id": 512575480, "landuse": "meadow", "closest_distance_restriction": 5.486970736989033}, {"id": 1821249555, "lat": 51.3275851, "lon": 14.984586, "way_id": 244585081, "landuse": "farmland", "closest_distance_restriction": 4.887686691142201}, {"id": 1821249558, "lat": 51.3280339, "lon": 14.9855257, "way_id": 244585081, "landuse": "farmland", "closest_distance_restriction": 4.871250195191701}, {"id": 1868635131, "lat": 51.330899, "lon": 14.9852198, "way_id": 244585081, "landuse": "farmland", "closest_distance_restriction": 5.103376328186288}, {"id": 1868635135, "lat": 51.3316081, "lon": 14.9848293, "way_id": 244585081, "landuse": "farmland", "closest_distance_restriction": 5.177845027498373}, {"id": 1868635137, "lat": 51.3349361, "lon": 14.980568, "way_id": 244585081, "landuse": "farmland", "closest_distance_restriction": 5.648640824372853}, {"id": 2132834171, "lat": 51.3286485, "lon": 14.9935179, "way_id": 244584907, "landuse": "meadow", "closest_distance_restriction": 4.520485737026119}, {"id": 2132834180, "lat": 51.3287698, "lon": 14.9932046, "way_id": 244584907, "landuse": "meadow", "closest_distance_restriction": 4.545215593229061}, {"id": 2132834196, "lat": 51.3289116, "lon": 14.992822, "way_id": 244584907, "landuse": "meadow", "closest_distance_restriction": 4.574916431046933}, {"id": 2132834208, "lat": 51.3290377, "lon": 14.9888289, "way_id": 244584907, "landuse": "meadow", "closest_distance_restriction": 4.779325189268912}, {"id": 2132834210, "lat": 51.3290773, "lon": 14.9924452, "way_id": 244584907, "landuse": "meadow", "closest_distance_restriction": 4.606286784560249}, {"id": 2132834212, "lat": 51.3291386, "lon": 14.989373, "way_id": 244584907, "landuse": "meadow", "closest_distance_restriction": 4.760274743310967}, {"id": 2132834214, "lat": 51.3291807, "lon": 14.9920376, "way_id": 244584907, "landuse": "meadow", "closest_distance_restriction": 4.634115643819469}, {"id": 2132834215, "lat": 51.3292743, "lon": 14.9899286, "way_id": 244584907, "landuse": "meadow", "closest_distance_restriction": 4.743660381685645}, {"id": 2132834217, "lat": 51.3292888, "lon": 14.9914435, "way_id": 244584907, "landuse": "meadow", "closest_distance_restriction": 4.671319213088367}, {"id": 2132834218, "lat": 51.3292936, "lon": 14.9917281, "way_id": 244584907, "landuse": "meadow", "closest_distance_restriction": 4.658035999831942}, {"id": 2132834219, "lat": 51.3293116, "lon": 14.9916185, "way_id": 244584907, "landuse": "meadow", "closest_distance_restriction": 4.664741554010741}, {"id": 2132834221, "lat": 51.3293236, "lon": 14.9911533, "way_id": 244584907, "landuse": "meadow", "closest_distance_restriction": 4.688086966088977}, {"id": 2132834223, "lat": 51.3293404, "lon": 14.9907976, "way_id": 244584907, "landuse": "meadow", "closest_distance_restriction": 4.706617371373511}, {"id": 2132834225, "lat": 51.3293476, "lon": 14.9909956, "way_id": 244584907, "landuse": "meadow", "closest_distance_restriction": 4.697618188887603}, {"id": 2132834227, "lat": 51.3293536, "lon": 14.9903362, "way_id": 244584907, "landuse": "meadow", "closest_distance_restriction": 4.730057419212694}, {"id": 2132834229, "lat": 51.329362, "lon": 14.9906188, "way_id": 244584907, "landuse": "meadow", "closest_distance_restriction": 4.717001391299723}, {"id": 2132908367, "lat": 51.3336994, "lon": 14.9831119, "way_id": 244584907, "landuse": "meadow", "closest_distance_restriction": 5.426534590906038}, {"id": 2214756067, "lat": 51.3325045, "lon": 14.9834359, "way_id": 244585081, "landuse": "farmland", "closest_distance_restriction": 5.316755695371961}, {"id": 2214756071, "lat": 51.3341879, "lon": 14.9814208, "way_id": 244585081, "landuse": "farmland", "closest_distance_restriction": 5.547929593249048}, {"id": 2282051240, "lat": 51.3281658, "lon": 14.9859517, "way_id": 244585081, "landuse": "farmland", "closest_distance_restriction": 4.858920512801815}, {"id": 2282051243, "lat": 51.328483, "lon": 14.986175, "way_id": 244585081, "landuse": "farmland", "closest_distance_restriction": 4.871068949511122}, {"id": 2317936745, "lat": 51.3372407, "lon": 14.9866295, "way_id": 512575480, "landuse": "meadow", "closest_distance_restriction": 5.553252165094645}, {"id": 2317969288, "lat": 50.879071, "lon": 14.8984477, "way_id": 256776587, "landuse": "meadow", "closest_distance_restriction": 1.8341095239296779}, {"id": 2317969298, "lat": 50.878995, "lon": 14.8982004, "way_id": 256776587, "landuse": "meadow", "closest_distance_restriction": 1.8534020918454799}, {"id": 2317969335, "lat": 50.879491, "lon": 14.8980786, "way_id": 256776587, "landuse": "meadow", "closest_distance_restriction": 1.8391021895341442}, {"id": 2317984568, "lat": 51.1754941, "lon": 15.1292017, "way_id": 807269629, "landuse": "meadow", "closest_distance_restriction": 1.7061928282187682}, {"id": 2317984634, "lat": 51.1760126, "lon": 15.1301126, "way_id": 807269629, "landuse": "meadow", "closest_distance_restriction": 1.7804413676178423}, {"id": 2317984675, "lat": 51.1763427, "lon": 15.1311461, "way_id": 807269629, "landuse": "meadow", "closest_distance_restriction": 1.858924262621984}, {"id": 2518850172, "lat": 51.3354692, "lon": 14.9863981, "way_id": 512575480, "landuse": "meadow", "closest_distance_restriction": 5.41445566059344}, {"id": 2518853279, "lat": 51.3377994, "lon": 14.9862096, "way_id": 512575480, "landuse": "meadow", "closest_distance_restriction": 5.619621325161023}, {"id": 2518853753, "lat": 51.3325959, "lon": 14.9860449, "way_id": 244584907, "landuse": "meadow", "closest_distance_restriction": 5.196372721424794}, {"id": 2518853754, "lat": 51.331525, "lon": 14.9881531, "way_id": 244584907, "landuse": "meadow", "closest_distance_restriction": 5.0090209525194735}, {"id": 2518853758, "lat": 51.3341058, "lon": 14.98395, "way_id": 244584907, "landuse": "meadow", "closest_distance_restriction": 5.418258151900965}, {"id": 2518853760, "lat": 51.3319674, "lon": 14.9878098, "way_id": 244584907, "landuse": "meadow", "closest_distance_restriction": 5.06107994019871}, {"id": 2518853761, "lat": 51.3337656, "lon": 14.9859618, "way_id": 244584907, "landuse": "meadow", "closest_distance_restriction": 5.294644635588082}, {"id": 2518853762, "lat": 51.3340321, "lon": 14.9856828, "way_id": 244584907, "landuse": "meadow", "closest_distance_restriction": 5.329532498506448}, {"id": 2518853763, "lat": 51.3337974, "lon": 14.9844302, "way_id": 244584907, "landuse": "meadow", "closest_distance_restriction": 5.370416437779994}, {"id": 2518853764, "lat": 51.3316121, "lon": 14.9911035, "way_id": 244584907, "landuse": "meadow", "closest_distance_restriction": 4.876756939588529}, {"id": 2518853765, "lat": 51.330982, "lon": 14.9918975, "way_id": 244584907, "landuse": "meadow", "closest_distance_restriction": 4.787772374029299}, {"id": 2518853766, "lat": 51.3320277, "lon": 14.9900199, "way_id": 244584907, "landuse": "meadow", "closest_distance_restriction": 4.961502586004746}, {"id": 2518853767, "lat": 51.3322221, "lon": 14.9891723, "way_id": 244584907, "landuse": "meadow", "closest_distance_restriction": 5.017161299679928}, {"id": 2518853768, "lat": 51.3303116, "lon": 14.9882067, "way_id": 244584907, "landuse": "meadow", "closest_distance_restriction": 4.909801586939344}, {"id": 2518853769, "lat": 51.3330416, "lon": 14.9879788, "way_id": 244584907, "landuse": "meadow", "closest_distance_restriction": 5.140363169662451}, {"id": 2518853770, "lat": 51.3337723, "lon": 14.9870641, "way_id": 244584907, "landuse": "meadow", "closest_distance_restriction": 5.243199747134037}, {"id": 2518853771, "lat": 51.3340371, "lon": 14.9854629, "way_id": 244584907, "landuse": "meadow", "closest_distance_restriction": 5.340369404335126}, {"id": 2518853772, "lat": 51.3297016, "lon": 14.9924554, "way_id": 244584907, "landuse": "meadow", "closest_distance_restriction": 4.65648983783545}, {"id": 2518854764, "lat": 51.3342185, "lon": 14.9786782, "way_id": 244585081, "landuse": "farmland", "closest_distance_restriction": 5.686877193675326}, {"id": 2518854765, "lat": 51.3326231, "lon": 14.9735498, "way_id": 244585081, "landuse": "farmland", "closest_distance_restriction": 5.834912311075993}, {"id": 2518854766, "lat": 51.3346729, "lon": 14.9793927, "way_id": 244585081, "landuse": "farmland", "closest_distance_restriction": 5.6861511529937525}, {"id": 2518854767, "lat": 51.3325262, "lon": 14.9733165, "way_id": 244585081, "landuse": "farmland", "closest_distance_restriction": 5.8404757935045355}, {"id": 2518854768, "lat": 51.3331785, "lon": 14.9766224, "way_id": 244585081, "landuse": "farmland", "closest_distance_restriction": 5.713633494174412}, {"id": 2518854769, "lat": 51.3348888, "lon": 14.9803733, "way_id": 244585081, "landuse": "farmland", "closest_distance_restriction": 5.65448954603494}, {"id": 2518854770, "lat": 51.326473, "lon": 14.9782597, "way_id": 244585081, "landuse": "farmland", "closest_distance_restriction": 5.140203934004198}, {"id": 2518854771, "lat": 51.3266956, "lon": 14.9780194, "way_id": 244585081, "landuse": "farmland", "closest_distance_restriction": 5.169163363907021}, {"id": 2518854772, "lat": 51.3327023, "lon": 14.9745863, "way_id": 244585081, "landuse": "farmland", "closest_distance_restriction": 5.7855299440389185}, {"id": 2518854773, "lat": 51.3335461, "lon": 14.977847, "way_id": 244585081, "landuse": "farmland", "closest_distance_restriction": 5.677999298844234}, {"id": 2518854774, "lat": 51.3337895, "lon": 14.9783992, "way_id": 244585081, "landuse": "farmland", "closest_distance_restriction": 5.668264213505482}, {"id": 2519632561, "lat": 51.3340865, "lon": 14.9785924, "way_id": 244585081, "landuse": "farmland", "closest_distance_restriction": 5.681104549817572}, {"id": 2624064790, "lat": 50.8785075, "lon": 14.8984042, "way_id": 256776587, "landuse": "meadow", "closest_distance_restriction": 1.8636789530387114}, {"id": 2624064800, "lat": 50.8788968, "lon": 14.9002758, "way_id": 256776587, "landuse": "meadow", "closest_distance_restriction": 1.7268479611429366}, {"id": 2624064812, "lat": 50.8785233, "lon": 14.9016852, "way_id": 256776589, "landuse": "meadow", "closest_distance_restriction": 1.6593508374392454}, {"id": 2624064862, "lat": 50.8781886, "lon": 14.9009905, "way_id": 256776589, "landuse": "meadow", "closest_distance_restriction": 1.720139104423785}, {"id": 2624064873, "lat": 50.879791, "lon": 14.899648, "way_id": 256776587, "landuse": "meadow", "closest_distance_restriction": 1.7247160338803085}, {"id": 2624064883, "lat": 50.8781842, "lon": 14.9016025, "way_id": 256776589, "landuse": "meadow", "closest_distance_restriction": 1.6833073146639137}, {"id": 2624064979, "lat": 50.8788408, "lon": 14.9003151, "way_id": 256776589, "landuse": "meadow", "closest_distance_restriction": 1.7272102079748257}, {"id": 2624064988, "lat": 50.8789332, "lon": 14.9017522, "way_id": 256776589, "landuse": "meadow", "closest_distance_restriction": 1.633149765823183}, {"id": 2736589990, "lat": 51.3535984, "lon": 15.2216036, "way_id": 268307961, "landuse": "farmland", "closest_distance_restriction": 3.0977685137114195}, {"id": 2736589992, "lat": 51.3537295, "lon": 15.2222107, "way_id": 268307961, "landuse": "farmland", "closest_distance_restriction": 3.136916434543744}, {"id": 2736589999, "lat": 51.3561214, "lon": 15.2204006, "way_id": 268307961, "landuse": "farmland", "closest_distance_restriction": 2.9794175547909463}, {"id": 2736590001, "lat": 51.3562361, "lon": 15.2209402, "way_id": 268307961, "landuse": "farmland", "closest_distance_restriction": 3.0157524959570767}, {"id": 2743631788, "lat": 51.3286458, "lon": 14.99667, "way_id": 244584907, "landuse": "meadow", "closest_distance_restriction": 4.373471208092651}, {"id": 2743631790, "lat": 51.3288863, "lon": 14.9961817, "way_id": 244584907, "landuse": "meadow", "closest_distance_restriction": 4.415923852104557}, {"id": 2743631793, "lat": 51.329174, "lon": 14.9943348, "way_id": 244584907, "landuse": "meadow", "closest_distance_restriction": 4.525066192091065}, {"id": 2743631794, "lat": 51.3293524, "lon": 14.9926512, "way_id": 244584907, "landuse": "meadow", "closest_distance_restriction": 4.618786776829641}, {"id": 2744876901, "lat": 51.3287985, "lon": 14.9956861, "way_id": 244584907, "landuse": "meadow", "closest_distance_restriction": 4.431341442053222}, {"id": 2865970751, "lat": 51.3364795, "lon": 14.9870532, "way_id": 512575480, "landuse": "meadow", "closest_distance_restriction": 5.469582590614721}, {"id": 2866160135, "lat": 51.3144146, "lon": 15.0452297, "way_id": 282681193, "landuse": "farmland", "closest_distance_restriction": 1.5730473444747732}, {"id": 2866160136, "lat": 51.3147245, "lon": 15.0459655, "way_id": 282681193, "landuse": "farmland", "closest_distance_restriction": 1.6111529744354862}, {"id": 2866160139, "lat": 51.3154643, "lon": 15.0456776, "way_id": 282681193, "landuse": "farmland", "closest_distance_restriction": 1.691548185678141}, {"id": 2866160140, "lat": 51.3167839, "lon": 15.0436622, "way_id": 282681193, "landuse": "farmland", "closest_distance_restriction": 1.83395984950294}, {"id": 2866160141, "lat": 51.3168639, "lon": 15.0505399, "way_id": 282681193, "landuse": "farmland", "closest_distance_restriction": 1.7799610564800945}, {"id": 2866160142, "lat": 51.3170638, "lon": 15.0511317, "way_id": 282681193, "landuse": "farmland", "closest_distance_restriction": 1.762562686039244}, {"id": 2866160143, "lat": 51.3172338, "lon": 15.04451, "way_id": 282681193, "landuse": "farmland", "closest_distance_restriction": 1.8843417291694546}, {"id": 2866160144, "lat": 51.3173637, "lon": 15.0499161, "way_id": 282681193, "landuse": "farmland", "closest_distance_restriction": 1.8487122330209387}, {"id": 2866160145, "lat": 51.3176836, "lon": 15.0448618, "way_id": 282681193, "landuse": "farmland", "closest_distance_restriction": 1.9350172265576353}, {"id": 2866160147, "lat": 51.3179435, "lon": 15.0477569, "way_id": 282681193, "landuse": "farmland", "closest_distance_restriction": 1.9808345211471579}, {"id": 2866160148, "lat": 51.3180735, "lon": 15.0451018, "way_id": 282681193, "landuse": "farmland", "closest_distance_restriction": 1.9789692556993561}, {"id": 2866160150, "lat": 51.3186433, "lon": 15.0494683, "way_id": 282681193, "landuse": "farmland", "closest_distance_restriction": 1.9653696258990156}, {"id": 2866160151, "lat": 51.3189332, "lon": 15.0461894, "way_id": 282681193, "landuse": "farmland", "closest_distance_restriction": 2.078847512836779}, {"id": 2866160152, "lat": 51.3189932, "lon": 15.0476929, "way_id": 282681193, "landuse": "farmland", "closest_distance_restriction": 2.0836312447100584}, {"id": 2866160153, "lat": 51.3191931, "lon": 15.0448139, "way_id": 282681193, "landuse": "farmland", "closest_distance_restriction": 2.1026769735906203}, {"id": 2866160154, "lat": 51.319563, "lon": 15.0467172, "way_id": 282681193, "landuse": "farmland", "closest_distance_restriction": 2.1516854555932303}, {"id": 2866160155, "lat": 51.3199828, "lon": 15.0459815, "way_id": 282681193, "landuse": "farmland", "closest_distance_restriction": 2.194249091359831}, {"id": 2866160157, "lat": 51.3202927, "lon": 15.0471331, "way_id": 282681193, "landuse": "farmland", "closest_distance_restriction": 2.2089386468650956}, {"id": 2866160158, "lat": 51.3202927, "lon": 15.050284, "way_id": 282681193, "landuse": "farmland", "closest_distance_restriction": 2.0538771930076622}, {"id": 2866160159, "lat": 51.3203926, "lon": 15.0459335, "way_id": 282681193, "landuse": "farmland", "closest_distance_restriction": 2.239510778215666}, {"id": 2866160160, "lat": 51.3205126, "lon": 15.0465413, "way_id": 282681193, "landuse": "farmland", "closest_distance_restriction": 2.2557373776104934}, {"id": 2866160164, "lat": 51.3212123, "lon": 15.0490044, "way_id": 282681193, "landuse": "farmland", "closest_distance_restriction": 2.189314229583605}, {"id": 3262953638, "lat": 50.906309, "lon": 15.0059042, "way_id": 551196782, "landuse": "meadow", "closest_distance_restriction": 1.7145368781410923}, {"id": 3262953659, "lat": 50.906603, "lon": 15.0084016, "way_id": 551196782, "landuse": "meadow", "closest_distance_restriction": 1.830302323362666}, {"id": 3262953725, "lat": 50.9055745, "lon": 15.0048492, "way_id": 551196782, "landuse": "meadow", "closest_distance_restriction": 1.6080582043532266}, {"id": 3262953741, "lat": 50.9059391, "lon": 15.0054712, "way_id": 551196782, "landuse": "meadow", "closest_distance_restriction": 1.6640204832443266}, {"id": 3262953862, "lat": 50.9070543, "lon": 15.0074753, "way_id": 551196782, "landuse": "meadow", "closest_distance_restriction": 1.8400962718144613}, {"id": 3262953864, "lat": 50.9071254, "lon": 15.0071521, "way_id": 551196782, "landuse": "meadow", "closest_distance_restriction": 1.8359424195724303}, {"id": 3263538725, "lat": 50.942856, "lon": 15.0139403, "way_id": 319883631, "landuse": "farmland", "closest_distance_restriction": 2.5125157914633673}, {"id": 3263540047, "lat": 50.9438116, "lon": 15.0158734, "way_id": 319883631, "landuse": "farmland", "closest_distance_restriction": 2.4900814976102166}, {"id": 3263540057, "lat": 50.9438257, "lon": 15.0169979, "way_id": 319883631, "landuse": "farmland", "closest_distance_restriction": 2.53208389374927}, {"id": 3263540358, "lat": 50.9429041, "lon": 15.0139882, "way_id": 319883631, "landuse": "farmland", "closest_distance_restriction": 2.5094399463821797}, {"id": 3263542372, "lat": 50.9438416, "lon": 15.0143222, "way_id": 319883631, "landuse": "farmland", "closest_distance_restriction": 2.430396219879985}, {"id": 3263542414, "lat": 50.9439116, "lon": 15.0131286, "way_id": 319883631, "landuse": "farmland", "closest_distance_restriction": 2.3822546795859454}, {"id": 3263543120, "lat": 50.9447, "lon": 15.0174403, "way_id": 319883631, "landuse": "farmland", "closest_distance_restriction": 2.4681346795027883}, {"id": 3263543153, "lat": 50.9447555, "lon": 15.0173509, "way_id": 319883631, "landuse": "farmland", "closest_distance_restriction": 2.4595460021656828}, {"id": 3263543155, "lat": 50.9447571, "lon": 15.0171694, "way_id": 319883631, "landuse": "farmland", "closest_distance_restriction": 2.45248857828953}, {"id": 3263543876, "lat": 50.9427446, "lon": 15.0133104, "way_id": 319883631, "landuse": "farmland", "closest_distance_restriction": 2.502603192160528}, {"id": 3263543892, "lat": 50.9427624, "lon": 15.013588, "way_id": 319883631, "landuse": "farmland", "closest_distance_restriction": 2.5099432649244666}, {"id": 3263543897, "lat": 50.9427641, "lon": 15.0136149, "way_id": 319883631, "landuse": "farmland", "closest_distance_restriction": 2.510663916955261}, {"id": 3263543937, "lat": 50.9428252, "lon": 15.0131648, "way_id": 319883631, "landuse": "farmland", "closest_distance_restriction": 2.489934597670884}, {"id": 3263544279, "lat": 50.9429222, "lon": 15.013033, "way_id": 319883631, "landuse": "farmland", "closest_distance_restriction": 2.4761030639371295}, {"id": 3263544307, "lat": 50.9430267, "lon": 15.0141105, "way_id": 319883631, "landuse": "farmland", "closest_distance_restriction": 2.5016621642348085}, {"id": 3263544330, "lat": 50.943072, "lon": 15.0130023, "way_id": 319883631, "landuse": "farmland", "closest_distance_restriction": 2.460338638150296}, {"id": 3263544436, "lat": 50.9431808, "lon": 15.0141994, "way_id": 319883631, "landuse": "farmland", "closest_distance_restriction": 2.489763480146831}, {"id": 3263544530, "lat": 50.9433989, "lon": 15.0142838, "way_id": 319883631, "landuse": "farmland", "closest_distance_restriction": 2.471609704504926}, {"id": 3263544559, "lat": 50.9434554, "lon": 15.0130256, "way_id": 319883631, "landuse": "farmland", "closest_distance_restriction": 2.423408434360435}, {"id": 3263544886, "lat": 50.9436497, "lon": 15.0142927, "way_id": 319883631, "landuse": "farmland", "closest_distance_restriction": 2.4477717650070856}, {"id": 3263544920, "lat": 50.943711, "lon": 15.0166971, "way_id": 319883631, "landuse": "farmland", "closest_distance_restriction": 2.530946213718561}, {"id": 3263544921, "lat": 50.9437172, "lon": 15.016506, "way_id": 319883631, "landuse": "farmland", "closest_distance_restriction": 2.5229950339536167}, {"id": 3263544929, "lat": 50.9437266, "lon": 15.0167543, "way_id": 319883631, "landuse": "farmland", "closest_distance_restriction": 2.5317190671830887}, {"id": 3263545302, "lat": 50.9441218, "lon": 15.0174807, "way_id": 319883631, "landuse": "farmland", "closest_distance_restriction": 2.5237674180545167}, {"id": 3263545565, "lat": 50.9439699, "lon": 15.0150043, "way_id": 319883631, "landuse": "farmland", "closest_distance_restriction": 2.4428139815358025}, {"id": 3263545598, "lat": 50.9440189, "lon": 15.0174241, "way_id": 319883631, "landuse": "farmland", "closest_distance_restriction": 2.5313071978052912}, {"id": 3263545603, "lat": 50.9440299, "lon": 15.01432, "way_id": 319883631, "landuse": "farmland", "closest_distance_restriction": 2.4122946587179546}, {"id": 3263545621, "lat": 50.9440575, "lon": 15.0143465, "way_id": 319883631, "landuse": "farmland", "closest_distance_restriction": 2.4106068577877546}, {"id": 3263545630, "lat": 50.9440678, "lon": 15.0144503, "way_id": 319883631, "landuse": "farmland", "closest_distance_restriction": 2.4133559503783113}, {"id": 3263545633, "lat": 50.9440744, "lon": 15.0143972, "way_id": 319883631, "landuse": "farmland", "closest_distance_restriction": 2.410814542626191}, {"id": 3263546412, "lat": 50.9446207, "lon": 15.0133663, "way_id": 319883631, "landuse": "farmland", "closest_distance_restriction": 2.3218087755469754}, {"id": 3263546799, "lat": 50.9444879, "lon": 15.0174833, "way_id": 319883631, "landuse": "farmland", "closest_distance_restriction": 2.4895634413098597}, {"id": 3263546899, "lat": 50.9453351, "lon": 15.0158252, "way_id": 319883631, "landuse": "farmland", "closest_distance_restriction": 2.3471903749393728}, {"id": 3263547364, "lat": 50.944688, "lon": 15.0174596, "way_id": 319883631, "landuse": "farmland", "closest_distance_restriction": 2.4699907431177177}, {"id": 3263547407, "lat": 50.9448294, "lon": 15.0168527, "way_id": 319883631, "landuse": "farmland", "closest_distance_restriction": 2.43375784755924}, {"id": 3263547435, "lat": 50.9448657, "lon": 15.0168311, "way_id": 319883631, "landuse": "farmland", "closest_distance_restriction": 2.429539825355138}, {"id": 3263547661, "lat": 50.9447706, "lon": 15.0169337, "way_id": 319883631, "landuse": "farmland", "closest_distance_restriction": 2.4423204089214723}, {"id": 3263547971, "lat": 50.944918, "lon": 15.0168, "way_id": 319883631, "landuse": "farmland", "closest_distance_restriction": 2.42346397276325}, {"id": 3263547995, "lat": 50.9454157, "lon": 15.0158087, "way_id": 319883631, "landuse": "farmland", "closest_distance_restriction": 2.339170933858758}, {"id": 3263548044, "lat": 50.945485, "lon": 15.0158549, "way_id": 319883631, "landuse": "farmland", "closest_distance_restriction": 2.334706992957384}, {"id": 3263548052, "lat": 50.9454952, "lon": 15.0136742, "way_id": 319883631, "landuse": "farmland", "closest_distance_restriction": 2.2495486234588045}, {"id": 3263548293, "lat": 50.9451575, "lon": 15.0167251, "way_id": 319883631, "landuse": "farmland", "closest_distance_restriction": 2.398203852272274}, {"id": 3263548320, "lat": 50.9452, "lon": 15.0166903, "way_id": 319883631, "landuse": "farmland", "closest_distance_restriction": 2.3929102480820483}, {"id": 3263548334, "lat": 50.9452138, "lon": 15.016679, "way_id": 319883631, "landuse": "farmland", "closest_distance_restriction": 2.3911913979953314}, {"id": 3263548344, "lat": 50.9452224, "lon": 15.0161157, "way_id": 319883631, "landuse": "farmland", "closest_distance_restriction": 2.3691062499135427}, {"id": 3263548345, "lat": 50.9452251, "lon": 15.0166163, "way_id": 319883631, "landuse": "farmland", "closest_distance_restriction": 2.3877602002623384}, {"id": 3263548353, "lat": 50.9452395, "lon": 15.0159914, "way_id": 319883631, "landuse": "farmland", "closest_distance_restriction": 2.3625639611648035}, {"id": 3263548354, "lat": 50.9452398, "lon": 15.0163287, "way_id": 319883631, "landuse": "farmland", "closest_distance_restriction": 2.3755600979455953}, {"id": 3263548870, "lat": 50.9452748, "lon": 15.0158893, "way_id": 319883631, "landuse": "farmland", "closest_distance_restriction": 2.3552593342084704}, {"id": 3263548892, "lat": 50.9463844, "lon": 15.0192625, "way_id": 319883631, "landuse": "farmland", "closest_distance_restriction": 2.390018857520595}, {"id": 3263549276, "lat": 50.9455605, "lon": 15.0159774, "way_id": 319883631, "landuse": "farmland", "closest_distance_restriction": 2.3322674214888655}, {"id": 3263549304, "lat": 50.9456106, "lon": 15.0163898, "way_id": 319883631, "landuse": "farmland", "closest_distance_restriction": 2.343132034480959}, {"id": 3263549340, "lat": 50.9456878, "lon": 15.0167945, "way_id": 319883631, "landuse": "farmland", "closest_distance_restriction": 2.351505569238731}, {"id": 3263549341, "lat": 50.9456934, "lon": 15.0190026, "way_id": 319883631, "landuse": "farmland", "closest_distance_restriction": 2.440037483431375}, {"id": 3263549772, "lat": 50.9457605, "lon": 15.0169302, "way_id": 319883631, "landuse": "farmland", "closest_distance_restriction": 2.350068232385109}, {"id": 3263549779, "lat": 50.9457724, "lon": 15.0170425, "way_id": 319883631, "landuse": "farmland", "closest_distance_restriction": 2.353370794379995}, {"id": 3263549816, "lat": 50.9458285, "lon": 15.0190745, "way_id": 319883631, "landuse": "farmland", "closest_distance_restriction": 2.4310250763512324}, {"id": 3263549819, "lat": 50.9458361, "lon": 15.0181542, "way_id": 319883631, "landuse": "farmland", "closest_distance_restriction": 2.392136806373277}, {"id": 3263549823, "lat": 50.9458399, "lon": 15.0172697, "way_id": 319883631, "landuse": "farmland", "closest_distance_restriction": 2.3561402841628825}, {"id": 3263549846, "lat": 50.9458887, "lon": 15.0175337, "way_id": 319883631, "landuse": "farmland", "closest_distance_restriction": 2.36221891901203}, {"id": 3263550782, "lat": 50.9465242, "lon": 15.0140883, "way_id": 319883631, "landuse": "farmland", "closest_distance_restriction": 2.1693323381064795}, {"id": 3263551545, "lat": 50.946866, "lon": 15.0195435, "way_id": 319883631, "landuse": "farmland", "closest_distance_restriction": 2.3605168837182924}, {"id": 3263551990, "lat": 50.9469285, "lon": 15.0142764, "way_id": 319883631, "landuse": "farmland", "closest_distance_restriction": 2.139795954624697}, {"id": 3263552589, "lat": 50.9472257, "lon": 15.0197752, "way_id": 319883631, "landuse": "farmland", "closest_distance_restriction": 2.3401338783934422}, {"id": 3263552829, "lat": 50.9476879, "lon": 15.0200859, "way_id": 319883631, "landuse": "farmland", "closest_distance_restriction": 2.3154619285530758}, {"id": 3263553090, "lat": 50.9475108, "lon": 15.0145193, "way_id": 319883631, "landuse": "farmland", "closest_distance_restriction": 2.0945542759914826}, {"id": 3263553937, "lat": 50.9498973, "lon": 15.0156938, "way_id": 319883631, "landuse": "farmland", "closest_distance_restriction": 1.9288683302130765}, {"id": 3263553938, "lat": 50.9498977, "lon": 15.0216434, "way_id": 319883631, "landuse": "farmland", "closest_distance_restriction": 2.2169382680121794}, {"id": 3263553945, "lat": 50.9499058, "lon": 15.0159187, "way_id": 319883631, "landuse": "farmland", "closest_distance_restriction": 1.9381822209272388}, {"id": 3263553948, "lat": 50.9499112, "lon": 15.0157856, "way_id": 319883631, "landuse": "farmland", "closest_distance_restriction": 1.9317659679537489}, {"id": 3263554652, "lat": 50.9482484, "lon": 15.0148599, "way_id": 319883631, "landuse": "farmland", "closest_distance_restriction": 2.0398476834151578}, {"id": 3263555998, "lat": 50.9488526, "lon": 15.0209084, "way_id": 319883631, "landuse": "farmland", "closest_distance_restriction": 2.260165833660483}, {"id": 3263556520, "lat": 50.9493091, "lon": 15.0165496, "way_id": 319883631, "landuse": "farmland", "closest_distance_restriction": 2.0174683933584494}, {"id": 3263556526, "lat": 50.9493219, "lon": 15.0165033, "way_id": 319883631, "landuse": "farmland", "closest_distance_restriction": 2.0143064132019393}, {"id": 3263556540, "lat": 50.9493443, "lon": 15.0165763, "way_id": 319883631, "landuse": "farmland", "closest_distance_restriction": 2.0156448731212837}, {"id": 3263556556, "lat": 50.9493717, "lon": 15.0165103, "way_id": 319883631, "landuse": "farmland", "closest_distance_restriction": 2.0103492110637493}, {"id": 3263556745, "lat": 50.9517246, "lon": 15.0216488, "way_id": 319883631, "landuse": "farmland", "closest_distance_restriction": 2.086099016750705}, {"id": 3263556936, "lat": 50.9496515, "lon": 15.021504, "way_id": 319883631, "landuse": "farmland", "closest_distance_restriction": 2.2282744804360717}, {"id": 3263556952, "lat": 50.9496773, "lon": 15.0167755, "way_id": 319883631, "landuse": "farmland", "closest_distance_restriction": 1.9963393478311522}, {"id": 3263557105, "lat": 50.9498541, "lon": 15.0155635, "way_id": 319883631, "landuse": "farmland", "closest_distance_restriction": 1.9268113312531905}, {"id": 3263557106, "lat": 50.9498569, "lon": 15.0161196, "way_id": 319883631, "landuse": "farmland", "closest_distance_restriction": 1.9513804429080892}, {"id": 3263557123, "lat": 50.9498793, "lon": 15.0156171, "way_id": 319883631, "landuse": "farmland", "closest_distance_restriction": 1.9270112663589218}, {"id": 3263557136, "lat": 50.9529187, "lon": 15.0214668, "way_id": 319883631, "landuse": "farmland", "closest_distance_restriction": 1.9964752164299335}, {"id": 3263557138, "lat": 50.9529249, "lon": 15.0211771, "way_id": 319883631, "landuse": "farmland", "closest_distance_restriction": 1.9795517675313976}, {"id": 3263557156, "lat": 50.9529601, "lon": 15.0214081, "way_id": 319883631, "landuse": "farmland", "closest_distance_restriction": 1.9904590733839382}, {"id": 3263557159, "lat": 50.95297, "lon": 15.0213186, "way_id": 319883631, "landuse": "farmland", "closest_distance_restriction": 1.98470759807705}, {"id": 3263557225, "lat": 50.9500412, "lon": 15.0168528, "way_id": 319883631, "landuse": "farmland", "closest_distance_restriction": 1.969398911723413}, {"id": 3263557239, "lat": 50.9500933, "lon": 15.0216982, "way_id": 319883631, "landuse": "farmland", "closest_distance_restriction": 2.205237752776833}, {"id": 3263557364, "lat": 50.9497029, "lon": 15.0166651, "way_id": 319883631, "landuse": "farmland", "closest_distance_restriction": 1.9891460348147256}, {"id": 3263557384, "lat": 50.9497296, "lon": 15.0155107, "way_id": 319883631, "landuse": "farmland", "closest_distance_restriction": 1.935254943746057}, {"id": 3263557403, "lat": 50.9497738, "lon": 15.0164881, "way_id": 319883631, "landuse": "farmland", "closest_distance_restriction": 1.9751010520822019}, {"id": 3263557417, "lat": 50.9497916, "lon": 15.016374, "way_id": 319883631, "landuse": "farmland", "closest_distance_restriction": 1.9684189185974341}, {"id": 3263557424, "lat": 50.9498073, "lon": 15.016233, "way_id": 319883631, "landuse": "farmland", "closest_distance_restriction": 1.9607134159873392}, {"id": 3263557425, "lat": 50.9498106, "lon": 15.01553, "way_id": 319883631, "landuse": "farmland", "closest_distance_restriction": 1.929090382184396}, {"id": 3263557697, "lat": 50.9504036, "lon": 15.0170635, "way_id": 319883631, "landuse": "farmland", "closest_distance_restriction": 1.9493837534662548}, {"id": 3263557723, "lat": 50.9504823, "lon": 15.0173057, "way_id": 319883631, "landuse": "farmland", "closest_distance_restriction": 1.9545257449660725}, {"id": 3263557746, "lat": 50.9505373, "lon": 15.0217194, "way_id": 319883631, "landuse": "farmland", "closest_distance_restriction": 2.1737952481099616}, {"id": 3263557748, "lat": 50.9505443, "lon": 15.0176316, "way_id": 319883631, "landuse": "farmland", "closest_distance_restriction": 1.9652365403818368}, {"id": 3263557864, "lat": 50.950185, "lon": 15.016873, "way_id": 319883631, "landuse": "farmland", "closest_distance_restriction": 1.9584015983419463}, {"id": 3263558071, "lat": 50.9502869, "lon": 15.0168665, "way_id": 319883631, "landuse": "farmland", "closest_distance_restriction": 1.9496735683707185}, {"id": 3263558072, "lat": 50.9502875, "lon": 15.0217361, "way_id": 319883631, "landuse": "farmland", "closest_distance_restriction": 2.1929101615806266}, {"id": 3263558125, "lat": 50.9509407, "lon": 15.0181128, "way_id": 319883631, "landuse": "farmland", "closest_distance_restriction": 1.9575239134540823}, {"id": 3263558136, "lat": 50.9509691, "lon": 15.0153005, "way_id": 319883278, "landuse": "farmland", "closest_distance_restriction": 1.8201085850924585}, {"id": 3263558145, "lat": 50.9509878, "lon": 15.0154301, "way_id": 319883278, "landuse": "farmland", "closest_distance_restriction": 1.8245312721851918}, {"id": 3263558150, "lat": 50.9509992, "lon": 15.015214, "way_id": 319883278, "landuse": "farmland", "closest_distance_restriction": 1.8136037663559916}, {"id": 3263558291, "lat": 50.9506151, "lon": 15.0178323, "way_id": 319883631, "landuse": "farmland", "closest_distance_restriction": 1.9693476805711811}, {"id": 3263558342, "lat": 50.9507021, "lon": 15.0179881, "way_id": 319883631, "landuse": "farmland", "closest_distance_restriction": 1.9700890825098993}, {"id": 3263558538, "lat": 50.9511558, "lon": 15.0217049, "way_id": 319883631, "landuse": "farmland", "closest_distance_restriction": 2.128745175139971}, {"id": 3263558546, "lat": 50.951174, "lon": 15.0156345, "way_id": 319883278, "landuse": "farmland", "closest_distance_restriction": 1.8186247342207538}, {"id": 3263558672, "lat": 50.9510567, "lon": 15.0155624, "way_id": 319883278, "landuse": "farmland", "closest_distance_restriction": 1.8249485007376982}, {"id": 3263558700, "lat": 50.9511246, "lon": 15.0183449, "way_id": 319883631, "landuse": "farmland", "closest_distance_restriction": 1.9549179777208305}, {"id": 3263558707, "lat": 50.95123, "lon": 15.0164408, "way_id": 319883278, "landuse": "farmland", "closest_distance_restriction": 1.8524830329274005}, {"id": 3263558709, "lat": 50.9512342, "lon": 15.0159937, "way_id": 319883278, "landuse": "farmland", "closest_distance_restriction": 1.8306934182313435}, {"id": 3263558720, "lat": 50.9512527, "lon": 15.0158651, "way_id": 319883278, "landuse": "farmland", "closest_distance_restriction": 1.8230640842979715}, {"id": 3263558734, "lat": 50.9512934, "lon": 15.0151107, "way_id": 319883278, "landuse": "farmland", "closest_distance_restriction": 1.7842522304847253}, {"id": 3263558752, "lat": 50.9513169, "lon": 15.0166612, "way_id": 319883278, "landuse": "farmland", "closest_distance_restriction": 1.8562098902135662}, {"id": 3263558865, "lat": 50.9512027, "lon": 15.0161509, "way_id": 319883278, "landuse": "farmland", "closest_distance_restriction": 1.840761432180552}, {"id": 3263558870, "lat": 50.9512067, "lon": 15.0162663, "way_id": 319883278, "landuse": "farmland", "closest_distance_restriction": 1.8459651688957774}, {"id": 3263558878, "lat": 50.9512261, "lon": 15.0157285, "way_id": 319883278, "landuse": "farmland", "closest_distance_restriction": 1.8187694831303645}, {"id": 3263558887, "lat": 50.9515524, "lon": 15.0193319, "way_id": 319883631, "landuse": "farmland", "closest_distance_restriction": 1.973561294899112}, {"id": 3263558901, "lat": 50.9515732, "lon": 15.0170692, "way_id": 319883278, "landuse": "farmland", "closest_distance_restriction": 1.856088580313158}, {"id": 3263558908, "lat": 50.951589, "lon": 15.0174505, "way_id": 319883278, "landuse": "farmland", "closest_distance_restriction": 1.873969309533045}, {"id": 3263558912, "lat": 50.9515919, "lon": 15.0176967, "way_id": 319883278, "landuse": "farmland", "closest_distance_restriction": 1.8861867175068017}, {"id": 3263558937, "lat": 50.9516158, "lon": 15.0150252, "way_id": 319883278, "landuse": "farmland", "closest_distance_restriction": 1.7535610926183298}, {"id": 3263558943, "lat": 50.9516269, "lon": 15.0171501, "way_id": 319883278, "landuse": "farmland", "closest_distance_restriction": 1.8559447907754427}, {"id": 3263558960, "lat": 50.9516441, "lon": 15.0172269, "way_id": 319883278, "landuse": "farmland", "closest_distance_restriction": 1.8584595406252158}, {"id": 3263559097, "lat": 50.9513927, "lon": 15.0168731, "way_id": 319883278, "landuse": "farmland", "closest_distance_restriction": 1.8605671339490437}, {"id": 3263559134, "lat": 50.9514619, "lon": 15.0169715, "way_id": 319883278, "landuse": "farmland", "closest_distance_restriction": 1.859962576510014}, {"id": 3263559277, "lat": 50.9515122, "lon": 15.0191278, "way_id": 319883631, "landuse": "farmland", "closest_distance_restriction": 1.9658448935328188}, {"id": 3263559305, "lat": 50.9515456, "lon": 15.0192601, "way_id": 319883631, "landuse": "farmland", "closest_distance_restriction": 1.9702955452754685}, {"id": 3263559569, "lat": 50.9516568, "lon": 15.0173161, "way_id": 319883278, "landuse": "farmland", "closest_distance_restriction": 1.8619605838776432}, {"id": 3263559573, "lat": 50.9516636, "lon": 15.0179862, "way_id": 319883278, "landuse": "farmland", "closest_distance_restriction": 1.8954607809277648}, {"id": 3263559707, "lat": 50.9518225, "lon": 15.0149484, "way_id": 319883278, "landuse": "farmland", "closest_distance_restriction": 1.732957013745997}, {"id": 3263559880, "lat": 50.9519296, "lon": 15.0179705, "way_id": 319883278, "landuse": "farmland", "closest_distance_restriction": 1.8745818673706047}, {"id": 3263560135, "lat": 50.9525568, "lon": 15.0209756, "way_id": 319883631, "landuse": "farmland", "closest_distance_restriction": 1.992370125178727}, {"id": 3263560138, "lat": 50.9525678, "lon": 15.0177393, "way_id": 319883278, "landuse": "farmland", "closest_distance_restriction": 1.8152347681216698}, {"id": 3263560146, "lat": 50.9525788, "lon": 15.0144487, "way_id": 319883278, "landuse": "farmland", "closest_distance_restriction": 1.6476387193851807}, {"id": 3263560235, "lat": 50.952336, "lon": 15.0178413, "way_id": 319883278, "landuse": "farmland", "closest_distance_restriction": 1.8376229000180344}, {"id": 3263560421, "lat": 50.9527108, "lon": 15.0210187, "way_id": 319883631, "landuse": "farmland", "closest_distance_restriction": 1.9845788528064792}, {"id": 3263560436, "lat": 50.9527374, "lon": 15.0176744, "way_id": 319883278, "landuse": "farmland", "closest_distance_restriction": 1.7994459000991643}, {"id": 3263560437, "lat": 50.9527406, "lon": 15.0215874, "way_id": 319883631, "landuse": "farmland", "closest_distance_restriction": 2.0148504709290234}, {"id": 3263560473, "lat": 50.9527946, "lon": 15.0210575, "way_id": 319883631, "landuse": "farmland", "closest_distance_restriction": 1.9812585990777951}, {"id": 3263560503, "lat": 50.9528566, "lon": 15.0215377, "way_id": 319883631, "landuse": "farmland", "closest_distance_restriction": 2.004521936852363}, {"id": 3263560510, "lat": 50.9528727, "lon": 15.0211032, "way_id": 319883631, "landuse": "farmland", "closest_distance_restriction": 1.9787434471306646}, {"id": 3263562279, "lat": 50.9535238, "lon": 15.0171603, "way_id": 319883278, "landuse": "farmland", "closest_distance_restriction": 1.715620018348207}, {"id": 3263563328, "lat": 50.9541754, "lon": 15.0167728, "way_id": 319883278, "landuse": "farmland", "closest_distance_restriction": 1.6491692519514876}, {"id": 3263564477, "lat": 50.9548316, "lon": 15.0164073, "way_id": 319883278, "landuse": "farmland", "closest_distance_restriction": 1.5846460325418927}, {"id": 3263564499, "lat": 50.9548538, "lon": 15.0164013, "way_id": 319883278, "landuse": "farmland", "closest_distance_restriction": 1.582842087960048}, {"id": 3263612033, "lat": 51.0154595, "lon": 15.1621078, "way_id": 319884142, "landuse": "meadow", "closest_distance_restriction": 2.0861377970564163}, {"id": 3263612053, "lat": 51.0155537, "lon": 15.1570255, "way_id": 319884142, "landuse": "meadow", "closest_distance_restriction": 1.7311990113197415}, {"id": 3263612131, "lat": 51.0166033, "lon": 15.165567, "way_id": 319884142, "landuse": "meadow", "closest_distance_restriction": 2.3348325368026885}, {"id": 3263612157, "lat": 51.0167159, "lon": 15.1658572, "way_id": 319884142, "landuse": "meadow", "closest_distance_restriction": 2.356101227641136}, {"id": 3263613060, "lat": 51.0136362, "lon": 15.1580466, "way_id": 319884142, "landuse": "meadow", "closest_distance_restriction": 1.8066815663849458}, {"id": 3263613286, "lat": 51.0130829, "lon": 15.1547313, "way_id": 319884142, "landuse": "meadow", "closest_distance_restriction": 1.5822757372270306}, {"id": 3263613300, "lat": 51.0131322, "lon": 15.1553749, "way_id": 319884142, "landuse": "meadow", "closest_distance_restriction": 1.6262645601758579}, {"id": 3263613341, "lat": 51.0132781, "lon": 15.1562302, "way_id": 319884142, "landuse": "meadow", "closest_distance_restriction": 1.6838495339785557}, {"id": 3263613360, "lat": 51.0133874, "lon": 15.1567553, "way_id": 319884142, "landuse": "meadow", "closest_distance_restriction": 1.7191377207108651}, {"id": 3263613371, "lat": 51.0134374, "lon": 15.1570282, "way_id": 319884142, "landuse": "meadow", "closest_distance_restriction": 1.7376055584023653}, {"id": 3263613380, "lat": 51.0135216, "lon": 15.1574219, "way_id": 319884142, "landuse": "meadow", "closest_distance_restriction": 1.764184668440534}, {"id": 3263613413, "lat": 51.0146676, "lon": 15.1615613, "way_id": 319884142, "landuse": "meadow", "closest_distance_restriction": 2.047184535534936}, {"id": 3263613439, "lat": 51.0148098, "lon": 15.1617234, "way_id": 319884142, "landuse": "meadow", "closest_distance_restriction": 2.058378006631746}, {"id": 3263613492, "lat": 51.0138452, "lon": 15.1590342, "way_id": 319884142, "landuse": "meadow", "closest_distance_restriction": 1.873957382167197}, {"id": 3263613493, "lat": 51.0138611, "lon": 15.1591645, "way_id": 319884142, "landuse": "meadow", "closest_distance_restriction": 1.8829444837874272}, {"id": 3263613504, "lat": 51.0139116, "lon": 15.159466, "way_id": 319884142, "landuse": "meadow", "closest_distance_restriction": 1.9036612482670152}, {"id": 3263613514, "lat": 51.0139767, "lon": 15.1599605, "way_id": 319884142, "landuse": "meadow", "closest_distance_restriction": 1.9377965134772572}, {"id": 3263613529, "lat": 51.0140577, "lon": 15.1602892, "way_id": 319884142, "landuse": "meadow", "closest_distance_restriction": 1.9603033210081107}, {"id": 3263613780, "lat": 51.0142803, "lon": 15.1608278, "way_id": 319884142, "landuse": "meadow", "closest_distance_restriction": 1.996919490796334}, {"id": 3263613849, "lat": 51.0145756, "lon": 15.1613664, "way_id": 319884142, "landuse": "meadow", "closest_distance_restriction": 2.033712054954981}, {"id": 3263613874, "lat": 51.014952, "lon": 15.1618469, "way_id": 319884142, "landuse": "meadow", "closest_distance_restriction": 2.06699355942699}, {"id": 3263613940, "lat": 51.0152311, "lon": 15.1620045, "way_id": 319884142, "landuse": "meadow", "closest_distance_restriction": 2.0783217419377626}, {"id": 3263613977, "lat": 51.0157257, "lon": 15.1592315, "way_id": 319884142, "landuse": "meadow", "closest_distance_restriction": 1.8862200354027414}, {"id": 3263613978, "lat": 51.015727, "lon": 15.1590905, "way_id": 319884142, "landuse": "meadow", "closest_distance_restriction": 1.8763751202602454}, {"id": 3263613982, "lat": 51.0157358, "lon": 15.162411, "way_id": 319884142, "landuse": "meadow", "closest_distance_restriction": 2.1084549228307083}, {"id": 3263613985, "lat": 51.015739, "lon": 15.1593419, "way_id": 319884142, "landuse": "meadow", "closest_distance_restriction": 1.8940055222594034}, {"id": 3263613989, "lat": 51.0157569, "lon": 15.1589882, "way_id": 319884142, "landuse": "meadow", "closest_distance_restriction": 1.8693922410671007}, {"id": 3263613993, "lat": 51.0157775, "lon": 15.1579714, "way_id": 319884142, "landuse": "meadow", "closest_distance_restriction": 1.7984795699891116}, {"id": 3263613994, "lat": 51.01578, "lon": 15.1596816, "way_id": 319884142, "landuse": "meadow", "closest_distance_restriction": 1.9179657885877075}, {"id": 3263613995, "lat": 51.0157852, "lon": 15.1589281, "way_id": 319884142, "landuse": "meadow", "closest_distance_restriction": 1.865355288535537}, {"id": 3263614000, "lat": 51.0158198, "lon": 15.1602108, "way_id": 319884142, "landuse": "meadow", "closest_distance_restriction": 1.9551631330527746}, {"id": 3263614002, "lat": 51.0158241, "lon": 15.160523, "way_id": 319884142, "landuse": "meadow", "closest_distance_restriction": 1.976998111160285}, {"id": 3263614005, "lat": 51.0158313, "lon": 15.1588303, "way_id": 319884142, "landuse": "meadow", "closest_distance_restriction": 1.858799282613228}, {"id": 3263614010, "lat": 51.0158494, "lon": 15.1634295, "way_id": 319884142, "landuse": "meadow", "closest_distance_restriction": 2.1802062059008116}, {"id": 3263614011, "lat": 51.0158517, "lon": 15.1633457, "way_id": 319884142, "landuse": "meadow", "closest_distance_restriction": 2.1743631899224174}, {"id": 3263614013, "lat": 51.0158625, "lon": 15.1635144, "way_id": 319884142, "landuse": "meadow", "closest_distance_restriction": 2.1862085705095557}, {"id": 3263614016, "lat": 51.0158812, "lon": 15.1586758, "way_id": 319884142, "landuse": "meadow", "closest_distance_restriction": 1.8483246147339858}, {"id": 3263614017, "lat": 51.0158871, "lon": 15.1585238, "way_id": 319884142, "landuse": "meadow", "closest_distance_restriction": 1.8377488064666778}, {"id": 3263614020, "lat": 51.0159146, "lon": 15.1609385, "way_id": 319884142, "landuse": "meadow", "closest_distance_restriction": 2.0065615699775146}, {"id": 3263614025, "lat": 51.0159364, "lon": 15.1632202, "way_id": 319884142, "landuse": "meadow", "closest_distance_restriction": 2.1660705121842745}, {"id": 3263614031, "lat": 51.0160099, "lon": 15.1613014, "way_id": 319884142, "landuse": "meadow", "closest_distance_restriction": 2.0325194901738035}, {"id": 3263614037, "lat": 51.0160589, "lon": 15.1631501, "way_id": 319884142, "landuse": "meadow", "closest_distance_restriction": 2.1619363484468006}, {"id": 3263614039, "lat": 51.0160644, "lon": 15.1614613, "way_id": 319884142, "landuse": "meadow", "closest_distance_restriction": 2.044056818554254}, {"id": 3263614044, "lat": 51.0160853, "lon": 15.1625603, "way_id": 319884142, "landuse": "meadow", "closest_distance_restriction": 2.120930687659504}, {"id": 3263614045, "lat": 51.0160855, "lon": 15.1615087, "way_id": 319884142, "landuse": "meadow", "closest_distance_restriction": 2.0475146421661607}, {"id": 3263614054, "lat": 51.0161185, "lon": 15.1615136, "way_id": 319884142, "landuse": "meadow", "closest_distance_restriction": 2.048094446326819}, {"id": 3263614060, "lat": 51.0161422, "lon": 15.1630141, "way_id": 319884142, "landuse": "meadow", "closest_distance_restriction": 2.15300948512777}, {"id": 3263614062, "lat": 51.0161446, "lon": 15.1626864, "way_id": 319884142, "landuse": "meadow", "closest_distance_restriction": 2.130150155170583}, {"id": 3263614072, "lat": 51.0161723, "lon": 15.1628274, "way_id": 319884142, "landuse": "meadow", "closest_distance_restriction": 2.140193014696305}, {"id": 3263614082, "lat": 51.0162049, "lon": 15.1644138, "way_id": 319884142, "landuse": "meadow", "closest_distance_restriction": 2.2511678301231357}, {"id": 3263614101, "lat": 51.016772, "lon": 15.1625881, "way_id": 319884142, "landuse": "meadow", "closest_distance_restriction": 2.1289408918022326}, {"id": 3263614110, "lat": 51.0168141, "lon": 15.1661475, "way_id": 319884142, "landuse": "meadow", "closest_distance_restriction": 2.377282655181065}, {"id": 3263614117, "lat": 51.0168351, "lon": 15.1662137, "way_id": 319884142, "landuse": "meadow", "closest_distance_restriction": 2.38210380283305}, {"id": 3263614131, "lat": 51.0168825, "lon": 15.1662171, "way_id": 319884142, "landuse": "meadow", "closest_distance_restriction": 2.3828200414820664}, {"id": 3263614145, "lat": 51.0169638, "lon": 15.1630578, "way_id": 319884142, "landuse": "meadow", "closest_distance_restriction": 2.1637916099094934}, {"id": 3263614174, "lat": 51.0163221, "lon": 15.1614882, "way_id": 319884142, "landuse": "meadow", "closest_distance_restriction": 2.0479343256829194}, {"id": 3263614178, "lat": 51.0163384, "lon": 15.1614943, "way_id": 319884142, "landuse": "meadow", "closest_distance_restriction": 2.0484996365368433}, {"id": 3263614195, "lat": 51.0164308, "lon": 15.1615668, "way_id": 319884142, "landuse": "meadow", "closest_distance_restriction": 2.0543768407872807}, {"id": 3263614209, "lat": 51.0165126, "lon": 15.1617169, "way_id": 319884142, "landuse": "meadow", "closest_distance_restriction": 2.065606596167575}, {"id": 3263614381, "lat": 51.0170846, "lon": 15.1633767, "way_id": 319884142, "landuse": "meadow", "closest_distance_restriction": 2.1874203875999205}, {"id": 3263614385, "lat": 51.0171207, "lon": 15.1660813, "way_id": 319884142, "landuse": "meadow", "closest_distance_restriction": 2.375955233268172}, {"id": 3263614413, "lat": 51.0172673, "lon": 15.1639029, "way_id": 319884142, "landuse": "meadow", "closest_distance_restriction": 2.2263078572130364}, {"id": 3263614460, "lat": 51.0176114, "lon": 15.165761, "way_id": 319884142, "landuse": "meadow", "closest_distance_restriction": 2.35999408013491}, {"id": 3263614491, "lat": 51.0176932, "lon": 15.1652001, "way_id": 319884142, "landuse": "meadow", "closest_distance_restriction": 2.32227804097451}, {"id": 3263614500, "lat": 51.0177475, "lon": 15.1656388, "way_id": 319884142, "landuse": "meadow", "closest_distance_restriction": 2.3534970309277057}, {"id": 3263614503, "lat": 51.0177789, "lon": 15.1656008, "way_id": 319884142, "landuse": "meadow", "closest_distance_restriction": 2.3513341177458535}, {"id": 3263614505, "lat": 51.0177932, "lon": 15.1655419, "way_id": 319884142, "landuse": "meadow", "closest_distance_restriction": 2.3474688496173637}, {"id": 3263614506, "lat": 51.0177946, "lon": 15.1655305, "way_id": 319884142, "landuse": "meadow", "closest_distance_restriction": 2.3467001644658745}, {"id": 3263614508, "lat": 51.0178002, "lon": 15.165483, "way_id": 319884142, "landuse": "meadow", "closest_distance_restriction": 2.3434940700483824}, {"id": 3800836646, "lat": 51.4056562, "lon": 15.1420594, "way_id": 376687903, "landuse": "meadow", "closest_distance_restriction": 1.7655434597427158}, {"id": 3800836648, "lat": 51.4058787, "lon": 15.1417017, "way_id": 376687903, "landuse": "meadow", "closest_distance_restriction": 1.7780055193569708}, {"id": 3800836653, "lat": 51.4063245, "lon": 15.1441271, "way_id": 376687903, "landuse": "meadow", "closest_distance_restriction": 1.6041977542454005}, {"id": 3955091780, "lat": 51.1868283, "lon": 15.059278, "way_id": 392267636, "landuse": "farmland", "closest_distance_restriction": 1.562241850331541}, {"id": 4080209788, "lat": 50.9433123, "lon": 15.014247, "way_id": 319883631, "landuse": "farmland", "closest_distance_restriction": 2.4786897222696083}, {"id": 4599888203, "lat": 51.0699748, "lon": 15.0318731, "way_id": 464941032, "landuse": "farmland", "closest_distance_restriction": 1.794919351096768}, {"id": 4599888204, "lat": 51.0698838, "lon": 15.0319058, "way_id": 464941032, "landuse": "farmland", "closest_distance_restriction": 1.7886963896577877}, {"id": 4599888205, "lat": 51.069875, "lon": 15.0320646, "way_id": 464941032, "landuse": "farmland", "closest_distance_restriction": 1.7865544338238024}, {"id": 4599888206, "lat": 51.0707113, "lon": 15.0335356, "way_id": 464941032, "landuse": "farmland", "closest_distance_restriction": 1.8718840503687917}, {"id": 4599888207, "lat": 51.0717765, "lon": 15.0355484, "way_id": 464941032, "landuse": "farmland", "closest_distance_restriction": 1.8994819612850193}, {"id": 4599888208, "lat": 51.0731909, "lon": 15.0382383, "way_id": 464941032, "landuse": "farmland", "closest_distance_restriction": 1.685204654096496}, {"id": 4599888209, "lat": 51.0738217, "lon": 15.0394338, "way_id": 464941032, "landuse": "farmland", "closest_distance_restriction": 1.590763670704865}, {"id": 4599888210, "lat": 51.0750834, "lon": 15.0382897, "way_id": 464941032, "landuse": "farmland", "closest_distance_restriction": 1.6329001250480737}, {"id": 4599888211, "lat": 51.0767207, "lon": 15.0369307, "way_id": 464941032, "landuse": "farmland", "closest_distance_restriction": 1.5697638483946248}, {"id": 4599888250, "lat": 51.0758773, "lon": 15.0288483, "way_id": 464941032, "landuse": "farmland", "closest_distance_restriction": 1.6251182276357536}, {"id": 4599888251, "lat": 51.0745746, "lon": 15.0295313, "way_id": 464941032, "landuse": "farmland", "closest_distance_restriction": 1.7676690807320665}, {"id": 4599888252, "lat": 51.0739283, "lon": 15.0298403, "way_id": 464941032, "landuse": "farmland", "closest_distance_restriction": 1.7629715078920223}, {"id": 4599888253, "lat": 51.0724058, "lon": 15.0305883, "way_id": 464941032, "landuse": "farmland", "closest_distance_restriction": 1.7658815524174303}, {"id": 4599888254, "lat": 51.0714632, "lon": 15.0310843, "way_id": 464941032, "landuse": "farmland", "closest_distance_restriction": 1.7788264240913976}, {"id": 4599888255, "lat": 51.0707403, "lon": 15.0314787, "way_id": 464941032, "landuse": "farmland", "closest_distance_restriction": 1.7857328181893941}, {"id": 4599888256, "lat": 51.0700735, "lon": 15.0318283, "way_id": 464941032, "landuse": "farmland", "closest_distance_restriction": 1.7939019719815092}, {"id": 5011738056, "lat": 51.3372511, "lon": 14.9850056, "way_id": 512575480, "landuse": "meadow", "closest_distance_restriction": 5.627293615939639}, {"id": 5011738057, "lat": 51.3334891, "lon": 14.9837382, "way_id": 244584907, "landuse": "meadow", "closest_distance_restriction": 5.379339906960094}, {"id": 5011738058, "lat": 51.3332679, "lon": 14.9846435, "way_id": 244584907, "landuse": "meadow", "closest_distance_restriction": 5.317787662102022}, {"id": 5011738059, "lat": 51.3330517, "lon": 14.9851611, "way_id": 244584907, "landuse": "meadow", "closest_distance_restriction": 5.2754913796664225}, {"id": 5011738060, "lat": 51.3325297, "lon": 14.9858572, "way_id": 244584907, "landuse": "meadow", "closest_distance_restriction": 5.2001565521790925}, {"id": 5011738061, "lat": 51.3339365, "lon": 14.983356, "way_id": 244584907, "landuse": "meadow", "closest_distance_restriction": 5.4334585989019635}, {"id": 5011738062, "lat": 51.3332126, "lon": 14.9852443, "way_id": 244584907, "landuse": "meadow", "closest_distance_restriction": 5.28434353862673}, {"id": 5011738063, "lat": 51.3332729, "lon": 14.9853462, "way_id": 244584907, "landuse": "meadow", "closest_distance_restriction": 5.28427188935428}, {"id": 5011738064, "lat": 51.3336567, "lon": 14.9865317, "way_id": 244584907, "landuse": "meadow", "closest_distance_restriction": 5.258802715563239}, {"id": 5011738065, "lat": 51.3337606, "lon": 14.9867061, "way_id": 244584907, "landuse": "meadow", "closest_distance_restriction": 5.259061756413492}, {"id": 5011738066, "lat": 51.3342248, "lon": 14.9860623, "way_id": 244584907, "landuse": "meadow", "closest_distance_restriction": 5.327329046937108}, {"id": 5011738067, "lat": 51.334451, "lon": 14.9864137, "way_id": 244584907, "landuse": "meadow", "closest_distance_restriction": 5.329411261526141}, {"id": 5011738068, "lat": 51.3340974, "lon": 14.9865264, "way_id": 244584907, "landuse": "meadow", "closest_distance_restriction": 5.295087032670854}, {"id": 5011738069, "lat": 51.334399, "lon": 14.9869582, "way_id": 244584907, "landuse": "meadow", "closest_distance_restriction": 5.299747516445872}, {"id": 5011738070, "lat": 51.3342918, "lon": 14.9869341, "way_id": 244584907, "landuse": "meadow", "closest_distance_restriction": 5.29201755083227}, {"id": 5011738071, "lat": 51.3343136, "lon": 14.987551, "way_id": 244584907, "landuse": "meadow", "closest_distance_restriction": 5.265189671981673}, {"id": 5011738072, "lat": 51.3334053, "lon": 14.9887097, "way_id": 244584907, "landuse": "meadow", "closest_distance_restriction": 5.13624027645308}, {"id": 5011738073, "lat": 51.3340036, "lon": 14.9875268, "way_id": 244584907, "landuse": "meadow", "closest_distance_restriction": 5.240642210678507}, {"id": 5011738074, "lat": 51.3343387, "lon": 14.9836993, "way_id": 244584907, "landuse": "meadow", "closest_distance_restriction": 5.44900012358066}, {"id": 5011738075, "lat": 51.3347024, "lon": 14.9839997, "way_id": 244584907, "landuse": "meadow", "closest_distance_restriction": 5.463899905329634}, {"id": 5011738076, "lat": 51.3345432, "lon": 14.9839702, "way_id": 244584907, "landuse": "meadow", "closest_distance_restriction": 5.452455408576726}, {"id": 5011738077, "lat": 51.3347359, "lon": 14.9841768, "way_id": 244584907, "landuse": "meadow", "closest_distance_restriction": 5.458171560580213}, {"id": 5011738078, "lat": 51.3347711, "lon": 14.9843994, "way_id": 244584907, "landuse": "meadow", "closest_distance_restriction": 5.4504452310558555}, {"id": 5011738079, "lat": 51.3345901, "lon": 14.9842894, "way_id": 244584907, "landuse": "meadow", "closest_distance_restriction": 5.441005610092385}, {"id": 5011738080, "lat": 51.3345566, "lon": 14.9844879, "way_id": 244584907, "landuse": "meadow", "closest_distance_restriction": 5.428841829702095}, {"id": 5011738081, "lat": 51.3342298, "lon": 14.984799, "way_id": 244584907, "landuse": "meadow", "closest_distance_restriction": 5.387568970728337}, {"id": 5011738082, "lat": 51.3342248, "lon": 14.9844933, "way_id": 244584907, "landuse": "meadow", "closest_distance_restriction": 5.401758645622949}, {"id": 5011738083, "lat": 51.3345566, "lon": 14.9834204, "way_id": 244584907, "landuse": "meadow", "closest_distance_restriction": 5.479898398078579}, {"id": 5011738084, "lat": 51.334637, "lon": 14.9836698, "way_id": 244584907, "landuse": "meadow", "closest_distance_restriction": 5.474393875262444}, {"id": 5011738085, "lat": 51.3344962, "lon": 14.983812, "way_id": 244584907, "landuse": "meadow", "closest_distance_restriction": 5.456244288072723}, {"id": 5011738086, "lat": 51.3344091, "lon": 14.983474, "way_id": 244584907, "landuse": "meadow", "closest_distance_restriction": 5.465488721800429}, {"id": 5011738087, "lat": 51.3348347, "lon": 14.9842653, "way_id": 244584907, "landuse": "meadow", "closest_distance_restriction": 5.461974722516567}, {"id": 5011738088, "lat": 51.3343153, "lon": 14.9848258, "way_id": 244584907, "landuse": "meadow", "closest_distance_restriction": 5.393213936725404}, {"id": 5011738089, "lat": 51.3341678, "lon": 14.9844959, "way_id": 244584907, "landuse": "meadow", "closest_distance_restriction": 5.39703770257759}, {"id": 5011738090, "lat": 51.3338762, "lon": 14.9851611, "way_id": 244584907, "landuse": "meadow", "closest_distance_restriction": 5.3417119212793365}, {"id": 5011738091, "lat": 51.3361201, "lon": 14.9853232, "way_id": 512575480, "landuse": "meadow", "closest_distance_restriction": 5.5181432887597825}, {"id": 5011738092, "lat": 51.3359592, "lon": 14.9853596, "way_id": 512575480, "landuse": "meadow", "closest_distance_restriction": 5.503085421296945}, {"id": 5011738094, "lat": 51.3357768, "lon": 14.9856334, "way_id": 244584814, "landuse": "meadow", "closest_distance_restriction": 5.475289617096365}, {"id": 5011738095, "lat": 51.3358385, "lon": 14.9852724, "way_id": 244584814, "landuse": "meadow", "closest_distance_restriction": 5.497099638088808}, {"id": 5011738096, "lat": 51.3358042, "lon": 14.9851464, "way_id": 244584814, "landuse": "meadow", "closest_distance_restriction": 5.500096949905293}, {"id": 5011738097, "lat": 51.335707, "lon": 14.9852952, "way_id": 244584814, "landuse": "meadow", "closest_distance_restriction": 5.485149011122996}, {"id": 5011738098, "lat": 51.3356081, "lon": 14.9851517, "way_id": 244584814, "landuse": "meadow", "closest_distance_restriction": 5.483636458797122}, {"id": 5011738099, "lat": 51.336182, "lon": 14.9848808, "way_id": 244584814, "landuse": "meadow", "closest_distance_restriction": 5.543708977057377}, {"id": 5011738100, "lat": 51.3362122, "lon": 14.9847387, "way_id": 244584814, "landuse": "meadow", "closest_distance_restriction": 5.552788993058659}, {"id": 5011738101, "lat": 51.3363756, "lon": 14.9846515, "way_id": 244584814, "landuse": "meadow", "closest_distance_restriction": 5.570377565692363}, {"id": 5011738102, "lat": 51.3360212, "lon": 14.9847695, "way_id": 244584814, "landuse": "meadow", "closest_distance_restriction": 5.535542810970549}, {"id": 5011738103, "lat": 51.3358854, "lon": 14.9849667, "way_id": 244584814, "landuse": "meadow", "closest_distance_restriction": 5.515154589110892}, {"id": 5011738109, "lat": 51.3360924, "lon": 14.9849197, "way_id": 244584814, "landuse": "meadow", "closest_distance_restriction": 5.534477573112774}, {"id": 5011738118, "lat": 51.3356563, "lon": 14.9846777, "way_id": 244584814, "landuse": "meadow", "closest_distance_restriction": 5.5097057936796014}, {"id": 5011738120, "lat": 51.3358967, "lon": 14.9853851, "way_id": 512575480, "landuse": "meadow", "closest_distance_restriction": 5.4967163224857805}, {"id": 5011738521, "lat": 51.3375406, "lon": 14.9851041, "way_id": 512575480, "landuse": "meadow", "closest_distance_restriction": 5.647221050189484}, {"id": 5011738522, "lat": 51.3359933, "lon": 14.9851215, "way_id": 512575480, "landuse": "meadow", "closest_distance_restriction": 5.516920404868129}, {"id": 5011738523, "lat": 51.3368707, "lon": 14.9844825, "way_id": 244584814, "landuse": "meadow", "closest_distance_restriction": 5.619353984459473}, {"id": 5011738524, "lat": 51.3368087, "lon": 14.984284, "way_id": 244584814, "landuse": "meadow", "closest_distance_restriction": 5.623329374800238}, {"id": 5011738525, "lat": 51.3368657, "lon": 14.9841204, "way_id": 244584814, "landuse": "meadow", "closest_distance_restriction": 5.63561480933562}, {"id": 5011738526, "lat": 51.3370149, "lon": 14.9842197, "way_id": 244584814, "landuse": "meadow", "closest_distance_restriction": 5.643456977477542}, {"id": 5011738527, "lat": 51.3374354, "lon": 14.9842867, "way_id": 244584814, "landuse": "meadow", "closest_distance_restriction": 5.675519795176099}, {"id": 5011738528, "lat": 51.3375712, "lon": 14.984284, "way_id": 244584814, "landuse": "meadow", "closest_distance_restriction": 5.687028154884147}, {"id": 5011738529, "lat": 51.3375829, "lon": 14.9844557, "way_id": 244584814, "landuse": "meadow", "closest_distance_restriction": 5.680190827133488}, {"id": 5011738530, "lat": 51.3374673, "lon": 14.9845791, "way_id": 244584814, "landuse": "meadow", "closest_distance_restriction": 5.664863265483905}, {"id": 5024940312, "lat": 51.3375405, "lon": 14.9851035, "way_id": 244584814, "landuse": "meadow", "closest_distance_restriction": 5.6472397327769865}, {"id": 5024940313, "lat": 51.3372511, "lon": 14.9850048, "way_id": 244584814, "landuse": "meadow", "closest_distance_restriction": 5.627329978721908}, {"id": 5024940314, "lat": 51.3359935, "lon": 14.9851617, "way_id": 244584814, "landuse": "meadow", "closest_distance_restriction": 5.51507764488402}, {"id": 5024940315, "lat": 51.335993, "lon": 14.9851211, "way_id": 244584814, "landuse": "meadow", "closest_distance_restriction": 5.5169140244378}, {"id": 5024940316, "lat": 51.3361191, "lon": 14.9853228, "way_id": 244584814, "landuse": "meadow", "closest_distance_restriction": 5.518078501928387}, {"id": 5024940317, "lat": 51.3358359, "lon": 14.985487, "way_id": 244584814, "landuse": "meadow", "closest_distance_restriction": 5.486959679739007}, {"id": 5024940318, "lat": 51.3359589, "lon": 14.9853593, "way_id": 244584814, "landuse": "meadow", "closest_distance_restriction": 5.503074347144477}, {"id": 5024940319, "lat": 51.3358964, "lon": 14.9853848, "way_id": 244584814, "landuse": "meadow", "closest_distance_restriction": 5.496705270967113}, {"id": 5323264125, "lat": 50.9071911, "lon": 15.0068928, "way_id": 551196782, "landuse": "meadow", "closest_distance_restriction": 1.8336785044056259}, {"id": 5323281347, "lat": 50.9051563, "lon": 15.0067913, "way_id": 551196782, "landuse": "meadow", "closest_distance_restriction": 1.6340571791496556}, {"id": 5323281348, "lat": 50.9050755, "lon": 15.0066836, "way_id": 551196782, "landuse": "meadow", "closest_distance_restriction": 1.62244392948718}, {"id": 5323281349, "lat": 50.9048039, "lon": 15.0062505, "way_id": 551196782, "landuse": "meadow", "closest_distance_restriction": 1.5808230782733994}, {"id": 5323281362, "lat": 50.906559, "lon": 15.0061899, "way_id": 551196782, "landuse": "meadow", "closest_distance_restriction": 1.7484708594238572}, {"id": 5323281363, "lat": 50.9065902, "lon": 15.008377, "way_id": 551196782, "landuse": "meadow", "closest_distance_restriction": 1.828179998147261}, {"id": 5323281364, "lat": 50.906476, "lon": 15.0082969, "way_id": 551196782, "landuse": "meadow", "closest_distance_restriction": 1.8144390058964457}, {"id": 5323281365, "lat": 50.90625, "lon": 15.0080675, "way_id": 551196782, "landuse": "meadow", "closest_distance_restriction": 1.7846029398653442}, {"id": 5323281366, "lat": 50.9059371, "lon": 15.0076375, "way_id": 551196782, "landuse": "meadow", "closest_distance_restriction": 1.7391156080532049}, {"id": 5323281367, "lat": 50.9057541, "lon": 15.0073952, "way_id": 551196782, "landuse": "meadow", "closest_distance_restriction": 1.7128651670496495}, {"id": 5323281368, "lat": 50.9055494, "lon": 15.007168, "way_id": 551196782, "landuse": "meadow", "closest_distance_restriction": 1.6851262269683247}, {"id": 5323281369, "lat": 50.905355, "lon": 15.0069729, "way_id": 551196782, "landuse": "meadow", "closest_distance_restriction": 1.6595460467883694}, {"id": 5323281370, "lat": 50.9052285, "lon": 15.0068724, "way_id": 551196782, "landuse": "meadow", "closest_distance_restriction": 1.643876654135146}, {"id": 5323281523, "lat": 50.9050431, "lon": 15.0067126, "way_id": 551196782, "landuse": "meadow", "closest_distance_restriction": 1.6204510106463343}, {"id": 7549136846, "lat": 51.1764189, "lon": 15.1276014, "way_id": 807269629, "landuse": "meadow", "closest_distance_restriction": 1.6218087310753562}, {"id": 7549136847, "lat": 51.1761815, "lon": 15.1272367, "way_id": 807269629, "landuse": "meadow", "closest_distance_restriction": 1.5903004105753784}, {"id": 7549173933, "lat": 51.1797445, "lon": 15.1251631, "way_id": 807269629, "landuse": "meadow", "closest_distance_restriction": 1.6092245184267384}, {"id": 7549173934, "lat": 51.1793509, "lon": 15.1254722, "way_id": 807269629, "landuse": "meadow", "closest_distance_restriction": 1.6066012376005583}, {"id": 7549173935, "lat": 51.1793691, "lon": 15.1256461, "way_id": 807269629, "landuse": "meadow", "closest_distance_restriction": 1.6182299988570272}, {"id": 7549173936, "lat": 51.1792056, "lon": 15.1258007, "way_id": 807269629, "landuse": "meadow", "closest_distance_restriction": 1.619243168482497}, {"id": 7549173937, "lat": 51.1788361, "lon": 15.1264286, "way_id": 807269629, "landuse": "meadow", "closest_distance_restriction": 1.6400385402685882}, {"id": 7549173938, "lat": 51.17817, "lon": 15.1258297, "way_id": 807269629, "landuse": "meadow", "closest_distance_restriction": 1.5711813778468633}, {"id": 7549173939, "lat": 51.1778914, "lon": 15.1264479, "way_id": 807269629, "landuse": "meadow", "closest_distance_restriction": 1.5987822402827316}, {"id": 7549173940, "lat": 51.177098, "lon": 15.1279549, "way_id": 807269629, "landuse": "meadow", "closest_distance_restriction": 1.6672664588295865}, {"id": 7549173941, "lat": 51.1782003, "lon": 15.12895, "way_id": 807269629, "landuse": "meadow", "closest_distance_restriction": 1.7736103924652669}, {"id": 7549173942, "lat": 51.1783638, "lon": 15.128863, "way_id": 807269629, "landuse": "meadow", "closest_distance_restriction": 1.7745803559381137}, {"id": 7549173943, "lat": 51.1786484, "lon": 15.1286795, "way_id": 807269629, "landuse": "meadow", "closest_distance_restriction": 1.7746996501792005}, {"id": 7549173944, "lat": 51.1794115, "lon": 15.1286601, "way_id": 807269629, "landuse": "meadow", "closest_distance_restriction": 1.8079963762062266}, {"id": 7549173945, "lat": 51.1789754, "lon": 15.1298484, "way_id": 807269629, "landuse": "meadow", "closest_distance_restriction": 1.8639037912372989}, {"id": 7549173946, "lat": 51.1782608, "lon": 15.1294233, "way_id": 807269629, "landuse": "meadow", "closest_distance_restriction": 1.8068274675642868}, {"id": 7549173947, "lat": 51.1780186, "lon": 15.1297904, "way_id": 807269629, "landuse": "meadow", "closest_distance_restriction": 1.821471230614554}, {"id": 7549173948, "lat": 51.1776552, "lon": 15.1293171, "way_id": 807269629, "landuse": "meadow", "closest_distance_restriction": 1.7769511980905037}, {"id": 7549173949, "lat": 51.177528, "lon": 15.1292591, "way_id": 807269629, "landuse": "meadow", "closest_distance_restriction": 1.7685818684940482}, {"id": 7549173950, "lat": 51.1764162, "lon": 15.1312558, "way_id": 807269629, "landuse": "meadow", "closest_distance_restriction": 1.8682653479268605}, {"id": 7593642163, "lat": 51.4650043, "lon": 15.2024398, "way_id": 812975955, "landuse": "meadow", "closest_distance_restriction": 3.501443213198378}, {"id": 7593642164, "lat": 51.464911, "lon": 15.2023923, "way_id": 812975955, "landuse": "meadow", "closest_distance_restriction": 3.490832154291765}, {"id": 7593642165, "lat": 51.464871, "lon": 15.2023519, "way_id": 812975955, "landuse": "meadow", "closest_distance_restriction": 3.4855794555798982}, {"id": 7593642166, "lat": 51.4648118, "lon": 15.2022449, "way_id": 812975955, "landuse": "meadow", "closest_distance_restriction": 3.476148539657999}, {"id": 7593642167, "lat": 51.464797, "lon": 15.2021618, "way_id": 812975955, "landuse": "meadow", "closest_distance_restriction": 3.4718171680399115}, {"id": 7593642168, "lat": 51.4647896, "lon": 15.2018551, "way_id": 812975955, "landuse": "meadow", "closest_distance_restriction": 3.4604180578359545}, {"id": 7593642169, "lat": 51.4647866, "lon": 15.2017838, "way_id": 812975955, "landuse": "meadow", "closest_distance_restriction": 3.457658160246386}, {"id": 7593642170, "lat": 51.4647599, "lon": 15.2018742, "way_id": 812975955, "landuse": "meadow", "closest_distance_restriction": 3.4582233264797875}, {"id": 7593642171, "lat": 51.4647363, "lon": 15.2022164, "way_id": 812975955, "landuse": "meadow", "closest_distance_restriction": 3.467910245755169}, {"id": 7593642172, "lat": 51.4647052, "lon": 15.2022663, "way_id": 812975955, "landuse": "meadow", "closest_distance_restriction": 3.4666850208815525}, {"id": 7593642173, "lat": 51.4646415, "lon": 15.2022996, "way_id": 812975955, "landuse": "meadow", "closest_distance_restriction": 3.461761106413013}, {"id": 7593642174, "lat": 51.4645541, "lon": 15.202283, "way_id": 812975955, "landuse": "meadow", "closest_distance_restriction": 3.452815109630821}, {"id": 7593642175, "lat": 51.4644342, "lon": 15.2022259, "way_id": 812975955, "landuse": "meadow", "closest_distance_restriction": 3.4393333526859298}, {"id": 7593642176, "lat": 51.464218, "lon": 15.2020928, "way_id": 812975955, "landuse": "meadow", "closest_distance_restriction": 3.4139616559546324}, {"id": 7593642177, "lat": 51.4640536, "lon": 15.2020524, "way_id": 812975955, "landuse": "meadow", "closest_distance_restriction": 3.396836850507344}, {"id": 7593642178, "lat": 51.4639944, "lon": 15.2019669, "way_id": 812975955, "landuse": "meadow", "closest_distance_restriction": 3.3881458235660733}, {"id": 7593642179, "lat": 51.4638715, "lon": 15.201848, "way_id": 812975955, "landuse": "meadow", "closest_distance_restriction": 3.3721896693278954}, {"id": 7593642180, "lat": 51.4637841, "lon": 15.2018338, "way_id": 812975955, "landuse": "meadow", "closest_distance_restriction": 3.363349080258507}, {"id": 7593642181, "lat": 51.4634184, "lon": 15.2018361, "way_id": 812975955, "landuse": "meadow", "closest_distance_restriction": 3.328636686481228}, {"id": 7593642182, "lat": 51.463234, "lon": 15.2018017, "way_id": 812975955, "landuse": "meadow", "closest_distance_restriction": 3.3098970197633952}, {"id": 7593642183, "lat": 51.4631156, "lon": 15.2014249, "way_id": 812975955, "landuse": "meadow", "closest_distance_restriction": 3.2850693117387917}, {"id": 7593642184, "lat": 51.4630682, "lon": 15.201198, "way_id": 812975955, "landuse": "meadow", "closest_distance_restriction": 3.2724303028098256}, {"id": 7593642185, "lat": 51.4630874, "lon": 15.2009508, "way_id": 812975955, "landuse": "meadow", "closest_distance_restriction": 3.2654669046859843}, {"id": 7593642186, "lat": 51.4630667, "lon": 15.2007416, "way_id": 812975955, "landuse": "meadow", "closest_distance_restriction": 3.256095472690368}, {"id": 7593642187, "lat": 51.4635191, "lon": 15.2007012, "way_id": 812975955, "landuse": "meadow", "closest_distance_restriction": 3.298105505784696}, {"id": 7593642188, "lat": 51.4640418, "lon": 15.2006418, "way_id": 812975955, "landuse": "meadow", "closest_distance_restriction": 3.3464971143891185}, {"id": 7593642189, "lat": 51.4645519, "lon": 15.2005824, "way_id": 812975955, "landuse": "meadow", "closest_distance_restriction": 3.393973412288073}, {"id": 7593642190, "lat": 51.4646489, "lon": 15.2005836, "way_id": 812975955, "landuse": "meadow", "closest_distance_restriction": 3.4034523058417823}, {"id": 7593642191, "lat": 51.4647044, "lon": 15.200599, "way_id": 812975955, "landuse": "meadow", "closest_distance_restriction": 3.409371239910665}, {"id": 7593642192, "lat": 51.4647377, "lon": 15.2006216, "way_id": 812975955, "landuse": "meadow", "closest_distance_restriction": 3.4133697964252367}, {"id": 7593642193, "lat": 51.4648806, "lon": 15.2006097, "way_id": 812975955, "landuse": "meadow", "closest_distance_restriction": 3.4268985420570055}, {"id": 7593642194, "lat": 51.4649095, "lon": 15.2005669, "way_id": 812975955, "landuse": "meadow", "closest_distance_restriction": 3.4282945842871406}, {"id": 7593642195, "lat": 51.4634858, "lon": 15.2005087, "way_id": 812975964, "landuse": "meadow", "closest_distance_restriction": 3.28823179739142}, {"id": 7593642335, "lat": 51.4641647, "lon": 15.1955828, "way_id": 812975964, "landuse": "meadow", "closest_distance_restriction": 3.1954198389291797}, {"id": 7593642336, "lat": 51.4641395, "lon": 15.1958038, "way_id": 812975964, "landuse": "meadow", "closest_distance_restriction": 3.199734917837141}, {"id": 7593642337, "lat": 51.4640595, "lon": 15.1962459, "way_id": 812975964, "landuse": "meadow", "closest_distance_restriction": 3.205648747817653}, {"id": 7593642338, "lat": 51.463913, "lon": 15.1968686, "way_id": 812975964, "landuse": "meadow", "closest_distance_restriction": 3.2111755968444746}, {"id": 7593642339, "lat": 51.4638907, "lon": 15.1969993, "way_id": 812975964, "landuse": "meadow", "closest_distance_restriction": 3.213246928761109}, {"id": 7593642340, "lat": 51.4629119, "lon": 15.2005586, "way_id": 812975964, "landuse": "meadow", "closest_distance_restriction": 3.234828111412119}, {"id": 7593642341, "lat": 51.4628875, "lon": 15.2003732, "way_id": 812975964, "landuse": "meadow", "closest_distance_restriction": 3.2259815016769338}, {"id": 7593642342, "lat": 51.462849, "lon": 15.2000939, "way_id": 812975964, "landuse": "meadow", "closest_distance_restriction": 3.2125420493561285}, {"id": 7593642343, "lat": 51.4627987, "lon": 15.1998349, "way_id": 812975964, "landuse": "meadow", "closest_distance_restriction": 3.198730921503733}, {"id": 7593642344, "lat": 51.462715, "lon": 15.1995164, "way_id": 812975964, "landuse": "meadow", "closest_distance_restriction": 3.1797049211306847}, {"id": 7593642345, "lat": 51.4626099, "lon": 15.1991717, "way_id": 812975964, "landuse": "meadow", "closest_distance_restriction": 3.1577821876033685}, {"id": 7593642346, "lat": 51.4624973, "lon": 15.198877, "way_id": 812975964, "landuse": "meadow", "closest_distance_restriction": 3.13688691581301}, {"id": 7593642347, "lat": 51.4623611, "lon": 15.1981782, "way_id": 812975964, "landuse": "meadow", "closest_distance_restriction": 3.100293958439154}, {"id": 7593642348, "lat": 51.4623241, "lon": 15.1978954, "way_id": 812975964, "landuse": "meadow", "closest_distance_restriction": 3.087374385246353}, {"id": 7593642349, "lat": 51.4623107, "lon": 15.1974177, "way_id": 812975964, "landuse": "meadow", "closest_distance_restriction": 3.070558922800755}, {"id": 7593642350, "lat": 51.462327, "lon": 15.1972156, "way_id": 812975964, "landuse": "meadow", "closest_distance_restriction": 3.0656932873992573}, {"id": 7593642351, "lat": 51.4623552, "lon": 15.197054, "way_id": 812975964, "landuse": "meadow", "closest_distance_restriction": 3.0633438589534383}, {"id": 7593642352, "lat": 51.4625255, "lon": 15.1963814, "way_id": 812975964, "landuse": "meadow", "closest_distance_restriction": 3.0592984138391826}, {"id": 7593642353, "lat": 51.4625891, "lon": 15.1961271, "way_id": 812975964, "landuse": "meadow", "closest_distance_restriction": 3.057163897719305}, {"id": 7593642354, "lat": 51.4628401, "lon": 15.1952833, "way_id": 812975964, "landuse": "meadow", "closest_distance_restriction": 3.0545695778843984}, {"id": 7593642355, "lat": 51.463676, "lon": 15.1954734, "way_id": 812975964, "landuse": "meadow", "closest_distance_restriction": 3.1434038463108966}, {"id": 7593642356, "lat": 51.4641425, "lon": 15.1955685, "way_id": 812975964, "landuse": "meadow", "closest_distance_restriction": 3.1927680457811873}, {"id": 7593642360, "lat": 51.4638833, "lon": 15.1971847, "way_id": 812975964, "landuse": "meadow", "closest_distance_restriction": 3.218600968630051}, {"id": 7593642361, "lat": 51.4638922, "lon": 15.1973202, "way_id": 812975964, "landuse": "meadow", "closest_distance_restriction": 3.2239391144810963}, {"id": 7593642362, "lat": 51.4639056, "lon": 15.1973986, "way_id": 812975964, "landuse": "meadow", "closest_distance_restriction": 3.2278420555160783}, {"id": 7593642377, "lat": 51.4639411, "lon": 15.1984825, "way_id": 812975964, "landuse": "meadow", "closest_distance_restriction": 3.26543056329401}, {"id": 7593642378, "lat": 51.4639707, "lon": 15.1995568, "way_id": 812975964, "landuse": "meadow", "closest_distance_restriction": 3.3031557613316567}, {"id": 7593642379, "lat": 51.463984, "lon": 15.2004469, "way_id": 812975964, "landuse": "meadow", "closest_distance_restriction": 3.3342627990471345}, {"id": 7593642587, "lat": 51.4651109, "lon": 15.2024422, "way_id": 812975955, "landuse": "meadow", "closest_distance_restriction": 3.5117526729264243}, {"id": 7593642588, "lat": 51.4651479, "lon": 15.2023234, "way_id": 812975955, "landuse": "meadow", "closest_distance_restriction": 3.5111589565408634}, {"id": 7593642589, "lat": 51.4651568, "lon": 15.2021689, "way_id": 812975955, "landuse": "meadow", "closest_distance_restriction": 3.5066464591234654}, {"id": 7593642590, "lat": 51.465139, "lon": 15.2019526, "way_id": 812975955, "landuse": "meadow", "closest_distance_restriction": 3.4974553436388973}, {"id": 7593642591, "lat": 51.4650442, "lon": 15.2012182, "way_id": 812975955, "landuse": "meadow", "closest_distance_restriction": 3.4632225546970052}, {"id": 7593642592, "lat": 51.4650398, "lon": 15.2011421, "way_id": 812975955, "landuse": "meadow", "closest_distance_restriction": 3.4602273926353564}, {"id": 7593642593, "lat": 51.4651568, "lon": 15.2007143, "way_id": 812975955, "landuse": "meadow", "closest_distance_restriction": 3.4573246071723434}, {"id": 7593642594, "lat": 51.4651775, "lon": 15.2006335, "way_id": 812975955, "landuse": "meadow", "closest_distance_restriction": 3.456673465395809}, {"id": 7593642595, "lat": 51.4651538, "lon": 15.2005075, "way_id": 812975955, "landuse": "meadow", "closest_distance_restriction": 3.4502008448942183}]}