{"nodes": [{"id": 589675859, "lat": 53.00564, "lon": 17.71073, "way_id": 586959058, "landuse": "meadow", "closest_distance_restriction": 1.9070447855691268}, {"id": 1367712325, "lat": 53.0937278, "lon": 17.5564265, "way_id": 230389643, "landuse": "meadow", "closest_distance_restriction": 3.5539309243316723}, {"id": 1367712326, "lat": 53.0934939, "lon": 17.5536103, "way_id": 230389643, "landuse": "meadow", "closest_distance_restriction": 3.714652004620366}, {"id": 1367712327, "lat": 53.0932584, "lon": 17.55665, "way_id": 230389643, "landuse": "meadow", "closest_distance_restriction": 3.57710577162628}, {"id": 1367712328, "lat": 53.0932424, "lon": 17.5582077, "way_id": 230389643, "landuse": "meadow", "closest_distance_restriction": 3.5012389497681378}, {"id": 1367712329, "lat": 53.0937278, "lon": 17.5535654, "way_id": 230389643, "landuse": "meadow", "closest_distance_restriction": 3.7005868828508905}, {"id": 1367712333, "lat": 53.0938734, "lon": 17.555378, "way_id": 230389643, "landuse": "meadow", "closest_distance_restriction": 3.5967853626709294}, {"id": 1367712334, "lat": 53.0938774, "lon": 17.5584091, "way_id": 230389643, "landuse": "meadow", "closest_distance_restriction": 3.443682404078448}, {"id": 1367712337, "lat": 53.0944455, "lon": 17.5567404, "way_id": 230389643, "landuse": "meadow", "closest_distance_restriction": 3.4862044007170994}, {"id": 1367712339, "lat": 53.0952156, "lon": 17.5552411, "way_id": 230389643, "landuse": "meadow", "closest_distance_restriction": 3.5101090502311934}, {"id": 1367712341, "lat": 53.0950385, "lon": 17.556684, "way_id": 230389643, "landuse": "meadow", "closest_distance_restriction": 3.447050329209239}, {"id": 2369153603, "lat": 53.0933803, "lon": 17.5564424, "way_id": 230389643, "landuse": "meadow", "closest_distance_restriction": 3.5785177294140014}, {"id": 2369153608, "lat": 53.0953526, "lon": 17.5560927, "way_id": 230389643, "landuse": "meadow", "closest_distance_restriction": 3.4559759708933155}, {"id": 2388992989, "lat": 53.0933954, "lon": 17.5567045, "way_id": 230389643, "landuse": "meadow", "closest_distance_restriction": 3.564278302177142}, {"id": 2768111601, "lat": 53.00761, "lon": 17.8424513, "way_id": 271874188, "landuse": "meadow", "closest_distance_restriction": 2.8010170202641977}, {"id": 2768111603, "lat": 53.0075874, "lon": 17.8424191, "way_id": 271874188, "landuse": "meadow", "closest_distance_restriction": 2.804191636959932}, {"id": 2768111606, "lat": 53.0076327, "lon": 17.8425509, "way_id": 271874188, "landuse": "meadow", "closest_distance_restriction": 2.7959921118625672}, {"id": 2768111609, "lat": 53.0075923, "lon": 17.8425134, "way_id": 271874188, "landuse": "meadow", "closest_distance_restriction": 2.8011169180599156}, {"id": 2768111610, "lat": 53.0076875, "lon": 17.8425103, "way_id": 271874188, "landuse": "meadow", "closest_distance_restriction": 2.791538619244741}, {"id": 2768111613, "lat": 53.0075519, "lon": 17.8424325, "way_id": 271874188, "landuse": "meadow", "closest_distance_restriction": 2.8074270737235585}, {"id": 2768111616, "lat": 53.0076714, "lon": 17.8425938, "way_id": 271874188, "landuse": "meadow", "closest_distance_restriction": 2.7908928949893284}, {"id": 2768111618, "lat": 53.0075438, "lon": 17.842513, "way_id": 271874188, "landuse": "meadow", "closest_distance_restriction": 2.806053290618597}, {"id": 2768111620, "lat": 53.0076504, "lon": 17.8424969, "way_id": 271874188, "landuse": "meadow", "closest_distance_restriction": 2.795669877793816}, {"id": 2768111623, "lat": 53.0077407, "lon": 17.8426149, "way_id": 271874188, "landuse": "meadow", "closest_distance_restriction": 2.783280577239214}, {"id": 2768111626, "lat": 53.0077505, "lon": 17.8425616, "way_id": 271874188, "landuse": "meadow", "closest_distance_restriction": 2.783742231389057}, {"id": 2768111628, "lat": 53.0077101, "lon": 17.842631, "way_id": 271874188, "landuse": "meadow", "closest_distance_restriction": 2.7859491452476517}, {"id": 3521705501, "lat": 52.9715612, "lon": 17.4989082, "way_id": 345536366, "landuse": "farmland", "closest_distance_restriction": 1.5934540891610105}, {"id": 3521764518, "lat": 52.9714511, "lon": 17.5003509, "way_id": 345536366, "landuse": "farmland", "closest_distance_restriction": 1.6412392761636205}, {"id": 3528972166, "lat": 52.9696877, "lon": 17.4848707, "way_id": 346357863, "landuse": "farmland", "closest_distance_restriction": 1.7006659827775306}, {"id": 3528972169, "lat": 52.9699307, "lon": 17.4885661, "way_id": 346357862, "landuse": "farmland", "closest_distance_restriction": 1.6616744079080683}, {"id": 3528972171, "lat": 52.969962, "lon": 17.4886353, "way_id": 346357862, "landuse": "farmland", "closest_distance_restriction": 1.6583179702206117}, {"id": 3528972172, "lat": 52.9699655, "lon": 17.4883298, "way_id": 346357863, "landuse": "farmland", "closest_distance_restriction": 1.6574839392752703}, {"id": 3529055578, "lat": 52.9716662, "lon": 17.4480814, "way_id": 346365406, "landuse": "farmland", "closest_distance_restriction": 1.8741935582692082}, {"id": 3529055579, "lat": 52.9716895, "lon": 17.4480401, "way_id": 346365406, "landuse": "farmland", "closest_distance_restriction": 1.8704040133213162}, {"id": 3529055582, "lat": 52.9717108, "lon": 17.4543967, "way_id": 346365405, "landuse": "farmland", "closest_distance_restriction": 2.1997071911068677}, {"id": 3529055584, "lat": 52.9717253, "lon": 17.4530874, "way_id": 346365405, "landuse": "farmland", "closest_distance_restriction": 2.1278335836398465}, {"id": 3529055585, "lat": 52.9717269, "lon": 17.451905, "way_id": 346365406, "landuse": "farmland", "closest_distance_restriction": 2.064762565946458}, {"id": 3529055586, "lat": 52.9717331, "lon": 17.4494523, "way_id": 346365406, "landuse": "farmland", "closest_distance_restriction": 1.9374927694876583}, {"id": 3529055587, "lat": 52.9717373, "lon": 17.4582356, "way_id": 346365410, "landuse": "farmland", "closest_distance_restriction": 2.1468768306195134}, {"id": 3529055588, "lat": 52.9717411, "lon": 17.4563256, "way_id": 346365410, "landuse": "farmland", "closest_distance_restriction": 2.1990578512368115}, {"id": 3529055589, "lat": 52.971743, "lon": 17.4567608, "way_id": 346365410, "landuse": "farmland", "closest_distance_restriction": 2.1903515387848955}, {"id": 3529056004, "lat": 52.9717901, "lon": 17.461445, "way_id": 346365410, "landuse": "farmland", "closest_distance_restriction": 2.037571014433937}, {"id": 3529056005, "lat": 52.9718147, "lon": 17.4582293, "way_id": 346365410, "landuse": "farmland", "closest_distance_restriction": 2.1397642022946894}, {"id": 3529056006, "lat": 52.9718147, "lon": 17.4615796, "way_id": 346365410, "landuse": "farmland", "closest_distance_restriction": 2.031121825875948}, {"id": 3529056024, "lat": 52.971892, "lon": 17.4616454, "way_id": 346365410, "landuse": "farmland", "closest_distance_restriction": 2.0214641477694544}, {"id": 3529056028, "lat": 52.9719492, "lon": 17.4518895, "way_id": 346365406, "landuse": "farmland", "closest_distance_restriction": 2.0488188923432387}, {"id": 3529056039, "lat": 52.9720254, "lon": 17.4518946, "way_id": 346365406, "landuse": "farmland", "closest_distance_restriction": 2.043948944393909}, {"id": 3529056044, "lat": 52.9721187, "lon": 17.4520702, "way_id": 346365406, "landuse": "farmland", "closest_distance_restriction": 2.047083977054986}, {"id": 3529056045, "lat": 52.972171, "lon": 17.4566951, "way_id": 346365410, "landuse": "farmland", "closest_distance_restriction": 2.1460755488828007}, {"id": 3529056048, "lat": 52.972243, "lon": 17.4523929, "way_id": 346365406, "landuse": "farmland", "closest_distance_restriction": 2.0562346234209063}, {"id": 3529056049, "lat": 52.9722492, "lon": 17.4525065, "way_id": 346365405, "landuse": "farmland", "closest_distance_restriction": 2.061975436308842}, {"id": 3529056050, "lat": 52.9722524, "lon": 17.4530461, "way_id": 346365405, "landuse": "farmland", "closest_distance_restriction": 2.091100896871898}, {"id": 3529056051, "lat": 52.9722559, "lon": 17.4577283, "way_id": 346365410, "landuse": "farmland", "closest_distance_restriction": 2.1162789800418365}, {"id": 3529056052, "lat": 52.9722827, "lon": 17.4543059, "way_id": 346365405, "landuse": "farmland", "closest_distance_restriction": 2.158501000929853}, {"id": 3529056053, "lat": 52.9722999, "lon": 17.4545233, "way_id": 346365405, "landuse": "farmland", "closest_distance_restriction": 2.1695115753312835}, {"id": 3529056055, "lat": 52.97232, "lon": 17.4577158, "way_id": 346365410, "landuse": "farmland", "closest_distance_restriction": 2.1107698215629673}, {"id": 3529056056, "lat": 52.9723483, "lon": 17.4580634, "way_id": 346365410, "landuse": "farmland", "closest_distance_restriction": 2.0954604372305585}, {"id": 3529056057, "lat": 52.972352, "lon": 17.4554645, "way_id": 346365410, "landuse": "farmland", "closest_distance_restriction": 2.1527036500252024}, {"id": 3529056058, "lat": 52.9724086, "lon": 17.4546441, "way_id": 346365410, "landuse": "farmland", "closest_distance_restriction": 2.165622472656389}, {"id": 3529056059, "lat": 52.9724086, "lon": 17.4561721, "way_id": 346365410, "landuse": "farmland", "closest_distance_restriction": 2.1315050057316327}, {"id": 3529056060, "lat": 52.9724426, "lon": 17.4554175, "way_id": 346365410, "landuse": "farmland", "closest_distance_restriction": 2.1442486105749814}, {"id": 3529056065, "lat": 52.9730468, "lon": 17.4522974, "way_id": 346365406, "landuse": "farmland", "closest_distance_restriction": 1.9995025009348366}, {"id": 3529056068, "lat": 52.9730732, "lon": 17.4524239, "way_id": 346365405, "landuse": "farmland", "closest_distance_restriction": 2.00487096075906}, {"id": 3529056093, "lat": 52.9737371, "lon": 17.4510987, "way_id": 346365407, "landuse": "farmland", "closest_distance_restriction": 1.8900614984509432}, {"id": 3529056094, "lat": 52.9737657, "lon": 17.451033, "way_id": 346365409, "landuse": "farmland", "closest_distance_restriction": 1.8846372489471221}, {"id": 3529056096, "lat": 52.9738522, "lon": 17.4511428, "way_id": 346365409, "landuse": "farmland", "closest_distance_restriction": 1.8854690999386956}, {"id": 3529056098, "lat": 52.9741475, "lon": 17.4521554, "way_id": 346365406, "landuse": "farmland", "closest_distance_restriction": 1.9252303271265083}, {"id": 3529056100, "lat": 52.9741677, "lon": 17.4522741, "way_id": 346365405, "landuse": "farmland", "closest_distance_restriction": 1.930859210015363}, {"id": 3529056101, "lat": 52.9741879, "lon": 17.4520779, "way_id": 346365406, "landuse": "farmland", "closest_distance_restriction": 1.9184618620434266}, {"id": 3529056102, "lat": 52.9741879, "lon": 17.4521296, "way_id": 346365406, "landuse": "farmland", "closest_distance_restriction": 1.9214202426817628}, {"id": 3529056103, "lat": 52.9742423, "lon": 17.4522432, "way_id": 346365405, "landuse": "farmland", "closest_distance_restriction": 1.9248052149366202}, {"id": 3529056106, "lat": 52.9743044, "lon": 17.4520991, "way_id": 346365407, "landuse": "farmland", "closest_distance_restriction": 1.912978626575222}, {"id": 3529056108, "lat": 52.9743378, "lon": 17.4521209, "way_id": 346365407, "landuse": "farmland", "closest_distance_restriction": 1.9123238789740777}, {"id": 3529056110, "lat": 52.9744116, "lon": 17.4522431, "way_id": 346365408, "landuse": "farmland", "closest_distance_restriction": 1.9151751311904892}, {"id": 3529056111, "lat": 52.9744536, "lon": 17.4522146, "way_id": 346365408, "landuse": "farmland", "closest_distance_restriction": 1.9111627437643042}, {"id": 3529056112, "lat": 52.9749223, "lon": 17.4510569, "way_id": 346365409, "landuse": "farmland", "closest_distance_restriction": 1.8179376878901017}, {"id": 3529056113, "lat": 52.9749762, "lon": 17.4510383, "way_id": 346365409, "landuse": "farmland", "closest_distance_restriction": 1.8138496131181552}, {"id": 3529056114, "lat": 52.9750369, "lon": 17.4509412, "way_id": 346365409, "landuse": "farmland", "closest_distance_restriction": 1.8048421458704103}, {"id": 3529056116, "lat": 52.9753321, "lon": 17.4539419, "way_id": 346365405, "landuse": "farmland", "closest_distance_restriction": 1.885045436677031}, {"id": 3529056117, "lat": 52.9753352, "lon": 17.4539884, "way_id": 346365405, "landuse": "farmland", "closest_distance_restriction": 1.8833910375889398}, {"id": 3529056118, "lat": 52.9753462, "lon": 17.4541275, "way_id": 346365410, "landuse": "farmland", "closest_distance_restriction": 1.8782909399438819}, {"id": 3529056119, "lat": 52.9753821, "lon": 17.4541463, "way_id": 346365410, "landuse": "farmland", "closest_distance_restriction": 1.8741438814640161}, {"id": 3529056121, "lat": 52.9754179, "lon": 17.4541933, "way_id": 346365410, "landuse": "farmland", "closest_distance_restriction": 1.8692004214109035}, {"id": 3529056124, "lat": 52.9755232, "lon": 17.4538876, "way_id": 346365408, "landuse": "farmland", "closest_distance_restriction": 1.86749512681275}, {"id": 3529056126, "lat": 52.9756491, "lon": 17.4539056, "way_id": 346365408, "landuse": "farmland", "closest_distance_restriction": 1.8543897030028966}, {"id": 3529056129, "lat": 52.9757424, "lon": 17.4539676, "way_id": 346365408, "landuse": "farmland", "closest_distance_restriction": 1.8432475991403234}, {"id": 3529056131, "lat": 52.9758714, "lon": 17.4541535, "way_id": 346365408, "landuse": "farmland", "closest_distance_restriction": 1.8248909125275259}, {"id": 3529056132, "lat": 52.9759114, "lon": 17.4517662, "way_id": 346365407, "landuse": "farmland", "closest_distance_restriction": 1.807509399383462}, {"id": 3529056136, "lat": 52.9762984, "lon": 17.4606591, "way_id": 346365410, "landuse": "farmland", "closest_distance_restriction": 1.6337459027858592}, {"id": 3529056138, "lat": 52.9763795, "lon": 17.4605745, "way_id": 346365410, "landuse": "farmland", "closest_distance_restriction": 1.62623874005586}, {"id": 3529056140, "lat": 52.9764247, "lon": 17.4596195, "way_id": 346365410, "landuse": "farmland", "closest_distance_restriction": 1.637145705289739}, {"id": 3529056142, "lat": 52.9764379, "lon": 17.4594536, "way_id": 346365410, "landuse": "farmland", "closest_distance_restriction": 1.638716546571005}, {"id": 3529056143, "lat": 52.9764606, "lon": 17.4551707, "way_id": 346365408, "landuse": "farmland", "closest_distance_restriction": 1.736444061483027}, {"id": 3529056145, "lat": 52.9765212, "lon": 17.4551888, "way_id": 346365408, "landuse": "farmland", "closest_distance_restriction": 1.7298240014998618}, {"id": 3529056147, "lat": 52.9766052, "lon": 17.4551939, "way_id": 346365408, "landuse": "farmland", "closest_distance_restriction": 1.7212184146060445}, {"id": 3529056149, "lat": 52.9766359, "lon": 17.459319, "way_id": 346365410, "landuse": "farmland", "closest_distance_restriction": 1.6200469607912313}, {"id": 3529056152, "lat": 52.9767283, "lon": 17.4593158, "way_id": 346365410, "landuse": "farmland", "closest_distance_restriction": 1.6102485672062956}, {"id": 3529056155, "lat": 52.9768112, "lon": 17.4593816, "way_id": 346365410, "landuse": "farmland", "closest_distance_restriction": 1.6001622341037685}, {"id": 3529056165, "lat": 52.9770171, "lon": 17.4516079, "way_id": 346365408, "landuse": "farmland", "closest_distance_restriction": 1.7464177071967806}, {"id": 3529056166, "lat": 52.9770638, "lon": 17.4516079, "way_id": 346365408, "landuse": "farmland", "closest_distance_restriction": 1.7443950909853598}, {"id": 3529056167, "lat": 52.9770668, "lon": 17.4514489, "way_id": 346365407, "landuse": "farmland", "closest_distance_restriction": 1.7344591325601943}, {"id": 3529056169, "lat": 52.9770995, "lon": 17.4516492, "way_id": 346365408, "landuse": "farmland", "closest_distance_restriction": 1.7454086219212397}, {"id": 3529056173, "lat": 52.9772062, "lon": 17.4513556, "way_id": 346365407, "landuse": "farmland", "closest_distance_restriction": 1.7226989072764975}, {"id": 3529056174, "lat": 52.9772557, "lon": 17.4513033, "way_id": 346365407, "landuse": "farmland", "closest_distance_restriction": 1.7173564091920115}, {"id": 3529056175, "lat": 52.9772602, "lon": 17.45121, "way_id": 346365407, "landuse": "farmland", "closest_distance_restriction": 1.7113931213684082}, {"id": 3529056176, "lat": 52.9772976, "lon": 17.4572994, "way_id": 346365410, "landuse": "farmland", "closest_distance_restriction": 1.5944864143546436}, {"id": 3529056177, "lat": 52.9773094, "lon": 17.4549977, "way_id": 346365408, "landuse": "farmland", "closest_distance_restriction": 1.6565150494104717}, {"id": 3529056179, "lat": 52.9773938, "lon": 17.4574998, "way_id": 346365410, "landuse": "farmland", "closest_distance_restriction": 1.5796076849430367}, {"id": 3529056180, "lat": 52.9773949, "lon": 17.4549074, "way_id": 346365408, "landuse": "farmland", "closest_distance_restriction": 1.6507638831689677}, {"id": 3529056182, "lat": 52.9774291, "lon": 17.4547783, "way_id": 346365408, "landuse": "farmland", "closest_distance_restriction": 1.6513298932403595}, {"id": 3529056183, "lat": 52.9774322, "lon": 17.4546492, "way_id": 346365408, "landuse": "farmland", "closest_distance_restriction": 1.6550130178463534}, {"id": 3529056184, "lat": 52.9774428, "lon": 17.4579412, "way_id": 346365410, "landuse": "farmland", "closest_distance_restriction": 1.5639585216738703}, {"id": 3529056185, "lat": 52.9774504, "lon": 17.4578191, "way_id": 346365410, "landuse": "farmland", "closest_distance_restriction": 1.566045639306593}, {"id": 3529056186, "lat": 52.9774541, "lon": 17.4576438, "way_id": 346365410, "landuse": "farmland", "closest_distance_restriction": 1.5698602767862808}, {"id": 3534222569, "lat": 52.9717984, "lon": 17.4643935, "way_id": 346979936, "landuse": "farmland", "closest_distance_restriction": 1.9568404810326039}, {"id": 3534222570, "lat": 52.9718055, "lon": 17.465152, "way_id": 346979936, "landuse": "farmland", "closest_distance_restriction": 1.9382619827600809}, {"id": 3534222571, "lat": 52.9718178, "lon": 17.4659808, "way_id": 346979936, "landuse": "farmland", "closest_distance_restriction": 1.9188135133066344}, {"id": 3534222572, "lat": 52.9718549, "lon": 17.472602, "way_id": 346979936, "landuse": "farmland", "closest_distance_restriction": 1.752386187863545}, {"id": 3534222573, "lat": 52.9718566, "lon": 17.4723823, "way_id": 346979936, "landuse": "farmland", "closest_distance_restriction": 1.7601985982688286}, {"id": 3534222574, "lat": 52.9718831, "lon": 17.4697028, "way_id": 346979936, "landuse": "farmland", "closest_distance_restriction": 1.8484792257079552}, {"id": 3534222575, "lat": 52.9718884, "lon": 17.4708156, "way_id": 346979936, "landuse": "farmland", "closest_distance_restriction": 1.816614377344395}, {"id": 3534222580, "lat": 52.9720489, "lon": 17.4677085, "way_id": 346979936, "landuse": "farmland", "closest_distance_restriction": 1.860834339072049}, {"id": 3534222583, "lat": 52.9720542, "lon": 17.467442, "way_id": 346979936, "landuse": "farmland", "closest_distance_restriction": 1.8650219157124965}, {"id": 3534222588, "lat": 52.9720665, "lon": 17.4679926, "way_id": 346979936, "landuse": "farmland", "closest_distance_restriction": 1.8540473546523848}, {"id": 3534222589, "lat": 52.9721088, "lon": 17.4673952, "way_id": 346979936, "landuse": "farmland", "closest_distance_restriction": 1.8600328319285964}, {"id": 3534222592, "lat": 52.9721388, "lon": 17.4681595, "way_id": 346979936, "landuse": "farmland", "closest_distance_restriction": 1.8434656494296393}, {"id": 3534224395, "lat": 52.9721794, "lon": 17.467363, "way_id": 346979936, "landuse": "farmland", "closest_distance_restriction": 1.8530757923692263}, {"id": 3534224402, "lat": 52.9723293, "lon": 17.4684172, "way_id": 346979936, "landuse": "farmland", "closest_distance_restriction": 1.8187003174857417}, {"id": 3534224403, "lat": 52.972331, "lon": 17.4717498, "way_id": 346979936, "landuse": "farmland", "closest_distance_restriction": 1.7402248852666422}, {"id": 3534224404, "lat": 52.972354, "lon": 17.4716795, "way_id": 346979936, "landuse": "farmland", "closest_distance_restriction": 1.7408499259824328}, {"id": 3534224405, "lat": 52.9723839, "lon": 17.4659544, "way_id": 346979936, "landuse": "farmland", "closest_distance_restriction": 1.8597366103720423}, {"id": 3534224406, "lat": 52.9723839, "lon": 17.4724965, "way_id": 346979936, "landuse": "farmland", "closest_distance_restriction": 1.7070560561488137}, {"id": 3534224407, "lat": 52.9723875, "lon": 17.4651051, "way_id": 346979936, "landuse": "farmland", "closest_distance_restriction": 1.8786304596091656}, {"id": 3534224408, "lat": 52.9724509, "lon": 17.4685666, "way_id": 346979936, "landuse": "farmland", "closest_distance_restriction": 1.803171536616618}, {"id": 3534224409, "lat": 52.9726026, "lon": 17.4686046, "way_id": 346979936, "landuse": "farmland", "closest_distance_restriction": 1.7861838770505103}, {"id": 3534224410, "lat": 52.9727662, "lon": 17.4617488, "way_id": 346979936, "landuse": "farmland", "closest_distance_restriction": 1.9315554082348467}, {"id": 3534224411, "lat": 52.9727666, "lon": 17.4716268, "way_id": 346979936, "landuse": "farmland", "closest_distance_restriction": 1.7056999762946838}, {"id": 3534224412, "lat": 52.9728011, "lon": 17.4642005, "way_id": 346979936, "landuse": "farmland", "closest_distance_restriction": 1.8583563430243475}, {"id": 3534224413, "lat": 52.9728072, "lon": 17.4717644, "way_id": 346979936, "landuse": "farmland", "closest_distance_restriction": 1.6966144077877845}, {"id": 3534224414, "lat": 52.9728107, "lon": 17.4686046, "way_id": 346979936, "landuse": "farmland", "closest_distance_restriction": 1.7637255789663946}, {"id": 3534224416, "lat": 52.9728795, "lon": 17.4721861, "way_id": 346979936, "landuse": "farmland", "closest_distance_restriction": 1.6735695361886056}, {"id": 3534224417, "lat": 52.9729289, "lon": 17.4686983, "way_id": 346979936, "landuse": "farmland", "closest_distance_restriction": 1.749455813760598}, {"id": 3534224418, "lat": 52.972943, "lon": 17.4673688, "way_id": 346979936, "landuse": "farmland", "closest_distance_restriction": 1.7714975858567683}, {"id": 3534224419, "lat": 52.9729571, "lon": 17.4722037, "way_id": 346979936, "landuse": "farmland", "closest_distance_restriction": 1.6658661029334072}, {"id": 3534224421, "lat": 52.9731352, "lon": 17.4674567, "way_id": 346979936, "landuse": "farmland", "closest_distance_restriction": 1.7493364106991083}, {"id": 3534224422, "lat": 52.9731387, "lon": 17.4721568, "way_id": 346979936, "landuse": "farmland", "closest_distance_restriction": 1.6513499846841602}, {"id": 3534224423, "lat": 52.9732868, "lon": 17.4688038, "way_id": 346979936, "landuse": "farmland", "closest_distance_restriction": 1.7091312729781991}, {"id": 3534224424, "lat": 52.973338, "lon": 17.467609, "way_id": 346979936, "landuse": "farmland", "closest_distance_restriction": 1.7248064515065817}, {"id": 3534224425, "lat": 52.9733662, "lon": 17.4721188, "way_id": 346979936, "landuse": "farmland", "closest_distance_restriction": 1.6325118652602126}, {"id": 3534224426, "lat": 52.973368, "lon": 17.4688008, "way_id": 346979936, "landuse": "farmland", "closest_distance_restriction": 1.700421771158853}, {"id": 3534224428, "lat": 52.973502, "lon": 17.467978, "way_id": 346979936, "landuse": "farmland", "closest_distance_restriction": 1.700355683194367}, {"id": 3534224429, "lat": 52.9735055, "lon": 17.4720661, "way_id": 346979936, "landuse": "farmland", "closest_distance_restriction": 1.622255860750526}, {"id": 3534224430, "lat": 52.9735214, "lon": 17.4687306, "way_id": 346979936, "landuse": "farmland", "closest_distance_restriction": 1.6850469188080608}, {"id": 3534224431, "lat": 52.9735725, "lon": 17.4719372, "way_id": 346979936, "landuse": "farmland", "closest_distance_restriction": 1.6215740242665448}, {"id": 3534224432, "lat": 52.9735884, "lon": 17.4684611, "way_id": 346979936, "landuse": "farmland", "closest_distance_restriction": 1.6824304156737662}, {"id": 3534224433, "lat": 52.9736113, "lon": 17.468754, "way_id": 346979936, "landuse": "farmland", "closest_distance_restriction": 1.674975204493488}, {"id": 3534224434, "lat": 52.9736413, "lon": 17.4693836, "way_id": 346979936, "landuse": "farmland", "closest_distance_restriction": 1.6617165594216}, {"id": 3534224435, "lat": 52.9736466, "lon": 17.4717527, "way_id": 346979936, "landuse": "farmland", "closest_distance_restriction": 1.622644107826433}, {"id": 3534224436, "lat": 52.9736907, "lon": 17.4699312, "way_id": 346979936, "landuse": "farmland", "closest_distance_restriction": 1.6484424487881524}, {"id": 3534224437, "lat": 52.9737083, "lon": 17.4716444, "way_id": 346979936, "landuse": "farmland", "closest_distance_restriction": 1.6217493471813649}, {"id": 3534224438, "lat": 52.9737277, "lon": 17.4698141, "way_id": 346979936, "landuse": "farmland", "closest_distance_restriction": 1.6460493667828806}, {"id": 3534224441, "lat": 52.9737912, "lon": 17.4716034, "way_id": 346979936, "landuse": "farmland", "closest_distance_restriction": 1.6162560498193597}, {"id": 3534224443, "lat": 52.9738176, "lon": 17.4715858, "way_id": 346979936, "landuse": "farmland", "closest_distance_restriction": 1.6147054827918172}, {"id": 3534224446, "lat": 52.9738247, "lon": 17.4714833, "way_id": 346979936, "landuse": "farmland", "closest_distance_restriction": 1.6155171566452278}, {"id": 3534224456, "lat": 52.9739481, "lon": 17.4725258, "way_id": 346979936, "landuse": "farmland", "closest_distance_restriction": 1.5644503729509416}, {"id": 3534224458, "lat": 52.9741328, "lon": 17.4614092, "way_id": 346979936, "landuse": "farmland", "closest_distance_restriction": 1.8092170392999212}, {"id": 3534224461, "lat": 52.9743672, "lon": 17.4641384, "way_id": 346979936, "landuse": "farmland", "closest_distance_restriction": 1.7010283066886243}, {"id": 3640974633, "lat": 53.0050368, "lon": 17.7112342, "way_id": 586959058, "landuse": "meadow", "closest_distance_restriction": 1.8980060080001575}, {"id": 3640974635, "lat": 53.0052908, "lon": 17.7115545, "way_id": 586959058, "landuse": "meadow", "closest_distance_restriction": 1.8680421575438475}, {"id": 3640974638, "lat": 53.0056175, "lon": 17.7131348, "way_id": 586959058, "landuse": "meadow", "closest_distance_restriction": 1.7562739533686613}, {"id": 3640974640, "lat": 53.0057517, "lon": 17.7125046, "way_id": 586959058, "landuse": "meadow", "closest_distance_restriction": 1.7907900643801014}, {"id": 3640974641, "lat": 53.0058275, "lon": 17.7129409, "way_id": 586959058, "landuse": "meadow", "closest_distance_restriction": 1.7604607981574274}, {"id": 3640974645, "lat": 53.0056756, "lon": 17.7108683, "way_id": 586959058, "landuse": "meadow", "closest_distance_restriction": 1.8970104971720807}, {"id": 4406077154, "lat": 53.1635116, "lon": 17.7539672, "way_id": 442958414, "landuse": "farmland", "closest_distance_restriction": 2.9030697161788237}, {"id": 4406077155, "lat": 53.1635347, "lon": 17.754195, "way_id": 442958414, "landuse": "farmland", "closest_distance_restriction": 2.9176412447979914}, {"id": 4406077156, "lat": 53.1635788, "lon": 17.7531822, "way_id": 442958414, "landuse": "farmland", "closest_distance_restriction": 2.8502191673578814}, {"id": 4406077159, "lat": 53.1636839, "lon": 17.752271, "way_id": 442958414, "landuse": "farmland", "closest_distance_restriction": 2.788382362559749}, {"id": 4406077160, "lat": 53.1636902, "lon": 17.7545665, "way_id": 442958414, "landuse": "farmland", "closest_distance_restriction": 2.9393805021470683}, {"id": 4406077161, "lat": 53.1637175, "lon": 17.7517453, "way_id": 442958414, "landuse": "farmland", "closest_distance_restriction": 2.75319557941463}, {"id": 4406077162, "lat": 53.1637217, "lon": 17.7507079, "way_id": 442958414, "landuse": "farmland", "closest_distance_restriction": 2.684907574256442}, {"id": 4406077163, "lat": 53.1637469, "lon": 17.7512196, "way_id": 442958414, "landuse": "farmland", "closest_distance_restriction": 2.7180867810613836}, {"id": 4406077164, "lat": 53.1637973, "lon": 17.7548224, "way_id": 442958414, "landuse": "farmland", "closest_distance_restriction": 2.954441807985296}, {"id": 4406077166, "lat": 53.16381, "lon": 17.7504275, "way_id": 442958414, "landuse": "farmland", "closest_distance_restriction": 2.664846270751687}, {"id": 4406077169, "lat": 53.1638982, "lon": 17.7501121, "way_id": 442958414, "landuse": "farmland", "closest_distance_restriction": 2.6425008273767285}, {"id": 4406077170, "lat": 53.1639171, "lon": 17.7550292, "way_id": 442958414, "landuse": "farmland", "closest_distance_restriction": 2.9661299540044777}, {"id": 4406077173, "lat": 53.1640033, "lon": 17.7498387, "way_id": 442958414, "landuse": "farmland", "closest_distance_restriction": 2.622634977518757}, {"id": 4406077176, "lat": 53.1640684, "lon": 17.7552394, "way_id": 442958414, "landuse": "farmland", "closest_distance_restriction": 2.9776359768890805}, {"id": 4406077178, "lat": 53.1641629, "lon": 17.7495163, "way_id": 442958414, "landuse": "farmland", "closest_distance_restriction": 2.598633503289496}, {"id": 4406077181, "lat": 53.1642323, "lon": 17.7554077, "way_id": 442958414, "landuse": "farmland", "closest_distance_restriction": 2.9863050005601286}, {"id": 4406077184, "lat": 53.1643058, "lon": 17.749306, "way_id": 442958414, "landuse": "farmland", "closest_distance_restriction": 2.582375881789257}, {"id": 4406077185, "lat": 53.1643647, "lon": 17.7499789, "way_id": 442958414, "landuse": "farmland", "closest_distance_restriction": 2.6257984927472404}, {"id": 4406077186, "lat": 53.164413, "lon": 17.7555654, "way_id": 442958414, "landuse": "farmland", "closest_distance_restriction": 2.9941683124963743}, {"id": 4406077188, "lat": 53.1645769, "lon": 17.7557581, "way_id": 442958414, "landuse": "farmland", "closest_distance_restriction": 3.0047184775440843}, {"id": 4406077292, "lat": 53.1646336, "lon": 17.7557792, "way_id": 442958414, "landuse": "farmland", "closest_distance_restriction": 3.005380962600659}, {"id": 4406077293, "lat": 53.1646882, "lon": 17.7557511, "way_id": 442958414, "landuse": "farmland", "closest_distance_restriction": 3.002824996361586}, {"id": 4406077294, "lat": 53.1647113, "lon": 17.7554918, "way_id": 442958414, "landuse": "farmland", "closest_distance_restriction": 2.985359433485333}, {"id": 4406077295, "lat": 53.1647218, "lon": 17.7556495, "way_id": 442958414, "landuse": "farmland", "closest_distance_restriction": 2.995673118711019}, {"id": 4406077296, "lat": 53.1647282, "lon": 17.755257, "way_id": 442958414, "landuse": "farmland", "closest_distance_restriction": 2.9695947910965588}, {"id": 4406077300, "lat": 53.1647891, "lon": 17.7549906, "way_id": 442958414, "landuse": "farmland", "closest_distance_restriction": 2.9511866937462794}, {"id": 4406077306, "lat": 53.1649025, "lon": 17.7499158, "way_id": 442958414, "landuse": "farmland", "closest_distance_restriction": 2.613714738107544}, {"id": 4406077308, "lat": 53.164932, "lon": 17.7547208, "way_id": 442958414, "landuse": "farmland", "closest_distance_restriction": 2.9315712087978696}, {"id": 4406077310, "lat": 53.1649446, "lon": 17.7473925, "way_id": 442958414, "landuse": "farmland", "closest_distance_restriction": 2.4462275434820717}, {"id": 4406077312, "lat": 53.1650013, "lon": 17.7546542, "way_id": 442958414, "landuse": "farmland", "closest_distance_restriction": 2.9263411417809198}, {"id": 4406077315, "lat": 53.1651232, "lon": 17.7546787, "way_id": 442958414, "landuse": "farmland", "closest_distance_restriction": 2.9265798010627218}, {"id": 4406077319, "lat": 53.1653564, "lon": 17.7548084, "way_id": 442958414, "landuse": "farmland", "closest_distance_restriction": 2.9327124861720684}, {"id": 4406077327, "lat": 53.1655665, "lon": 17.7548609, "way_id": 442958414, "landuse": "farmland", "closest_distance_restriction": 2.9341692773568826}, {"id": 4406077331, "lat": 53.165764, "lon": 17.7548539, "way_id": 442958414, "landuse": "farmland", "closest_distance_restriction": 2.9319655585539857}, {"id": 4406077336, "lat": 53.1662136, "lon": 17.7548644, "way_id": 442958414, "landuse": "farmland", "closest_distance_restriction": 2.9293166118087406}, {"id": 4406077338, "lat": 53.1662987, "lon": 17.7498335, "way_id": 442958413, "landuse": "meadow", "closest_distance_restriction": 2.5939925013449106}, {"id": 4406077343, "lat": 53.1663575, "lon": 17.7481582, "way_id": 442958413, "landuse": "meadow", "closest_distance_restriction": 2.482125459002415}, {"id": 4406077433, "lat": 53.1667221, "lon": 17.7548574, "way_id": 442958414, "landuse": "farmland", "closest_distance_restriction": 2.9260897209415773}, {"id": 4406077481, "lat": 53.1669238, "lon": 17.7548399, "way_id": 442958414, "landuse": "farmland", "closest_distance_restriction": 2.9241305854863393}, {"id": 4406077501, "lat": 53.1670246, "lon": 17.7547733, "way_id": 442958414, "landuse": "farmland", "closest_distance_restriction": 2.9193606128396636}, {"id": 4406077514, "lat": 53.1670855, "lon": 17.7546717, "way_id": 442958414, "landuse": "farmland", "closest_distance_restriction": 2.9124100661157053}, {"id": 4406077529, "lat": 53.1671212, "lon": 17.7545981, "way_id": 442958414, "landuse": "farmland", "closest_distance_restriction": 2.9074068394305987}, {"id": 4406077533, "lat": 53.167137, "lon": 17.7496688, "way_id": 442958413, "landuse": "meadow", "closest_distance_restriction": 2.578883143113419}, {"id": 4406077536, "lat": 53.1671507, "lon": 17.7544299, "way_id": 442958414, "landuse": "farmland", "closest_distance_restriction": 2.896120256729338}, {"id": 4406077538, "lat": 53.1671717, "lon": 17.7541144, "way_id": 442958414, "landuse": "farmland", "closest_distance_restriction": 2.8750414161008644}, {"id": 4406077540, "lat": 53.1671874, "lon": 17.7479655, "way_id": 442958413, "landuse": "meadow", "closest_distance_restriction": 2.465234931690732}, {"id": 4406077547, "lat": 53.1674889, "lon": 17.7467721, "way_id": 442958414, "landuse": "farmland", "closest_distance_restriction": 2.385065387089026}, {"id": 5414795526, "lat": 53.1356546, "lon": 17.731105, "way_id": 561585386, "landuse": "farmland", "closest_distance_restriction": 1.671262081658334}, {"id": 5414795527, "lat": 53.1358713, "lon": 17.732821, "way_id": 561585386, "landuse": "farmland", "closest_distance_restriction": 1.5879904778530733}, {"id": 5414795528, "lat": 53.1358827, "lon": 17.7330824, "way_id": 561585386, "landuse": "farmland", "closest_distance_restriction": 1.574316613061858}, {"id": 5414795534, "lat": 53.1354678, "lon": 17.7311572, "way_id": 561585386, "landuse": "farmland", "closest_distance_restriction": 1.6575721661430918}, {"id": 5414795535, "lat": 53.1355861, "lon": 17.7311287, "way_id": 561585386, "landuse": "farmland", "closest_distance_restriction": 1.6659637534562335}, {"id": 5607341050, "lat": 53.0061088, "lon": 17.7122571, "way_id": 586959058, "landuse": "meadow", "closest_distance_restriction": 1.7936221127142697}, {"id": 5607341051, "lat": 53.0057465, "lon": 17.7108356, "way_id": 586959058, "landuse": "meadow", "closest_distance_restriction": 1.8965748923746695}, {"id": 5607341052, "lat": 53.0057116, "lon": 17.713323, "way_id": 586959058, "landuse": "meadow", "closest_distance_restriction": 1.7408258420133735}, {"id": 5607341053, "lat": 53.0057788, "lon": 17.7132603, "way_id": 586959058, "landuse": "meadow", "closest_distance_restriction": 1.7421899322981838}, {"id": 6624787017, "lat": 53.1564545, "lon": 17.4070953, "way_id": 705252025, "landuse": "farmland", "closest_distance_restriction": 4.760013663774959}, {"id": 6624787018, "lat": 53.156781, "lon": 17.4082214, "way_id": 705252025, "landuse": "farmland", "closest_distance_restriction": 4.8267039094852136}, {"id": 6624787019, "lat": 53.15687, "lon": 17.4083575, "way_id": 705252025, "landuse": "farmland", "closest_distance_restriction": 4.839678879880592}, {"id": 6624787020, "lat": 53.1571223, "lon": 17.4095949, "way_id": 705252025, "landuse": "farmland", "closest_distance_restriction": 4.903165158999699}, {"id": 6624787021, "lat": 53.1569368, "lon": 17.4106962, "way_id": 705252025, "landuse": "farmland", "closest_distance_restriction": 4.920422815918945}, {"id": 6624787022, "lat": 53.1566697, "lon": 17.4108076, "way_id": 705252025, "landuse": "farmland", "closest_distance_restriction": 4.898165842297419}, {"id": 6624787023, "lat": 53.1565064, "lon": 17.4112283, "way_id": 705252025, "landuse": "farmland", "closest_distance_restriction": 4.887710052654929}, {"id": 6624787024, "lat": 53.1562467, "lon": 17.4125771, "way_id": 705252025, "landuse": "farmland", "closest_distance_restriction": 4.794466299393432}, {"id": 6624787025, "lat": 53.1563951, "lon": 17.4136537, "way_id": 705252025, "landuse": "farmland", "closest_distance_restriction": 4.72599945208752}, {"id": 6624787026, "lat": 53.1563061, "lon": 17.4147302, "way_id": 705252025, "landuse": "farmland", "closest_distance_restriction": 4.653554793115577}, {"id": 6624787027, "lat": 53.1560686, "lon": 17.414953, "way_id": 705252025, "landuse": "farmland", "closest_distance_restriction": 4.634865943672262}, {"id": 6624787028, "lat": 53.1556605, "lon": 17.4149035, "way_id": 705252025, "landuse": "farmland", "closest_distance_restriction": 4.631584809014455}, {"id": 6624787029, "lat": 53.1554008, "lon": 17.4146065, "way_id": 705252025, "landuse": "farmland", "closest_distance_restriction": 4.647274114376988}, {"id": 6624787030, "lat": 53.155334, "lon": 17.414062, "way_id": 705252025, "landuse": "farmland", "closest_distance_restriction": 4.682288784071477}, {"id": 6624787031, "lat": 53.1549927, "lon": 17.4140497, "way_id": 705252025, "landuse": "farmland", "closest_distance_restriction": 4.678314711324754}, {"id": 6624787032, "lat": 53.1548963, "lon": 17.4138888, "way_id": 705252025, "landuse": "farmland", "closest_distance_restriction": 4.687668799026063}, {"id": 6624787033, "lat": 53.1551782, "lon": 17.4136042, "way_id": 705252025, "landuse": "farmland", "closest_distance_restriction": 4.710347026838457}, {"id": 6624787034, "lat": 53.1554083, "lon": 17.4129607, "way_id": 705252025, "landuse": "farmland", "closest_distance_restriction": 4.756171836872804}, {"id": 6624787035, "lat": 53.1554231, "lon": 17.411847, "way_id": 705252025, "landuse": "farmland", "closest_distance_restriction": 4.813244119368831}, {"id": 6624787036, "lat": 53.1558831, "lon": 17.4098672, "way_id": 705252025, "landuse": "farmland", "closest_distance_restriction": 4.791188151596218}, {"id": 6624787037, "lat": 53.1557422, "lon": 17.4095825, "way_id": 705252025, "landuse": "farmland", "closest_distance_restriction": 4.768242415722051}, {"id": 6624787038, "lat": 53.1552969, "lon": 17.4089886, "way_id": 705252025, "landuse": "farmland", "closest_distance_restriction": 4.705712030629681}, {"id": 6624787039, "lat": 53.1551411, "lon": 17.4087411, "way_id": 705252025, "landuse": "farmland", "closest_distance_restriction": 4.682555476464305}, {"id": 6624787040, "lat": 53.1551337, "lon": 17.4084565, "way_id": 705252025, "landuse": "farmland", "closest_distance_restriction": 4.672664149651061}, {"id": 6624787041, "lat": 53.1552747, "lon": 17.4080234, "way_id": 705252025, "landuse": "farmland", "closest_distance_restriction": 4.67260664021595}, {"id": 6624787042, "lat": 53.1560019, "lon": 17.4071819, "way_id": 705252025, "landuse": "farmland", "closest_distance_restriction": 4.717871602400595}, {"id": 7281040855, "lat": 53.1606573, "lon": 17.5371559, "way_id": 779708735, "landuse": "farmland", "closest_distance_restriction": 1.6857692148752352}, {"id": 7281040856, "lat": 53.1576614, "lon": 17.541844, "way_id": 779708735, "landuse": "farmland", "closest_distance_restriction": 1.589802726975111}, {"id": 7281040929, "lat": 53.1717434, "lon": 17.49512, "way_id": 779708739, "landuse": "farmland", "closest_distance_restriction": 2.193183639619963}, {"id": 7281040930, "lat": 53.1702476, "lon": 17.4896226, "way_id": 779708739, "landuse": "farmland", "closest_distance_restriction": 1.9519363121192714}, {"id": 7281040931, "lat": 53.1678744, "lon": 17.4907953, "way_id": 779708739, "landuse": "farmland", "closest_distance_restriction": 1.7056930566845443}, {"id": 7281040932, "lat": 53.1681387, "lon": 17.4937316, "way_id": 779708739, "landuse": "farmland", "closest_distance_restriction": 1.7818258472386939}, {"id": 7281040933, "lat": 53.1687517, "lon": 17.496499, "way_id": 779708739, "landuse": "farmland", "closest_distance_restriction": 1.8981461977707381}, {"id": 7281040934, "lat": 53.1711529, "lon": 17.4968743, "way_id": 779708739, "landuse": "farmland", "closest_distance_restriction": 2.1602273366677074}, {"id": 7281040935, "lat": 53.1711473, "lon": 17.4952889, "way_id": 779708739, "landuse": "farmland", "closest_distance_restriction": 2.131468851684716}, {"id": 7283064232, "lat": 53.1607931, "lon": 17.6345596, "way_id": 779980049, "landuse": "farmland", "closest_distance_restriction": 1.6211220995074827}, {"id": 7283064233, "lat": 53.1597875, "lon": 17.6349116, "way_id": 779980049, "landuse": "farmland", "closest_distance_restriction": 1.595323807729992}, {"id": 7283064234, "lat": 53.1597453, "lon": 17.634534, "way_id": 779980049, "landuse": "farmland", "closest_distance_restriction": 1.5703177733756672}, {"id": 7283064257, "lat": 53.1675265, "lon": 17.6206838, "way_id": 779980050, "landuse": "farmland", "closest_distance_restriction": 1.5706542319018986}, {"id": 7283064258, "lat": 53.1675934, "lon": 17.6202842, "way_id": 779980050, "landuse": "farmland", "closest_distance_restriction": 1.5690835484660226}, {"id": 7283064259, "lat": 53.1686686, "lon": 17.6187879, "way_id": 779980050, "landuse": "farmland", "closest_distance_restriction": 1.656443058433477}, {"id": 7283064260, "lat": 53.1702452, "lon": 17.6162601, "way_id": 779980050, "landuse": "farmland", "closest_distance_restriction": 1.7911439774434552}, {"id": 7283064261, "lat": 53.1703733, "lon": 17.6177657, "way_id": 779980050, "landuse": "farmland", "closest_distance_restriction": 1.8277193168244876}, {"id": 7283064262, "lat": 53.1700725, "lon": 17.6180909, "way_id": 779980050, "landuse": "farmland", "closest_distance_restriction": 1.798884435567352}, {"id": 7283064263, "lat": 53.1694653, "lon": 17.6191876, "way_id": 779980050, "landuse": "farmland", "closest_distance_restriction": 1.7488342881687116}, {"id": 7283064264, "lat": 53.1696213, "lon": 17.6196243, "way_id": 779980050, "landuse": "farmland", "closest_distance_restriction": 1.7728414154994008}, {"id": 7283064265, "lat": 53.1704513, "lon": 17.6191318, "way_id": 779980050, "landuse": "farmland", "closest_distance_restriction": 1.8545956562416652}, {"id": 7283064266, "lat": 53.1705404, "lon": 17.6219756, "way_id": 779980050, "landuse": "farmland", "closest_distance_restriction": 1.9156101895405857}, {"id": 7283064267, "lat": 53.170663, "lon": 17.6235833, "way_id": 779980050, "landuse": "farmland", "closest_distance_restriction": 1.9649030837534835}, {"id": 7283064268, "lat": 53.170858, "lon": 17.6252004, "way_id": 779980050, "landuse": "farmland", "closest_distance_restriction": 2.0263906657473725}, {"id": 7283064269, "lat": 53.1712312, "lon": 17.6268918, "way_id": 779980050, "landuse": "farmland", "closest_distance_restriction": 2.111810811408547}, {"id": 7283064270, "lat": 53.1716045, "lon": 17.6279234, "way_id": 779980050, "landuse": "farmland", "closest_distance_restriction": 2.1798960636291618}, {"id": 7283064271, "lat": 53.1718953, "lon": 17.6285028, "way_id": 779980050, "landuse": "farmland", "closest_distance_restriction": 2.226463798144591}, {"id": 7283064272, "lat": 53.1723957, "lon": 17.629358, "way_id": 779980050, "landuse": "farmland", "closest_distance_restriction": 2.302442826634123}, {"id": 7283064273, "lat": 53.1731951, "lon": 17.6306916, "way_id": 779980050, "landuse": "farmland", "closest_distance_restriction": 2.4232446381246797}, {"id": 7283064274, "lat": 53.1732927, "lon": 17.6310276, "way_id": 779980050, "landuse": "farmland", "closest_distance_restriction": 2.4437242505528003}, {"id": 7283064275, "lat": 53.1730792, "lon": 17.6312312, "way_id": 779980050, "landuse": "farmland", "closest_distance_restriction": 2.429937167477488}, {"id": 7283064276, "lat": 53.1729388, "lon": 17.6323816, "way_id": 779980050, "landuse": "farmland", "closest_distance_restriction": 2.456193467563389}, {"id": 7283064277, "lat": 53.1733354, "lon": 17.6341327, "way_id": 779980050, "landuse": "farmland", "closest_distance_restriction": 2.5565302694671255}, {"id": 7283064278, "lat": 53.1739701, "lon": 17.6337254, "way_id": 779980050, "landuse": "farmland", "closest_distance_restriction": 2.6009440417578906}, {"id": 7283064279, "lat": 53.1741226, "lon": 17.6343057, "way_id": 779980050, "landuse": "farmland", "closest_distance_restriction": 2.6360559022533616}, {"id": 7283064280, "lat": 53.1749586, "lon": 17.6363113, "way_id": 779980050, "landuse": "farmland", "closest_distance_restriction": 2.7873230595938856}, {"id": 7283064281, "lat": 53.1731097, "lon": 17.6364131, "way_id": 779980050, "landuse": "farmland", "closest_distance_restriction": 2.6236798441837115}, {"id": 7283064282, "lat": 53.1720051, "lon": 17.6367898, "way_id": 779980050, "landuse": "farmland", "closest_distance_restriction": 2.5420013128208274}, {"id": 7283064283, "lat": 53.1708274, "lon": 17.6369629, "way_id": 779980050, "landuse": "farmland", "closest_distance_restriction": 2.448955907909971}, {"id": 7283064284, "lat": 53.1678736, "lon": 17.6372174, "way_id": 779980050, "landuse": "farmland", "closest_distance_restriction": 2.2238940282719417}, {"id": 7283075985, "lat": 53.165823, "lon": 17.6373701, "way_id": 779980050, "landuse": "farmland", "closest_distance_restriction": 2.082691453551503}, {"id": 7283075986, "lat": 53.1635159, "lon": 17.6378282, "way_id": 779980050, "landuse": "farmland", "closest_distance_restriction": 1.9598848061142067}, {"id": 7283075987, "lat": 53.1615199, "lon": 17.6384187, "way_id": 779980050, "landuse": "farmland", "closest_distance_restriction": 1.887665266015706}, {"id": 7283075988, "lat": 53.1614955, "lon": 17.6364335, "way_id": 779980050, "landuse": "farmland", "closest_distance_restriction": 1.7679155191563556}, {"id": 7283075989, "lat": 53.1608973, "lon": 17.6352831, "way_id": 779980050, "landuse": "farmland", "closest_distance_restriction": 1.6694241058988522}, {"id": 7403573383, "lat": 53.1356693, "lon": 17.7312216, "way_id": 561585386, "landuse": "farmland", "closest_distance_restriction": 1.6654740486050146}]}