{"nodes": [{"id": 371827498, "lat": 50.8000335, "lon": 22.8168076, "way_id": 254364246, "landuse": "farmland", "closest_distance_restriction": 5.299872393151391}, {"id": 371870814, "lat": 50.799781, "lon": 22.7894502, "way_id": 254364246, "landuse": "farmland", "closest_distance_restriction": 3.7234885909772193}, {"id": 371873167, "lat": 50.8474663, "lon": 22.675077, "way_id": 254364246, "landuse": "farmland", "closest_distance_restriction": 4.103724597054614}, {"id": 372070365, "lat": 50.85837, "lon": 22.66203, "way_id": 202306354, "landuse": "meadow", "closest_distance_restriction": 3.7305928480285737}, {"id": 1633408470, "lat": 50.7997931, "lon": 22.7887056, "way_id": 254364246, "landuse": "farmland", "closest_distance_restriction": 3.683756399411666}, {"id": 1805304859, "lat": 50.8731381, "lon": 22.7230308, "way_id": 313866110, "landuse": "farmland", "closest_distance_restriction": 1.6094880038971007}, {"id": 1805305309, "lat": 50.8645729, "lon": 22.7229235, "way_id": 313866109, "landuse": "farmland", "closest_distance_restriction": 2.2257474245031736}, {"id": 1805305494, "lat": 50.8665224, "lon": 22.7238365, "way_id": 313866109, "landuse": "farmland", "closest_distance_restriction": 2.106078853469019}, {"id": 1805343480, "lat": 50.8737522, "lon": 22.7273253, "way_id": 313866110, "landuse": "farmland", "closest_distance_restriction": 1.850509864994348}, {"id": 1805881571, "lat": 50.7883651, "lon": 22.8393419, "way_id": 254364246, "landuse": "farmland", "closest_distance_restriction": 7.316583044592411}, {"id": 1805881573, "lat": 50.7888855, "lon": 22.8385471, "way_id": 254364246, "landuse": "farmland", "closest_distance_restriction": 7.238961277672828}, {"id": 1805881574, "lat": 50.7890846, "lon": 22.8365257, "way_id": 254364246, "landuse": "farmland", "closest_distance_restriction": 7.105697510009612}, {"id": 1805881667, "lat": 50.8563559, "lon": 22.6655018, "way_id": 202306354, "landuse": "meadow", "closest_distance_restriction": 3.7034729128675674}, {"id": 1805881670, "lat": 50.8573177, "lon": 22.6556377, "way_id": 202306354, "landuse": "meadow", "closest_distance_restriction": 4.153708097999082}, {"id": 1811371622, "lat": 50.8247264, "lon": 22.7185544, "way_id": 254364246, "landuse": "farmland", "closest_distance_restriction": 1.7756346307305677}, {"id": 1883002881, "lat": 50.7933695, "lon": 22.8260763, "way_id": 254364246, "landuse": "farmland", "closest_distance_restriction": 6.2306974813820775}, {"id": 1883002883, "lat": 50.7930254, "lon": 22.8268166, "way_id": 254364246, "landuse": "farmland", "closest_distance_restriction": 6.294997277120002}, {"id": 1891109193, "lat": 50.7986015, "lon": 22.8205617, "way_id": 254364246, "landuse": "farmland", "closest_distance_restriction": 5.607493262845382}, {"id": 2048377122, "lat": 50.7927067, "lon": 22.8204763, "way_id": 254364246, "landuse": "farmland", "closest_distance_restriction": 5.936647564049442}, {"id": 2103265901, "lat": 50.8584293, "lon": 22.6606614, "way_id": 202306354, "landuse": "meadow", "closest_distance_restriction": 3.8003237806992116}, {"id": 2122661735, "lat": 50.8548895, "lon": 22.6708542, "way_id": 202306357, "landuse": "meadow", "closest_distance_restriction": 3.575267281814358}, {"id": 2122753867, "lat": 50.8450582, "lon": 22.6818255, "way_id": 254364246, "landuse": "farmland", "closest_distance_restriction": 4.1522344551044075}, {"id": 2122753868, "lat": 50.8454046, "lon": 22.6836542, "way_id": 254364246, "landuse": "farmland", "closest_distance_restriction": 4.072384916242468}, {"id": 2122753869, "lat": 50.8456067, "lon": 22.6840886, "way_id": 254364246, "landuse": "farmland", "closest_distance_restriction": 4.041223165560998}, {"id": 2122753870, "lat": 50.8459675, "lon": 22.6830371, "way_id": 254364246, "landuse": "farmland", "closest_distance_restriction": 4.0278942131106605}, {"id": 2122753871, "lat": 50.8460974, "lon": 22.6848429, "way_id": 254364246, "landuse": "farmland", "closest_distance_restriction": 3.9726341158719096}, {"id": 2122753872, "lat": 50.8461479, "lon": 22.6826256, "way_id": 254364246, "landuse": "farmland", "closest_distance_restriction": 4.019059118918435}, {"id": 2122753873, "lat": 50.846249, "lon": 22.6811969, "way_id": 254364246, "landuse": "farmland", "closest_distance_restriction": 4.044785462522871}, {"id": 2122753874, "lat": 50.8465532, "lon": 22.6800037, "way_id": 254364246, "landuse": "farmland", "closest_distance_restriction": 4.045581137168429}, {"id": 2122753876, "lat": 50.846985, "lon": 22.6844315, "way_id": 202306357, "landuse": "meadow", "closest_distance_restriction": 3.888474872045437}, {"id": 2122753877, "lat": 50.8470005, "lon": 22.6746527, "way_id": 254364246, "landuse": "farmland", "closest_distance_restriction": 4.163446423679357}, {"id": 2122753878, "lat": 50.8472319, "lon": 22.6740959, "way_id": 202306357, "landuse": "meadow", "closest_distance_restriction": 4.159468940389219}, {"id": 2122753880, "lat": 50.8473799, "lon": 22.6734655, "way_id": 202306357, "landuse": "meadow", "closest_distance_restriction": 4.166630151762808}, {"id": 2122753881, "lat": 50.8478646, "lon": 22.676278, "way_id": 254364246, "landuse": "farmland", "closest_distance_restriction": 4.025266010063443}, {"id": 2122753883, "lat": 50.8480459, "lon": 22.6841457, "way_id": 202306357, "landuse": "meadow", "closest_distance_restriction": 3.784106703686957}, {"id": 2122753884, "lat": 50.8481027, "lon": 22.6757006, "way_id": 254364246, "landuse": "farmland", "closest_distance_restriction": 4.020680535595601}, {"id": 2122753887, "lat": 50.8485294, "lon": 22.6832314, "way_id": 202306357, "landuse": "meadow", "closest_distance_restriction": 3.75646361138492}, {"id": 2122753888, "lat": 50.8485484, "lon": 22.6746697, "way_id": 202306357, "landuse": "meadow", "closest_distance_restriction": 4.0119348668644585}, {"id": 2122753890, "lat": 50.8493159, "lon": 22.6799054, "way_id": 202306357, "landuse": "meadow", "closest_distance_restriction": 3.7679329865861875}, {"id": 2122753893, "lat": 50.8494314, "lon": 22.6784424, "way_id": 202306357, "landuse": "meadow", "closest_distance_restriction": 3.8010838959671576}, {"id": 2122753894, "lat": 50.8494362, "lon": 22.6728836, "way_id": 202306357, "landuse": "meadow", "closest_distance_restriction": 3.990330342774901}, {"id": 2122753895, "lat": 50.8495974, "lon": 22.6787853, "way_id": 202306357, "landuse": "meadow", "closest_distance_restriction": 3.7738360472727392}, {"id": 2122753896, "lat": 50.8498365, "lon": 22.6775355, "way_id": 202306357, "landuse": "meadow", "closest_distance_restriction": 3.79002666085397}, {"id": 2122753903, "lat": 50.8506529, "lon": 22.6759797, "way_id": 202306357, "landuse": "meadow", "closest_distance_restriction": 3.7630133771646177}, {"id": 2122753908, "lat": 50.8508965, "lon": 22.6631964, "way_id": 202306354, "landuse": "meadow", "closest_distance_restriction": 4.260068495978397}, {"id": 2122753909, "lat": 50.8509398, "lon": 22.6660538, "way_id": 202306354, "landuse": "meadow", "closest_distance_restriction": 4.128748949442409}, {"id": 2122753911, "lat": 50.8509759, "lon": 22.6622592, "way_id": 202306354, "landuse": "meadow", "closest_distance_restriction": 4.296475736835279}, {"id": 2122753912, "lat": 50.8509975, "lon": 22.6656652, "way_id": 202306354, "landuse": "meadow", "closest_distance_restriction": 4.14077032099639}, {"id": 2122753914, "lat": 50.8511779, "lon": 22.6618935, "way_id": 202306354, "landuse": "meadow", "closest_distance_restriction": 4.296665060849656}, {"id": 2122753922, "lat": 50.8516181, "lon": 22.6587961, "way_id": 202306354, "landuse": "meadow", "closest_distance_restriction": 4.409167286932876}, {"id": 2122753926, "lat": 50.8517397, "lon": 22.6738461, "way_id": 202306357, "landuse": "meadow", "closest_distance_restriction": 3.7375027707269406}, {"id": 2122753930, "lat": 50.8520589, "lon": 22.667493, "way_id": 202306357, "landuse": "meadow", "closest_distance_restriction": 3.9684693928688515}, {"id": 2122753931, "lat": 50.8520799, "lon": 22.6573445, "way_id": 202306354, "landuse": "meadow", "closest_distance_restriction": 4.444840404414039}, {"id": 2122753932, "lat": 50.852116, "lon": 22.657596, "way_id": 202306354, "landuse": "meadow", "closest_distance_restriction": 4.429417685774166}, {"id": 2122753940, "lat": 50.8523928, "lon": 22.6726904, "way_id": 202306357, "landuse": "meadow", "closest_distance_restriction": 3.7218465044666957}, {"id": 2122753942, "lat": 50.8525489, "lon": 22.6588647, "way_id": 202306354, "landuse": "meadow", "closest_distance_restriction": 4.332226341072948}, {"id": 2122753943, "lat": 50.8526046, "lon": 22.6724964, "way_id": 202306357, "landuse": "meadow", "closest_distance_restriction": 3.7101866350957584}, {"id": 2122753945, "lat": 50.85265, "lon": 22.6633793, "way_id": 202306354, "landuse": "meadow", "closest_distance_restriction": 4.105195426629387}, {"id": 2122753949, "lat": 50.8528736, "lon": 22.6600305, "way_id": 202306354, "landuse": "meadow", "closest_distance_restriction": 4.24885400853353}, {"id": 2122753950, "lat": 50.852953, "lon": 22.6623964, "way_id": 202306354, "landuse": "meadow", "closest_distance_restriction": 4.1271959640969325}, {"id": 2122753951, "lat": 50.852977, "lon": 22.6720438, "way_id": 202306357, "landuse": "meadow", "closest_distance_restriction": 3.694626740160773}, {"id": 2122753954, "lat": 50.8530035, "lon": 22.6598133, "way_id": 202306354, "landuse": "meadow", "closest_distance_restriction": 4.249377208053402}, {"id": 2122753960, "lat": 50.8531202, "lon": 22.6716147, "way_id": 202306357, "landuse": "meadow", "closest_distance_restriction": 3.6993348754834634}, {"id": 2122753962, "lat": 50.8531479, "lon": 22.6719064, "way_id": 202306357, "landuse": "meadow", "closest_distance_restriction": 3.684819564994294}, {"id": 2122753968, "lat": 50.8533061, "lon": 22.6718943, "way_id": 202306357, "landuse": "meadow", "closest_distance_restriction": 3.6710724404978494}, {"id": 2122753978, "lat": 50.8537539, "lon": 22.6630364, "way_id": 202306354, "landuse": "meadow", "closest_distance_restriction": 4.031614676148489}, {"id": 2122753981, "lat": 50.8538804, "lon": 22.6712106, "way_id": 202306357, "landuse": "meadow", "closest_distance_restriction": 3.6484293285854945}, {"id": 2122753989, "lat": 50.8541796, "lon": 22.6536528, "way_id": 202306354, "landuse": "meadow", "closest_distance_restriction": 4.480546035756199}, {"id": 2122753990, "lat": 50.8541939, "lon": 22.6716259, "way_id": 202306357, "landuse": "meadow", "closest_distance_restriction": 3.603037171902026}, {"id": 2122753995, "lat": 50.854526, "lon": 22.65403, "way_id": 202306354, "landuse": "meadow", "closest_distance_restriction": 4.435546476051623}, {"id": 2122754001, "lat": 50.8547424, "lon": 22.6537099, "way_id": 202306354, "landuse": "meadow", "closest_distance_restriction": 4.437572539638448}, {"id": 2122754003, "lat": 50.8547569, "lon": 22.6608762, "way_id": 202306354, "landuse": "meadow", "closest_distance_restriction": 4.059677569891703}, {"id": 2122754009, "lat": 50.8551429, "lon": 22.6710705, "way_id": 202306357, "landuse": "meadow", "closest_distance_restriction": 3.5437799452964867}, {"id": 2122754043, "lat": 50.8571471, "lon": 22.6535514, "way_id": 202306399, "landuse": "meadow", "closest_distance_restriction": 4.28217334929976}, {"id": 2122754049, "lat": 50.8572191, "lon": 22.6536628, "way_id": 202306399, "landuse": "meadow", "closest_distance_restriction": 4.27112786994773}, {"id": 2122754054, "lat": 50.8573111, "lon": 22.652855, "way_id": 202306399, "landuse": "meadow", "closest_distance_restriction": 4.310890910277247}, {"id": 2122754056, "lat": 50.8573414, "lon": 22.6538814, "way_id": 202306399, "landuse": "meadow", "closest_distance_restriction": 4.250707609476367}, {"id": 2122754057, "lat": 50.8573413, "lon": 22.6546918, "way_id": 202306399, "landuse": "meadow", "closest_distance_restriction": 4.205056027560392}, {"id": 2122754058, "lat": 50.8573522, "lon": 22.6541957, "way_id": 202306399, "landuse": "meadow", "closest_distance_restriction": 4.23225230939657}, {"id": 2122754066, "lat": 50.8575184, "lon": 22.6545448, "way_id": 202306399, "landuse": "meadow", "closest_distance_restriction": 4.201561663516279}, {"id": 2122754067, "lat": 50.8575292, "lon": 22.6548974, "way_id": 202306399, "landuse": "meadow", "closest_distance_restriction": 4.180985943637048}, {"id": 2122754070, "lat": 50.8575689, "lon": 22.6546911, "way_id": 202306399, "landuse": "meadow", "closest_distance_restriction": 4.189968265427635}, {"id": 2122754079, "lat": 50.8576693, "lon": 22.6519312, "way_id": 202306399, "landuse": "meadow", "closest_distance_restriction": 4.340684897423186}, {"id": 2122754098, "lat": 50.8583491, "lon": 22.6507341, "way_id": 202306399, "landuse": "meadow", "closest_distance_restriction": 4.367682471533632}, {"id": 2122754108, "lat": 50.8585639, "lon": 22.6575525, "way_id": 202306354, "landuse": "meadow", "closest_distance_restriction": 3.962862800931859}, {"id": 2122754119, "lat": 50.85871, "lon": 22.6504856, "way_id": 202306399, "landuse": "meadow", "closest_distance_restriction": 4.360302192888138}, {"id": 2122754135, "lat": 50.8590029, "lon": 22.6529726, "way_id": 202306399, "landuse": "meadow", "closest_distance_restriction": 4.1966099636028655}, {"id": 2122754150, "lat": 50.8591437, "lon": 22.6524897, "way_id": 202306399, "landuse": "meadow", "closest_distance_restriction": 4.216165089246407}, {"id": 2122754151, "lat": 50.8591777, "lon": 22.652283, "way_id": 202306399, "landuse": "meadow", "closest_distance_restriction": 4.226209533353148}, {"id": 2122754164, "lat": 50.8593244, "lon": 22.6499388, "way_id": 202306399, "landuse": "meadow", "closest_distance_restriction": 4.35609390302249}, {"id": 2122754178, "lat": 50.8594684, "lon": 22.6516098, "way_id": 202306399, "landuse": "meadow", "closest_distance_restriction": 4.248326888352589}, {"id": 2122754221, "lat": 50.8597298, "lon": 22.651324, "way_id": 202306399, "landuse": "meadow", "closest_distance_restriction": 4.249748798324751}, {"id": 2122754228, "lat": 50.8597532, "lon": 22.6494169, "way_id": 202306399, "landuse": "meadow", "closest_distance_restriction": 4.3624169141143385}, {"id": 2122754259, "lat": 50.8600329, "lon": 22.6512648, "way_id": 202306399, "landuse": "meadow", "closest_distance_restriction": 4.23548889170162}, {"id": 2122754338, "lat": 50.860243, "lon": 22.6509567, "way_id": 202306399, "landuse": "meadow", "closest_distance_restriction": 4.241753799851278}, {"id": 2122754357, "lat": 50.8603572, "lon": 22.6508087, "way_id": 202306399, "landuse": "meadow", "closest_distance_restriction": 4.244084079858501}, {"id": 2122754373, "lat": 50.8605271, "lon": 22.648137, "way_id": 202306399, "landuse": "meadow", "closest_distance_restriction": 4.395756436956286}, {"id": 2122754386, "lat": 50.8606866, "lon": 22.6500051, "way_id": 202306399, "landuse": "meadow", "closest_distance_restriction": 4.273616620682513}, {"id": 2122754395, "lat": 50.8607821, "lon": 22.651325, "way_id": 202306399, "landuse": "meadow", "closest_distance_restriction": 4.188680509999596}, {"id": 2122754396, "lat": 50.8607965, "lon": 22.6498643, "way_id": 202306399, "landuse": "meadow", "closest_distance_restriction": 4.275915823835522}, {"id": 2122754397, "lat": 50.8607982, "lon": 22.651743, "way_id": 202306399, "landuse": "meadow", "closest_distance_restriction": 4.162625500970577}, {"id": 2122754403, "lat": 50.8609161, "lon": 22.6515974, "way_id": 202306399, "landuse": "meadow", "closest_distance_restriction": 4.164610499494763}, {"id": 2122754409, "lat": 50.8610187, "lon": 22.6503572, "way_id": 202306399, "landuse": "meadow", "closest_distance_restriction": 4.23357295347694}, {"id": 2122754411, "lat": 50.8610448, "lon": 22.6472837, "way_id": 202306399, "landuse": "meadow", "closest_distance_restriction": 4.41958453104523}, {"id": 2122754415, "lat": 50.8611116, "lon": 22.6509181, "way_id": 202306399, "landuse": "meadow", "closest_distance_restriction": 4.194403721953482}, {"id": 2122754432, "lat": 50.8612697, "lon": 22.6491684, "way_id": 202306399, "landuse": "meadow", "closest_distance_restriction": 4.29193413816065}, {"id": 2122754433, "lat": 50.861288, "lon": 22.646915, "way_id": 202306399, "landuse": "meadow", "closest_distance_restriction": 4.429287316519513}, {"id": 2122754439, "lat": 50.8614213, "lon": 22.648895, "way_id": 202306399, "landuse": "meadow", "closest_distance_restriction": 4.300397890093773}, {"id": 2122754442, "lat": 50.8614684, "lon": 22.6496406, "way_id": 202306399, "landuse": "meadow", "closest_distance_restriction": 4.252209590781052}, {"id": 2122754446, "lat": 50.8615155, "lon": 22.6491228, "way_id": 202306399, "landuse": "meadow", "closest_distance_restriction": 4.281331657793317}, {"id": 2122754454, "lat": 50.8617142, "lon": 22.6488204, "way_id": 202306399, "landuse": "meadow", "closest_distance_restriction": 4.2891973129757055}, {"id": 2122754456, "lat": 50.8617821, "lon": 22.648224, "way_id": 202306399, "landuse": "meadow", "closest_distance_restriction": 4.322335564040654}, {"id": 2122754457, "lat": 50.8617838, "lon": 22.6473075, "way_id": 202306399, "landuse": "meadow", "closest_distance_restriction": 4.378926055517919}, {"id": 2122754458, "lat": 50.8617848, "lon": 22.6489364, "way_id": 202306399, "landuse": "meadow", "closest_distance_restriction": 4.278283228668602}, {"id": 2122754461, "lat": 50.8618841, "lon": 22.6488246, "way_id": 202306399, "landuse": "meadow", "closest_distance_restriction": 4.279876394485318}, {"id": 2122754462, "lat": 50.861892, "lon": 22.6480541, "way_id": 202306399, "landuse": "meadow", "closest_distance_restriction": 4.327037931556291}, {"id": 2122754463, "lat": 50.8619678, "lon": 22.6481743, "way_id": 202306399, "landuse": "meadow", "closest_distance_restriction": 4.315621273806959}, {"id": 2122754473, "lat": 50.8620985, "lon": 22.647992, "way_id": 202306399, "landuse": "meadow", "closest_distance_restriction": 4.320084797185278}, {"id": 2122754477, "lat": 50.8621429, "lon": 22.6490068, "way_id": 202306399, "landuse": "meadow", "closest_distance_restriction": 4.254931756463985}, {"id": 2122754478, "lat": 50.8621429, "lon": 22.6492678, "way_id": 202306399, "landuse": "meadow", "closest_distance_restriction": 4.238811334288272}, {"id": 2122754481, "lat": 50.8622318, "lon": 22.6488867, "way_id": 202306399, "landuse": "meadow", "closest_distance_restriction": 4.257686638078776}, {"id": 2122754487, "lat": 50.8623769, "lon": 22.6485001, "way_id": 202306399, "landuse": "meadow", "closest_distance_restriction": 4.274095319605469}, {"id": 2122754492, "lat": 50.8625406, "lon": 22.6478406, "way_id": 202306399, "landuse": "meadow", "closest_distance_restriction": 4.305658890307926}, {"id": 2203966537, "lat": 50.7888575, "lon": 22.8404515, "way_id": 254364246, "landuse": "farmland", "closest_distance_restriction": 7.355929745958961}, {"id": 2203966538, "lat": 50.7890865, "lon": 22.8393656, "way_id": 254364246, "landuse": "farmland", "closest_distance_restriction": 7.277168976660529}, {"id": 2308452687, "lat": 50.813737, "lon": 22.7747976, "way_id": 254364246, "landuse": "farmland", "closest_distance_restriction": 1.977955750070976}, {"id": 2308452688, "lat": 50.8141685, "lon": 22.7732037, "way_id": 254364246, "landuse": "farmland", "closest_distance_restriction": 1.8565985684382542}, {"id": 2308452690, "lat": 50.8145549, "lon": 22.7753408, "way_id": 254364246, "landuse": "farmland", "closest_distance_restriction": 1.971260974467444}, {"id": 2308452701, "lat": 50.8148719, "lon": 22.773665, "way_id": 254364246, "landuse": "farmland", "closest_distance_restriction": 1.8498215298634946}, {"id": 2308452704, "lat": 50.8149872, "lon": 22.773896, "way_id": 254364246, "landuse": "farmland", "closest_distance_restriction": 1.8589482809648668}, {"id": 2308452707, "lat": 50.8155707, "lon": 22.7718532, "way_id": 254364246, "landuse": "farmland", "closest_distance_restriction": 1.7014664780554891}, {"id": 2308452709, "lat": 50.815718, "lon": 22.7714883, "way_id": 254364246, "landuse": "farmland", "closest_distance_restriction": 1.6712941013400164}, {"id": 2308452711, "lat": 50.8159181, "lon": 22.7708726, "way_id": 254364246, "landuse": "farmland", "closest_distance_restriction": 1.622683352057329}, {"id": 2392191352, "lat": 50.8212503, "lon": 22.7858237, "way_id": 254364246, "landuse": "farmland", "closest_distance_restriction": 2.4950942007280954}, {"id": 2392191353, "lat": 50.8213556, "lon": 22.7859472, "way_id": 254364246, "landuse": "farmland", "closest_distance_restriction": 2.5027495571051355}, {"id": 2392191354, "lat": 50.8214504, "lon": 22.7861776, "way_id": 254364246, "landuse": "farmland", "closest_distance_restriction": 2.518043162977185}, {"id": 2392191388, "lat": 50.8292405, "lon": 22.7968682, "way_id": 254364246, "landuse": "farmland", "closest_distance_restriction": 3.329780805435211}, {"id": 2392191394, "lat": 50.830497, "lon": 22.7957019, "way_id": 254364246, "landuse": "farmland", "closest_distance_restriction": 3.2812946607227715}, {"id": 2392191427, "lat": 50.8374953, "lon": 22.790487, "way_id": 254364246, "landuse": "farmland", "closest_distance_restriction": 3.231084362289682}, {"id": 2483379427, "lat": 50.7996931, "lon": 22.8207921, "way_id": 254364246, "landuse": "farmland", "closest_distance_restriction": 5.566371343201821}, {"id": 2483379429, "lat": 50.7997045, "lon": 22.8204011, "way_id": 254364246, "landuse": "farmland", "closest_distance_restriction": 5.541249943517617}, {"id": 2483379432, "lat": 50.7998162, "lon": 22.8178456, "way_id": 254364246, "landuse": "farmland", "closest_distance_restriction": 5.37572545879824}, {"id": 2483379436, "lat": 50.7998844, "lon": 22.8175661, "way_id": 254364246, "landuse": "farmland", "closest_distance_restriction": 5.354800203377057}, {"id": 2483379438, "lat": 50.8000144, "lon": 22.8172544, "way_id": 254364246, "landuse": "farmland", "closest_distance_restriction": 5.328695029523072}, {"id": 2483379440, "lat": 50.8000572, "lon": 22.8170564, "way_id": 254364246, "landuse": "farmland", "closest_distance_restriction": 5.314154316860765}, {"id": 2601570495, "lat": 50.7840743, "lon": 22.828181, "way_id": 254364246, "landuse": "farmland", "closest_distance_restriction": 6.432331028797079}, {"id": 2601570499, "lat": 50.784121, "lon": 22.8286186, "way_id": 254364246, "landuse": "farmland", "closest_distance_restriction": 6.458920202413693}, {"id": 2601570502, "lat": 50.7844062, "lon": 22.828181, "way_id": 254364246, "landuse": "farmland", "closest_distance_restriction": 6.4566993212786965}, {"id": 2601570505, "lat": 50.7844892, "lon": 22.8276561, "way_id": 254364246, "landuse": "farmland", "closest_distance_restriction": 6.43522349334924}, {"id": 2601570508, "lat": 50.7848418, "lon": 22.8277217, "way_id": 254364246, "landuse": "farmland", "closest_distance_restriction": 6.464812913663019}, {"id": 2601570511, "lat": 50.7849248, "lon": 22.831921, "way_id": 254364246, "landuse": "farmland", "closest_distance_restriction": 6.693238378753394}, {"id": 2601570514, "lat": 50.7850381, "lon": 22.8328861, "way_id": 254364246, "landuse": "farmland", "closest_distance_restriction": 6.75320606677784}, {"id": 2601570516, "lat": 50.7851633, "lon": 22.827164, "way_id": 254364246, "landuse": "farmland", "closest_distance_restriction": 6.459773214618372}, {"id": 2601570519, "lat": 50.7852152, "lon": 22.8321343, "way_id": 254364246, "landuse": "farmland", "closest_distance_restriction": 6.725582530146093}, {"id": 2601570522, "lat": 50.7856818, "lon": 22.8328724, "way_id": 254364246, "landuse": "farmland", "closest_distance_restriction": 6.798731985663543}, {"id": 2601570525, "lat": 50.7857851, "lon": 22.8294113, "way_id": 254364246, "landuse": "farmland", "closest_distance_restriction": 6.623270008254752}, {"id": 2601570529, "lat": 50.78591, "lon": 22.8251299, "way_id": 254364246, "landuse": "farmland", "closest_distance_restriction": 6.412175105030273}, {"id": 2601570531, "lat": 50.7860389, "lon": 22.8349803, "way_id": 254364246, "landuse": "farmland", "closest_distance_restriction": 6.937518672879877}, {"id": 2601570533, "lat": 50.7860552, "lon": 22.8226694, "way_id": 254364246, "landuse": "farmland", "closest_distance_restriction": 6.299963279518119}, {"id": 2601570537, "lat": 50.7861372, "lon": 22.8200678, "way_id": 254364246, "landuse": "farmland", "closest_distance_restriction": 6.178663885380205}, {"id": 2601570540, "lat": 50.7862108, "lon": 22.8239653, "way_id": 254364246, "landuse": "farmland", "closest_distance_restriction": 6.376798993254612}, {"id": 2601570543, "lat": 50.7862108, "lon": 22.8345948, "way_id": 254364246, "landuse": "farmland", "closest_distance_restriction": 6.929091649301758}, {"id": 2601570545, "lat": 50.7863663, "lon": 22.8224397, "way_id": 254364246, "landuse": "farmland", "closest_distance_restriction": 6.3131291380990575}, {"id": 2601570548, "lat": 50.7865011, "lon": 22.8256548, "way_id": 254364246, "landuse": "farmland", "closest_distance_restriction": 6.4843515075664095}, {"id": 2601570551, "lat": 50.7866982, "lon": 22.8233255, "way_id": 254364246, "landuse": "farmland", "closest_distance_restriction": 6.3831698574391496}, {"id": 2601570554, "lat": 50.7868952, "lon": 22.8246214, "way_id": 254364246, "landuse": "farmland", "closest_distance_restriction": 6.46309789694237}, {"id": 2601570556, "lat": 50.7871026, "lon": 22.8362024, "way_id": 254364246, "landuse": "farmland", "closest_distance_restriction": 7.079416896588294}, {"id": 2601570557, "lat": 50.7873204, "lon": 22.8205041, "way_id": 254364246, "landuse": "farmland", "closest_distance_restriction": 6.288150682451897}, {"id": 2601570559, "lat": 50.7874656, "lon": 22.8355626, "way_id": 254364246, "landuse": "farmland", "closest_distance_restriction": 7.07140952510276}, {"id": 2601570561, "lat": 50.7877871, "lon": 22.8201924, "way_id": 254364246, "landuse": "farmland", "closest_distance_restriction": 6.238999189062915}, {"id": 2601570563, "lat": 50.7877853, "lon": 22.8391848, "way_id": 254364246, "landuse": "farmland", "closest_distance_restriction": 7.288912176253519}, {"id": 2601570569, "lat": 50.7882122, "lon": 22.8346933, "way_id": 254364246, "landuse": "farmland", "closest_distance_restriction": 7.047226254405473}, {"id": 2601570572, "lat": 50.788793, "lon": 22.8340043, "way_id": 254364246, "landuse": "farmland", "closest_distance_restriction": 6.971803829888073}, {"id": 2601570575, "lat": 50.7890211, "lon": 22.8332169, "way_id": 254364246, "landuse": "farmland", "closest_distance_restriction": 6.911445741127174}, {"id": 2601570579, "lat": 50.7890522, "lon": 22.8229482, "way_id": 254364246, "landuse": "farmland", "closest_distance_restriction": 6.31027701712096}, {"id": 2601570582, "lat": 50.7896537, "lon": 22.8226366, "way_id": 254364246, "landuse": "farmland", "closest_distance_restriction": 6.253631690828146}, {"id": 2601570586, "lat": 50.789944, "lon": 22.8197331, "way_id": 254364246, "landuse": "farmland", "closest_distance_restriction": 6.069050809714769}, {"id": 2601570588, "lat": 50.7903672, "lon": 22.8407322, "way_id": 254364246, "landuse": "farmland", "closest_distance_restriction": 7.290163853139889}, {"id": 2601570601, "lat": 50.7901203, "lon": 22.8181748, "way_id": 254364246, "landuse": "farmland", "closest_distance_restriction": 5.9692223900468475}, {"id": 2601570604, "lat": 50.7901929, "lon": 22.821964, "way_id": 254364246, "landuse": "farmland", "closest_distance_restriction": 6.180447246752633}, {"id": 2601570608, "lat": 50.7904418, "lon": 22.833381, "way_id": 254364246, "landuse": "farmland", "closest_distance_restriction": 6.838468484241762}, {"id": 2601570612, "lat": 50.7905247, "lon": 22.8166656, "way_id": 254364246, "landuse": "farmland", "closest_distance_restriction": 5.857307133882005}, {"id": 2601570616, "lat": 50.790981, "lon": 22.8418741, "way_id": 254364246, "landuse": "farmland", "closest_distance_restriction": 7.327956091474802}, {"id": 2601570618, "lat": 50.7905351, "lon": 22.8201596, "way_id": 254364246, "landuse": "farmland", "closest_distance_restriction": 6.054918999170482}, {"id": 2601570627, "lat": 50.791064, "lon": 22.8295753, "way_id": 254364246, "landuse": "farmland", "closest_distance_restriction": 6.574032390297382}, {"id": 2601570631, "lat": 50.7913543, "lon": 22.8154354, "way_id": 254364246, "landuse": "farmland", "closest_distance_restriction": 5.732823868492001}, {"id": 2601570633, "lat": 50.7913854, "lon": 22.8342175, "way_id": 254364246, "landuse": "farmland", "closest_distance_restriction": 6.835837740887195}, {"id": 2601570636, "lat": 50.7914425, "lon": 22.8425096, "way_id": 254364246, "landuse": "farmland", "closest_distance_restriction": 7.343349752112684}, {"id": 2601570649, "lat": 50.7915099, "lon": 22.8299526, "way_id": 254364246, "landuse": "farmland", "closest_distance_restriction": 6.570777516616699}, {"id": 2601570656, "lat": 50.7915306, "lon": 22.8279349, "way_id": 254364246, "landuse": "farmland", "closest_distance_restriction": 6.448687480975385}, {"id": 2601570705, "lat": 50.7916861, "lon": 22.8346276, "way_id": 254364246, "landuse": "farmland", "closest_distance_restriction": 6.84420911671925}, {"id": 2601570717, "lat": 50.7917691, "lon": 22.8415336, "way_id": 254364246, "landuse": "farmland", "closest_distance_restriction": 7.265726791288492}, {"id": 2601570816, "lat": 50.7921942, "lon": 22.8336106, "way_id": 254364246, "landuse": "farmland", "closest_distance_restriction": 6.75414726453004}, {"id": 2601570822, "lat": 50.7922461, "lon": 22.8262126, "way_id": 254364246, "landuse": "farmland", "closest_distance_restriction": 6.303871383752889}, {"id": 2601570833, "lat": 50.7924224, "lon": 22.8444206, "way_id": 254364246, "landuse": "farmland", "closest_distance_restriction": 7.413322328936101}, {"id": 2601570835, "lat": 50.7924327, "lon": 22.8313797, "way_id": 254364246, "landuse": "farmland", "closest_distance_restriction": 6.604863606563774}, {"id": 2601570841, "lat": 50.7924535, "lon": 22.8240309, "way_id": 254364246, "landuse": "farmland", "closest_distance_restriction": 6.161705939001757}, {"id": 2601570843, "lat": 50.7924949, "lon": 22.8145168, "way_id": 254364246, "landuse": "farmland", "closest_distance_restriction": 5.605674943291085}, {"id": 2601570851, "lat": 50.7925675, "lon": 22.8339387, "way_id": 254364246, "landuse": "farmland", "closest_distance_restriction": 6.75391641431911}, {"id": 2601570868, "lat": 50.792692, "lon": 22.8431083, "way_id": 254364246, "landuse": "farmland", "closest_distance_restriction": 7.317404480671181}, {"id": 2601570879, "lat": 50.7928164, "lon": 22.8448963, "way_id": 254364246, "landuse": "farmland", "closest_distance_restriction": 7.423916626539241}, {"id": 2601570890, "lat": 50.7929097, "lon": 22.8375639, "way_id": 254364246, "landuse": "farmland", "closest_distance_restriction": 6.95974150243208}, {"id": 2601570898, "lat": 50.7929616, "lon": 22.8428623, "way_id": 254364246, "landuse": "farmland", "closest_distance_restriction": 7.288549562596807}, {"id": 2601570901, "lat": 50.793003, "lon": 22.8455525, "way_id": 254364246, "landuse": "farmland", "closest_distance_restriction": 7.456337455883917}, {"id": 2601570916, "lat": 50.793086, "lon": 22.825704, "way_id": 254364246, "landuse": "farmland", "closest_distance_restriction": 6.2245531074003555}, {"id": 2601570928, "lat": 50.7932, "lon": 22.8321179, "way_id": 254364246, "landuse": "farmland", "closest_distance_restriction": 6.60788504921471}, {"id": 2601570935, "lat": 50.7932623, "lon": 22.8418781, "way_id": 254364246, "landuse": "farmland", "closest_distance_restriction": 7.211719426499397}, {"id": 2601570944, "lat": 50.7933348, "lon": 22.8248675, "way_id": 254364246, "landuse": "farmland", "closest_distance_restriction": 6.159939980968397}, {"id": 2601570951, "lat": 50.7933556, "lon": 22.8363992, "way_id": 254364246, "landuse": "farmland", "closest_distance_restriction": 6.864198956467295}, {"id": 2601570954, "lat": 50.7933971, "lon": 22.8461594, "way_id": 254364246, "landuse": "farmland", "closest_distance_restriction": 7.475934881855079}, {"id": 2601570956, "lat": 50.7934696, "lon": 22.8127616, "way_id": 254364246, "landuse": "farmland", "closest_distance_restriction": 5.442182049982806}, {"id": 2601570975, "lat": 50.7935526, "lon": 22.8469796, "way_id": 254364246, "landuse": "farmland", "closest_distance_restriction": 7.5207619239243995}, {"id": 2601570981, "lat": 50.7936529, "lon": 22.8480192, "way_id": 254364246, "landuse": "farmland", "closest_distance_restriction": 7.582376601382361}, {"id": 2601570984, "lat": 50.7936978, "lon": 22.8453064, "way_id": 254364246, "landuse": "farmland", "closest_distance_restriction": 7.407440696341886}, {"id": 2601570991, "lat": 50.7937185, "lon": 22.8440105, "way_id": 254364246, "landuse": "farmland", "closest_distance_restriction": 7.324187634125397}, {"id": 2601571003, "lat": 50.7938015, "lon": 22.8112852, "way_id": 254364246, "landuse": "farmland", "closest_distance_restriction": 5.336536045089189}, {"id": 2601571007, "lat": 50.7938015, "lon": 22.8476193, "way_id": 254364246, "landuse": "farmland", "closest_distance_restriction": 7.549936097539213}, {"id": 2601571013, "lat": 50.7938533, "lon": 22.8410087, "way_id": 254364246, "landuse": "farmland", "closest_distance_restriction": 7.127810238560715}, {"id": 2601571047, "lat": 50.794071, "lon": 22.8457329, "way_id": 254364246, "landuse": "farmland", "closest_distance_restriction": 7.416995851765049}, {"id": 2601571140, "lat": 50.7942058, "lon": 22.8470944, "way_id": 254364246, "landuse": "farmland", "closest_distance_restriction": 7.497685630912693}, {"id": 2601571166, "lat": 50.7942577, "lon": 22.8452408, "way_id": 254364246, "landuse": "farmland", "closest_distance_restriction": 7.376883767853899}, {"id": 2601571172, "lat": 50.7942909, "lon": 22.8490592, "way_id": 254364246, "landuse": "farmland", "closest_distance_restriction": 7.619731740692979}, {"id": 2601571251, "lat": 50.7944547, "lon": 22.8478326, "way_id": 254364246, "landuse": "farmland", "closest_distance_restriction": 7.533581770613872}, {"id": 2601571254, "lat": 50.7944547, "lon": 22.8486036, "way_id": 254364246, "landuse": "farmland", "closest_distance_restriction": 7.58307095843509}, {"id": 2601571274, "lat": 50.7944651, "lon": 22.8463563, "way_id": 254364246, "landuse": "farmland", "closest_distance_restriction": 7.438524169490995}, {"id": 2601571380, "lat": 50.7946413, "lon": 22.8093004, "way_id": 254364246, "landuse": "farmland", "closest_distance_restriction": 5.16880924962489}, {"id": 2601571413, "lat": 50.7947761, "lon": 22.8493089, "way_id": 254364246, "landuse": "farmland", "closest_distance_restriction": 7.614041389755448}, {"id": 2601571416, "lat": 50.7947969, "lon": 22.8466187, "way_id": 254364246, "landuse": "farmland", "closest_distance_restriction": 7.440160724401386}, {"id": 2601571418, "lat": 50.7948072, "lon": 22.8489152, "way_id": 254364246, "landuse": "farmland", "closest_distance_restriction": 7.587298690485543}, {"id": 2601571434, "lat": 50.7948487, "lon": 22.8482919, "way_id": 254364246, "landuse": "farmland", "closest_distance_restriction": 7.545323026073352}, {"id": 2601571470, "lat": 50.7950042, "lon": 22.8480622, "way_id": 254364246, "landuse": "farmland", "closest_distance_restriction": 7.523591831268705}, {"id": 2601571500, "lat": 50.795222, "lon": 22.8471272, "way_id": 254364246, "landuse": "farmland", "closest_distance_restriction": 7.453680215371514}, {"id": 2601571589, "lat": 50.7953982, "lon": 22.8465203, "way_id": 254364246, "landuse": "farmland", "closest_distance_restriction": 7.406746552583453}, {"id": 2601571634, "lat": 50.7955849, "lon": 22.8500635, "way_id": 254364246, "landuse": "farmland", "closest_distance_restriction": 7.6274069100969015}, {"id": 2601571642, "lat": 50.7956264, "lon": 22.806479, "way_id": 254364246, "landuse": "farmland", "closest_distance_restriction": 4.9441971074985736}, {"id": 2601571711, "lat": 50.7958234, "lon": 22.8511133, "way_id": 254364246, "landuse": "farmland", "closest_distance_restriction": 7.685345395803789}, {"id": 2601571714, "lat": 50.7958752, "lon": 22.8505228, "way_id": 254364246, "landuse": "farmland", "closest_distance_restriction": 7.6447844988793365}, {"id": 2601571721, "lat": 50.7959063, "lon": 22.8490136, "way_id": 254364246, "landuse": "farmland", "closest_distance_restriction": 7.5455340453672095}, {"id": 2601571745, "lat": 50.7959581, "lon": 22.8495878, "way_id": 254364246, "landuse": "farmland", "closest_distance_restriction": 7.580552361531422}, {"id": 2601571800, "lat": 50.7960722, "lon": 22.804691, "way_id": 254364246, "landuse": "farmland", "closest_distance_restriction": 4.813864801270283}, {"id": 2601571814, "lat": 50.7960721, "lon": 22.8171846, "way_id": 254364246, "landuse": "farmland", "closest_distance_restriction": 5.540446054756882}, {"id": 2601571875, "lat": 50.796321, "lon": 22.8030834, "way_id": 254364246, "landuse": "farmland", "closest_distance_restriction": 4.707194839850207}, {"id": 2601571978, "lat": 50.7965906, "lon": 22.8187653, "way_id": 254364246, "landuse": "farmland", "closest_distance_restriction": 5.606019600770618}, {"id": 2601572040, "lat": 50.7967461, "lon": 22.8518187, "way_id": 254364246, "landuse": "farmland", "closest_distance_restriction": 7.69294283161608}, {"id": 2601572065, "lat": 50.7968395, "lon": 22.8181092, "way_id": 254364246, "landuse": "farmland", "closest_distance_restriction": 5.552241083846166}, {"id": 2601572068, "lat": 50.7968395, "lon": 22.8512774, "way_id": 254364246, "landuse": "farmland", "closest_distance_restriction": 7.653743923687661}, {"id": 2601572113, "lat": 50.7970365, "lon": 22.8504572, "way_id": 254364246, "landuse": "farmland", "closest_distance_restriction": 7.592081656961794}, {"id": 2601572146, "lat": 50.7973371, "lon": 22.8524256, "way_id": 254364246, "landuse": "farmland", "closest_distance_restriction": 7.70886668992924}, {"id": 2601572153, "lat": 50.7974408, "lon": 22.8518023, "way_id": 254364246, "landuse": "farmland", "closest_distance_restriction": 7.663836372592444}, {"id": 2601572203, "lat": 50.7977311, "lon": 22.7985232, "way_id": 254364246, "landuse": "farmland", "closest_distance_restriction": 4.358106979791762}, {"id": 2601572237, "lat": 50.7978659, "lon": 22.797785, "way_id": 254364246, "landuse": "farmland", "closest_distance_restriction": 4.308214056020568}, {"id": 2601572241, "lat": 50.7978763, "lon": 22.7958166, "way_id": 254364246, "landuse": "farmland", "closest_distance_restriction": 4.2004742873783565}, {"id": 2601572246, "lat": 50.797897, "lon": 22.7969484, "way_id": 254364246, "landuse": "farmland", "closest_distance_restriction": 4.260331348610513}, {"id": 2601572272, "lat": 50.7979592, "lon": 22.7946027, "way_id": 254364246, "landuse": "farmland", "closest_distance_restriction": 4.12940133467558}, {"id": 2601572365, "lat": 50.7985295, "lon": 22.7936677, "way_id": 254364246, "landuse": "farmland", "closest_distance_restriction": 4.038244582542457}, {"id": 2601572499, "lat": 50.798974, "lon": 22.820912, "way_id": 254364246, "landuse": "farmland", "closest_distance_restriction": 5.610150455324799}, {"id": 2601572504, "lat": 50.7990064, "lon": 22.8157142, "way_id": 254364246, "landuse": "farmland", "closest_distance_restriction": 5.286493402841115}, {"id": 2601572539, "lat": 50.7991515, "lon": 22.7929459, "way_id": 254364246, "landuse": "farmland", "closest_distance_restriction": 3.9548008441775684}, {"id": 2601572559, "lat": 50.7992137, "lon": 22.8152221, "way_id": 254364246, "landuse": "farmland", "closest_distance_restriction": 5.245065071408399}, {"id": 2601572566, "lat": 50.7992552, "lon": 22.8203401, "way_id": 254364246, "landuse": "farmland", "closest_distance_restriction": 5.560097891956651}, {"id": 2601572642, "lat": 50.8003956, "lon": 22.7920273, "way_id": 254364246, "landuse": "farmland", "closest_distance_restriction": 3.816718164626974}, {"id": 2601572647, "lat": 50.7998355, "lon": 22.8136973, "way_id": 254364246, "landuse": "farmland", "closest_distance_restriction": 5.117817047076634}, {"id": 2601572651, "lat": 50.8004622, "lon": 22.813469, "way_id": 254364246, "landuse": "farmland", "closest_distance_restriction": 5.070310310413357}, {"id": 2601572658, "lat": 50.8005408, "lon": 22.7884841, "way_id": 254364246, "landuse": "farmland", "closest_distance_restriction": 3.6165945419310583}, {"id": 2601572662, "lat": 50.8005869, "lon": 22.8062341, "way_id": 254364246, "landuse": "farmland", "closest_distance_restriction": 4.621997673117474}, {"id": 2601572669, "lat": 50.8008726, "lon": 22.8146477, "way_id": 254364246, "landuse": "farmland", "closest_distance_restriction": 5.12213729052358}, {"id": 2601572676, "lat": 50.8007423, "lon": 22.8058687, "way_id": 254364246, "landuse": "farmland", "closest_distance_restriction": 4.591081255055154}, {"id": 2601572688, "lat": 50.8007792, "lon": 22.7893535, "way_id": 254364246, "landuse": "farmland", "closest_distance_restriction": 3.645234703983116}, {"id": 2601572691, "lat": 50.8008, "lon": 22.8114165, "way_id": 254364246, "landuse": "farmland", "closest_distance_restriction": 4.925666049985478}, {"id": 2601572694, "lat": 50.8008414, "lon": 22.811236, "way_id": 254364246, "landuse": "farmland", "closest_distance_restriction": 4.912331892394228}, {"id": 2601572698, "lat": 50.8008586, "lon": 22.8070034, "way_id": 254364246, "landuse": "farmland", "closest_distance_restriction": 4.652900126026536}, {"id": 2601572730, "lat": 50.8010442, "lon": 22.7851883, "way_id": 254364246, "landuse": "farmland", "closest_distance_restriction": 3.407961976900695}, {"id": 2601572732, "lat": 50.8009836, "lon": 22.80664, "way_id": 254364246, "landuse": "farmland", "closest_distance_restriction": 4.62384160524947}, {"id": 2601572734, "lat": 50.8010281, "lon": 22.8116953, "way_id": 254364246, "landuse": "farmland", "closest_distance_restriction": 4.930731641057274}, {"id": 2601572736, "lat": 50.8010592, "lon": 22.8140903, "way_id": 254364246, "landuse": "farmland", "closest_distance_restriction": 5.077810284802398}, {"id": 2601572757, "lat": 50.8013287, "lon": 22.7906822, "way_id": 254364246, "landuse": "farmland", "closest_distance_restriction": 3.677923372478117}, {"id": 2601572768, "lat": 50.8015731, "lon": 22.7836161, "way_id": 254364246, "landuse": "farmland", "closest_distance_restriction": 3.2874594976925624}, {"id": 2601572769, "lat": 50.8015568, "lon": 22.7857447, "way_id": 254364246, "landuse": "farmland", "closest_distance_restriction": 3.397861501664933}, {"id": 2601572776, "lat": 50.8016397, "lon": 22.7909611, "way_id": 254364246, "landuse": "farmland", "closest_distance_restriction": 3.671646347487059}, {"id": 2601572807, "lat": 50.8019715, "lon": 22.7904526, "way_id": 254364246, "landuse": "farmland", "closest_distance_restriction": 3.6207393921638507}, {"id": 2601572848, "lat": 50.8025417, "lon": 22.7845309, "way_id": 254364246, "landuse": "farmland", "closest_distance_restriction": 3.261160512896934}, {"id": 2601572987, "lat": 50.8037753, "lon": 22.7802823, "way_id": 254364246, "landuse": "farmland", "closest_distance_restriction": 2.9488576416356156}, {"id": 2601573010, "lat": 50.8040034, "lon": 22.78043, "way_id": 254364246, "landuse": "farmland", "closest_distance_restriction": 2.9389292776727918}, {"id": 2601573041, "lat": 50.8042729, "lon": 22.7959478, "way_id": 254364246, "landuse": "farmland", "closest_distance_restriction": 3.7914365485988726}, {"id": 2601573077, "lat": 50.8051437, "lon": 22.7944059, "way_id": 254364246, "landuse": "farmland", "closest_distance_restriction": 3.648525170717454}, {"id": 2601573091, "lat": 50.80532, "lon": 22.7939794, "way_id": 254364246, "landuse": "farmland", "closest_distance_restriction": 3.6127356635464265}, {"id": 2601573093, "lat": 50.8053303, "lon": 22.7970633, "way_id": 254364246, "landuse": "farmland", "closest_distance_restriction": 3.799324566417802}, {"id": 2601573109, "lat": 50.8054133, "lon": 22.7753284, "way_id": 254364246, "landuse": "farmland", "closest_distance_restriction": 2.57373793886165}, {"id": 2601573140, "lat": 50.8055791, "lon": 22.7963907, "way_id": 254364246, "landuse": "farmland", "closest_distance_restriction": 3.7445664081268633}, {"id": 2601573145, "lat": 50.8056309, "lon": 22.775476, "way_id": 254364246, "landuse": "farmland", "closest_distance_restriction": 2.5635803715461263}, {"id": 2601573146, "lat": 50.8057139, "lon": 22.7942582, "way_id": 254364246, "landuse": "farmland", "closest_distance_restriction": 3.6071770959755933}, {"id": 2601573156, "lat": 50.8059316, "lon": 22.7937005, "way_id": 254364246, "landuse": "farmland", "closest_distance_restriction": 3.5611267319521205}, {"id": 2601573158, "lat": 50.8060041, "lon": 22.7740981, "way_id": 254364246, "landuse": "farmland", "closest_distance_restriction": 2.466533441933689}, {"id": 2601573184, "lat": 50.8062529, "lon": 22.7935037, "way_id": 254364246, "landuse": "farmland", "closest_distance_restriction": 3.531219098073285}, {"id": 2601573203, "lat": 50.8066054, "lon": 22.7924374, "way_id": 254364246, "landuse": "farmland", "closest_distance_restriction": 3.446731575972744}, {"id": 2601573214, "lat": 50.806792, "lon": 22.7717196, "way_id": 254364246, "landuse": "farmland", "closest_distance_restriction": 2.288815115946458}, {"id": 2601573223, "lat": 50.806906, "lon": 22.7708994, "way_id": 254364246, "landuse": "farmland", "closest_distance_restriction": 2.2411477990679716}, {"id": 2601573232, "lat": 50.8070718, "lon": 22.7701941, "way_id": 254364246, "landuse": "farmland", "closest_distance_restriction": 2.1948511635977876}, {"id": 2601573240, "lat": 50.807217, "lon": 22.7710963, "way_id": 254364246, "landuse": "farmland", "closest_distance_restriction": 2.2243908657102245}, {"id": 2601573244, "lat": 50.8072584, "lon": 22.7752792, "way_id": 254364246, "landuse": "farmland", "closest_distance_restriction": 2.4273550354843683}, {"id": 2601573246, "lat": 50.8072688, "lon": 22.7928639, "way_id": 254364246, "landuse": "farmland", "closest_distance_restriction": 3.436672459806896}, {"id": 2601573258, "lat": 50.807445, "lon": 22.769095, "way_id": 254364246, "landuse": "farmland", "closest_distance_restriction": 2.1134508385383906}, {"id": 2601573265, "lat": 50.8075694, "lon": 22.7912236, "way_id": 254364246, "landuse": "farmland", "closest_distance_restriction": 3.319628285087488}, {"id": 2601573269, "lat": 50.807642, "lon": 22.7726546, "way_id": 254364246, "landuse": "farmland", "closest_distance_restriction": 2.2651355169390683}, {"id": 2601573274, "lat": 50.8077042, "lon": 22.7722281, "way_id": 254364246, "landuse": "farmland", "closest_distance_restriction": 2.2391866686647894}, {"id": 2601573293, "lat": 50.8077767, "lon": 22.7737701, "way_id": 254364246, "landuse": "farmland", "closest_distance_restriction": 2.310623770041524}, {"id": 2601573336, "lat": 50.8079011, "lon": 22.7728023, "way_id": 254364246, "landuse": "farmland", "closest_distance_restriction": 2.2521485830556314}, {"id": 2601573347, "lat": 50.8079426, "lon": 22.7905346, "way_id": 254364246, "landuse": "farmland", "closest_distance_restriction": 3.2571552826854027}, {"id": 2601573397, "lat": 50.8081188, "lon": 22.7695543, "way_id": 254364246, "landuse": "farmland", "closest_distance_restriction": 2.077442585570903}, {"id": 2601573430, "lat": 50.8082017, "lon": 22.7906822, "way_id": 254364246, "landuse": "farmland", "closest_distance_restriction": 3.2524328497937565}, {"id": 2601573444, "lat": 50.8082328, "lon": 22.7705221, "way_id": 254364246, "landuse": "farmland", "closest_distance_restriction": 2.1138497115682306}, {"id": 2601573481, "lat": 50.8083054, "lon": 22.7879756, "way_id": 254364246, "landuse": "farmland", "closest_distance_restriction": 3.0807057000473943}, {"id": 2601573644, "lat": 50.8087304, "lon": 22.7870898, "way_id": 254364246, "landuse": "farmland", "closest_distance_restriction": 3.0032088031050206}, {"id": 2601573676, "lat": 50.8089481, "lon": 22.7887302, "way_id": 254364246, "landuse": "farmland", "closest_distance_restriction": 3.0923162130482678}, {"id": 2601573702, "lat": 50.8094871, "lon": 22.7879264, "way_id": 254364246, "landuse": "farmland", "closest_distance_restriction": 3.014305737327866}, {"id": 2601573707, "lat": 50.8097047, "lon": 22.7724742, "way_id": 254364246, "landuse": "farmland", "closest_distance_restriction": 2.098853807640655}, {"id": 2601573708, "lat": 50.8097669, "lon": 22.7712931, "way_id": 254364246, "landuse": "farmland", "closest_distance_restriction": 2.0323590788089794}, {"id": 2601573738, "lat": 50.8106791, "lon": 22.7781662, "way_id": 254364246, "landuse": "farmland", "closest_distance_restriction": 2.354401953680156}, {"id": 2601573812, "lat": 50.8111496, "lon": 22.7786023, "way_id": 254364246, "landuse": "farmland", "closest_distance_restriction": 2.3527248808479397}, {"id": 2601573820, "lat": 50.811415, "lon": 22.7827921, "way_id": 254364246, "landuse": "farmland", "closest_distance_restriction": 2.5953180338453206}, {"id": 2601573832, "lat": 50.8116534, "lon": 22.77336, "way_id": 254364246, "landuse": "farmland", "closest_distance_restriction": 2.0137298891367057}, {"id": 2601573860, "lat": 50.8119022, "lon": 22.7815454, "way_id": 254364246, "landuse": "farmland", "closest_distance_restriction": 2.492649002254301}, {"id": 2601573870, "lat": 50.8121302, "lon": 22.7757057, "way_id": 254364246, "landuse": "farmland", "closest_distance_restriction": 2.122194033527802}, {"id": 2601573876, "lat": 50.8121613, "lon": 22.7818243, "way_id": 254364246, "landuse": "farmland", "closest_distance_restriction": 2.4972110665921186}, {"id": 2601573887, "lat": 50.8123686, "lon": 22.7678647, "way_id": 254364246, "landuse": "farmland", "closest_distance_restriction": 1.6601080636362415}, {"id": 2601573889, "lat": 50.8123686, "lon": 22.7812173, "way_id": 254364246, "landuse": "farmland", "closest_distance_restriction": 2.448765353960989}, {"id": 2601573890, "lat": 50.8123226, "lon": 22.7761157, "way_id": 254364246, "landuse": "farmland", "closest_distance_restriction": 2.1358192164476044}, {"id": 2601573892, "lat": 50.8124204, "lon": 22.7745082, "way_id": 254364246, "landuse": "farmland", "closest_distance_restriction": 2.0336711554381712}, {"id": 2601573905, "lat": 50.8127026, "lon": 22.7746276, "way_id": 254364246, "landuse": "farmland", "closest_distance_restriction": 2.0243982982100426}, {"id": 2601573921, "lat": 50.8128634, "lon": 22.7735067, "way_id": 254364246, "landuse": "farmland", "closest_distance_restriction": 1.9479005847190283}, {"id": 2601573926, "lat": 50.8129283, "lon": 22.7680452, "way_id": 254364246, "landuse": "farmland", "closest_distance_restriction": 1.6300560427653152}, {"id": 2601573946, "lat": 50.8134258, "lon": 22.7818735, "way_id": 254364246, "landuse": "farmland", "closest_distance_restriction": 2.4413431525138045}, {"id": 2601573961, "lat": 50.8136642, "lon": 22.7809877, "way_id": 254364246, "landuse": "farmland", "closest_distance_restriction": 2.3736985838793623}, {"id": 2601573996, "lat": 50.8146384, "lon": 22.7818243, "way_id": 254364246, "landuse": "farmland", "closest_distance_restriction": 2.387963782093303}, {"id": 2601574003, "lat": 50.8148768, "lon": 22.7814798, "way_id": 254364246, "landuse": "farmland", "closest_distance_restriction": 2.3561050969940682}, {"id": 2601574012, "lat": 50.8150907, "lon": 22.7735335, "way_id": 254364246, "landuse": "farmland", "closest_distance_restriction": 1.8310044277321385}, {"id": 2601574025, "lat": 50.8153121, "lon": 22.7820375, "way_id": 254364246, "landuse": "farmland", "closest_distance_restriction": 2.3771318859814663}, {"id": 2601574045, "lat": 50.8157992, "lon": 22.7835795, "way_id": 254364246, "landuse": "farmland", "closest_distance_restriction": 2.464102354806585}, {"id": 2601574068, "lat": 50.8160471, "lon": 22.7706582, "way_id": 254364246, "landuse": "farmland", "closest_distance_restriction": 1.6029712577221626}, {"id": 2601574100, "lat": 50.8165351, "lon": 22.7838419, "way_id": 254364246, "landuse": "farmland", "closest_distance_restriction": 2.459882902271469}, {"id": 2601574120, "lat": 50.8170118, "lon": 22.7839731, "way_id": 254364246, "landuse": "farmland", "closest_distance_restriction": 2.4541159521240754}, {"id": 2601574142, "lat": 50.8176544, "lon": 22.7759518, "way_id": 254364246, "landuse": "farmland", "closest_distance_restriction": 1.8922066622116216}, {"id": 2601574160, "lat": 50.8178927, "lon": 22.7848917, "way_id": 254364246, "landuse": "farmland", "closest_distance_restriction": 2.4911168122423835}, {"id": 2601574181, "lat": 50.8182658, "lon": 22.7845637, "way_id": 254364246, "landuse": "farmland", "closest_distance_restriction": 2.459147517217405}, {"id": 2601574197, "lat": 50.81867, "lon": 22.7848425, "way_id": 254364246, "landuse": "farmland", "closest_distance_restriction": 2.4686802716549407}, {"id": 2601574211, "lat": 50.8188669, "lon": 22.776854, "way_id": 254364246, "landuse": "farmland", "closest_distance_restriction": 1.9170847478800184}, {"id": 2601574235, "lat": 50.8191467, "lon": 22.7837271, "way_id": 254364246, "landuse": "farmland", "closest_distance_restriction": 2.3814256180513294}, {"id": 2601574241, "lat": 50.8192296, "lon": 22.7776577, "way_id": 254364246, "landuse": "farmland", "closest_distance_restriction": 1.9623212405828916}, {"id": 2601574248, "lat": 50.8193332, "lon": 22.7790356, "way_id": 254364246, "landuse": "farmland", "closest_distance_restriction": 2.0543111224204025}, {"id": 2601574291, "lat": 50.8197581, "lon": 22.7836451, "way_id": 254364246, "landuse": "farmland", "closest_distance_restriction": 2.363812887910155}, {"id": 2601574315, "lat": 50.8200069, "lon": 22.7806432, "way_id": 254364246, "landuse": "farmland", "closest_distance_restriction": 2.1512478701491804}, {"id": 2601574337, "lat": 50.8201934, "lon": 22.7843668, "way_id": 254364246, "landuse": "farmland", "closest_distance_restriction": 2.4066544586802685}, {"id": 2601574376, "lat": 50.8207426, "lon": 22.7856299, "way_id": 254364246, "landuse": "farmland", "closest_distance_restriction": 2.4871031979580422}, {"id": 2601574389, "lat": 50.8208981, "lon": 22.7819391, "way_id": 254364246, "landuse": "farmland", "closest_distance_restriction": 2.2275339335601028}, {"id": 2601574400, "lat": 50.8212067, "lon": 22.7859869, "way_id": 254364246, "landuse": "farmland", "closest_distance_restriction": 2.506939471352938}, {"id": 2601574403, "lat": 50.8211261, "lon": 22.7809877, "way_id": 254364246, "landuse": "farmland", "closest_distance_restriction": 2.158301568748862}, {"id": 2601574509, "lat": 50.8217366, "lon": 22.7867934, "way_id": 254364246, "landuse": "farmland", "closest_distance_restriction": 2.558950694914275}, {"id": 2601574513, "lat": 50.8217996, "lon": 22.7812665, "way_id": 254364246, "landuse": "farmland", "closest_distance_restriction": 2.1711227248117493}, {"id": 2601574539, "lat": 50.821975, "lon": 22.7870719, "way_id": 254364246, "landuse": "farmland", "closest_distance_restriction": 2.576935772092275}, {"id": 2601574601, "lat": 50.8225772, "lon": 22.7876637, "way_id": 254364246, "landuse": "farmland", "closest_distance_restriction": 2.6158159465432513}, {"id": 2601574605, "lat": 50.8225908, "lon": 22.7808158, "way_id": 254364246, "landuse": "farmland", "closest_distance_restriction": 2.13494725990084}, {"id": 2601574670, "lat": 50.8229893, "lon": 22.7881898, "way_id": 254364246, "landuse": "farmland", "closest_distance_restriction": 2.6519542969188943}, {"id": 2601574723, "lat": 50.8233615, "lon": 22.7886528, "way_id": 254364246, "landuse": "farmland", "closest_distance_restriction": 2.6844300884096657}, {"id": 2601574729, "lat": 50.8234213, "lon": 22.7899575, "way_id": 254364246, "landuse": "farmland", "closest_distance_restriction": 2.776124903224556}, {"id": 2601574730, "lat": 50.823428, "lon": 22.7902837, "way_id": 254364246, "landuse": "farmland", "closest_distance_restriction": 2.799043939734225}, {"id": 2601574741, "lat": 50.8235609, "lon": 22.7894209, "way_id": 254364246, "landuse": "farmland", "closest_distance_restriction": 2.738615825636}, {"id": 2601574745, "lat": 50.8235809, "lon": 22.7891157, "way_id": 254364246, "landuse": "farmland", "closest_distance_restriction": 2.7172134945033064}, {"id": 2601574747, "lat": 50.8235809, "lon": 22.7905678, "way_id": 254364246, "landuse": "farmland", "closest_distance_restriction": 2.8192015426914754}, {"id": 2601574756, "lat": 50.8236235, "lon": 22.7821523, "way_id": 254364246, "landuse": "farmland", "closest_distance_restriction": 2.2282505799403167}, {"id": 2601574769, "lat": 50.8237504, "lon": 22.7814525, "way_id": 254364246, "landuse": "farmland", "closest_distance_restriction": 2.1794563917426704}, {"id": 2601574808, "lat": 50.8238667, "lon": 22.7908519, "way_id": 254364246, "landuse": "farmland", "closest_distance_restriction": 2.839803653240269}, {"id": 2601574845, "lat": 50.824086, "lon": 22.7908624, "way_id": 254364246, "landuse": "farmland", "closest_distance_restriction": 2.841279182323388}, {"id": 2601574851, "lat": 50.8240922, "lon": 22.7208214, "way_id": 254364246, "landuse": "farmland", "closest_distance_restriction": 1.6066298104095589}, {"id": 2601574908, "lat": 50.8243984, "lon": 22.7906099, "way_id": 254364246, "landuse": "farmland", "closest_distance_restriction": 2.8249752268760306}, {"id": 2601574910, "lat": 50.8243997, "lon": 22.7192706, "way_id": 254364246, "landuse": "farmland", "closest_distance_restriction": 1.7197009086364483}, {"id": 2601574916, "lat": 50.8244213, "lon": 22.7212948, "way_id": 254364246, "landuse": "farmland", "closest_distance_restriction": 1.5801908860697187}, {"id": 2601574930, "lat": 50.8246182, "lon": 22.7830217, "way_id": 254364246, "landuse": "farmland", "closest_distance_restriction": 2.2942458969713715}, {"id": 2601574931, "lat": 50.824639, "lon": 22.7196544, "way_id": 254364246, "landuse": "farmland", "closest_distance_restriction": 1.6979074856746923}, {"id": 2601574933, "lat": 50.8247108, "lon": 22.7902732, "way_id": 254364246, "landuse": "farmland", "closest_distance_restriction": 2.8032147139217813}, {"id": 2601574965, "lat": 50.8250431, "lon": 22.7838583, "way_id": 254364246, "landuse": "farmland", "closest_distance_restriction": 2.356511129583826}, {"id": 2601574973, "lat": 50.8250498, "lon": 22.7902416, "way_id": 254364246, "landuse": "farmland", "closest_distance_restriction": 2.8035084000165664}, {"id": 2601575011, "lat": 50.8254087, "lon": 22.7903784, "way_id": 254364246, "landuse": "farmland", "closest_distance_restriction": 2.8162865725617263}, {"id": 2601575019, "lat": 50.8254679, "lon": 22.7196872, "way_id": 254364246, "landuse": "farmland", "closest_distance_restriction": 1.715284346076045}, {"id": 2601575037, "lat": 50.8256648, "lon": 22.785105, "way_id": 254364246, "landuse": "farmland", "closest_distance_restriction": 2.4505233490405245}, {"id": 2601575068, "lat": 50.8260402, "lon": 22.7904205, "way_id": 254364246, "landuse": "farmland", "closest_distance_restriction": 2.8262079066795422}, {"id": 2601575090, "lat": 50.8262994, "lon": 22.790652, "way_id": 254364246, "landuse": "farmland", "closest_distance_restriction": 2.8457106148860176}, {"id": 2601575099, "lat": 50.8263798, "lon": 22.7854987, "way_id": 254364246, "landuse": "farmland", "closest_distance_restriction": 2.488049669438155}, {"id": 2601575120, "lat": 50.8265455, "lon": 22.7178992, "way_id": 254364246, "landuse": "farmland", "closest_distance_restriction": 1.8678442217577944}, {"id": 2601575172, "lat": 50.8270118, "lon": 22.7849738, "way_id": 254364246, "landuse": "farmland", "closest_distance_restriction": 2.462675202217078}, {"id": 2601575187, "lat": 50.8271435, "lon": 22.7920409, "way_id": 254364246, "landuse": "farmland", "closest_distance_restriction": 2.9550242751582902}, {"id": 2601575188, "lat": 50.8271569, "lon": 22.7188014, "way_id": 254364246, "landuse": "farmland", "closest_distance_restriction": 1.8275029934921176}, {"id": 2601575244, "lat": 50.8275299, "lon": 22.7180796, "way_id": 254364246, "landuse": "farmland", "closest_distance_restriction": 1.8879571343034}, {"id": 2601575248, "lat": 50.8276439, "lon": 22.7184241, "way_id": 254364246, "landuse": "farmland", "closest_distance_restriction": 1.868633543543837}, {"id": 2601575281, "lat": 50.8280588, "lon": 22.7840429, "way_id": 254364246, "landuse": "farmland", "closest_distance_restriction": 2.4215764639123805}, {"id": 2601575288, "lat": 50.8282468, "lon": 22.7949766, "way_id": 254364246, "landuse": "farmland", "closest_distance_restriction": 3.178423209411521}, {"id": 2601575290, "lat": 50.8282667, "lon": 22.7953343, "way_id": 254364246, "landuse": "farmland", "closest_distance_restriction": 3.2035437562141005}, {"id": 2601575299, "lat": 50.8283398, "lon": 22.7941979, "way_id": 254364246, "landuse": "farmland", "closest_distance_restriction": 3.126475443871904}, {"id": 2601575302, "lat": 50.8283996, "lon": 22.7945557, "way_id": 254364246, "landuse": "farmland", "closest_distance_restriction": 3.152398191322272}, {"id": 2601575306, "lat": 50.8284395, "lon": 22.7956184, "way_id": 254364246, "landuse": "farmland", "closest_distance_restriction": 3.226600220290728}, {"id": 2601575310, "lat": 50.8284624, "lon": 22.7168002, "way_id": 254364246, "landuse": "farmland", "closest_distance_restriction": 2.0055697863186115}, {"id": 2601575323, "lat": 50.828794, "lon": 22.7172103, "way_id": 254364246, "landuse": "farmland", "closest_distance_restriction": 1.9902982145426238}, {"id": 2601575341, "lat": 50.8290219, "lon": 22.7832022, "way_id": 254364246, "landuse": "farmland", "closest_distance_restriction": 2.3907998819534244}, {"id": 2601575348, "lat": 50.8290841, "lon": 22.7173743, "way_id": 254364246, "landuse": "farmland", "closest_distance_restriction": 1.9896868730427866}, {"id": 2601575368, "lat": 50.8293949, "lon": 22.7171774, "way_id": 254364246, "landuse": "farmland", "closest_distance_restriction": 2.0142697950758777}, {"id": 2601575384, "lat": 50.8295607, "lon": 22.7165705, "way_id": 254364246, "landuse": "farmland", "closest_distance_restriction": 2.060627860457912}, {"id": 2601575386, "lat": 50.8295612, "lon": 22.7825029, "way_id": 254364246, "landuse": "farmland", "closest_distance_restriction": 2.360824669865516}, {"id": 2601575413, "lat": 50.8296436, "lon": 22.7160948, "way_id": 254364246, "landuse": "farmland", "closest_distance_restriction": 2.0951779168359224}, {"id": 2601575446, "lat": 50.8298405, "lon": 22.7824266, "way_id": 254364246, "landuse": "farmland", "closest_distance_restriction": 2.3652228331547787}, {"id": 2601575470, "lat": 50.8300891, "lon": 22.7904854, "way_id": 254364246, "landuse": "farmland", "closest_distance_restriction": 2.9154534214121677}, {"id": 2601575472, "lat": 50.8301098, "lon": 22.792339, "way_id": 254364246, "landuse": "farmland", "closest_distance_restriction": 3.04184016901947}, {"id": 2601575477, "lat": 50.8301306, "lon": 22.7240896, "way_id": 254364246, "landuse": "farmland", "closest_distance_restriction": 1.60414456620478}, {"id": 2601575479, "lat": 50.8301583, "lon": 22.7822741, "way_id": 254364246, "landuse": "farmland", "closest_distance_restriction": 2.3663670084177277}, {"id": 2601575492, "lat": 50.8302652, "lon": 22.794898, "way_id": 254364246, "landuse": "farmland", "closest_distance_restriction": 3.2202349677363578}, {"id": 2601575495, "lat": 50.8303274, "lon": 22.7896652, "way_id": 254364246, "landuse": "farmland", "closest_distance_restriction": 2.8671192209741454}, {"id": 2601575498, "lat": 50.8303894, "lon": 22.7825029, "way_id": 254364246, "landuse": "farmland", "closest_distance_restriction": 2.3900307333607365}, {"id": 2601575500, "lat": 50.8304043, "lon": 22.7981281, "way_id": 254364246, "landuse": "farmland", "closest_distance_restriction": 3.4442557922078434}, {"id": 2601575510, "lat": 50.8306486, "lon": 22.7147989, "way_id": 254364246, "landuse": "farmland", "closest_distance_restriction": 2.220059891738382}, {"id": 2601575514, "lat": 50.830702, "lon": 22.7231153, "way_id": 254364246, "landuse": "farmland", "closest_distance_restriction": 1.694799594708554}, {"id": 2601575525, "lat": 50.8308324, "lon": 22.7835397, "way_id": 254364246, "landuse": "farmland", "closest_distance_restriction": 2.4752278810485397}, {"id": 2601575526, "lat": 50.8308351, "lon": 22.712404, "way_id": 254364246, "landuse": "farmland", "closest_distance_restriction": 2.384300743276861}, {"id": 2601575530, "lat": 50.8308869, "lon": 22.7131257, "way_id": 254364246, "landuse": "farmland", "closest_distance_restriction": 2.33907620626109}, {"id": 2601575535, "lat": 50.8310112, "lon": 22.7140608, "way_id": 254364246, "landuse": "farmland", "closest_distance_restriction": 2.283246809400124}, {"id": 2601575546, "lat": 50.8311123, "lon": 22.7222222, "way_id": 254364246, "landuse": "farmland", "closest_distance_restriction": 1.7718638139938596}, {"id": 2601575561, "lat": 50.8311791, "lon": 22.7841801, "way_id": 254364246, "landuse": "farmland", "closest_distance_restriction": 2.5307808579522377}, {"id": 2601575582, "lat": 50.8316318, "lon": 22.7844088, "way_id": 254364246, "landuse": "farmland", "closest_distance_restriction": 2.5638052706967427}, {"id": 2601575586, "lat": 50.8316639, "lon": 22.7887794, "way_id": 254364246, "landuse": "farmland", "closest_distance_restriction": 2.8528873452652332}, {"id": 2601575590, "lat": 50.8317054, "lon": 22.7110097, "way_id": 254364246, "landuse": "farmland", "closest_distance_restriction": 2.5108155752814323}, {"id": 2601575599, "lat": 50.8318815, "lon": 22.7206447, "way_id": 254364246, "landuse": "farmland", "closest_distance_restriction": 1.9105687503597113}, {"id": 2601575603, "lat": 50.8319333, "lon": 22.7111737, "way_id": 254364246, "landuse": "farmland", "closest_distance_restriction": 2.5098132010206493}, {"id": 2601575618, "lat": 50.8320887, "lon": 22.7108948, "way_id": 254364246, "landuse": "farmland", "closest_distance_restriction": 2.5345647748783398}, {"id": 2601575630, "lat": 50.8321302, "lon": 22.7102551, "way_id": 254364246, "landuse": "farmland", "closest_distance_restriction": 2.5777831445210557}, {"id": 2601575644, "lat": 50.8321892, "lon": 22.7203199, "way_id": 254364246, "landuse": "farmland", "closest_distance_restriction": 1.9475979219008963}, {"id": 2601575650, "lat": 50.8324306, "lon": 22.7105504, "way_id": 254364246, "landuse": "farmland", "closest_distance_restriction": 2.571760190531236}, {"id": 2601575652, "lat": 50.8324311, "lon": 22.7843478, "way_id": 254364246, "landuse": "farmland", "closest_distance_restriction": 2.5936870816424182}, {"id": 2601575662, "lat": 50.8325135, "lon": 22.7101731, "way_id": 254364246, "landuse": "farmland", "closest_distance_restriction": 2.5997382669818667}, {"id": 2601575671, "lat": 50.832586, "lon": 22.7091561, "way_id": 254364246, "landuse": "farmland", "closest_distance_restriction": 2.6685682043049717}, {"id": 2601575682, "lat": 50.8326434, "lon": 22.7204475, "way_id": 254364246, "landuse": "farmland", "closest_distance_restriction": 1.9663418112403452}, {"id": 2601575684, "lat": 50.8326585, "lon": 22.7881069, "way_id": 254364246, "landuse": "farmland", "closest_distance_restriction": 2.847304605421837}, {"id": 2601575693, "lat": 50.8327622, "lon": 22.7095005, "way_id": 254364246, "landuse": "farmland", "closest_distance_restriction": 2.654081663775029}, {"id": 2601575708, "lat": 50.8328865, "lon": 22.7086147, "way_id": 254364246, "landuse": "farmland", "closest_distance_restriction": 2.716658737560988}, {"id": 2601575716, "lat": 50.8329896, "lon": 22.7843783, "way_id": 254364246, "landuse": "farmland", "closest_distance_restriction": 2.620831380988332}, {"id": 2601575725, "lat": 50.8330315, "lon": 22.708746, "way_id": 254364246, "landuse": "farmland", "closest_distance_restriction": 2.714627990603681}, {"id": 2601575727, "lat": 50.8330317, "lon": 22.7199372, "way_id": 254364246, "landuse": "farmland", "closest_distance_restriction": 2.0197486037076566}, {"id": 2601575755, "lat": 50.8331558, "lon": 22.7062362, "way_id": 254364246, "landuse": "farmland", "closest_distance_restriction": 2.882182252514273}, {"id": 2601575781, "lat": 50.8335665, "lon": 22.7201923, "way_id": 254364246, "landuse": "farmland", "closest_distance_restriction": 2.037661315350985}, {"id": 2601575783, "lat": 50.8335702, "lon": 22.7048419, "way_id": 254364246, "landuse": "farmland", "closest_distance_restriction": 2.9902881011930784}, {"id": 2601575786, "lat": 50.8336764, "lon": 22.7203663, "way_id": 254364246, "landuse": "farmland", "closest_distance_restriction": 2.0345438950760824}, {"id": 2601575790, "lat": 50.8337049, "lon": 22.7068431, "way_id": 254364246, "landuse": "farmland", "closest_distance_restriction": 2.8671262610103607}, {"id": 2601575794, "lat": 50.8337793, "lon": 22.7840124, "way_id": 254364246, "landuse": "farmland", "closest_distance_restriction": 2.635480895418257}, {"id": 2601575807, "lat": 50.8340468, "lon": 22.705252, "way_id": 254364246, "landuse": "farmland", "closest_distance_restriction": 2.9846909942533446}, {"id": 2601575816, "lat": 50.8341711, "lon": 22.7048419, "way_id": 254364246, "landuse": "farmland", "closest_distance_restriction": 3.016619284652214}, {"id": 2601575820, "lat": 50.8342126, "lon": 22.7877624, "way_id": 254364246, "landuse": "farmland", "closest_distance_restriction": 2.8936105003886183}, {"id": 2601575825, "lat": 50.8342331, "lon": 22.7216074, "way_id": 254364246, "landuse": "farmland", "closest_distance_restriction": 2.0009127471800463}, {"id": 2601575835, "lat": 50.834365, "lon": 22.7210739, "way_id": 254364246, "landuse": "farmland", "closest_distance_restriction": 2.0395516849287443}, {"id": 2601575841, "lat": 50.8343991, "lon": 22.7040053, "way_id": 254364246, "landuse": "farmland", "closest_distance_restriction": 3.080605781758205}, {"id": 2601575847, "lat": 50.8345545, "lon": 22.788599, "way_id": 254364246, "landuse": "farmland", "closest_distance_restriction": 2.962945274257099}, {"id": 2601575858, "lat": 50.834627, "lon": 22.7034148, "way_id": 254364246, "landuse": "farmland", "closest_distance_restriction": 3.1287791425607936}, {"id": 2601575863, "lat": 50.8346652, "lon": 22.7836464, "way_id": 254364246, "landuse": "farmland", "closest_distance_restriction": 2.658314170523896}, {"id": 2601575879, "lat": 50.834917, "lon": 22.7888122, "way_id": 254364246, "landuse": "farmland", "closest_distance_restriction": 2.993814682829889}, {"id": 2601575883, "lat": 50.8349349, "lon": 22.7834635, "way_id": 254364246, "landuse": "farmland", "closest_distance_restriction": 2.6616227185992773}, {"id": 2601575885, "lat": 50.8349803, "lon": 22.7227789, "way_id": 254364246, "landuse": "farmland", "closest_distance_restriction": 1.9900723532704205}, {"id": 2601575890, "lat": 50.8351346, "lon": 22.7051864, "way_id": 254364246, "landuse": "farmland", "closest_distance_restriction": 3.0396170110259337}, {"id": 2601575896, "lat": 50.8351553, "lon": 22.7056785, "way_id": 254364246, "landuse": "farmland", "closest_distance_restriction": 3.0095619918849956}, {"id": 2601575899, "lat": 50.8352071, "lon": 22.7827101, "way_id": 254364246, "landuse": "farmland", "closest_distance_restriction": 2.6308666857260814}, {"id": 2601575903, "lat": 50.8352278, "lon": 22.6993467, "way_id": 254364246, "landuse": "farmland", "closest_distance_restriction": 3.417472367122597}, {"id": 2601575906, "lat": 50.8352796, "lon": 22.7039889, "way_id": 254364246, "landuse": "farmland", "closest_distance_restriction": 3.1224153722419428}, {"id": 2601575908, "lat": 50.8352796, "lon": 22.7053504, "way_id": 254364246, "landuse": "farmland", "closest_distance_restriction": 3.036336940184699}, {"id": 2601575910, "lat": 50.83529, "lon": 22.7048419, "way_id": 254364246, "landuse": "farmland", "closest_distance_restriction": 3.068925116126789}, {"id": 2601575917, "lat": 50.8353107, "lon": 22.6991006, "way_id": 254364246, "landuse": "farmland", "closest_distance_restriction": 3.4369826179217284}, {"id": 2601575930, "lat": 50.8355801, "lon": 22.7808236, "way_id": 254364246, "landuse": "farmland", "closest_distance_restriction": 2.5398501203334134}, {"id": 2601575940, "lat": 50.8357147, "lon": 22.7018564, "way_id": 254364246, "landuse": "farmland", "closest_distance_restriction": 3.2785047366643494}, {"id": 2601575946, "lat": 50.8357788, "lon": 22.7241476, "way_id": 254364246, "landuse": "farmland", "closest_distance_restriction": 1.980225771972351}, {"id": 2601575951, "lat": 50.8359116, "lon": 22.7021025, "way_id": 254364246, "landuse": "farmland", "closest_distance_restriction": 3.2722345019464596}, {"id": 2601575953, "lat": 50.8359219, "lon": 22.7887138, "way_id": 254364246, "landuse": "farmland", "closest_distance_restriction": 3.0379791327200434}, {"id": 2601575957, "lat": 50.8360048, "lon": 22.7792489, "way_id": 254364246, "landuse": "farmland", "closest_distance_restriction": 2.4745228217667137}, {"id": 2601575960, "lat": 50.8360463, "lon": 22.7834482, "way_id": 254364246, "landuse": "farmland", "closest_distance_restriction": 2.723421293530718}, {"id": 2601575962, "lat": 50.836067, "lon": 22.7782155, "way_id": 254364246, "landuse": "farmland", "closest_distance_restriction": 2.4196158300764536}, {"id": 2601575964, "lat": 50.8360718, "lon": 22.7254119, "way_id": 254364246, "landuse": "farmland", "closest_distance_restriction": 1.9421365867723834}, {"id": 2601575971, "lat": 50.8361499, "lon": 22.7812829, "way_id": 254364246, "landuse": "farmland", "closest_distance_restriction": 2.6015423870370578}, {"id": 2601575976, "lat": 50.8362742, "lon": 22.7846129, "way_id": 254364246, "landuse": "farmland", "closest_distance_restriction": 2.8064312839441214}, {"id": 2601575980, "lat": 50.8362949, "lon": 22.7002817, "way_id": 254364246, "landuse": "farmland", "closest_distance_restriction": 3.406022931691565}, {"id": 2601575984, "lat": 50.8363156, "lon": 22.7796426, "way_id": 254364246, "landuse": "farmland", "closest_distance_restriction": 2.517050772554683}, {"id": 2601575985, "lat": 50.8363355, "lon": 22.7261311, "way_id": 254364246, "landuse": "farmland", "closest_distance_restriction": 1.930347895247948}, {"id": 2601575994, "lat": 50.8364503, "lon": 22.700134, "way_id": 254364246, "landuse": "farmland", "closest_distance_restriction": 3.4227935710442168}, {"id": 2601576014, "lat": 50.8365626, "lon": 22.7261311, "way_id": 254364246, "landuse": "farmland", "closest_distance_restriction": 1.9494946856905528}, {"id": 2601576019, "lat": 50.8366057, "lon": 22.7887302, "way_id": 254364246, "landuse": "farmland", "closest_distance_restriction": 3.0751221578834382}, {"id": 2601576026, "lat": 50.8366989, "lon": 22.7771328, "way_id": 254364246, "landuse": "farmland", "closest_distance_restriction": 2.4020049099924528}, {"id": 2601576037, "lat": 50.8368608, "lon": 22.7846332, "way_id": 254364246, "landuse": "farmland", "closest_distance_restriction": 2.8419704948503894}, {"id": 2601576043, "lat": 50.8369165, "lon": 22.7778546, "way_id": 254364246, "landuse": "farmland", "closest_distance_restriction": 2.456729168138618}, {"id": 2601576049, "lat": 50.8369993, "lon": 22.6986741, "way_id": 254364246, "landuse": "farmland", "closest_distance_restriction": 3.541612069745629}, {"id": 2601576051, "lat": 50.8370754, "lon": 22.7248088, "way_id": 254364246, "landuse": "farmland", "closest_distance_restriction": 2.0534057617806756}, {"id": 2601576054, "lat": 50.8371133, "lon": 22.7884841, "way_id": 254364246, "landuse": "farmland", "closest_distance_restriction": 3.0879015345525977}, {"id": 2601576055, "lat": 50.8371516, "lon": 22.7907543, "way_id": 254364246, "landuse": "farmland", "closest_distance_restriction": 3.228909157396969}, {"id": 2601576058, "lat": 50.8372508, "lon": 22.7845265, "way_id": 254364246, "landuse": "farmland", "closest_distance_restriction": 2.859104054882289}, {"id": 2601576060, "lat": 50.8372583, "lon": 22.7755417, "way_id": 254364246, "landuse": "farmland", "closest_distance_restriction": 2.3566297810506716}, {"id": 2601576061, "lat": 50.8372894, "lon": 22.7763454, "way_id": 254364246, "landuse": "farmland", "closest_distance_restriction": 2.401407812118796}, {"id": 2601576063, "lat": 50.8373317, "lon": 22.7186497, "way_id": 254364246, "landuse": "farmland", "closest_distance_restriction": 2.380468180324063}, {"id": 2601576071, "lat": 50.8374482, "lon": 22.7844426, "way_id": 254364246, "landuse": "farmland", "closest_distance_restriction": 2.866245094234757}, {"id": 2601576072, "lat": 50.8374655, "lon": 22.7757385, "way_id": 254364246, "landuse": "farmland", "closest_distance_restriction": 2.3822686424697466}, {"id": 2601576074, "lat": 50.8375588, "lon": 22.716933, "way_id": 254364246, "landuse": "farmland", "closest_distance_restriction": 2.4885108340023065}, {"id": 2601576082, "lat": 50.837652, "lon": 22.698264, "way_id": 254364246, "landuse": "farmland", "closest_distance_restriction": 3.5993485314738107}, {"id": 2601576084, "lat": 50.8376727, "lon": 22.6992482, "way_id": 254364246, "landuse": "farmland", "closest_distance_restriction": 3.5386546672546197}, {"id": 2601576085, "lat": 50.8376745, "lon": 22.7839471, "way_id": 254364246, "landuse": "farmland", "closest_distance_restriction": 2.851440033716848}, {"id": 2601576087, "lat": 50.8377126, "lon": 22.7262355, "way_id": 254364246, "landuse": "farmland", "closest_distance_restriction": 2.043965515011777}, {"id": 2601576089, "lat": 50.8377273, "lon": 22.7202967, "way_id": 254364246, "landuse": "farmland", "closest_distance_restriction": 2.3250481764490636}, {"id": 2601576095, "lat": 50.8377639, "lon": 22.719102, "way_id": 254364246, "landuse": "farmland", "closest_distance_restriction": 2.3889363460001865}, {"id": 2601576100, "lat": 50.8378281, "lon": 22.6978211, "way_id": 254364246, "landuse": "farmland", "closest_distance_restriction": 3.6359185551296194}, {"id": 2601576104, "lat": 50.8378591, "lon": 22.7173389, "way_id": 254364246, "landuse": "farmland", "closest_distance_restriction": 2.488400996889043}, {"id": 2601576106, "lat": 50.8378811, "lon": 22.7257135, "way_id": 254364246, "landuse": "farmland", "closest_distance_restriction": 2.0813600857556063}, {"id": 2601576108, "lat": 50.8378902, "lon": 22.6985265, "way_id": 254364246, "landuse": "farmland", "closest_distance_restriction": 3.594790118989061}, {"id": 2601576111, "lat": 50.8379006, "lon": 22.7883037, "way_id": 254364246, "landuse": "farmland", "closest_distance_restriction": 3.1218720117482164}, {"id": 2601576117, "lat": 50.8380716, "lon": 22.7181857, "way_id": 254364246, "landuse": "farmland", "closest_distance_restriction": 2.4595281884997724}, {"id": 2601576119, "lat": 50.8381082, "lon": 22.7267806, "way_id": 254364246, "landuse": "farmland", "closest_distance_restriction": 2.0558928297718504}, {"id": 2601576127, "lat": 50.8382034, "lon": 22.7152163, "way_id": 254364246, "landuse": "farmland", "closest_distance_restriction": 2.627087863632362}, {"id": 2601576130, "lat": 50.8382426, "lon": 22.7829255, "way_id": 254364246, "landuse": "farmland", "closest_distance_restriction": 2.8293930830432585}, {"id": 2601576134, "lat": 50.8383426, "lon": 22.7185105, "way_id": 254364246, "landuse": "farmland", "closest_distance_restriction": 2.4631411343962455}, {"id": 2601576140, "lat": 50.8384737, "lon": 22.7826739, "way_id": 254364246, "landuse": "farmland", "closest_distance_restriction": 2.8305059444765117}, {"id": 2601576153, "lat": 50.8385477, "lon": 22.7214334, "way_id": 254364246, "landuse": "farmland", "closest_distance_restriction": 2.3339834260447843}, {"id": 2601576159, "lat": 50.8385916, "lon": 22.7211783, "way_id": 254364246, "landuse": "farmland", "closest_distance_restriction": 2.349807760944371}, {"id": 2601576161, "lat": 50.8386568, "lon": 22.6985101, "way_id": 254364246, "landuse": "farmland", "closest_distance_restriction": 3.635258214101881}, {"id": 2601576164, "lat": 50.8388225, "lon": 22.7872703, "way_id": 254364246, "landuse": "farmland", "closest_distance_restriction": 3.11623534051663}, {"id": 2601576168, "lat": 50.838892, "lon": 22.7270358, "way_id": 254364246, "landuse": "farmland", "closest_distance_restriction": 2.1164746729789043}, {"id": 2601576176, "lat": 50.8390018, "lon": 22.7223498, "way_id": 254364246, "landuse": "farmland", "closest_distance_restriction": 2.3283085395354832}, {"id": 2601576179, "lat": 50.8390385, "lon": 22.7220598, "way_id": 254364246, "landuse": "farmland", "closest_distance_restriction": 2.3448034330285745}, {"id": 2601576183, "lat": 50.8390815, "lon": 22.6924899, "way_id": 254364246, "landuse": "farmland", "closest_distance_restriction": 4.03334491636691}, {"id": 2601576185, "lat": 50.8391044, "lon": 22.7062038, "way_id": 254364246, "landuse": "farmland", "closest_distance_restriction": 3.1964541876278427}, {"id": 2601576188, "lat": 50.839154, "lon": 22.688143, "way_id": 254364246, "landuse": "farmland", "closest_distance_restriction": 4.313268431831866}, {"id": 2601576192, "lat": 50.8391996, "lon": 22.7024573, "way_id": 254364246, "landuse": "farmland", "closest_distance_restriction": 3.4243277402138506}, {"id": 2601576203, "lat": 50.8392473, "lon": 22.6877985, "way_id": 254364246, "landuse": "farmland", "closest_distance_restriction": 4.339585682390925}, {"id": 2601576207, "lat": 50.8392873, "lon": 22.7830246, "way_id": 254364246, "landuse": "farmland", "closest_distance_restriction": 2.9050591107896233}, {"id": 2601576209, "lat": 50.8392875, "lon": 22.7272098, "way_id": 254364246, "landuse": "farmland", "closest_distance_restriction": 2.146033472412649}, {"id": 2601576211, "lat": 50.8393095, "lon": 22.7071433, "way_id": 254364246, "landuse": "farmland", "closest_distance_restriction": 3.1545455899271113}, {"id": 2601576213, "lat": 50.8393301, "lon": 22.6931953, "way_id": 254364246, "landuse": "farmland", "closest_distance_restriction": 4.001141487703324}, {"id": 2601576216, "lat": 50.8393901, "lon": 22.706517, "way_id": 254364246, "landuse": "farmland", "closest_distance_restriction": 3.1959023812355762}, {"id": 2601576218, "lat": 50.8394194, "lon": 22.7048699, "way_id": 254364246, "landuse": "farmland", "closest_distance_restriction": 3.29395872095723}, {"id": 2601576220, "lat": 50.8394194, "lon": 22.7255975, "way_id": 254364246, "landuse": "farmland", "closest_distance_restriction": 2.2226408527682513}, {"id": 2601576222, "lat": 50.8394487, "lon": 22.7229645, "way_id": 254364246, "landuse": "farmland", "closest_distance_restriction": 2.338295536540381}, {"id": 2601576224, "lat": 50.8394999, "lon": 22.7273374, "way_id": 254364246, "landuse": "farmland", "closest_distance_restriction": 2.1608280480412927}, {"id": 2601576226, "lat": 50.8395088, "lon": 22.7830856, "way_id": 254364246, "landuse": "farmland", "closest_distance_restriction": 2.923647871775649}, {"id": 2601576227, "lat": 50.8395219, "lon": 22.7228021, "way_id": 254364246, "landuse": "farmland", "closest_distance_restriction": 2.3518323073833023}, {"id": 2601576229, "lat": 50.8395477, "lon": 22.7864829, "way_id": 254364246, "landuse": "farmland", "closest_distance_restriction": 3.116811349256372}, {"id": 2601576233, "lat": 50.8395684, "lon": 22.688061, "way_id": 254364246, "landuse": "farmland", "closest_distance_restriction": 4.337612904617707}, {"id": 2601576237, "lat": 50.8396318, "lon": 22.7028864, "way_id": 254364246, "landuse": "farmland", "closest_distance_restriction": 3.4239621541375365}, {"id": 2601576239, "lat": 50.8396513, "lon": 22.6877657, "way_id": 254364246, "landuse": "farmland", "closest_distance_restriction": 4.360303035378859}, {"id": 2601576241, "lat": 50.8396537, "lon": 22.7232429, "way_id": 254364246, "landuse": "farmland", "closest_distance_restriction": 2.3436384538221975}, {"id": 2601576242, "lat": 50.839727, "lon": 22.7276854, "way_id": 254364246, "landuse": "farmland", "closest_distance_restriction": 2.1689077794739977}, {"id": 2601576246, "lat": 50.8397929, "lon": 22.7259571, "way_id": 254364246, "landuse": "farmland", "closest_distance_restriction": 2.241949399636075}, {"id": 2601576250, "lat": 50.8398222, "lon": 22.7090572, "way_id": 677487760, "landuse": "farmland", "closest_distance_restriction": 3.078626651318723}, {"id": 2601576251, "lat": 50.8398369, "lon": 22.7279638, "way_id": 254364246, "landuse": "farmland", "closest_distance_restriction": 2.1689556623249766}, {"id": 2601576253, "lat": 50.8398442, "lon": 22.7144856, "way_id": 254364246, "landuse": "farmland", "closest_distance_restriction": 2.7845633631975275}, {"id": 2601576255, "lat": 50.8398515, "lon": 22.7007174, "way_id": 254364246, "landuse": "farmland", "closest_distance_restriction": 3.566381057953575}, {"id": 2601576257, "lat": 50.8398515, "lon": 22.7136968, "way_id": 254364246, "landuse": "farmland", "closest_distance_restriction": 2.8267634658377094}, {"id": 2601576259, "lat": 50.8398662, "lon": 22.7076885, "way_id": 677487760, "landuse": "farmland", "closest_distance_restriction": 3.1589414844160517}, {"id": 2601576275, "lat": 50.8399101, "lon": 22.7263283, "way_id": 254364246, "landuse": "farmland", "closest_distance_restriction": 2.2379998253739597}, {"id": 2601576277, "lat": 50.8399309, "lon": 22.6879789, "way_id": 254364246, "landuse": "farmland", "closest_distance_restriction": 4.359861344338689}, {"id": 2601576279, "lat": 50.8399931, "lon": 22.7857119, "way_id": 254364246, "landuse": "farmland", "closest_distance_restriction": 3.1025451745118287}, {"id": 2601576280, "lat": 50.8400053, "lon": 22.7008566, "way_id": 254364246, "landuse": "farmland", "closest_distance_restriction": 3.5669403603879033}, {"id": 2601576284, "lat": 50.840042, "lon": 22.7119685, "way_id": 254364246, "landuse": "farmland", "closest_distance_restriction": 2.9331021387747094}, {"id": 2601576288, "lat": 50.8401299, "lon": 22.7266531, "way_id": 254364246, "landuse": "farmland", "closest_distance_restriction": 2.2457540332872465}, {"id": 2601576290, "lat": 50.8401876, "lon": 22.78259, "way_id": 254364246, "landuse": "farmland", "closest_distance_restriction": 2.944275670090291}, {"id": 2601576292, "lat": 50.8402106, "lon": 22.6940483, "way_id": 254364246, "landuse": "farmland", "closest_distance_restriction": 3.9930179163989177}, {"id": 2601576294, "lat": 50.8402397, "lon": 22.7152975, "way_id": 254364246, "landuse": "farmland", "closest_distance_restriction": 2.7720116640245465}, {"id": 2601576297, "lat": 50.8402837, "lon": 22.700033, "way_id": 254364246, "landuse": "farmland", "closest_distance_restriction": 3.6324244358981104}, {"id": 2601576301, "lat": 50.8402935, "lon": 22.6920634, "way_id": 254364246, "landuse": "farmland", "closest_distance_restriction": 4.120592136102915}, {"id": 2601576304, "lat": 50.8404228, "lon": 22.7000794, "way_id": 254364246, "landuse": "farmland", "closest_distance_restriction": 3.6377516547505273}, {"id": 2601576306, "lat": 50.8404282, "lon": 22.7853839, "way_id": 254364246, "landuse": "farmland", "closest_distance_restriction": 3.113710795244605}, {"id": 2601576310, "lat": 50.8405254, "lon": 22.7209115, "way_id": 254364246, "landuse": "farmland", "closest_distance_restriction": 2.522615654423824}, {"id": 2601576313, "lat": 50.8406206, "lon": 22.7161906, "way_id": 254364246, "landuse": "farmland", "closest_distance_restriction": 2.7560800282411804}, {"id": 2601576315, "lat": 50.840656, "lon": 22.6856332, "way_id": 254364246, "landuse": "farmland", "closest_distance_restriction": 4.536025623648727}, {"id": 2601576326, "lat": 50.8407305, "lon": 22.7178493, "way_id": 254364246, "landuse": "farmland", "closest_distance_restriction": 2.683226644453384}, {"id": 2601576328, "lat": 50.8407451, "lon": 22.697922, "way_id": 254364246, "landuse": "farmland", "closest_distance_restriction": 3.7857829484164722}, {"id": 2601576330, "lat": 50.8407451, "lon": 22.717049, "way_id": 254364246, "landuse": "farmland", "closest_distance_restriction": 2.723365678595412}, {"id": 2601576332, "lat": 50.8407493, "lon": 22.6857808, "way_id": 254364246, "landuse": "farmland", "closest_distance_restriction": 4.52329419486607}, {"id": 2601576334, "lat": 50.8407596, "lon": 22.6901442, "way_id": 254364246, "landuse": "farmland", "closest_distance_restriction": 4.264112863761744}, {"id": 2601576341, "lat": 50.8408916, "lon": 22.7252264, "way_id": 254364246, "landuse": "farmland", "closest_distance_restriction": 2.371746769270693}, {"id": 2601576344, "lat": 50.8410454, "lon": 22.6981888, "way_id": 254364246, "landuse": "farmland", "closest_distance_restriction": 3.787091622929446}, {"id": 2601576345, "lat": 50.8410497, "lon": 22.785105, "way_id": 254364246, "landuse": "farmland", "closest_distance_restriction": 3.1414916344238044}, {"id": 2601576350, "lat": 50.8412154, "lon": 22.6841569, "way_id": 254364246, "landuse": "farmland", "closest_distance_restriction": 4.504814284960343}, {"id": 2601576354, "lat": 50.8412578, "lon": 22.7215958, "way_id": 254364246, "landuse": "farmland", "closest_distance_restriction": 2.5552179069464898}, {"id": 2601576361, "lat": 50.8414951, "lon": 22.7847441, "way_id": 254364246, "landuse": "farmland", "closest_distance_restriction": 3.1536064661752783}, {"id": 2601576364, "lat": 50.8415289, "lon": 22.7259803, "way_id": 254364246, "landuse": "farmland", "closest_distance_restriction": 2.4022593322524273}, {"id": 2601576369, "lat": 50.8415948, "lon": 22.7258411, "way_id": 254364246, "landuse": "farmland", "closest_distance_restriction": 2.4136622464577275}, {"id": 2601576378, "lat": 50.8416919, "lon": 22.784252, "way_id": 254364246, "landuse": "farmland", "closest_distance_restriction": 3.141560780262881}, {"id": 2601576380, "lat": 50.841712, "lon": 22.7202967, "way_id": 254364246, "landuse": "farmland", "closest_distance_restriction": 2.6516883544130647}, {"id": 2601576381, "lat": 50.8417266, "lon": 22.6923196, "way_id": 254364246, "landuse": "farmland", "closest_distance_restriction": 4.180676240544059}, {"id": 2601576383, "lat": 50.8417413, "lon": 22.6950918, "way_id": 254364246, "landuse": "farmland", "closest_distance_restriction": 4.0131882110850405}, {"id": 2601576387, "lat": 50.8417999, "lon": 22.725296, "way_id": 254364246, "landuse": "farmland", "closest_distance_restriction": 2.4534299092937535}, {"id": 2601576392, "lat": 50.8418731, "lon": 22.7223614, "way_id": 254364246, "landuse": "farmland", "closest_distance_restriction": 2.576994610159905}, {"id": 2601576397, "lat": 50.8419244, "lon": 22.7263283, "way_id": 254364246, "landuse": "farmland", "closest_distance_restriction": 2.426954056058456}, {"id": 2601576415, "lat": 50.8420562, "lon": 22.6942451, "way_id": 254364246, "landuse": "farmland", "closest_distance_restriction": 4.08218352817831}, {"id": 2601576418, "lat": 50.8420928, "lon": 22.695405, "way_id": 254364246, "landuse": "farmland", "closest_distance_restriction": 4.014606814792593}, {"id": 2601576420, "lat": 50.8421514, "lon": 22.6922152, "way_id": 254364246, "landuse": "farmland", "closest_distance_restriction": 4.210462136402395}, {"id": 2601576426, "lat": 50.8421684, "lon": 22.6811222, "way_id": 254364246, "landuse": "farmland", "closest_distance_restriction": 4.470884912746529}, {"id": 2601576437, "lat": 50.8422613, "lon": 22.7226398, "way_id": 254364246, "landuse": "farmland", "closest_distance_restriction": 2.6004600943225746}, {"id": 2601576442, "lat": 50.8423126, "lon": 22.7211203, "way_id": 254364246, "landuse": "farmland", "closest_distance_restriction": 2.668367296574249}, {"id": 2601576446, "lat": 50.8423237, "lon": 22.6813026, "way_id": 254364246, "landuse": "farmland", "closest_distance_restriction": 4.450355952522089}, {"id": 2601576455, "lat": 50.8423858, "lon": 22.6931431, "way_id": 254364246, "landuse": "farmland", "closest_distance_restriction": 4.167414393947117}, {"id": 2601576461, "lat": 50.8424005, "lon": 22.694535, "way_id": 254364246, "landuse": "farmland", "closest_distance_restriction": 4.084570196571243}, {"id": 2601576486, "lat": 50.8424791, "lon": 22.6803348, "way_id": 254364246, "landuse": "farmland", "closest_distance_restriction": 4.45750670437463}, {"id": 2601576504, "lat": 50.8425762, "lon": 22.7266879, "way_id": 254364246, "landuse": "farmland", "closest_distance_restriction": 2.4767495814324}, {"id": 2601576512, "lat": 50.8425982, "lon": 22.7218162, "way_id": 254364246, "landuse": "farmland", "closest_distance_restriction": 2.664659391838073}, {"id": 2601576513, "lat": 50.8425982, "lon": 22.7264907, "way_id": 254364246, "landuse": "farmland", "closest_distance_restriction": 2.4857511228633657}, {"id": 2601576521, "lat": 50.8426449, "lon": 22.6802692, "way_id": 254364246, "landuse": "farmland", "closest_distance_restriction": 4.441877201248005}, {"id": 2601576523, "lat": 50.8426641, "lon": 22.7221642, "way_id": 254364246, "landuse": "farmland", "closest_distance_restriction": 2.6563160334830607}, {"id": 2601576537, "lat": 50.842752, "lon": 22.6929576, "way_id": 254364246, "landuse": "farmland", "closest_distance_restriction": 4.198323428603901}, {"id": 2601576539, "lat": 50.8427593, "lon": 22.7230921, "way_id": 254364246, "landuse": "farmland", "closest_distance_restriction": 2.6277417412132418}, {"id": 2601576548, "lat": 50.8428209, "lon": 22.6928836, "way_id": 254364246, "landuse": "farmland", "closest_distance_restriction": 4.191610374727931}, {"id": 2601576560, "lat": 50.8442197, "lon": 22.7255175, "way_id": 254364246, "landuse": "farmland", "closest_distance_restriction": 2.6762867900341805}, {"id": 2601576565, "lat": 50.8429791, "lon": 22.7260035, "way_id": 254364246, "landuse": "farmland", "closest_distance_restriction": 2.539536270690249}, {"id": 2601576574, "lat": 50.8442263, "lon": 22.7254773, "way_id": 254364246, "landuse": "farmland", "closest_distance_restriction": 2.6783072672634867}, {"id": 2601576575, "lat": 50.8431036, "lon": 22.7241476, "way_id": 254364246, "landuse": "farmland", "closest_distance_restriction": 2.6190114698441893}, {"id": 2601576577, "lat": 50.8431213, "lon": 22.6784812, "way_id": 254364246, "landuse": "farmland", "closest_distance_restriction": 4.438805601437382}, {"id": 2601576579, "lat": 50.8440769, "lon": 22.7258573, "way_id": 254364246, "landuse": "farmland", "closest_distance_restriction": 2.650806165924739}, {"id": 2601576586, "lat": 50.8441607, "lon": 22.7256347, "way_id": 254364246, "landuse": "farmland", "closest_distance_restriction": 2.666544587825749}, {"id": 2601576597, "lat": 50.8442302, "lon": 22.7254722, "way_id": 254364246, "landuse": "farmland", "closest_distance_restriction": 2.6788606899039094}, {"id": 2601576603, "lat": 50.8433803, "lon": 22.6779235, "way_id": 254364246, "landuse": "farmland", "closest_distance_restriction": 4.427405358406776}, {"id": 2601576610, "lat": 50.8434332, "lon": 22.7246928, "way_id": 254364246, "landuse": "farmland", "closest_distance_restriction": 2.6299392079136226}, {"id": 2601576646, "lat": 50.8438363, "lon": 22.7265109, "way_id": 254364246, "landuse": "farmland", "closest_distance_restriction": 2.6053136075252676}, {"id": 2601576659, "lat": 50.8439914, "lon": 22.6759715, "way_id": 254364246, "landuse": "farmland", "closest_distance_restriction": 4.421242880499387}, {"id": 2601576663, "lat": 50.8440183, "lon": 22.7261088, "way_id": 254364246, "landuse": "farmland", "closest_distance_restriction": 2.63658067670212}, {"id": 2601576676, "lat": 50.844095, "lon": 22.6888811, "way_id": 254364246, "landuse": "farmland", "closest_distance_restriction": 4.108804097221885}, {"id": 2601576678, "lat": 50.8441364, "lon": 22.6885695, "way_id": 254364246, "landuse": "farmland", "closest_distance_restriction": 4.109536608160012}, {"id": 2601576703, "lat": 50.844331, "lon": 22.7254183, "way_id": 254364246, "landuse": "farmland", "closest_distance_restriction": 2.6904880536056104}, {"id": 2601576768, "lat": 50.8449029, "lon": 22.686601, "way_id": 254364246, "landuse": "farmland", "closest_distance_restriction": 4.062988643551864}, {"id": 2601576779, "lat": 50.844965, "lon": 22.6769065, "way_id": 254364246, "landuse": "farmland", "closest_distance_restriction": 4.295391578991263}, {"id": 2601576787, "lat": 50.8451204, "lon": 22.6765128, "way_id": 254364246, "landuse": "farmland", "closest_distance_restriction": 4.291462125695461}, {"id": 2601576838, "lat": 50.8456175, "lon": 22.676808, "way_id": 254364246, "landuse": "farmland", "closest_distance_restriction": 4.232634617590049}, {"id": 2601576858, "lat": 50.8458143, "lon": 22.6762831, "way_id": 254364246, "landuse": "farmland", "closest_distance_restriction": 4.228866789208587}, {"id": 2601576905, "lat": 50.8464269, "lon": 22.6741302, "way_id": 254364246, "landuse": "farmland", "closest_distance_restriction": 4.23699107543993}, {"id": 2847100248, "lat": 50.8534737, "lon": 22.6693204, "way_id": 202306357, "landuse": "meadow", "closest_distance_restriction": 3.7654970622044566}, {"id": 3199083718, "lat": 50.8654246, "lon": 22.7205471, "way_id": 313866109, "landuse": "farmland", "closest_distance_restriction": 2.048300255728229}, {"id": 3199083722, "lat": 50.8688499, "lon": 22.7174652, "way_id": 313866109, "landuse": "farmland", "closest_distance_restriction": 1.615092750624663}, {"id": 3199083723, "lat": 50.8693486, "lon": 22.7179622, "way_id": 313866109, "landuse": "farmland", "closest_distance_restriction": 1.5953186042203706}, {"id": 3199083724, "lat": 50.869253, "lon": 22.7181624, "way_id": 313866109, "landuse": "farmland", "closest_distance_restriction": 1.612585826457131}, {"id": 3199083725, "lat": 50.8689704, "lon": 22.7179561, "way_id": 313866109, "landuse": "farmland", "closest_distance_restriction": 1.6268328630940585}, {"id": 3199083726, "lat": 50.8687983, "lon": 22.7183107, "way_id": 313866109, "landuse": "farmland", "closest_distance_restriction": 1.6575458509326049}, {"id": 3199083727, "lat": 50.8690556, "lon": 22.7185757, "way_id": 313866109, "landuse": "farmland", "closest_distance_restriction": 1.64825968365488}, {"id": 3199083729, "lat": 50.8764463, "lon": 22.7263748, "way_id": 313866110, "landuse": "farmland", "closest_distance_restriction": 1.6897592661254963}, {"id": 3657638039, "lat": 50.7895626, "lon": 22.8402965, "way_id": 254364246, "landuse": "farmland", "closest_distance_restriction": 7.307329878669374}, {"id": 3657638132, "lat": 50.7937808, "lon": 22.8193594, "way_id": 254364246, "landuse": "farmland", "closest_distance_restriction": 5.8055940833574855}, {"id": 3657639776, "lat": 50.7898026, "lon": 22.8399866, "way_id": 254364246, "landuse": "farmland", "closest_distance_restriction": 7.275191406771663}, {"id": 3657639898, "lat": 50.7895907, "lon": 22.8394791, "way_id": 254364246, "landuse": "farmland", "closest_distance_restriction": 7.255926517192697}, {"id": 3657640034, "lat": 50.7893082, "lon": 22.8397907, "way_id": 254364246, "landuse": "farmland", "closest_distance_restriction": 7.290598509857507}, {"id": 5081506838, "lat": 50.8011847, "lon": 22.7848368, "way_id": 254364246, "landuse": "farmland", "closest_distance_restriction": 3.379287091002963}, {"id": 5081545640, "lat": 50.8027983, "lon": 22.8034051, "way_id": 254364246, "landuse": "farmland", "closest_distance_restriction": 4.325888641645878}, {"id": 5081545641, "lat": 50.802661, "lon": 22.8035524, "way_id": 254364246, "landuse": "farmland", "closest_distance_restriction": 4.34246324841986}, {"id": 5081545644, "lat": 50.8026709, "lon": 22.8034481, "way_id": 254364246, "landuse": "farmland", "closest_distance_restriction": 4.33556067669983}, {"id": 5081545645, "lat": 50.8027165, "lon": 22.803392, "way_id": 254364246, "landuse": "farmland", "closest_distance_restriction": 4.329615193904447}, {"id": 5081545646, "lat": 50.8027349, "lon": 22.8034114, "way_id": 254364246, "landuse": "farmland", "closest_distance_restriction": 4.3297782777727045}, {"id": 5081545647, "lat": 50.8027535, "lon": 22.8034221, "way_id": 254364246, "landuse": "farmland", "closest_distance_restriction": 4.3294012921538085}, {"id": 5081545648, "lat": 50.8027759, "lon": 22.8034235, "way_id": 254364246, "landuse": "farmland", "closest_distance_restriction": 4.328248271389981}, {"id": 5081545649, "lat": 50.8026803, "lon": 22.8034696, "way_id": 254364246, "landuse": "farmland", "closest_distance_restriction": 4.336349111099382}, {"id": 5081545650, "lat": 50.8026819, "lon": 22.8034942, "way_id": 254364246, "landuse": "farmland", "closest_distance_restriction": 4.337759186929469}, {"id": 5081545651, "lat": 50.8026752, "lon": 22.8035223, "way_id": 254364246, "landuse": "farmland", "closest_distance_restriction": 4.3398425248301}, {"id": 5081545652, "lat": 50.8022726, "lon": 22.8043085, "way_id": 254364246, "landuse": "farmland", "closest_distance_restriction": 4.410065448615357}, {"id": 5081545653, "lat": 50.8024441, "lon": 22.8039552, "way_id": 254364246, "landuse": "farmland", "closest_distance_restriction": 4.379028492758657}, {"id": 5081545659, "lat": 50.8014146, "lon": 22.8065221, "way_id": 254364246, "landuse": "farmland", "closest_distance_restriction": 4.592493932836411}, {"id": 5081545666, "lat": 50.8010803, "lon": 22.8073423, "way_id": 254364246, "landuse": "farmland", "closest_distance_restriction": 4.661005009072867}, {"id": 5081545667, "lat": 50.8009824, "lon": 22.8076465, "way_id": 254364246, "landuse": "farmland", "closest_distance_restriction": 4.684959321226145}, {"id": 5081545684, "lat": 50.8002197, "lon": 22.8106836, "way_id": 254364246, "landuse": "farmland", "closest_distance_restriction": 4.912255551977843}, {"id": 5081545711, "lat": 50.7998106, "lon": 22.8144537, "way_id": 254364246, "landuse": "farmland", "closest_distance_restriction": 5.16571939125867}, {"id": 5081545714, "lat": 50.7997599, "lon": 22.8153921, "way_id": 254364246, "landuse": "farmland", "closest_distance_restriction": 5.2263385328932}, {"id": 5081545720, "lat": 50.7997926, "lon": 22.8158112, "way_id": 254364246, "landuse": "farmland", "closest_distance_restriction": 5.250541580432354}, {"id": 5081546121, "lat": 50.7997649, "lon": 22.8149375, "way_id": 254364246, "landuse": "farmland", "closest_distance_restriction": 5.197995266182119}, {"id": 5081546122, "lat": 50.7997543, "lon": 22.8151613, "way_id": 254364246, "landuse": "farmland", "closest_distance_restriction": 5.212375312496157}, {"id": 5081546123, "lat": 50.7998025, "lon": 22.8145742, "way_id": 254364246, "landuse": "farmland", "closest_distance_restriction": 5.173580677214771}, {"id": 5081546124, "lat": 50.7997926, "lon": 22.8146905, "way_id": 254364246, "landuse": "farmland", "closest_distance_restriction": 5.181280893447655}, {"id": 5081558582, "lat": 50.7997634, "lon": 22.8189743, "way_id": 254364246, "landuse": "farmland", "closest_distance_restriction": 5.448896146142328}, {"id": 5081558583, "lat": 50.7997928, "lon": 22.8181244, "way_id": 254364246, "landuse": "farmland", "closest_distance_restriction": 5.394312772166228}, {"id": 5081558584, "lat": 50.7998436, "lon": 22.8177145, "way_id": 254364246, "landuse": "farmland", "closest_distance_restriction": 5.366145922107949}, {"id": 5081558585, "lat": 50.7998021, "lon": 22.8179754, "way_id": 254364246, "landuse": "farmland", "closest_distance_restriction": 5.384542386442093}, {"id": 5081558586, "lat": 50.8000431, "lon": 22.8171496, "way_id": 254364246, "landuse": "farmland", "closest_distance_restriction": 5.320688292082487}, {"id": 5081558587, "lat": 50.800049, "lon": 22.8168936, "way_id": 254364246, "landuse": "farmland", "closest_distance_restriction": 5.30443062363791}, {"id": 5081558588, "lat": 50.8000567, "lon": 22.816975, "way_id": 254364246, "landuse": "farmland", "closest_distance_restriction": 5.309106545090122}, {"id": 5081704410, "lat": 50.7930949, "lon": 22.8378856, "way_id": 254364246, "landuse": "farmland", "closest_distance_restriction": 6.970177785237904}, {"id": 5081704411, "lat": 50.7924791, "lon": 22.838653, "way_id": 254364246, "landuse": "farmland", "closest_distance_restriction": 7.04979687669738}, {"id": 5081704412, "lat": 50.7930003, "lon": 22.8380474, "way_id": 254364246, "landuse": "farmland", "closest_distance_restriction": 6.9851313148422065}, {"id": 5081704413, "lat": 50.7929272, "lon": 22.8381564, "way_id": 254364246, "landuse": "farmland", "closest_distance_restriction": 6.995690196110583}, {"id": 5081704414, "lat": 50.7927792, "lon": 22.8383358, "way_id": 254364246, "landuse": "farmland", "closest_distance_restriction": 7.0145053501730565}, {"id": 5081704415, "lat": 50.7926631, "lon": 22.8384676, "way_id": 254364246, "landuse": "farmland", "closest_distance_restriction": 7.028717283577623}, {"id": 5084456539, "lat": 50.8160644, "lon": 22.7705371, "way_id": 254364246, "landuse": "farmland", "closest_distance_restriction": 1.5944444800905437}, {"id": 5084456540, "lat": 50.8160843, "lon": 22.7704117, "way_id": 254364246, "landuse": "farmland", "closest_distance_restriction": 1.5855238599907269}, {"id": 5084456541, "lat": 50.8161174, "lon": 22.7702278, "way_id": 254364246, "landuse": "farmland", "closest_distance_restriction": 1.5722604664580495}, {"id": 5084456544, "lat": 50.8221379, "lon": 22.7795451, "way_id": 254364246, "landuse": "farmland", "closest_distance_restriction": 2.048019303113399}, {"id": 5084456545, "lat": 50.8226726, "lon": 22.7799478, "way_id": 254364246, "landuse": "farmland", "closest_distance_restriction": 2.073729663984214}, {"id": 5084456546, "lat": 50.8227494, "lon": 22.7800106, "way_id": 254364246, "landuse": "farmland", "closest_distance_restriction": 2.077915962341277}, {"id": 5084456547, "lat": 50.8227865, "lon": 22.7800851, "way_id": 254364246, "landuse": "farmland", "closest_distance_restriction": 2.083052576965049}, {"id": 5084456552, "lat": 50.8213377, "lon": 22.785891, "way_id": 254364246, "landuse": "farmland", "closest_distance_restriction": 2.4989792892872065}, {"id": 5084456554, "lat": 50.821458, "lon": 22.786121, "way_id": 254364246, "landuse": "farmland", "closest_distance_restriction": 2.5140138466776083}, {"id": 5084456556, "lat": 50.8217946, "lon": 22.7868802, "way_id": 254364246, "landuse": "farmland", "closest_distance_restriction": 2.564634189379897}, {"id": 5084456557, "lat": 50.821868, "lon": 22.786968, "way_id": 254364246, "landuse": "farmland", "closest_distance_restriction": 2.5703065102491327}, {"id": 5084552575, "lat": 50.7897747, "lon": 22.8405555, "way_id": 254364246, "landuse": "farmland", "closest_distance_restriction": 7.311508029893473}, {"id": 5084552576, "lat": 50.7901711, "lon": 22.8401719, "way_id": 254364246, "landuse": "farmland", "closest_distance_restriction": 7.266382280343187}, {"id": 5098990186, "lat": 50.8537281, "lon": 22.6692287, "way_id": 202306354, "landuse": "meadow", "closest_distance_restriction": 3.74739361540025}, {"id": 5098990187, "lat": 50.853953, "lon": 22.6690221, "way_id": 202306354, "landuse": "meadow", "closest_distance_restriction": 3.737062148627577}, {"id": 5281674590, "lat": 50.7758035, "lon": 22.8100394, "way_id": 232360223, "landuse": "meadow", "closest_distance_restriction": 4.8691144436105125}, {"id": 5281674592, "lat": 50.7756459, "lon": 22.8096846, "way_id": 232360223, "landuse": "meadow", "closest_distance_restriction": 4.838916026894866}, {"id": 5281674593, "lat": 50.7761871, "lon": 22.8091707, "way_id": 232360223, "landuse": "meadow", "closest_distance_restriction": 4.854025968926952}, {"id": 5281674594, "lat": 50.7763322, "lon": 22.8095471, "way_id": 232360223, "landuse": "meadow", "closest_distance_restriction": 4.884297948249285}, {"id": 5282646691, "lat": 50.7882192, "lon": 22.8402172, "way_id": 254364246, "landuse": "farmland", "closest_distance_restriction": 7.375587207287114}, {"id": 5282646692, "lat": 50.7886268, "lon": 22.8403443, "way_id": 254364246, "landuse": "farmland", "closest_distance_restriction": 7.362370537099166}, {"id": 5282664094, "lat": 50.7852853, "lon": 22.8333602, "way_id": 254364246, "landuse": "farmland", "closest_distance_restriction": 6.796406378228215}, {"id": 5282664095, "lat": 50.7851617, "lon": 22.8330822, "way_id": 254364246, "landuse": "farmland", "closest_distance_restriction": 6.7726021143035355}, {"id": 5282664096, "lat": 50.785675, "lon": 22.8341673, "way_id": 254364246, "landuse": "farmland", "closest_distance_restriction": 6.867724222912738}, {"id": 5282664097, "lat": 50.7863246, "lon": 22.835581, "way_id": 254364246, "landuse": "farmland", "closest_distance_restriction": 6.990291058816052}, {"id": 5282664098, "lat": 50.7868635, "lon": 22.8368081, "way_id": 254364246, "landuse": "farmland", "closest_distance_restriction": 7.094908726396389}, {"id": 5282664099, "lat": 50.7870424, "lon": 22.8372169, "way_id": 254364246, "landuse": "farmland", "closest_distance_restriction": 7.129719045646176}, {"id": 5282664100, "lat": 50.7873852, "lon": 22.838135, "way_id": 254364246, "landuse": "farmland", "closest_distance_restriction": 7.203708681617635}, {"id": 6343563856, "lat": 50.8429091, "lon": 22.7108612, "way_id": 677487760, "landuse": "farmland", "closest_distance_restriction": 3.202267161396142}, {"id": 6343563857, "lat": 50.8430186, "lon": 22.712157, "way_id": 677487760, "landuse": "farmland", "closest_distance_restriction": 3.144982724900037}, {"id": 6343563858, "lat": 50.8432635, "lon": 22.7117692, "way_id": 677487760, "landuse": "farmland", "closest_distance_restriction": 3.1834900817710823}, {"id": 6343563859, "lat": 50.8438795, "lon": 22.7124038, "way_id": 677487760, "landuse": "farmland", "closest_distance_restriction": 3.2006141177467633}, {"id": 6343563860, "lat": 50.8440409, "lon": 22.7120277, "way_id": 677487760, "landuse": "farmland", "closest_distance_restriction": 3.231890362340636}, {"id": 6343563861, "lat": 50.8457607, "lon": 22.7138583, "way_id": 677487760, "landuse": "farmland", "closest_distance_restriction": 3.2869044857731553}, {"id": 6343563862, "lat": 50.8450594, "lon": 22.715489, "way_id": 677487760, "landuse": "farmland", "closest_distance_restriction": 3.1535802929845853}, {"id": 6343563863, "lat": 50.844488, "lon": 22.7149072, "way_id": 677487760, "landuse": "farmland", "closest_distance_restriction": 3.131554839086353}, {"id": 6343563864, "lat": 50.8441559, "lon": 22.7158681, "way_id": 677487760, "landuse": "farmland", "closest_distance_restriction": 3.0595543780543655}, {"id": 6343563865, "lat": 50.8446494, "lon": 22.7163587, "way_id": 677487760, "landuse": "farmland", "closest_distance_restriction": 3.079566144641168}, {"id": 6343563866, "lat": 50.8445863, "lon": 22.7165527, "way_id": 677487760, "landuse": "farmland", "closest_distance_restriction": 3.0655135273630503}, {"id": 6343563867, "lat": 50.8443952, "lon": 22.7164087, "way_id": 677487760, "landuse": "farmland", "closest_distance_restriction": 3.0555117649954613}, {"id": 6343563868, "lat": 50.8442635, "lon": 22.7163411, "way_id": 677487760, "landuse": "farmland", "closest_distance_restriction": 3.0472816634103452}, {"id": 6343563869, "lat": 50.8440427, "lon": 22.7161149, "way_id": 677487760, "landuse": "farmland", "closest_distance_restriction": 3.0387360418578124}, {"id": 6343563870, "lat": 50.8439444, "lon": 22.7163117, "way_id": 677487760, "landuse": "farmland", "closest_distance_restriction": 3.021460089904276}, {"id": 6343563871, "lat": 50.8444435, "lon": 22.7168729, "way_id": 677487760, "landuse": "farmland", "closest_distance_restriction": 3.0390079437279183}, {"id": 6343563872, "lat": 50.8439351, "lon": 22.7180336, "way_id": 677487760, "landuse": "farmland", "closest_distance_restriction": 2.9438875234967368}, {"id": 6343563873, "lat": 50.8433117, "lon": 22.717396, "way_id": 677487760, "landuse": "farmland", "closest_distance_restriction": 2.918588220517406}, {"id": 6343563874, "lat": 50.8430872, "lon": 22.7179278, "way_id": 677487760, "landuse": "farmland", "closest_distance_restriction": 2.8754779217744546}, {"id": 6343563875, "lat": 50.843373, "lon": 22.7182216, "way_id": 677487760, "landuse": "farmland", "closest_distance_restriction": 2.8869091657307524}, {"id": 6343563876, "lat": 50.8433451, "lon": 22.7183274, "way_id": 677487760, "landuse": "farmland", "closest_distance_restriction": 2.879819639962395}, {"id": 6343563877, "lat": 50.8432394, "lon": 22.7185448, "way_id": 677487760, "landuse": "farmland", "closest_distance_restriction": 2.8610816414194393}, {"id": 6343563878, "lat": 50.8435603, "lon": 22.7188798, "way_id": 677487760, "landuse": "farmland", "closest_distance_restriction": 2.874350193927123}, {"id": 6343563879, "lat": 50.8429258, "lon": 22.7203078, "way_id": 677487760, "landuse": "farmland", "closest_distance_restriction": 2.7571801706479873}, {"id": 6343563880, "lat": 50.8426772, "lon": 22.7200316, "way_id": 677487760, "landuse": "farmland", "closest_distance_restriction": 2.7471761027234667}, {"id": 6343563881, "lat": 50.8424787, "lon": 22.7203019, "way_id": 677487760, "landuse": "farmland", "closest_distance_restriction": 2.7180974970894134}, {"id": 6343563882, "lat": 50.8424341, "lon": 22.7204371, "way_id": 677487760, "landuse": "farmland", "closest_distance_restriction": 2.708346918525747}, {"id": 6343563883, "lat": 50.8425492, "lon": 22.7206574, "way_id": 677487760, "landuse": "farmland", "closest_distance_restriction": 2.7090083897272277}, {"id": 6343563884, "lat": 50.8426661, "lon": 22.7208749, "way_id": 677487760, "landuse": "farmland", "closest_distance_restriction": 2.7100967457518026}, {"id": 6343568985, "lat": 50.8424842, "lon": 22.7213244, "way_id": 677487760, "landuse": "farmland", "closest_distance_restriction": 2.6749624086635775}, {"id": 6343568986, "lat": 50.8423395, "lon": 22.7211276, "way_id": 677487760, "landuse": "farmland", "closest_distance_restriction": 2.6704372132214154}, {"id": 6343568987, "lat": 50.8417105, "lon": 22.7202549, "way_id": 677487760, "landuse": "farmland", "closest_distance_restriction": 2.6534136665397265}, {"id": 6343568988, "lat": 50.8414972, "lon": 22.7200051, "way_id": 677487760, "landuse": "farmland", "closest_distance_restriction": 2.6462812440387764}, {"id": 6343568989, "lat": 50.841243, "lon": 22.719964, "way_id": 677487760, "landuse": "farmland", "closest_distance_restriction": 2.6265031030032806}, {"id": 6343568990, "lat": 50.8409776, "lon": 22.7199611, "way_id": 677487760, "landuse": "farmland", "closest_distance_restriction": 2.6041910294254547}, {"id": 6343568991, "lat": 50.8407939, "lon": 22.7198758, "way_id": 677487760, "landuse": "farmland", "closest_distance_restriction": 2.592672441766616}, {"id": 6343568992, "lat": 50.8405991, "lon": 22.7196966, "way_id": 677487760, "landuse": "farmland", "closest_distance_restriction": 2.5847283221337722}, {"id": 6343568993, "lat": 50.8406845, "lon": 22.7192676, "way_id": 677487760, "landuse": "farmland", "closest_distance_restriction": 2.6118854291879714}, {"id": 6343568994, "lat": 50.8407494, "lon": 22.717872, "way_id": 677487760, "landuse": "farmland", "closest_distance_restriction": 2.6836557733938187}, {"id": 6343568995, "lat": 50.8407828, "lon": 22.717061, "way_id": 677487760, "landuse": "farmland", "closest_distance_restriction": 2.725778386257804}, {"id": 6343568996, "lat": 50.8407253, "lon": 22.7163822, "way_id": 677487760, "landuse": "farmland", "closest_distance_restriction": 2.754726304311528}, {"id": 6343568997, "lat": 50.8405731, "lon": 22.7159797, "way_id": 677487760, "landuse": "farmland", "closest_distance_restriction": 2.762956824040458}, {"id": 6343568998, "lat": 50.8398755, "lon": 22.7144929, "way_id": 677487760, "landuse": "farmland", "closest_distance_restriction": 2.786491478726035}, {"id": 6343568999, "lat": 50.8398699, "lon": 22.7137319, "way_id": 677487760, "landuse": "farmland", "closest_distance_restriction": 2.8262391366080077}, {"id": 6343569000, "lat": 50.8400647, "lon": 22.7119543, "way_id": 677487760, "landuse": "farmland", "closest_distance_restriction": 2.935479896463721}, {"id": 6343572798, "lat": 50.845334, "lon": 22.7281294, "way_id": 677488523, "landuse": "farmland", "closest_distance_restriction": 2.703780921266228}, {"id": 6343572799, "lat": 50.8446624, "lon": 22.729625, "way_id": 677488523, "landuse": "farmland", "closest_distance_restriction": 2.592998211042796}, {"id": 6343572800, "lat": 50.8429165, "lon": 22.7297367, "way_id": 677488216, "landuse": "farmland", "closest_distance_restriction": 2.4124008877394787}, {"id": 6343572801, "lat": 50.8425937, "lon": 22.7293576, "way_id": 677488216, "landuse": "farmland", "closest_distance_restriction": 2.3912978044760695}, {"id": 6343572802, "lat": 50.8440947, "lon": 22.7260462, "way_id": 677488216, "landuse": "farmland", "closest_distance_restriction": 2.6461429953098996}, {"id": 6343572803, "lat": 50.8448758, "lon": 22.7268836, "way_id": 677488216, "landuse": "farmland", "closest_distance_restriction": 2.695705974187925}, {"id": 6343572804, "lat": 50.8446698, "lon": 22.727483, "way_id": 677488216, "landuse": "farmland", "closest_distance_restriction": 2.6564651142617643}, {"id": 6343579085, "lat": 50.8450242, "lon": 22.7239894, "way_id": 677488523, "landuse": "farmland", "closest_distance_restriction": 2.807209626710249}, {"id": 6343579086, "lat": 50.8456253, "lon": 22.7246682, "way_id": 677488523, "landuse": "farmland", "closest_distance_restriction": 2.8418925999091145}, {"id": 6343579087, "lat": 50.84595, "lon": 22.7239424, "way_id": 677488523, "landuse": "farmland", "closest_distance_restriction": 2.898192837511819}, {"id": 6343579088, "lat": 50.8458015, "lon": 22.7237455, "way_id": 677488523, "landuse": "farmland", "closest_distance_restriction": 2.890630119871943}, {"id": 6343579089, "lat": 50.8458609, "lon": 22.7235869, "way_id": 677488523, "landuse": "farmland", "closest_distance_restriction": 2.901892004046509}, {"id": 6343579090, "lat": 50.8454435, "lon": 22.7230815, "way_id": 677488523, "landuse": "farmland", "closest_distance_restriction": 2.879784287704052}, {"id": 6343579091, "lat": 50.8457811, "lon": 22.7223704, "way_id": 677488523, "landuse": "farmland", "closest_distance_restriction": 2.9377305351607905}, {"id": 6343579092, "lat": 50.8463377, "lon": 22.7230551, "way_id": 677488523, "landuse": "farmland", "closest_distance_restriction": 2.9664639509290907}, {"id": 6343579093, "lat": 50.8467403, "lon": 22.7223029, "way_id": 677488523, "landuse": "farmland", "closest_distance_restriction": 3.0317078292296817}, {"id": 6343579094, "lat": 50.8477458, "lon": 22.7234664, "way_id": 677488523, "landuse": "farmland", "closest_distance_restriction": 3.089441017657343}, {"id": 6343579095, "lat": 50.8478144, "lon": 22.7229434, "way_id": 677488523, "landuse": "farmland", "closest_distance_restriction": 3.1135644079841143}, {"id": 6343579096, "lat": 50.8479981, "lon": 22.7232255, "way_id": 677488523, "landuse": "farmland", "closest_distance_restriction": 3.1221532023633327}, {"id": 6343579097, "lat": 50.8476512, "lon": 22.7257965, "way_id": 677488523, "landuse": "farmland", "closest_distance_restriction": 3.0065104750829383}, {"id": 6343579098, "lat": 50.8475102, "lon": 22.7269424, "way_id": 677488523, "landuse": "farmland", "closest_distance_restriction": 2.9586071397472606}, {"id": 6343579099, "lat": 50.8474768, "lon": 22.7278826, "way_id": 677488523, "landuse": "farmland", "closest_distance_restriction": 2.928859062590084}, {"id": 6343579100, "lat": 50.8468108, "lon": 22.728482, "way_id": 677488523, "landuse": "farmland", "closest_distance_restriction": 2.844274206344184}, {"id": 6343579101, "lat": 50.8461466, "lon": 22.7287318, "way_id": 677488523, "landuse": "farmland", "closest_distance_restriction": 2.7694087691145546}, {"id": 6343579102, "lat": 50.8460186, "lon": 22.7287729, "way_id": 677488523, "landuse": "farmland", "closest_distance_restriction": 2.7551813404577192}, {"id": 6343579103, "lat": 50.8456401, "lon": 22.7291637, "way_id": 677488523, "landuse": "farmland", "closest_distance_restriction": 2.705723808362271}, {"id": 6343579104, "lat": 50.845373, "lon": 22.7293694, "way_id": 677488523, "landuse": "farmland", "closest_distance_restriction": 2.6727459868693284}, {"id": 6343579105, "lat": 50.8449908, "lon": 22.7295545, "way_id": 677488523, "landuse": "farmland", "closest_distance_restriction": 2.628538672070593}, {"id": 6343579106, "lat": 50.8455028, "lon": 22.7277974, "way_id": 677488523, "landuse": "farmland", "closest_distance_restriction": 2.7305773313376758}, {"id": 6343579107, "lat": 50.8456383, "lon": 22.727912, "way_id": 677488523, "landuse": "farmland", "closest_distance_restriction": 2.7409004573515605}, {"id": 6343579108, "lat": 50.8455733, "lon": 22.7282499, "way_id": 677488523, "landuse": "farmland", "closest_distance_restriction": 2.724525828177859}, {"id": 6343579109, "lat": 50.8457997, "lon": 22.7280883, "way_id": 677488523, "landuse": "farmland", "closest_distance_restriction": 2.752138954959207}, {"id": 6343579110, "lat": 50.8461132, "lon": 22.7274301, "way_id": 677488523, "landuse": "farmland", "closest_distance_restriction": 2.803007798792316}, {"id": 6343579111, "lat": 50.8453322, "lon": 22.7265016, "way_id": 677488523, "landuse": "farmland", "closest_distance_restriction": 2.7530955216106987}, {"id": 6343579112, "lat": 50.8452858, "lon": 22.7263312, "way_id": 677488523, "landuse": "farmland", "closest_distance_restriction": 2.753901842291978}, {"id": 6343579113, "lat": 50.8451503, "lon": 22.7261461, "way_id": 677488523, "landuse": "farmland", "closest_distance_restriction": 2.7464427481661433}, {"id": 6343579114, "lat": 50.8450817, "lon": 22.7262813, "way_id": 677488523, "landuse": "farmland", "closest_distance_restriction": 2.735306835002733}, {"id": 6343579115, "lat": 50.8451429, "lon": 22.7264135, "way_id": 677488523, "landuse": "farmland", "closest_distance_restriction": 2.7371218703876616}, {"id": 6343579116, "lat": 50.8449537, "lon": 22.726866, "way_id": 677488523, "landuse": "farmland", "closest_distance_restriction": 2.7040002732355295}, {"id": 6343579117, "lat": 50.8441336, "lon": 22.7259551, "way_id": 677488523, "landuse": "farmland", "closest_distance_restriction": 2.653011137848372}, {"id": 6343579118, "lat": 50.8446234, "lon": 22.7249209, "way_id": 677488523, "landuse": "farmland", "closest_distance_restriction": 2.735960501690371}, {"id": 6343579119, "lat": 50.8447552, "lon": 22.7247446, "way_id": 677488523, "landuse": "farmland", "closest_distance_restriction": 2.75481741958727}, {"id": 6343579120, "lat": 50.8447412, "lon": 22.7246432, "way_id": 677488523, "landuse": "farmland", "closest_distance_restriction": 2.7569935045800955}, {"id": 6343583245, "lat": 50.8591781, "lon": 22.7331846, "way_id": 677489073, "landuse": "farmland", "closest_distance_restriction": 3.1505700652065234}, {"id": 6343583246, "lat": 50.8580411, "lon": 22.7356646, "way_id": 677489073, "landuse": "farmland", "closest_distance_restriction": 3.3615548022268698}, {"id": 6343583247, "lat": 50.8563437, "lon": 22.7337295, "way_id": 677489073, "landuse": "farmland", "closest_distance_restriction": 3.41421268384071}, {"id": 6343583248, "lat": 50.8526479, "lon": 22.7294743, "way_id": 677489073, "landuse": "farmland", "closest_distance_restriction": 3.4304359947772407}, {"id": 6343583249, "lat": 50.8545556, "lon": 22.727624, "way_id": 677489073, "landuse": "farmland", "closest_distance_restriction": 3.328506910142924}, {"id": 6343583250, "lat": 50.8547307, "lon": 22.727872, "way_id": 677489073, "landuse": "farmland", "closest_distance_restriction": 3.321037084464247}, {"id": 6343583251, "lat": 50.8544485, "lon": 22.7282049, "way_id": 677489073, "landuse": "farmland", "closest_distance_restriction": 3.3600215679214207}, {"id": 6343583252, "lat": 50.8546607, "lon": 22.728492, "way_id": 677489073, "landuse": "farmland", "closest_distance_restriction": 3.350745548598612}, {"id": 6343583253, "lat": 50.8547554, "lon": 22.7287988, "way_id": 677489073, "landuse": "farmland", "closest_distance_restriction": 3.3534615860074295}, {"id": 6343583254, "lat": 50.8548976, "lon": 22.728864, "way_id": 677489073, "landuse": "farmland", "closest_distance_restriction": 3.3426653781530478}, {"id": 6343583255, "lat": 50.8551448, "lon": 22.728864, "way_id": 677489073, "landuse": "farmland", "closest_distance_restriction": 3.319640441190257}, {"id": 6343583256, "lat": 50.8553199, "lon": 22.7285149, "way_id": 677489073, "landuse": "farmland", "closest_distance_restriction": 3.289938759284444}, {"id": 6463721289, "lat": 50.8582076, "lon": 22.6557702, "way_id": 202306354, "landuse": "meadow", "closest_distance_restriction": 4.086840108043117}, {"id": 6475984070, "lat": 50.8617705, "lon": 22.6489129, "way_id": 202306399, "landuse": "meadow", "closest_distance_restriction": 4.280493966104406}, {"id": 6475984073, "lat": 50.8616233, "lon": 22.6489588, "way_id": 202306399, "landuse": "meadow", "closest_distance_restriction": 4.285569936352272}, {"id": 6477366069, "lat": 50.8571503, "lon": 22.6532548, "way_id": 202306399, "landuse": "meadow", "closest_distance_restriction": 4.298730132554253}, {"id": 6477366070, "lat": 50.8576524, "lon": 22.6556262, "way_id": 202306399, "landuse": "meadow", "closest_distance_restriction": 4.131841884167834}, {"id": 6477366071, "lat": 50.8575036, "lon": 22.6553417, "way_id": 202306399, "landuse": "meadow", "closest_distance_restriction": 4.157748114011595}, {"id": 6477366072, "lat": 50.8574286, "lon": 22.6551361, "way_id": 202306399, "landuse": "meadow", "closest_distance_restriction": 4.174292187162602}, {"id": 6477366074, "lat": 50.8574068, "lon": 22.6550018, "way_id": 202306399, "landuse": "meadow", "closest_distance_restriction": 4.183281563363072}, {"id": 6477366075, "lat": 50.8599589, "lon": 22.6511347, "way_id": 202306399, "landuse": "meadow", "closest_distance_restriction": 4.24758050759864}, {"id": 6477366076, "lat": 50.8589642, "lon": 22.6528009, "way_id": 202306399, "landuse": "meadow", "closest_distance_restriction": 4.209017548185793}, {"id": 6477366077, "lat": 50.8589672, "lon": 22.6526725, "way_id": 202306399, "landuse": "meadow", "closest_distance_restriction": 4.216324763480797}, {"id": 6477366078, "lat": 50.8590392, "lon": 22.6525109, "way_id": 202306399, "landuse": "meadow", "closest_distance_restriction": 4.221333548532168}, {"id": 6477366079, "lat": 50.8591217, "lon": 22.6520474, "way_id": 202306399, "landuse": "meadow", "closest_distance_restriction": 4.243454474491679}, {"id": 6477366080, "lat": 50.8596333, "lon": 22.651275, "way_id": 202306399, "landuse": "meadow", "closest_distance_restriction": 4.258366220905825}, {"id": 6477366081, "lat": 50.8589207, "lon": 22.6530861, "way_id": 202306399, "landuse": "meadow", "closest_distance_restriction": 4.195099959110923}, {"id": 6477366082, "lat": 50.8588726, "lon": 22.6533523, "way_id": 202306399, "landuse": "meadow", "closest_distance_restriction": 4.182627858184487}, {"id": 6477366083, "lat": 50.8589537, "lon": 22.6533856, "way_id": 202306399, "landuse": "meadow", "closest_distance_restriction": 4.175629687503137}, {"id": 6477366084, "lat": 50.8589927, "lon": 22.653521, "way_id": 202306399, "landuse": "meadow", "closest_distance_restriction": 4.165329834512355}, {"id": 6477366985, "lat": 50.8589522, "lon": 22.6537349, "way_id": 202306399, "landuse": "meadow", "closest_distance_restriction": 4.155450028542875}, {"id": 6477366986, "lat": 50.8587901, "lon": 22.6542674, "way_id": 202306399, "landuse": "meadow", "closest_distance_restriction": 4.134895876046658}, {"id": 6477366987, "lat": 50.8586986, "lon": 22.6542887, "way_id": 202306399, "landuse": "meadow", "closest_distance_restriction": 4.139486938545669}, {"id": 6477366988, "lat": 50.8586611, "lon": 22.6543648, "way_id": 202306399, "landuse": "meadow", "closest_distance_restriction": 4.137501328660832}, {"id": 6477366989, "lat": 50.8587496, "lon": 22.6544456, "way_id": 202306399, "landuse": "meadow", "closest_distance_restriction": 4.127211598326976}, {"id": 6477366990, "lat": 50.8587226, "lon": 22.6545858, "way_id": 202306399, "landuse": "meadow", "closest_distance_restriction": 4.120875193692742}, {"id": 6477366991, "lat": 50.8586416, "lon": 22.6546976, "way_id": 202306399, "landuse": "meadow", "closest_distance_restriction": 4.119645712930504}, {"id": 6477366992, "lat": 50.8586626, "lon": 22.6547902, "way_id": 202306399, "landuse": "meadow", "closest_distance_restriction": 4.112990244477885}, {"id": 6477366993, "lat": 50.8586326, "lon": 22.6549804, "way_id": 202306399, "landuse": "meadow", "closest_distance_restriction": 4.104029194031686}, {"id": 6477366994, "lat": 50.8585636, "lon": 22.6552038, "way_id": 202306399, "landuse": "meadow", "closest_distance_restriction": 4.095723612195638}, {"id": 6477366995, "lat": 50.8584991, "lon": 22.6554189, "way_id": 202306399, "landuse": "meadow", "closest_distance_restriction": 4.087654998639814}, {"id": 6477366996, "lat": 50.8585126, "lon": 22.6555104, "way_id": 202306399, "landuse": "meadow", "closest_distance_restriction": 4.081570016436214}, {"id": 6477366997, "lat": 50.8585478, "lon": 22.6555354, "way_id": 202306399, "landuse": "meadow", "closest_distance_restriction": 4.077855347689367}, {"id": 6477366998, "lat": 50.8585546, "lon": 22.6555889, "way_id": 202306399, "landuse": "meadow", "closest_distance_restriction": 4.074368635801866}, {"id": 6477366999, "lat": 50.8584668, "lon": 22.65564, "way_id": 202306399, "landuse": "meadow", "closest_distance_restriction": 4.07719281021092}, {"id": 6477367000, "lat": 50.8584106, "lon": 22.6556709, "way_id": 202306399, "landuse": "meadow", "closest_distance_restriction": 4.079116018171069}, {"id": 6477367001, "lat": 50.8583588, "lon": 22.6557089, "way_id": 202306399, "landuse": "meadow", "closest_distance_restriction": 4.080357970414978}, {"id": 6477367002, "lat": 50.8581465, "lon": 22.6556566, "way_id": 202306399, "landuse": "meadow", "closest_distance_restriction": 4.0972898453486675}, {"id": 6477367003, "lat": 50.8580805, "lon": 22.6557041, "way_id": 202306399, "landuse": "meadow", "closest_distance_restriction": 4.098970348190867}, {"id": 6477367004, "lat": 50.8579484, "lon": 22.6557148, "way_id": 202306399, "landuse": "meadow", "closest_distance_restriction": 4.107126619142382}, {"id": 6477367005, "lat": 50.8578652, "lon": 22.6556613, "way_id": 202306399, "landuse": "meadow", "closest_distance_restriction": 4.11566887048879}, {"id": 6477367006, "lat": 50.8576791, "lon": 22.6556126, "way_id": 202306399, "landuse": "meadow", "closest_distance_restriction": 4.1308182606448955}, {"id": 6477367011, "lat": 50.8572733, "lon": 22.6556578, "way_id": 202306354, "landuse": "meadow", "closest_distance_restriction": 4.155590597508316}, {"id": 6477367012, "lat": 50.8572118, "lon": 22.6557303, "way_id": 202306354, "landuse": "meadow", "closest_distance_restriction": 4.1557233514380565}, {"id": 6477367013, "lat": 50.8571323, "lon": 22.6558016, "way_id": 202306354, "landuse": "meadow", "closest_distance_restriction": 4.157165111009466}, {"id": 6477367014, "lat": 50.8571495, "lon": 22.6559513, "way_id": 202306354, "landuse": "meadow", "closest_distance_restriction": 4.147688265453754}, {"id": 6477367015, "lat": 50.8571825, "lon": 22.6559656, "way_id": 202306354, "landuse": "meadow", "closest_distance_restriction": 4.144646247547586}, {"id": 6477367016, "lat": 50.8572073, "lon": 22.6559323, "way_id": 202306354, "landuse": "meadow", "closest_distance_restriction": 4.144805750101839}, {"id": 6477367017, "lat": 50.8572958, "lon": 22.6558444, "way_id": 202306354, "landuse": "meadow", "closest_distance_restriction": 4.143679452521298}, {"id": 6477367018, "lat": 50.8573423, "lon": 22.6558242, "way_id": 202306354, "landuse": "meadow", "closest_distance_restriction": 4.141653474913286}, {"id": 6477367019, "lat": 50.8574751, "lon": 22.6558729, "way_id": 202306354, "landuse": "meadow", "closest_distance_restriction": 4.129962885838338}, {"id": 6477367020, "lat": 50.8575974, "lon": 22.6557956, "way_id": 202306354, "landuse": "meadow", "closest_distance_restriction": 4.126045138957774}, {"id": 6477367021, "lat": 50.8576566, "lon": 22.6557968, "way_id": 202306354, "landuse": "meadow", "closest_distance_restriction": 4.122003813028845}, {"id": 6477367022, "lat": 50.8576739, "lon": 22.6558432, "way_id": 202306354, "landuse": "meadow", "closest_distance_restriction": 4.118245823205987}, {"id": 6477367023, "lat": 50.8576664, "lon": 22.6562306, "way_id": 202306354, "landuse": "meadow", "closest_distance_restriction": 4.097098412508264}, {"id": 6477367024, "lat": 50.8577429, "lon": 22.6563494, "way_id": 202306354, "landuse": "meadow", "closest_distance_restriction": 4.08530935641882}, {"id": 6477367025, "lat": 50.8577999, "lon": 22.6563637, "way_id": 202306354, "landuse": "meadow", "closest_distance_restriction": 4.080670825177278}, {"id": 6477367026, "lat": 50.8578374, "lon": 22.6562805, "way_id": 202306354, "landuse": "meadow", "closest_distance_restriction": 4.082800093071397}, {"id": 6477367027, "lat": 50.8577939, "lon": 22.6562377, "way_id": 202306354, "landuse": "meadow", "closest_distance_restriction": 4.088116658175803}, {"id": 6477367028, "lat": 50.8577744, "lon": 22.6560595, "way_id": 202306354, "landuse": "meadow", "closest_distance_restriction": 4.099395684415791}, {"id": 6477367029, "lat": 50.8577654, "lon": 22.6559002, "way_id": 202306354, "landuse": "meadow", "closest_distance_restriction": 4.1089207571890505}, {"id": 6477367030, "lat": 50.8578028, "lon": 22.6558034, "way_id": 202306354, "landuse": "meadow", "closest_distance_restriction": 4.1118474580064905}, {"id": 6477367031, "lat": 50.8583655, "lon": 22.6557529, "way_id": 202306354, "landuse": "meadow", "closest_distance_restriction": 4.077425397578714}, {"id": 6477367032, "lat": 50.8584136, "lon": 22.6558313, "way_id": 202306354, "landuse": "meadow", "closest_distance_restriction": 4.069826196916119}, {"id": 6477367033, "lat": 50.8585351, "lon": 22.6558384, "way_id": 202306354, "landuse": "meadow", "closest_distance_restriction": 4.061463060456798}, {"id": 6477367034, "lat": 50.8585831, "lon": 22.6560428, "way_id": 202306354, "landuse": "meadow", "closest_distance_restriction": 4.046722972913237}, {"id": 6477367035, "lat": 50.8585336, "lon": 22.6561331, "way_id": 202306354, "landuse": "meadow", "closest_distance_restriction": 4.044850938972064}, {"id": 6477367036, "lat": 50.8585141, "lon": 22.656347, "way_id": 202306354, "landuse": "meadow", "closest_distance_restriction": 4.034030185057366}, {"id": 6477367037, "lat": 50.8585186, "lon": 22.6568105, "way_id": 202306354, "landuse": "meadow", "closest_distance_restriction": 4.007575859685094}, {"id": 6477367038, "lat": 50.8584841, "lon": 22.656984, "way_id": 202306354, "landuse": "meadow", "closest_distance_restriction": 4.000103532948548}, {"id": 6477367039, "lat": 50.8584406, "lon": 22.6571718, "way_id": 202306354, "landuse": "meadow", "closest_distance_restriction": 3.992456909417346}, {"id": 6477367040, "lat": 50.8584616, "lon": 22.6574166, "way_id": 202306354, "landuse": "meadow", "closest_distance_restriction": 3.9773287392523113}, {"id": 6477367041, "lat": 50.8584586, "lon": 22.6575521, "way_id": 202306354, "landuse": "meadow", "closest_distance_restriction": 3.969944569018823}, {"id": 6477367042, "lat": 50.8584046, "lon": 22.6575759, "way_id": 202306354, "landuse": "meadow", "closest_distance_restriction": 3.972243026330284}, {"id": 6477367043, "lat": 50.8584015, "lon": 22.6576377, "way_id": 202306354, "landuse": "meadow", "closest_distance_restriction": 3.9689988131672034}, {"id": 6477367044, "lat": 50.8584826, "lon": 22.6576852, "way_id": 202306354, "landuse": "meadow", "closest_distance_restriction": 3.9608878596896724}, {"id": 6882600427, "lat": 50.8625116, "lon": 22.6478758, "way_id": 202306399, "landuse": "meadow", "closest_distance_restriction": 4.305101574686264}, {"id": 7743356347, "lat": 50.8044666, "lon": 22.8004832, "way_id": 254364246, "landuse": "farmland", "closest_distance_restriction": 4.055969840208241}, {"id": 7743356348, "lat": 50.804752, "lon": 22.7997963, "way_id": 254364246, "landuse": "farmland", "closest_distance_restriction": 3.998373725723843}, {"id": 7743356350, "lat": 50.8041302, "lon": 22.8010584, "way_id": 254364246, "landuse": "farmland", "closest_distance_restriction": 4.109465276465727}, {"id": 7743356353, "lat": 50.8056337, "lon": 22.797322, "way_id": 254364246, "landuse": "farmland", "closest_distance_restriction": 3.798776014418751}, {"id": 7743356354, "lat": 50.8059101, "lon": 22.7967777, "way_id": 254364246, "landuse": "farmland", "closest_distance_restriction": 3.7504551176002665}]}