{"nodes": [{"id": 1345882092, "lat": 51.797244, "lon": 17.1755555, "way_id": 332546966, "landuse": "farmland", "closest_distance_restriction": 9.83363497670987}, {"id": 1345882150, "lat": 51.8013581, "lon": 17.1722045, "way_id": 332546966, "landuse": "farmland", "closest_distance_restriction": 10.225283970534486}, {"id": 1836566541, "lat": 51.7521204, "lon": 17.1578009, "way_id": 392786632, "landuse": "farmland", "closest_distance_restriction": 4.670275225970245}, {"id": 2099110527, "lat": 51.588602, "lon": 17.5679765, "way_id": 328478218, "landuse": "farmland", "closest_distance_restriction": 6.298240269856195}, {"id": 2100493242, "lat": 51.7458477, "lon": 17.1528339, "way_id": 392786632, "landuse": "farmland", "closest_distance_restriction": 3.91073793924943}, {"id": 2100493246, "lat": 51.7519966, "lon": 17.1577493, "way_id": 392786632, "landuse": "farmland", "closest_distance_restriction": 4.656059182480989}, {"id": 2100493255, "lat": 51.7566473, "lon": 17.1650062, "way_id": 392786596, "landuse": "farmland", "closest_distance_restriction": 5.296689722641352}, {"id": 2100493267, "lat": 51.7620074, "lon": 17.1657319, "way_id": 392786596, "landuse": "farmland", "closest_distance_restriction": 5.878709605613776}, {"id": 2841997524, "lat": 51.7485301, "lon": 17.1515316, "way_id": 392786632, "landuse": "farmland", "closest_distance_restriction": 4.18436801873854}, {"id": 2841997525, "lat": 51.7485585, "lon": 17.1523023, "way_id": 392786632, "landuse": "farmland", "closest_distance_restriction": 4.197696452701293}, {"id": 2841997535, "lat": 51.7491816, "lon": 17.1514049, "way_id": 392786632, "landuse": "farmland", "closest_distance_restriction": 4.253965120008486}, {"id": 2841997536, "lat": 51.7492143, "lon": 17.1522389, "way_id": 392786632, "landuse": "farmland", "closest_distance_restriction": 4.268335676536601}, {"id": 2867411683, "lat": 51.7553379, "lon": 17.150541, "way_id": 392786632, "landuse": "farmland", "closest_distance_restriction": 4.919720535447584}, {"id": 3027387142, "lat": 51.5838648, "lon": 17.5696661, "way_id": 330413953, "landuse": "farmland", "closest_distance_restriction": 6.832159732832966}, {"id": 3027387157, "lat": 51.5850801, "lon": 17.5699277, "way_id": 330413953, "landuse": "farmland", "closest_distance_restriction": 6.712144692914015}, {"id": 3027387158, "lat": 51.5850875, "lon": 17.5705519, "way_id": 330413953, "landuse": "farmland", "closest_distance_restriction": 6.726940688314229}, {"id": 3027387182, "lat": 51.5857308, "lon": 17.5723503, "way_id": 330413953, "landuse": "farmland", "closest_distance_restriction": 6.706992011825629}, {"id": 3223180671, "lat": 51.7592794, "lon": 17.1544953, "way_id": 392786596, "landuse": "farmland", "closest_distance_restriction": 5.396753003288923}, {"id": 3223180672, "lat": 51.7593666, "lon": 17.1544437, "way_id": 392786596, "landuse": "farmland", "closest_distance_restriction": 5.4056399929925645}, {"id": 3346986898, "lat": 51.5754756, "lon": 17.559553, "way_id": 327884152, "landuse": "farmland", "closest_distance_restriction": 7.518201508438408}, {"id": 3346986900, "lat": 51.5755275, "lon": 17.5586088, "way_id": 327884152, "landuse": "farmland", "closest_distance_restriction": 7.497591594913018}, {"id": 3346986901, "lat": 51.5755703, "lon": 17.5581299, "way_id": 327884152, "landuse": "farmland", "closest_distance_restriction": 7.4855487805167025}, {"id": 3346986902, "lat": 51.575613, "lon": 17.5579727, "way_id": 327884152, "landuse": "farmland", "closest_distance_restriction": 7.478516532863983}, {"id": 3346986903, "lat": 51.5756802, "lon": 17.5571524, "way_id": 327884152, "landuse": "farmland", "closest_distance_restriction": 7.45892331654159}, {"id": 3346986904, "lat": 51.5757321, "lon": 17.5569338, "way_id": 327884152, "landuse": "farmland", "closest_distance_restriction": 7.450073058693318}, {"id": 3346986905, "lat": 51.5757398, "lon": 17.5567246, "way_id": 327884152, "landuse": "farmland", "closest_distance_restriction": 7.446189066473181}, {"id": 3346986907, "lat": 51.5762125, "lon": 17.55956, "way_id": 327884152, "landuse": "farmland", "closest_distance_restriction": 7.438671997256761}, {"id": 3346986919, "lat": 51.5772068, "lon": 17.5596019, "way_id": 327884152, "landuse": "farmland", "closest_distance_restriction": 7.331985296107054}, {"id": 3346986921, "lat": 51.5772078, "lon": 17.5595942, "way_id": 327884152, "landuse": "farmland", "closest_distance_restriction": 7.33174956325829}, {"id": 3346986926, "lat": 51.5772252, "lon": 17.5596021, "way_id": 327884152, "landuse": "farmland", "closest_distance_restriction": 7.330002546705007}, {"id": 3346986927, "lat": 51.5773536, "lon": 17.5588011, "way_id": 327884152, "landuse": "farmland", "closest_distance_restriction": 7.303017093470506}, {"id": 3346986929, "lat": 51.5773688, "lon": 17.5588202, "way_id": 327884152, "landuse": "farmland", "closest_distance_restriction": 7.301682184051796}, {"id": 3346986933, "lat": 51.5774361, "lon": 17.5587227, "way_id": 327884152, "landuse": "farmland", "closest_distance_restriction": 7.292832461721929}, {"id": 3346986936, "lat": 51.5774453, "lon": 17.5587476, "way_id": 327884152, "landuse": "farmland", "closest_distance_restriction": 7.292239125995258}, {"id": 3346986937, "lat": 51.5774533, "lon": 17.5587224, "way_id": 327884152, "landuse": "farmland", "closest_distance_restriction": 7.2909678059860115}, {"id": 3346986939, "lat": 51.5777062, "lon": 17.559623, "way_id": 327884152, "landuse": "farmland", "closest_distance_restriction": 7.278445498784526}, {"id": 3346986943, "lat": 51.5785029, "lon": 17.5546921, "way_id": 327884152, "landuse": "farmland", "closest_distance_restriction": 7.11668523690727}, {"id": 3346986951, "lat": 51.5792225, "lon": 17.5596091, "way_id": 327884152, "landuse": "farmland", "closest_distance_restriction": 7.114738552002775}, {"id": 3346986954, "lat": 51.5797978, "lon": 17.5595665, "way_id": 327884152, "landuse": "farmland", "closest_distance_restriction": 7.052043191775674}, {"id": 3346986956, "lat": 51.5801419, "lon": 17.5595962, "way_id": 327884152, "landuse": "farmland", "closest_distance_restriction": 7.015511262347105}, {"id": 3346986958, "lat": 51.5806464, "lon": 17.5596935, "way_id": 327884152, "landuse": "farmland", "closest_distance_restriction": 6.962926830843946}, {"id": 3346986960, "lat": 51.5809252, "lon": 17.5597148, "way_id": 327884152, "landuse": "farmland", "closest_distance_restriction": 6.933320918344172}, {"id": 3346986962, "lat": 51.5812756, "lon": 17.5597619, "way_id": 327884152, "landuse": "farmland", "closest_distance_restriction": 6.8964904346491975}, {"id": 3346986963, "lat": 51.581908, "lon": 17.5557753, "way_id": 327884152, "landuse": "farmland", "closest_distance_restriction": 6.762294439168112}, {"id": 3346986965, "lat": 51.5821859, "lon": 17.5597371, "way_id": 327884152, "landuse": "farmland", "closest_distance_restriction": 6.7982720438620285}, {"id": 3346986967, "lat": 51.5823099, "lon": 17.559742, "way_id": 327884152, "landuse": "farmland", "closest_distance_restriction": 6.785048973825083}, {"id": 3346986968, "lat": 51.5823353, "lon": 17.5597283, "way_id": 327884152, "landuse": "farmland", "closest_distance_restriction": 6.7820754581788965}, {"id": 3346986969, "lat": 51.5823557, "lon": 17.5597688, "way_id": 327884152, "landuse": "farmland", "closest_distance_restriction": 6.780616753005514}, {"id": 3346986975, "lat": 51.5841865, "lon": 17.5562935, "way_id": 327884152, "landuse": "farmland", "closest_distance_restriction": 6.523784901733891}, {"id": 3353074126, "lat": 51.5816207, "lon": 17.570891, "way_id": 328478218, "landuse": "farmland", "closest_distance_restriction": 7.095542910214828}, {"id": 3353074140, "lat": 51.582095, "lon": 17.5683527, "way_id": 328478218, "landuse": "farmland", "closest_distance_restriction": 6.986497866942182}, {"id": 3353074143, "lat": 51.5822554, "lon": 17.5674939, "way_id": 328478218, "landuse": "farmland", "closest_distance_restriction": 6.949806282449711}, {"id": 3353074146, "lat": 51.5823731, "lon": 17.566864, "way_id": 328478218, "landuse": "farmland", "closest_distance_restriction": 6.923117388020392}, {"id": 3353074148, "lat": 51.5823972, "lon": 17.5683711, "way_id": 328478218, "landuse": "farmland", "closest_distance_restriction": 6.955265571449541}, {"id": 3353074154, "lat": 51.582537, "lon": 17.5676302, "way_id": 328478218, "landuse": "farmland", "closest_distance_restriction": 6.923418657972204}, {"id": 3353074163, "lat": 51.5829447, "lon": 17.563809, "way_id": 328478218, "landuse": "farmland", "closest_distance_restriction": 6.796417642093689}, {"id": 3353074166, "lat": 51.5832681, "lon": 17.562094, "way_id": 328478218, "landuse": "farmland", "closest_distance_restriction": 6.727140765134686}, {"id": 3353074167, "lat": 51.5833139, "lon": 17.5618009, "way_id": 328478218, "landuse": "farmland", "closest_distance_restriction": 6.716467265532307}, {"id": 3373741497, "lat": 51.5816133, "lon": 17.5709233, "way_id": 328478218, "landuse": "farmland", "closest_distance_restriction": 7.097091386522413}, {"id": 3373741498, "lat": 51.5817033, "lon": 17.5708047, "way_id": 328478218, "landuse": "farmland", "closest_distance_restriction": 7.084857357456736}, {"id": 3373741504, "lat": 51.582183, "lon": 17.5700808, "way_id": 328478218, "landuse": "farmland", "closest_distance_restriction": 7.017508806506713}, {"id": 3373741518, "lat": 51.5824819, "lon": 17.5695973, "way_id": 328478218, "landuse": "farmland", "closest_distance_restriction": 6.974837492525531}, {"id": 3373741532, "lat": 51.5826839, "lon": 17.5693128, "way_id": 328478218, "landuse": "farmland", "closest_distance_restriction": 6.947023983582103}, {"id": 3373741543, "lat": 51.5828007, "lon": 17.569194, "way_id": 330413953, "landuse": "farmland", "closest_distance_restriction": 6.932020580173848}, {"id": 3373741547, "lat": 51.5828433, "lon": 17.5690691, "way_id": 328478218, "landuse": "farmland", "closest_distance_restriction": 6.9246388828237215}, {"id": 3373741550, "lat": 51.5828621, "lon": 17.5691001, "way_id": 330413953, "landuse": "farmland", "closest_distance_restriction": 6.923397465444709}, {"id": 3373741558, "lat": 51.5829465, "lon": 17.5689011, "way_id": 328478218, "landuse": "farmland", "closest_distance_restriction": 6.909915148743543}, {"id": 3373741559, "lat": 51.5829651, "lon": 17.5689327, "way_id": 330413953, "landuse": "farmland", "closest_distance_restriction": 6.908705904071822}, {"id": 3373741565, "lat": 51.5830659, "lon": 17.568731, "way_id": 328478218, "landuse": "farmland", "closest_distance_restriction": 6.893453539580904}, {"id": 3373741566, "lat": 51.5830835, "lon": 17.5687638, "way_id": 330413953, "landuse": "farmland", "closest_distance_restriction": 6.89237430630424}, {"id": 3373741567, "lat": 51.5830958, "lon": 17.5685217, "way_id": 328478218, "landuse": "farmland", "closest_distance_restriction": 6.885465525460459}, {"id": 3373741572, "lat": 51.5831378, "lon": 17.5685403, "way_id": 328478218, "landuse": "farmland", "closest_distance_restriction": 6.881496160716778}, {"id": 3373741577, "lat": 51.5832041, "lon": 17.5684083, "way_id": 328478218, "landuse": "farmland", "closest_distance_restriction": 6.871495084043597}, {"id": 3373741579, "lat": 51.5832492, "lon": 17.5685389, "way_id": 330413953, "landuse": "farmland", "closest_distance_restriction": 6.869795061310774}, {"id": 3373741582, "lat": 51.5833004, "lon": 17.5684871, "way_id": 330413953, "landuse": "farmland", "closest_distance_restriction": 6.863230618190807}, {"id": 3373741584, "lat": 51.5833419, "lon": 17.5683609, "way_id": 328478218, "landuse": "farmland", "closest_distance_restriction": 6.855959879531287}, {"id": 3373741585, "lat": 51.5833479, "lon": 17.5615405, "way_id": 328478218, "landuse": "farmland", "closest_distance_restriction": 6.7077384203593144}, {"id": 3373741586, "lat": 51.5833484, "lon": 17.5684489, "way_id": 330413953, "landuse": "farmland", "closest_distance_restriction": 6.857316988888638}, {"id": 3373741588, "lat": 51.5834047, "lon": 17.5684328, "way_id": 330413953, "landuse": "farmland", "closest_distance_restriction": 6.851046541891105}, {"id": 3373741589, "lat": 51.5834848, "lon": 17.568373, "way_id": 328478218, "landuse": "farmland", "closest_distance_restriction": 6.8412696613836586}, {"id": 3373741590, "lat": 51.5834872, "lon": 17.5684162, "way_id": 330413953, "landuse": "farmland", "closest_distance_restriction": 6.84202067538574}, {"id": 3373741591, "lat": 51.5835665, "lon": 17.5683667, "way_id": 328478218, "landuse": "farmland", "closest_distance_restriction": 6.8325663992233725}, {"id": 3373741592, "lat": 51.5835669, "lon": 17.5684101, "way_id": 330413953, "landuse": "farmland", "closest_distance_restriction": 6.833532611311713}, {"id": 3373741593, "lat": 51.5839107, "lon": 17.5692594, "way_id": 330413953, "landuse": "farmland", "closest_distance_restriction": 6.817610510986698}, {"id": 3373741594, "lat": 51.5839952, "lon": 17.5684192, "way_id": 330413953, "landuse": "farmland", "closest_distance_restriction": 6.788914910364638}, {"id": 3373741596, "lat": 51.5839968, "lon": 17.5683758, "way_id": 328478218, "landuse": "farmland", "closest_distance_restriction": 6.787732489657883}, {"id": 3373741604, "lat": 51.5840749, "lon": 17.5684336, "way_id": 330413953, "landuse": "farmland", "closest_distance_restriction": 6.7809145382534215}, {"id": 3373741605, "lat": 51.5840785, "lon": 17.5683907, "way_id": 328478218, "landuse": "farmland", "closest_distance_restriction": 6.77953299020331}, {"id": 3373741607, "lat": 51.5841727, "lon": 17.568459, "way_id": 330413953, "landuse": "farmland", "closest_distance_restriction": 6.771281947821706}, {"id": 3373741608, "lat": 51.5841771, "lon": 17.5684162, "way_id": 328478218, "landuse": "farmland", "closest_distance_restriction": 6.769816989071711}, {"id": 3373741616, "lat": 51.5849549, "lon": 17.5630019, "way_id": 328478218, "landuse": "farmland", "closest_distance_restriction": 6.566502750411117}, {"id": 3373741617, "lat": 51.5850921, "lon": 17.5687068, "way_id": 330413953, "landuse": "farmland", "closest_distance_restriction": 6.681152802707855}, {"id": 3373741618, "lat": 51.5850969, "lon": 17.5686642, "way_id": 328478218, "landuse": "farmland", "closest_distance_restriction": 6.679631088474391}, {"id": 3373741619, "lat": 51.5852985, "lon": 17.5622685, "way_id": 328478218, "landuse": "farmland", "closest_distance_restriction": 6.514805885594166}, {"id": 3373741620, "lat": 51.5853969, "lon": 17.5688035, "way_id": 330413953, "landuse": "farmland", "closest_distance_restriction": 6.651711471196302}, {"id": 3373741621, "lat": 51.5854015, "lon": 17.5687607, "way_id": 328478218, "landuse": "farmland", "closest_distance_restriction": 6.650198805279198}, {"id": 3373741624, "lat": 51.5856268, "lon": 17.56886, "way_id": 330413953, "landuse": "farmland", "closest_distance_restriction": 6.629138264044488}, {"id": 3373741625, "lat": 51.5856314, "lon": 17.5688172, "way_id": 328478218, "landuse": "farmland", "closest_distance_restriction": 6.627620684581858}, {"id": 3373741626, "lat": 51.5859154, "lon": 17.5689474, "way_id": 330413953, "landuse": "farmland", "closest_distance_restriction": 6.6012382333349615}, {"id": 3373741627, "lat": 51.5859204, "lon": 17.5689048, "way_id": 328478218, "landuse": "farmland", "closest_distance_restriction": 6.599677307140228}, {"id": 3373741628, "lat": 51.5859695, "lon": 17.5722437, "way_id": 330413953, "landuse": "farmland", "closest_distance_restriction": 6.679654698103497}, {"id": 3373741629, "lat": 51.5860634, "lon": 17.5647454, "way_id": 328478218, "landuse": "farmland", "closest_distance_restriction": 6.487469911413224}, {"id": 3373741630, "lat": 51.5862164, "lon": 17.5690403, "way_id": 330413953, "landuse": "farmland", "closest_distance_restriction": 6.5722290356460435}, {"id": 3373741631, "lat": 51.5862218, "lon": 17.5689979, "way_id": 328478218, "landuse": "farmland", "closest_distance_restriction": 6.5706245406605905}, {"id": 3373741632, "lat": 51.5863849, "lon": 17.5691004, "way_id": 330413953, "landuse": "farmland", "closest_distance_restriction": 6.5562110708711865}, {"id": 3373741633, "lat": 51.5863907, "lon": 17.569058, "way_id": 328478218, "landuse": "farmland", "closest_distance_restriction": 6.554560983201837}, {"id": 3373741634, "lat": 51.5864664, "lon": 17.5691282, "way_id": 330413953, "landuse": "farmland", "closest_distance_restriction": 6.5484381823839914}, {"id": 3373741635, "lat": 51.5864699, "lon": 17.5690853, "way_id": 328478218, "landuse": "farmland", "closest_distance_restriction": 6.54701257255457}, {"id": 3373741636, "lat": 51.5866246, "lon": 17.572325, "way_id": 330413953, "landuse": "farmland", "closest_distance_restriction": 6.614625917022302}, {"id": 3373741637, "lat": 51.5869933, "lon": 17.565892, "way_id": 328478218, "landuse": "farmland", "closest_distance_restriction": 6.416312418825571}, {"id": 3373741638, "lat": 51.5873023, "lon": 17.5665676, "way_id": 328478218, "landuse": "farmland", "closest_distance_restriction": 6.399589486745948}, {"id": 3373741640, "lat": 51.5888947, "lon": 17.5689692, "way_id": 328478218, "landuse": "farmland", "closest_distance_restriction": 6.293037478817272}, {"id": 3373741641, "lat": 51.5889894, "lon": 17.5711623, "way_id": 330413953, "landuse": "farmland", "closest_distance_restriction": 6.341178276410393}, {"id": 3373741642, "lat": 51.5891708, "lon": 17.5703738, "way_id": 330413953, "landuse": "farmland", "closest_distance_restriction": 6.301388707916113}, {"id": 3373741643, "lat": 51.5893661, "lon": 17.5692869, "way_id": 328478218, "landuse": "farmland", "closest_distance_restriction": 6.252647978671253}, {"id": 3373741644, "lat": 51.5893895, "lon": 17.5693226, "way_id": 328478218, "landuse": "farmland", "closest_distance_restriction": 6.251169744060539}, {"id": 3373741645, "lat": 51.5894206, "lon": 17.5693683, "way_id": 330413953, "landuse": "farmland", "closest_distance_restriction": 6.249162036985965}, {"id": 3373741646, "lat": 51.5894221, "lon": 17.570448, "way_id": 330413953, "landuse": "farmland", "closest_distance_restriction": 6.277613803789681}, {"id": 3373741647, "lat": 51.5894474, "lon": 17.5708382, "way_id": 330413953, "landuse": "farmland", "closest_distance_restriction": 6.285549639047315}, {"id": 3373741648, "lat": 51.5894593, "lon": 17.5704983, "way_id": 330413953, "landuse": "farmland", "closest_distance_restriction": 6.275154497437036}, {"id": 3373741649, "lat": 51.5894593, "lon": 17.5709722, "way_id": 330413953, "landuse": "farmland", "closest_distance_restriction": 6.287971235637964}, {"id": 3373741650, "lat": 51.5894712, "lon": 17.5710272, "way_id": 330413953, "landuse": "farmland", "closest_distance_restriction": 6.288252002016553}, {"id": 3373741652, "lat": 51.5894935, "lon": 17.5703858, "way_id": 330413953, "landuse": "farmland", "closest_distance_restriction": 6.2686287179156635}, {"id": 3373741653, "lat": 51.5895088, "lon": 17.5694987, "way_id": 330413953, "landuse": "farmland", "closest_distance_restriction": 6.243504586752503}, {"id": 3385988297, "lat": 51.7680557, "lon": 17.615065, "way_id": 836195128, "landuse": "farmland", "closest_distance_restriction": 3.0598422070849285}, {"id": 3385988311, "lat": 51.7696212, "lon": 17.6160239, "way_id": 836195131, "landuse": "farmland", "closest_distance_restriction": 3.2459725117790037}, {"id": 3395383642, "lat": 51.7866934, "lon": 17.1960644, "way_id": 332546966, "landuse": "farmland", "closest_distance_restriction": 9.197363061244479}, {"id": 3395383643, "lat": 51.7885718, "lon": 17.1973226, "way_id": 332546966, "landuse": "farmland", "closest_distance_restriction": 9.423282349996}, {"id": 3395383667, "lat": 51.793238, "lon": 17.2005023, "way_id": 332546966, "landuse": "farmland", "closest_distance_restriction": 9.986071832306658}, {"id": 3396934956, "lat": 51.7868177, "lon": 17.1956488, "way_id": 332546966, "landuse": "farmland", "closest_distance_restriction": 9.198004810301114}, {"id": 3396934958, "lat": 51.7873333, "lon": 17.1919404, "way_id": 332546966, "landuse": "farmland", "closest_distance_restriction": 9.1477735264374}, {"id": 3396934959, "lat": 51.7880558, "lon": 17.1896769, "way_id": 332546966, "landuse": "farmland", "closest_distance_restriction": 9.162740947456554}, {"id": 3396934962, "lat": 51.7892341, "lon": 17.1878692, "way_id": 332546966, "landuse": "farmland", "closest_distance_restriction": 9.239544514984578}, {"id": 3396934964, "lat": 51.7894364, "lon": 17.1870315, "way_id": 332546966, "landuse": "farmland", "closest_distance_restriction": 9.240290891032611}, {"id": 3396934965, "lat": 51.7895781, "lon": 17.1868361, "way_id": 332546966, "landuse": "farmland", "closest_distance_restriction": 9.250378471374743}, {"id": 3396934966, "lat": 51.7899363, "lon": 17.1862329, "way_id": 332546966, "landuse": "farmland", "closest_distance_restriction": 9.273462851957563}, {"id": 3396934968, "lat": 51.790207, "lon": 17.1858115, "way_id": 332546966, "landuse": "farmland", "closest_distance_restriction": 9.291908080484816}, {"id": 3396934970, "lat": 51.7911989, "lon": 17.184352, "way_id": 332546966, "landuse": "farmland", "closest_distance_restriction": 9.362670214401605}, {"id": 3396934971, "lat": 51.7913031, "lon": 17.1804539, "way_id": 332546966, "landuse": "farmland", "closest_distance_restriction": 9.290068126440472}, {"id": 3396934973, "lat": 51.7915086, "lon": 17.1830145, "way_id": 332546966, "landuse": "farmland", "closest_distance_restriction": 9.365857642276412}, {"id": 3396934974, "lat": 51.791623, "lon": 17.1817021, "way_id": 332546966, "landuse": "farmland", "closest_distance_restriction": 9.349924808164689}, {"id": 3396934975, "lat": 51.7916687, "lon": 17.1804625, "way_id": 332546966, "landuse": "farmland", "closest_distance_restriction": 9.329049860713823}, {"id": 3396934976, "lat": 51.7917202, "lon": 17.1805589, "way_id": 332546966, "landuse": "farmland", "closest_distance_restriction": 9.336490406320356}, {"id": 3396936107, "lat": 51.7962027, "lon": 17.1914089, "way_id": 332546966, "landuse": "farmland", "closest_distance_restriction": 10.050454602104248}, {"id": 3396936120, "lat": 51.7964412, "lon": 17.1907498, "way_id": 332546966, "landuse": "farmland", "closest_distance_restriction": 10.059504049139221}, {"id": 3396936123, "lat": 51.7964952, "lon": 17.1902637, "way_id": 332546966, "landuse": "farmland", "closest_distance_restriction": 10.053616409683459}, {"id": 3396936124, "lat": 51.7964984, "lon": 17.1905556, "way_id": 332546966, "landuse": "farmland", "closest_distance_restriction": 10.0608568247928}, {"id": 3396936126, "lat": 51.7965213, "lon": 17.1901092, "way_id": 332546966, "landuse": "farmland", "closest_distance_restriction": 10.052702222298041}, {"id": 3396936128, "lat": 51.7965254, "lon": 17.1906375, "way_id": 332546966, "landuse": "farmland", "closest_distance_restriction": 10.065618416107553}, {"id": 3396936140, "lat": 51.7966553, "lon": 17.1896046, "way_id": 332546966, "landuse": "farmland", "closest_distance_restriction": 10.054901240864949}, {"id": 3396936144, "lat": 51.7968211, "lon": 17.188363, "way_id": 332546966, "landuse": "farmland", "closest_distance_restriction": 10.043710470253284}, {"id": 3396936148, "lat": 51.797009, "lon": 17.187338, "way_id": 332546966, "landuse": "farmland", "closest_distance_restriction": 10.04040500849944}, {"id": 3396936152, "lat": 51.7973153, "lon": 17.1859907, "way_id": 332546966, "landuse": "farmland", "closest_distance_restriction": 10.043140873680555}, {"id": 3396936156, "lat": 51.7973897, "lon": 17.1857318, "way_id": 332546966, "landuse": "farmland", "closest_distance_restriction": 10.045419446717789}, {"id": 3396936157, "lat": 51.7973913, "lon": 17.1858097, "way_id": 332546966, "landuse": "farmland", "closest_distance_restriction": 10.047263079693023}, {"id": 3396936164, "lat": 51.7975784, "lon": 17.1851889, "way_id": 332546966, "landuse": "farmland", "closest_distance_restriction": 10.0537780172122}, {"id": 3396936167, "lat": 51.79787, "lon": 17.1846632, "way_id": 332546966, "landuse": "farmland", "closest_distance_restriction": 10.073571547371355}, {"id": 3396936169, "lat": 51.7981428, "lon": 17.1840583, "way_id": 332546966, "landuse": "farmland", "closest_distance_restriction": 10.089933276647644}, {"id": 3396936174, "lat": 51.7985382, "lon": 17.1828021, "way_id": 332546966, "landuse": "farmland", "closest_distance_restriction": 10.106456026696653}, {"id": 3396936177, "lat": 51.7990471, "lon": 17.1812726, "way_id": 332546966, "landuse": "farmland", "closest_distance_restriction": 10.130725551068227}, {"id": 3396936179, "lat": 51.7991492, "lon": 17.1810824, "way_id": 332546966, "landuse": "farmland", "closest_distance_restriction": 10.137984150151306}, {"id": 3396936184, "lat": 51.7999824, "lon": 17.1798698, "way_id": 332546966, "landuse": "farmland", "closest_distance_restriction": 10.20435785068456}, {"id": 3396936187, "lat": 51.8005141, "lon": 17.1790099, "way_id": 332546966, "landuse": "farmland", "closest_distance_restriction": 10.245735603472921}, {"id": 3396936189, "lat": 51.8008049, "lon": 17.178508, "way_id": 332546966, "landuse": "farmland", "closest_distance_restriction": 10.26802516325784}, {"id": 3396936193, "lat": 51.8008825, "lon": 17.1742191, "way_id": 332546966, "landuse": "farmland", "closest_distance_restriction": 10.204585141312972}, {"id": 3396936194, "lat": 51.8008899, "lon": 17.1784974, "way_id": 332546966, "landuse": "farmland", "closest_distance_restriction": 10.27697201983979}, {"id": 3396936196, "lat": 51.8009307, "lon": 17.1742139, "way_id": 332546966, "landuse": "farmland", "closest_distance_restriction": 10.20971931309615}, {"id": 3396936197, "lat": 51.8010508, "lon": 17.1776191, "way_id": 332546966, "landuse": "farmland", "closest_distance_restriction": 10.278945427343926}, {"id": 3396936199, "lat": 51.8011112, "lon": 17.1776481, "way_id": 332546966, "landuse": "farmland", "closest_distance_restriction": 10.28594709272288}, {"id": 3396936200, "lat": 51.8015831, "lon": 17.1725862, "way_id": 332546966, "landuse": "farmland", "closest_distance_restriction": 10.25539574262013}, {"id": 3396936201, "lat": 51.8017009, "lon": 17.1730943, "way_id": 332546966, "landuse": "farmland", "closest_distance_restriction": 10.275832495224458}, {"id": 3396936203, "lat": 51.8025003, "lon": 17.1796285, "way_id": 332546966, "landuse": "farmland", "closest_distance_restriction": 10.470049804573849}, {"id": 3399476656, "lat": 51.7895465, "lon": 17.2127783, "way_id": 333343517, "landuse": "farmland", "closest_distance_restriction": 10.008351069546706}, {"id": 3404610823, "lat": 51.7809767, "lon": 17.2227271, "way_id": 333343556, "landuse": "farmland", "closest_distance_restriction": 9.518429618540694}, {"id": 3404610824, "lat": 51.7818145, "lon": 17.2233357, "way_id": 333343556, "landuse": "farmland", "closest_distance_restriction": 9.614647733861954}, {"id": 3404610825, "lat": 51.782284, "lon": 17.2145834, "way_id": 333343543, "landuse": "farmland", "closest_distance_restriction": 9.384838450867669}, {"id": 3404610826, "lat": 51.7826577, "lon": 17.2125609, "way_id": 333343543, "landuse": "farmland", "closest_distance_restriction": 9.34469830989674}, {"id": 3404610827, "lat": 51.7827286, "lon": 17.2125333, "way_id": 333343517, "landuse": "farmland", "closest_distance_restriction": 9.350354553964536}, {"id": 3404610828, "lat": 51.7828262, "lon": 17.2121692, "way_id": 333343517, "landuse": "farmland", "closest_distance_restriction": 9.346223905134842}, {"id": 3404610829, "lat": 51.7828813, "lon": 17.2126478, "way_id": 333343543, "landuse": "farmland", "closest_distance_restriction": 9.36891938126901}, {"id": 3404610830, "lat": 51.7828961, "lon": 17.2125763, "way_id": 333343517, "landuse": "farmland", "closest_distance_restriction": 9.36769244707909}, {"id": 3404610831, "lat": 51.7829187, "lon": 17.2152036, "way_id": 333343556, "landuse": "farmland", "closest_distance_restriction": 9.467259773583915}, {"id": 3404610832, "lat": 51.7829212, "lon": 17.2118467, "way_id": 333343504, "landuse": "farmland", "closest_distance_restriction": 9.343437669144333}, {"id": 3404610833, "lat": 51.7829372, "lon": 17.2119128, "way_id": 333343517, "landuse": "farmland", "closest_distance_restriction": 9.347351260276394}, {"id": 3404610834, "lat": 51.7830319, "lon": 17.2246139, "way_id": 333343556, "landuse": "farmland", "closest_distance_restriction": 9.757073292830432}, {"id": 3404610835, "lat": 51.7830671, "lon": 17.2127429, "way_id": 333343543, "landuse": "farmland", "closest_distance_restriction": 9.389889459747742}, {"id": 3404610836, "lat": 51.783071, "lon": 17.2115221, "way_id": 333343504, "landuse": "farmland", "closest_distance_restriction": 9.345821674052242}, {"id": 3404610837, "lat": 51.7830736, "lon": 17.2126767, "way_id": 333343517, "landuse": "farmland", "closest_distance_restriction": 9.3880779018486}, {"id": 3404610838, "lat": 51.7833414, "lon": 17.2155867, "way_id": 333343556, "landuse": "farmland", "closest_distance_restriction": 9.521027307351629}, {"id": 3404610839, "lat": 51.783423, "lon": 17.2155572, "way_id": 333343543, "landuse": "farmland", "closest_distance_restriction": 9.527526336095665}, {"id": 3404610840, "lat": 51.7839956, "lon": 17.2159097, "way_id": 333343543, "landuse": "farmland", "closest_distance_restriction": 9.594135111391557}, {"id": 3404610841, "lat": 51.7841271, "lon": 17.2135901, "way_id": 333343543, "landuse": "farmland", "closest_distance_restriction": 9.520699749028077}, {"id": 3404610842, "lat": 51.7841508, "lon": 17.2135608, "way_id": 333343517, "landuse": "farmland", "closest_distance_restriction": 9.521862443358575}, {"id": 3404610843, "lat": 51.7842853, "lon": 17.2097786, "way_id": 333343504, "landuse": "farmland", "closest_distance_restriction": 9.399191570817708}, {"id": 3404610844, "lat": 51.784289, "lon": 17.2162461, "way_id": 333343556, "landuse": "farmland", "closest_distance_restriction": 9.63409795678805}, {"id": 3404610845, "lat": 51.7843204, "lon": 17.2162343, "way_id": 333343543, "landuse": "farmland", "closest_distance_restriction": 9.636586642674292}, {"id": 3404610846, "lat": 51.7843282, "lon": 17.2161709, "way_id": 333343543, "landuse": "farmland", "closest_distance_restriction": 9.634944281520232}, {"id": 3404610847, "lat": 51.7844804, "lon": 17.2136897, "way_id": 333343543, "landuse": "farmland", "closest_distance_restriction": 9.557635461243436}, {"id": 3404610848, "lat": 51.7845933, "lon": 17.2165539, "way_id": 333343543, "landuse": "farmland", "closest_distance_restriction": 9.674007851641626}, {"id": 3404610849, "lat": 51.7846498, "lon": 17.2167736, "way_id": 333343556, "landuse": "farmland", "closest_distance_restriction": 9.687503741328175}, {"id": 3404610850, "lat": 51.7846828, "lon": 17.2167212, "way_id": 333343543, "landuse": "farmland", "closest_distance_restriction": 9.688619108920266}, {"id": 3404610851, "lat": 51.7849228, "lon": 17.2169663, "way_id": 333343556, "landuse": "farmland", "closest_distance_restriction": 9.720183170274911}, {"id": 3404610852, "lat": 51.7849244, "lon": 17.2169064, "way_id": 333343543, "landuse": "farmland", "closest_distance_restriction": 9.718090727075635}, {"id": 3404610853, "lat": 51.7850869, "lon": 17.2084066, "way_id": 333343504, "landuse": "farmland", "closest_distance_restriction": 9.428565378169862}, {"id": 3404610854, "lat": 51.7852522, "lon": 17.2170779, "way_id": 333343556, "landuse": "farmland", "closest_distance_restriction": 9.755098762190862}, {"id": 3404610855, "lat": 51.7852695, "lon": 17.2170103, "way_id": 333343543, "landuse": "farmland", "closest_distance_restriction": 9.754190129680802}, {"id": 3404610856, "lat": 51.7853883, "lon": 17.2259883, "way_id": 333343556, "landuse": "farmland", "closest_distance_restriction": 10.026777552736176}, {"id": 3404610857, "lat": 51.785475, "lon": 17.2172909, "way_id": 333343556, "landuse": "farmland", "closest_distance_restriction": 9.783858223941259}, {"id": 3404610858, "lat": 51.7856648, "lon": 17.2172817, "way_id": 333343543, "landuse": "farmland", "closest_distance_restriction": 9.801244887031437}, {"id": 3404610859, "lat": 51.7856884, "lon": 17.2173568, "way_id": 333343556, "landuse": "farmland", "closest_distance_restriction": 9.806250277655392}, {"id": 3404610860, "lat": 51.7859589, "lon": 17.2139337, "way_id": 333343517, "landuse": "farmland", "closest_distance_restriction": 9.706229377021726}, {"id": 3404610861, "lat": 51.7859635, "lon": 17.2139838, "way_id": 333343543, "landuse": "farmland", "closest_distance_restriction": 9.708469521323392}, {"id": 3404610862, "lat": 51.786127, "lon": 17.2091547, "way_id": 333343504, "landuse": "farmland", "closest_distance_restriction": 9.554485506766188}, {"id": 3404610863, "lat": 51.7863027, "lon": 17.2091953, "way_id": 333343504, "landuse": "farmland", "closest_distance_restriction": 9.572826715252381}, {"id": 3404610864, "lat": 51.7865041, "lon": 17.2175581, "way_id": 333343543, "landuse": "farmland", "closest_distance_restriction": 9.890041811969416}, {"id": 3404610865, "lat": 51.7865198, "lon": 17.2176307, "way_id": 333343556, "landuse": "farmland", "closest_distance_restriction": 9.894204418281715}, {"id": 3404610866, "lat": 51.7866266, "lon": 17.2133733, "way_id": 333343504, "landuse": "farmland", "closest_distance_restriction": 9.749574885681387}, {"id": 3404610867, "lat": 51.786637, "lon": 17.2267086, "way_id": 333343556, "landuse": "farmland", "closest_distance_restriction": 10.019222909068914}, {"id": 3404610868, "lat": 51.7866977, "lon": 17.2134675, "way_id": 333343517, "landuse": "farmland", "closest_distance_restriction": 9.759692582996461}, {"id": 3404610869, "lat": 51.7867914, "lon": 17.2133771, "way_id": 333343504, "landuse": "farmland", "closest_distance_restriction": 9.76539827559793}, {"id": 3404610870, "lat": 51.7871984, "lon": 17.2132529, "way_id": 333343504, "landuse": "farmland", "closest_distance_restriction": 9.799790874459784}, {"id": 3404610871, "lat": 51.7872141, "lon": 17.2174395, "way_id": 333343543, "landuse": "farmland", "closest_distance_restriction": 9.95226667675725}, {"id": 3404610872, "lat": 51.7872191, "lon": 17.2133169, "way_id": 333343517, "landuse": "farmland", "closest_distance_restriction": 9.804027379147403}, {"id": 3404610873, "lat": 51.7872477, "lon": 17.2174481, "way_id": 333343556, "landuse": "farmland", "closest_distance_restriction": 9.955740107654238}, {"id": 3404610874, "lat": 51.7872595, "lon": 17.2173938, "way_id": 333343543, "landuse": "farmland", "closest_distance_restriction": 9.954852684674407}, {"id": 3404610875, "lat": 51.7872812, "lon": 17.2173068, "way_id": 333343543, "landuse": "farmland", "closest_distance_restriction": 9.953696674458467}, {"id": 3404610876, "lat": 51.7873136, "lon": 17.2173061, "way_id": 333343556, "landuse": "farmland", "closest_distance_restriction": 9.956717647912384}, {"id": 3404610877, "lat": 51.7877089, "lon": 17.2138609, "way_id": 333343543, "landuse": "farmland", "closest_distance_restriction": 9.869978734500918}, {"id": 3404610878, "lat": 51.7877104, "lon": 17.2137921, "way_id": 333343517, "landuse": "farmland", "closest_distance_restriction": 9.867688957055899}, {"id": 3404610879, "lat": 51.7879296, "lon": 17.213782, "way_id": 333343543, "landuse": "farmland", "closest_distance_restriction": 9.888249556155392}, {"id": 3404610880, "lat": 51.7879778, "lon": 17.213697, "way_id": 333343517, "landuse": "farmland", "closest_distance_restriction": 9.88985597509419}, {"id": 3404610881, "lat": 51.7881415, "lon": 17.2136529, "way_id": 333343543, "landuse": "farmland", "closest_distance_restriction": 9.90394445246915}, {"id": 3404610883, "lat": 51.7883175, "lon": 17.2169004, "way_id": 333343556, "landuse": "farmland", "closest_distance_restriction": 10.036576922054971}, {"id": 3404610884, "lat": 51.7883289, "lon": 17.2168218, "way_id": 333343543, "landuse": "farmland", "closest_distance_restriction": 10.03480895173517}, {"id": 3404610886, "lat": 51.7886197, "lon": 17.2121091, "way_id": 333343504, "landuse": "farmland", "closest_distance_restriction": 9.896091423671914}, {"id": 3404610887, "lat": 51.7886333, "lon": 17.2122015, "way_id": 333343517, "landuse": "farmland", "closest_distance_restriction": 9.90058388164326}, {"id": 3404610888, "lat": 51.788685, "lon": 17.2168294, "way_id": 333343543, "landuse": "farmland", "closest_distance_restriction": 10.068776916710927}, {"id": 3404610889, "lat": 51.7887442, "lon": 17.2169054, "way_id": 333343556, "landuse": "farmland", "closest_distance_restriction": 10.077123259114138}, {"id": 3404610891, "lat": 51.788823, "lon": 17.2132434, "way_id": 333343517, "landuse": "farmland", "closest_distance_restriction": 9.954884211751109}, {"id": 3404610892, "lat": 51.788837, "lon": 17.2133014, "way_id": 333343543, "landuse": "farmland", "closest_distance_restriction": 9.95824470783001}, {"id": 3404612593, "lat": 51.7890087, "lon": 17.2076509, "way_id": 333343504, "landuse": "farmland", "closest_distance_restriction": 9.784212565610996}, {"id": 3404612594, "lat": 51.7890315, "lon": 17.2124669, "way_id": 333343517, "landuse": "farmland", "closest_distance_restriction": 9.948050478602216}, {"id": 3404612595, "lat": 51.7890434, "lon": 17.2278802, "way_id": 333343556, "landuse": "farmland", "closest_distance_restriction": 9.944380688601363}, {"id": 3404612596, "lat": 51.7890726, "lon": 17.2124323, "way_id": 333343517, "landuse": "farmland", "closest_distance_restriction": 9.950816403671029}, {"id": 3404612597, "lat": 51.7890987, "lon": 17.2170677, "way_id": 333343556, "landuse": "farmland", "closest_distance_restriction": 10.116545573907555}, {"id": 3404612599, "lat": 51.789129, "lon": 17.216979, "way_id": 333343543, "landuse": "farmland", "closest_distance_restriction": 10.116224147904635}, {"id": 3404612602, "lat": 51.7893887, "lon": 17.2127879, "way_id": 333343517, "landuse": "farmland", "closest_distance_restriction": 9.993486750843697}, {"id": 3404612603, "lat": 51.7893971, "lon": 17.2128621, "way_id": 333343543, "landuse": "farmland", "closest_distance_restriction": 9.99685057244033}, {"id": 3404612605, "lat": 51.7895291, "lon": 17.2128747, "way_id": 333343543, "landuse": "farmland", "closest_distance_restriction": 10.009990733199743}, {"id": 3404612607, "lat": 51.7896675, "lon": 17.2110821, "way_id": 333343504, "landuse": "farmland", "closest_distance_restriction": 9.96229057964007}, {"id": 3404612608, "lat": 51.7896823, "lon": 17.2174988, "way_id": 333343556, "landuse": "farmland", "closest_distance_restriction": 10.187361559475276}, {"id": 3404612609, "lat": 51.7898164, "lon": 17.2130863, "way_id": 333343543, "landuse": "farmland", "closest_distance_restriction": 10.044933330318809}, {"id": 3404612611, "lat": 51.7901457, "lon": 17.2132288, "way_id": 333343543, "landuse": "farmland", "closest_distance_restriction": 10.081549328331038}, {"id": 3404612614, "lat": 51.790363, "lon": 17.2177423, "way_id": 333343556, "landuse": "farmland", "closest_distance_restriction": 10.260669285113025}, {"id": 3404612616, "lat": 51.7908681, "lon": 17.2177981, "way_id": 333343556, "landuse": "farmland", "closest_distance_restriction": 10.310648423710246}, {"id": 3404612617, "lat": 51.7911702, "lon": 17.2064083, "way_id": 333343504, "landuse": "farmland", "closest_distance_restriction": 9.956909924124014}, {"id": 3404612618, "lat": 51.7913334, "lon": 17.2063778, "way_id": 333343504, "landuse": "farmland", "closest_distance_restriction": 9.972083685902236}, {"id": 3404612621, "lat": 51.7914887, "lon": 17.2064666, "way_id": 333343504, "landuse": "farmland", "closest_distance_restriction": 9.990234025483796}, {"id": 3404612625, "lat": 51.7917978, "lon": 17.2293409, "way_id": 333343556, "landuse": "farmland", "closest_distance_restriction": 9.859534292218296}, {"id": 3404612630, "lat": 51.7919102, "lon": 17.2287758, "way_id": 333343556, "landuse": "farmland", "closest_distance_restriction": 9.899147751270506}, {"id": 3404612635, "lat": 51.792293, "lon": 17.227614, "way_id": 333343556, "landuse": "farmland", "closest_distance_restriction": 9.981803132043924}, {"id": 3404612641, "lat": 51.7926531, "lon": 17.2183459, "way_id": 333343556, "landuse": "farmland", "closest_distance_restriction": 10.500130533147901}, {"id": 3404612646, "lat": 51.7929318, "lon": 17.2255482, "way_id": 333343556, "landuse": "farmland", "closest_distance_restriction": 10.128743417808543}, {"id": 3404612650, "lat": 51.7930798, "lon": 17.2185842, "way_id": 333343556, "landuse": "farmland", "closest_distance_restriction": 10.54927279416343}, {"id": 3404612658, "lat": 51.7934442, "lon": 17.2238375, "way_id": 333343556, "landuse": "farmland", "closest_distance_restriction": 10.250540778651155}, {"id": 3404612674, "lat": 51.7939788, "lon": 17.2223599, "way_id": 333343556, "landuse": "farmland", "closest_distance_restriction": 10.356794630640337}, {"id": 3404612685, "lat": 51.794469, "lon": 17.2208429, "way_id": 333343556, "landuse": "farmland", "closest_distance_restriction": 10.465541199656874}, {"id": 3404612691, "lat": 51.7947336, "lon": 17.2199391, "way_id": 333343556, "landuse": "farmland", "closest_distance_restriction": 10.530136834625367}, {"id": 3404612793, "lat": 51.7947635, "lon": 17.2199585, "way_id": 333343556, "landuse": "farmland", "closest_distance_restriction": 10.529118026521582}, {"id": 3404612795, "lat": 51.7948186, "lon": 17.2197517, "way_id": 333343556, "landuse": "farmland", "closest_distance_restriction": 10.543850586505775}, {"id": 3419477924, "lat": 51.7652063, "lon": 17.2983071, "way_id": 334834081, "landuse": "farmland", "closest_distance_restriction": 5.587566229437942}, {"id": 3419477939, "lat": 51.7654426, "lon": 17.2981367, "way_id": 334834081, "landuse": "farmland", "closest_distance_restriction": 5.587533212426099}, {"id": 3419477941, "lat": 51.7654922, "lon": 17.2984533, "way_id": 334834081, "landuse": "farmland", "closest_distance_restriction": 5.565385475104257}, {"id": 3419477950, "lat": 51.765869, "lon": 17.2985994, "way_id": 334834081, "landuse": "farmland", "closest_distance_restriction": 5.5392598855418935}, {"id": 3419477956, "lat": 51.7660197, "lon": 17.2981819, "way_id": 334834081, "landuse": "farmland", "closest_distance_restriction": 5.55891833017707}, {"id": 3419477973, "lat": 51.7669716, "lon": 17.2994485, "way_id": 334834081, "landuse": "farmland", "closest_distance_restriction": 5.437274352823789}, {"id": 3419477976, "lat": 51.7670772, "lon": 17.2857811, "way_id": 334878783, "landuse": "meadow", "closest_distance_restriction": 6.311351167565029}, {"id": 3419477977, "lat": 51.7670863, "lon": 17.2840637, "way_id": 334878783, "landuse": "meadow", "closest_distance_restriction": 6.422660245827838}, {"id": 3419477983, "lat": 51.7671899, "lon": 17.2858106, "way_id": 334878783, "landuse": "meadow", "closest_distance_restriction": 6.305297459781023}, {"id": 3419477985, "lat": 51.7673484, "lon": 17.2858407, "way_id": 334878783, "landuse": "meadow", "closest_distance_restriction": 6.297557681873295}, {"id": 3419477986, "lat": 51.7673696, "lon": 17.2856138, "way_id": 334878783, "landuse": "meadow", "closest_distance_restriction": 6.311547011201684}, {"id": 3419477989, "lat": 51.7675157, "lon": 17.2840834, "way_id": 334878783, "landuse": "meadow", "closest_distance_restriction": 6.40601035344914}, {"id": 3419478096, "lat": 51.7677929, "lon": 17.284541, "way_id": 334878783, "landuse": "meadow", "closest_distance_restriction": 6.3663726557202365}, {"id": 3419478116, "lat": 51.7687072, "lon": 17.2994589, "way_id": 334834081, "landuse": "farmland", "closest_distance_restriction": 5.365030100670982}, {"id": 3419490561, "lat": 51.7639559, "lon": 17.3018416, "way_id": 334834081, "landuse": "farmland", "closest_distance_restriction": 5.423772235779874}, {"id": 3419490563, "lat": 51.7640406, "lon": 17.3017128, "way_id": 334834081, "landuse": "farmland", "closest_distance_restriction": 5.427794416154037}, {"id": 3419490564, "lat": 51.7642449, "lon": 17.3098587, "way_id": 334834081, "landuse": "farmland", "closest_distance_restriction": 4.915208119133078}, {"id": 3419490569, "lat": 51.7643112, "lon": 17.2987009, "way_id": 334834081, "landuse": "farmland", "closest_distance_restriction": 5.603953590922238}, {"id": 3419490572, "lat": 51.7643346, "lon": 17.3016484, "way_id": 334834081, "landuse": "farmland", "closest_distance_restriction": 5.418043080349693}, {"id": 3419490575, "lat": 51.7644342, "lon": 17.31497, "way_id": 334834081, "landuse": "farmland", "closest_distance_restriction": 4.59600313832409}, {"id": 3419490576, "lat": 51.7644624, "lon": 17.2987099, "way_id": 334834081, "landuse": "farmland", "closest_distance_restriction": 5.596595040566423}, {"id": 3419490578, "lat": 51.7646159, "lon": 17.298661, "way_id": 334834081, "landuse": "farmland", "closest_distance_restriction": 5.5927772307318175}, {"id": 3419490581, "lat": 51.7647281, "lon": 17.3234942, "way_id": 334834081, "landuse": "farmland", "closest_distance_restriction": 4.077134401923276}, {"id": 3419491895, "lat": 51.7669802, "lon": 17.2983748, "way_id": 334834081, "landuse": "farmland", "closest_distance_restriction": 5.50513740300375}, {"id": 3419491896, "lat": 51.7676323, "lon": 17.3247579, "way_id": 334834081, "landuse": "farmland", "closest_distance_restriction": 3.8346705051279226}, {"id": 3419491897, "lat": 51.7678863, "lon": 17.3219678, "way_id": 334834081, "landuse": "farmland", "closest_distance_restriction": 3.989240085781834}, {"id": 3419491898, "lat": 51.7681595, "lon": 17.3204305, "way_id": 334834081, "landuse": "farmland", "closest_distance_restriction": 4.0691196612587595}, {"id": 3419491899, "lat": 51.7687596, "lon": 17.3187434, "way_id": 334834081, "landuse": "farmland", "closest_distance_restriction": 4.143956621505902}, {"id": 3419491900, "lat": 51.768762, "lon": 17.312829, "way_id": 334834081, "landuse": "farmland", "closest_distance_restriction": 4.514327207532881}, {"id": 3419491901, "lat": 51.7688241, "lon": 17.3134544, "way_id": 334834081, "landuse": "farmland", "closest_distance_restriction": 4.472398734850768}, {"id": 3419491902, "lat": 51.7688862, "lon": 17.3103272, "way_id": 334834081, "landuse": "farmland", "closest_distance_restriction": 4.665452241562386}, {"id": 3419491903, "lat": 51.7689533, "lon": 17.3050363, "way_id": 334834081, "landuse": "farmland", "closest_distance_restriction": 4.997797285247511}, {"id": 3419491904, "lat": 51.7689579, "lon": 17.3027697, "way_id": 334834081, "landuse": "farmland", "closest_distance_restriction": 5.142467919125523}, {"id": 3419491905, "lat": 51.7689866, "lon": 17.3117788, "way_id": 334834081, "landuse": "farmland", "closest_distance_restriction": 4.569678845100255}, {"id": 3419491906, "lat": 51.7689992, "lon": 17.3046511, "way_id": 334834081, "landuse": "farmland", "closest_distance_restriction": 5.020461128527918}, {"id": 3419491907, "lat": 51.7690954, "lon": 17.303903, "way_id": 334834081, "landuse": "farmland", "closest_distance_restriction": 5.064308956111943}, {"id": 3419491908, "lat": 51.7692054, "lon": 17.3043696, "way_id": 334834081, "landuse": "farmland", "closest_distance_restriction": 5.0299536935340505}, {"id": 3420000150, "lat": 51.7478163, "lon": 17.2818997, "way_id": 334878782, "landuse": "farmland", "closest_distance_restriction": 7.50245191785186}, {"id": 3420000151, "lat": 51.7482961, "lon": 17.2905221, "way_id": 334878782, "landuse": "farmland", "closest_distance_restriction": 6.9820695626356075}, {"id": 3420000152, "lat": 51.7483595, "lon": 17.2818363, "way_id": 334878782, "landuse": "farmland", "closest_distance_restriction": 7.4732333672603914}, {"id": 3420000153, "lat": 51.748373, "lon": 17.2921321, "way_id": 334878784, "landuse": "farmland", "closest_distance_restriction": 6.887085214098758}, {"id": 3420000154, "lat": 51.7484199, "lon": 17.281539, "way_id": 334878782, "landuse": "farmland", "closest_distance_restriction": 7.4868241037185745}, {"id": 3420000155, "lat": 51.7484772, "lon": 17.2802619, "way_id": 334878782, "landuse": "farmland", "closest_distance_restriction": 7.492611989299283}, {"id": 3420000156, "lat": 51.7484772, "lon": 17.2809979, "way_id": 334878782, "landuse": "farmland", "closest_distance_restriction": 7.514794105554089}, {"id": 3420000157, "lat": 51.7485436, "lon": 17.2814854, "way_id": 334878782, "landuse": "farmland", "closest_distance_restriction": 7.482522493572589}, {"id": 3420000158, "lat": 51.7485738, "lon": 17.2810662, "way_id": 334878782, "landuse": "farmland", "closest_distance_restriction": 7.505065014543403}, {"id": 3420000159, "lat": 51.7486268, "lon": 17.2963045, "way_id": 334878784, "landuse": "farmland", "closest_distance_restriction": 6.639416448172818}, {"id": 3420000160, "lat": 51.748639, "lon": 17.2958913, "way_id": 334878784, "landuse": "farmland", "closest_distance_restriction": 6.661453245670669}, {"id": 3420000161, "lat": 51.7487209, "lon": 17.2978386, "way_id": 334878784, "landuse": "farmland", "closest_distance_restriction": 6.548310795996544}, {"id": 3420000162, "lat": 51.7488069, "lon": 17.2963343, "way_id": 334878784, "landuse": "farmland", "closest_distance_restriction": 6.62586553671028}, {"id": 3420000163, "lat": 51.7489118, "lon": 17.2905903, "way_id": 334878782, "landuse": "farmland", "closest_distance_restriction": 6.938714876865111}, {"id": 3420000164, "lat": 51.7489299, "lon": 17.2911411, "way_id": 334878782, "landuse": "farmland", "closest_distance_restriction": 6.9065427246767515}, {"id": 3420000165, "lat": 51.7489481, "lon": 17.2960268, "way_id": 334878784, "landuse": "farmland", "closest_distance_restriction": 6.633335461664424}, {"id": 3420000166, "lat": 51.7490198, "lon": 17.2922479, "way_id": 334878784, "landuse": "farmland", "closest_distance_restriction": 6.838615524647522}, {"id": 3420000167, "lat": 51.7490402, "lon": 17.2919999, "way_id": 334878784, "landuse": "farmland", "closest_distance_restriction": 6.851206668418752}, {"id": 3420000168, "lat": 51.7492407, "lon": 17.2919795, "way_id": 334878782, "landuse": "farmland", "closest_distance_restriction": 6.839460957588437}, {"id": 3420000169, "lat": 51.749295, "lon": 17.291185, "way_id": 334878782, "landuse": "farmland", "closest_distance_restriction": 6.880740466011839}, {"id": 3420000170, "lat": 51.7502123, "lon": 17.2921744, "way_id": 334878782, "landuse": "farmland", "closest_distance_restriction": 6.766634213932873}, {"id": 3420000171, "lat": 51.7502264, "lon": 17.2922462, "way_id": 334878784, "landuse": "farmland", "closest_distance_restriction": 6.7616746571597375}, {"id": 3420000172, "lat": 51.7503645, "lon": 17.2985164, "way_id": 334878784, "landuse": "farmland", "closest_distance_restriction": 6.4017745903}, {"id": 3420000173, "lat": 51.7518116, "lon": 17.2989495, "way_id": 334878784, "landuse": "farmland", "closest_distance_restriction": 6.282784653858985}, {"id": 3420000174, "lat": 51.7521821, "lon": 17.2923755, "way_id": 334878782, "landuse": "farmland", "closest_distance_restriction": 6.633212127463536}, {"id": 3420000175, "lat": 51.7533022, "lon": 17.292441, "way_id": 334878782, "landuse": "farmland", "closest_distance_restriction": 6.562254641097737}, {"id": 3420000176, "lat": 51.7536803, "lon": 17.2998818, "way_id": 334878784, "landuse": "farmland", "closest_distance_restriction": 6.110973911689727}, {"id": 3420000177, "lat": 51.7538276, "lon": 17.3000471, "way_id": 334878784, "landuse": "farmland", "closest_distance_restriction": 6.092335573459355}, {"id": 3420000178, "lat": 51.7554997, "lon": 17.3001232, "way_id": 334878784, "landuse": "farmland", "closest_distance_restriction": 5.98502986827412}, {"id": 3420000179, "lat": 51.7559277, "lon": 17.2928582, "way_id": 334878784, "landuse": "farmland", "closest_distance_restriction": 6.386654369233744}, {"id": 3420000180, "lat": 51.756261, "lon": 17.2998289, "way_id": 334878784, "landuse": "farmland", "closest_distance_restriction": 5.956629079910116}, {"id": 3420000181, "lat": 51.7566601, "lon": 17.2998554, "way_id": 334878784, "landuse": "farmland", "closest_distance_restriction": 5.931610849780685}, {"id": 3420000182, "lat": 51.7573273, "lon": 17.300057, "way_id": 334878784, "landuse": "farmland", "closest_distance_restriction": 5.881034473219971}, {"id": 3420000183, "lat": 51.7575278, "lon": 17.3001893, "way_id": 334878784, "landuse": "farmland", "closest_distance_restriction": 5.861711732019998}, {"id": 3420000184, "lat": 51.7578246, "lon": 17.3003645, "way_id": 334878784, "landuse": "farmland", "closest_distance_restriction": 5.8343931876257225}, {"id": 3420000185, "lat": 51.7583321, "lon": 17.3008472, "way_id": 334878784, "landuse": "farmland", "closest_distance_restriction": 5.777017725861309}, {"id": 3420000186, "lat": 51.7587709, "lon": 17.2818919, "way_id": 334878782, "landuse": "farmland", "closest_distance_restriction": 6.911847383688974}, {"id": 3420000295, "lat": 51.7636855, "lon": 17.2823624, "way_id": 334878782, "landuse": "farmland", "closest_distance_restriction": 6.663994257694719}, {"id": 3420000301, "lat": 51.7638803, "lon": 17.2936776, "way_id": 334878782, "landuse": "farmland", "closest_distance_restriction": 5.938607126611099}, {"id": 3420000313, "lat": 51.7647559, "lon": 17.2938349, "way_id": 334878784, "landuse": "farmland", "closest_distance_restriction": 5.8892766727082595}, {"id": 3420000314, "lat": 51.7648249, "lon": 17.29387, "way_id": 334878784, "landuse": "farmland", "closest_distance_restriction": 5.884007286790724}, {"id": 3420000317, "lat": 51.7649457, "lon": 17.2969393, "way_id": 334878784, "landuse": "farmland", "closest_distance_restriction": 5.685300347266879}, {"id": 3420000319, "lat": 51.7650611, "lon": 17.2743861, "way_id": 334878783, "landuse": "meadow", "closest_distance_restriction": 7.125664909792931}, {"id": 3420000328, "lat": 51.7655719, "lon": 17.2762423, "way_id": 334878783, "landuse": "meadow", "closest_distance_restriction": 6.986415917138876}, {"id": 3420000331, "lat": 51.7665322, "lon": 17.2767668, "way_id": 334878783, "landuse": "meadow", "closest_distance_restriction": 6.918335709273217}, {"id": 3420000333, "lat": 51.7665549, "lon": 17.276312, "way_id": 334878783, "landuse": "meadow", "closest_distance_restriction": 6.947308391435194}, {"id": 3420000334, "lat": 51.7665821, "lon": 17.2766568, "way_id": 334878783, "landuse": "meadow", "closest_distance_restriction": 6.923809888206508}, {"id": 3420000337, "lat": 51.7668886, "lon": 17.2751748, "way_id": 334878783, "landuse": "meadow", "closest_distance_restriction": 7.010509771777571}, {"id": 3420000339, "lat": 51.766973, "lon": 17.2831862, "way_id": 334878783, "landuse": "meadow", "closest_distance_restriction": 6.483864606302208}, {"id": 3420000345, "lat": 51.7670821, "lon": 17.2839449, "way_id": 334878783, "landuse": "meadow", "closest_distance_restriction": 6.430543422129207}, {"id": 3420000346, "lat": 51.7670929, "lon": 17.2804609, "way_id": 334878783, "landuse": "meadow", "closest_distance_restriction": 6.657369694782293}, {"id": 3420000347, "lat": 51.7673631, "lon": 17.2822253, "way_id": 334878783, "landuse": "meadow", "closest_distance_restriction": 6.532664117104361}, {"id": 3420000348, "lat": 51.7674562, "lon": 17.2823097, "way_id": 334878783, "landuse": "meadow", "closest_distance_restriction": 6.523896152387327}, {"id": 3420000349, "lat": 51.7675311, "lon": 17.2828416, "way_id": 334878783, "landuse": "meadow", "closest_distance_restriction": 6.4865305723441455}, {"id": 3420000350, "lat": 51.7677899, "lon": 17.2844154, "way_id": 334878783, "landuse": "meadow", "closest_distance_restriction": 6.3746794395454724}, {"id": 3882679571, "lat": 51.8351462, "lon": 17.56295, "way_id": 384912464, "landuse": "farmland", "closest_distance_restriction": 2.0750492450215714}, {"id": 3882679582, "lat": 51.8355924, "lon": 17.564057, "way_id": 384912464, "landuse": "farmland", "closest_distance_restriction": 2.143200734942536}, {"id": 3882679586, "lat": 51.8358581, "lon": 17.5647598, "way_id": 384912464, "landuse": "farmland", "closest_distance_restriction": 2.1875429490492517}, {"id": 3882679594, "lat": 51.83631, "lon": 17.5635447, "way_id": 384912464, "landuse": "farmland", "closest_distance_restriction": 2.0992829815483924}, {"id": 3882679597, "lat": 51.8363345, "lon": 17.5635827, "way_id": 384912464, "landuse": "farmland", "closest_distance_restriction": 2.1016275286634016}, {"id": 3882679603, "lat": 51.8363708, "lon": 17.5636708, "way_id": 384912464, "landuse": "farmland", "closest_distance_restriction": 2.107284685505743}, {"id": 3882679604, "lat": 51.8364525, "lon": 17.566132, "way_id": 384912464, "landuse": "farmland", "closest_distance_restriction": 2.2749987447801483}, {"id": 3882679608, "lat": 51.8365108, "lon": 17.5639908, "way_id": 384912464, "landuse": "farmland", "closest_distance_restriction": 2.127840502957561}, {"id": 3882679614, "lat": 51.8365432, "lon": 17.5640238, "way_id": 384912464, "landuse": "farmland", "closest_distance_restriction": 2.1298061870201916}, {"id": 3882679618, "lat": 51.8365863, "lon": 17.5640323, "way_id": 384912464, "landuse": "farmland", "closest_distance_restriction": 2.130006747014128}, {"id": 3882679625, "lat": 51.8370507, "lon": 17.5674569, "way_id": 384912464, "landuse": "farmland", "closest_distance_restriction": 2.3615583549501107}, {"id": 3882679629, "lat": 51.8373232, "lon": 17.5639944, "way_id": 384912464, "landuse": "farmland", "closest_distance_restriction": 2.1225434049999525}, {"id": 3882679643, "lat": 51.837564, "lon": 17.5686207, "way_id": 384912464, "landuse": "farmland", "closest_distance_restriction": 2.439388507367271}, {"id": 3882679653, "lat": 51.837841, "lon": 17.565819, "way_id": 384912464, "landuse": "farmland", "closest_distance_restriction": 2.2463621911314204}, {"id": 3882679654, "lat": 51.8378425, "lon": 17.5666694, "way_id": 384912464, "landuse": "farmland", "closest_distance_restriction": 2.304783552201407}, {"id": 3882681361, "lat": 51.8379428, "lon": 17.5639579, "way_id": 384912464, "landuse": "farmland", "closest_distance_restriction": 2.1183858304144163}, {"id": 3882681366, "lat": 51.8380055, "lon": 17.5658263, "way_id": 384912464, "landuse": "farmland", "closest_distance_restriction": 2.246712363184819}, {"id": 3882681371, "lat": 51.8380561, "lon": 17.5650459, "way_id": 384912464, "landuse": "farmland", "closest_distance_restriction": 2.193077813589998}, {"id": 3882681393, "lat": 51.8382441, "lon": 17.5701529, "way_id": 384912464, "landuse": "farmland", "closest_distance_restriction": 2.544011318251173}, {"id": 3882681434, "lat": 51.8384438, "lon": 17.5639458, "way_id": 384912464, "landuse": "farmland", "closest_distance_restriction": 2.1178568899479218}, {"id": 3882681444, "lat": 51.838484, "lon": 17.5650444, "way_id": 384912464, "landuse": "farmland", "closest_distance_restriction": 2.1934085651034114}, {"id": 3882681445, "lat": 51.8384846, "lon": 17.5706957, "way_id": 384912464, "landuse": "farmland", "closest_distance_restriction": 2.5816177244418306}, {"id": 3882681454, "lat": 51.8385272, "lon": 17.5667306, "way_id": 384912464, "landuse": "farmland", "closest_distance_restriction": 2.3093332855223996}, {"id": 3882681455, "lat": 51.8385307, "lon": 17.5707806, "way_id": 384912464, "landuse": "farmland", "closest_distance_restriction": 2.5875415428598423}, {"id": 3882681464, "lat": 51.8385596, "lon": 17.5678371, "way_id": 384912464, "landuse": "farmland", "closest_distance_restriction": 2.3854152091180647}, {"id": 3882681469, "lat": 51.8385888, "lon": 17.5708466, "way_id": 384912464, "landuse": "farmland", "closest_distance_restriction": 2.5922049219968524}, {"id": 3882681480, "lat": 51.8386643, "lon": 17.5708886, "way_id": 384912464, "landuse": "farmland", "closest_distance_restriction": 2.5952821782517996}, {"id": 3950702182, "lat": 51.7624933, "lon": 17.1662693, "way_id": 392786596, "landuse": "farmland", "closest_distance_restriction": 5.941364138830746}, {"id": 3950702183, "lat": 51.7624279, "lon": 17.1637013, "way_id": 392786596, "landuse": "farmland", "closest_distance_restriction": 5.883333497999835}, {"id": 3959764227, "lat": 51.7520807, "lon": 17.1578906, "way_id": 392786632, "landuse": "farmland", "closest_distance_restriction": 4.667622166477371}, {"id": 3959764228, "lat": 51.7544378, "lon": 17.1525711, "way_id": 392786632, "landuse": "farmland", "closest_distance_restriction": 4.843362860759259}, {"id": 3959764229, "lat": 51.7548794, "lon": 17.1528606, "way_id": 392786596, "landuse": "farmland", "closest_distance_restriction": 4.895221148626189}, {"id": 3959764230, "lat": 51.7547281, "lon": 17.1535221, "way_id": 392786596, "landuse": "farmland", "closest_distance_restriction": 4.887022115206099}, {"id": 3959764231, "lat": 51.7563748, "lon": 17.1545636, "way_id": 392786596, "landuse": "farmland", "closest_distance_restriction": 5.080466220242451}, {"id": 3959764232, "lat": 51.7564758, "lon": 17.1542687, "way_id": 392786596, "landuse": "farmland", "closest_distance_restriction": 5.087572437764832}, {"id": 3959764233, "lat": 51.7564915, "lon": 17.1540585, "way_id": 392786596, "landuse": "farmland", "closest_distance_restriction": 5.086548171323123}, {"id": 3959764234, "lat": 51.7567408, "lon": 17.1540966, "way_id": 392786596, "landuse": "farmland", "closest_distance_restriction": 5.114268812833266}, {"id": 3959764240, "lat": 51.7549235, "lon": 17.1537158, "way_id": 392786596, "landuse": "farmland", "closest_distance_restriction": 4.910876859492136}, {"id": 3959764241, "lat": 51.7560824, "lon": 17.1544346, "way_id": 392786596, "landuse": "farmland", "closest_distance_restriction": 5.046846229717556}, {"id": 3959764242, "lat": 51.7551792, "lon": 17.1538928, "way_id": 392786596, "landuse": "farmland", "closest_distance_restriction": 4.941109238577229}, {"id": 3959765626, "lat": 51.7491717, "lon": 17.1511261, "way_id": 392786632, "landuse": "farmland", "closest_distance_restriction": 4.249437018879449}, {"id": 3959765627, "lat": 51.7485334, "lon": 17.1511888, "way_id": 392786632, "landuse": "farmland", "closest_distance_restriction": 4.180385595444717}, {"id": 3959765628, "lat": 51.7464432, "lon": 17.1514386, "way_id": 392786632, "landuse": "farmland", "closest_distance_restriction": 3.9553763502983257}, {"id": 3959765669, "lat": 51.7540058, "lon": 17.1506669, "way_id": 392786632, "landuse": "farmland", "closest_distance_restriction": 4.774513783456809}, {"id": 3959765670, "lat": 51.7465452, "lon": 17.1513908, "way_id": 392786632, "landuse": "farmland", "closest_distance_restriction": 3.9658571930504216}, {"id": 3959765671, "lat": 51.7528546, "lon": 17.1507757, "way_id": 392786632, "landuse": "farmland", "closest_distance_restriction": 4.649187458420236}, {"id": 7804701730, "lat": 51.7685051, "lon": 17.6133558, "way_id": 836195128, "landuse": "farmland", "closest_distance_restriction": 3.0699445850572364}, {"id": 7804701731, "lat": 51.7684796, "lon": 17.6153247, "way_id": 836195128, "landuse": "farmland", "closest_distance_restriction": 3.110242773530638}, {"id": 7804701732, "lat": 51.7689006, "lon": 17.6136258, "way_id": 836195128, "landuse": "farmland", "closest_distance_restriction": 3.117460694017052}, {"id": 7804701735, "lat": 51.7686256, "lon": 17.6154141, "way_id": 836195130, "landuse": "meadow", "closest_distance_restriction": 3.127600764456412}, {"id": 7804701736, "lat": 51.7688668, "lon": 17.6144446, "way_id": 836195130, "landuse": "meadow", "closest_distance_restriction": 3.1311859343195843}, {"id": 7804701737, "lat": 51.7692478, "lon": 17.6147037, "way_id": 836195130, "landuse": "meadow", "closest_distance_restriction": 3.1770141198050936}, {"id": 7804701738, "lat": 51.7694544, "lon": 17.6139241, "way_id": 836195130, "landuse": "meadow", "closest_distance_restriction": 3.18236059629078}, {"id": 7804701739, "lat": 51.7691904, "lon": 17.61576, "way_id": 836195131, "landuse": "farmland", "closest_distance_restriction": 3.1947515920342746}, {"id": 7804701740, "lat": 51.7696199, "lon": 17.6140334, "way_id": 836195131, "landuse": "farmland", "closest_distance_restriction": 3.2021708337374992}, {"id": 7804701741, "lat": 51.7700533, "lon": 17.6143041, "way_id": 836195131, "landuse": "farmland", "closest_distance_restriction": 3.2537312549799147}, {"id": 7804701742, "lat": 51.7694052, "lon": 17.6141164, "way_id": 836195130, "landuse": "meadow", "closest_distance_restriction": 3.1811296939960125}, {"id": 7804701743, "lat": 51.7693398, "lon": 17.6143612, "way_id": 836195130, "landuse": "meadow", "closest_distance_restriction": 3.179362673191028}]}