{"nodes": [{"id": 293742579, "lat": 50.3220802, "lon": 21.9582865, "way_id": 371125564, "landuse": "farmland", "closest_distance_restriction": 1.9378686959821134}, {"id": 293742581, "lat": 50.3253234, "lon": 21.9640969, "way_id": 371125564, "landuse": "farmland", "closest_distance_restriction": 1.8921586579333796}, {"id": 293742582, "lat": 50.3253801, "lon": 21.9645271, "way_id": 371125564, "landuse": "farmland", "closest_distance_restriction": 1.8786803144869126}, {"id": 293742585, "lat": 50.3256286, "lon": 21.9655457, "way_id": 371125564, "landuse": "farmland", "closest_distance_restriction": 1.8589237148470323}, {"id": 293742587, "lat": 50.3253681, "lon": 21.9660112, "way_id": 371125564, "landuse": "farmland", "closest_distance_restriction": 1.8163573618893518}, {"id": 293742588, "lat": 50.3236643, "lon": 21.9664226, "way_id": 371125564, "landuse": "farmland", "closest_distance_restriction": 1.6453221869205923}, {"id": 3145173184, "lat": 50.3174786, "lon": 21.9584643, "way_id": 371125564, "landuse": "farmland", "closest_distance_restriction": 1.672938263712275}, {"id": 3145173189, "lat": 50.3178097, "lon": 21.9588657, "way_id": 371125564, "landuse": "farmland", "closest_distance_restriction": 1.6625579911939468}, {"id": 3145173191, "lat": 50.3182111, "lon": 21.9603752, "way_id": 371125564, "landuse": "farmland", "closest_distance_restriction": 1.587151290854321}, {"id": 3145173192, "lat": 50.3188876, "lon": 21.9574895, "way_id": 371125564, "landuse": "farmland", "closest_distance_restriction": 1.8037126355326036}, {"id": 3145173211, "lat": 50.3195474, "lon": 21.9581437, "way_id": 371125564, "landuse": "farmland", "closest_distance_restriction": 1.7962437050483464}, {"id": 3145173218, "lat": 50.3197578, "lon": 21.9567477, "way_id": 371125564, "landuse": "farmland", "closest_distance_restriction": 1.8947361884544502}, {"id": 3145173229, "lat": 50.3200589, "lon": 21.9574184, "way_id": 371125564, "landuse": "farmland", "closest_distance_restriction": 1.868773738035689}, {"id": 3145173233, "lat": 50.3202829, "lon": 21.9575227, "way_id": 371125564, "landuse": "farmland", "closest_distance_restriction": 1.8746313121733769}, {"id": 3145173237, "lat": 50.3203721, "lon": 21.9570772, "way_id": 371125564, "landuse": "farmland", "closest_distance_restriction": 1.9069995822678747}, {"id": 3745538733, "lat": 50.3219765, "lon": 21.9621068, "way_id": 371125564, "landuse": "farmland", "closest_distance_restriction": 1.7179536715639356}, {"id": 3745538734, "lat": 50.3221103, "lon": 21.9598468, "way_id": 371125564, "landuse": "farmland", "closest_distance_restriction": 1.8513416767562825}, {"id": 3745538735, "lat": 50.3234427, "lon": 21.9633189, "way_id": 371125564, "landuse": "farmland", "closest_distance_restriction": 1.7688124468800352}, {"id": 3745538738, "lat": 50.3247917, "lon": 21.9664607, "way_id": 371125564, "landuse": "farmland", "closest_distance_restriction": 1.7454393727635298}, {"id": 3747293012, "lat": 50.3178631, "lon": 21.9591106, "way_id": 371125564, "landuse": "farmland", "closest_distance_restriction": 1.6495022119128473}, {"id": 3747293019, "lat": 50.3192305, "lon": 21.9614083, "way_id": 371125564, "landuse": "farmland", "closest_distance_restriction": 1.5776138366274144}, {"id": 3747293020, "lat": 50.3197015, "lon": 21.9618106, "way_id": 371125564, "landuse": "farmland", "closest_distance_restriction": 1.5815390360847557}, {"id": 3747293022, "lat": 50.3200478, "lon": 21.9614396, "way_id": 371125564, "landuse": "farmland", "closest_distance_restriction": 1.624839793777507}, {"id": 3747293025, "lat": 50.3204837, "lon": 21.9625017, "way_id": 371125564, "landuse": "farmland", "closest_distance_restriction": 1.5916777527193051}, {"id": 3747293027, "lat": 50.3206823, "lon": 21.9560381, "way_id": 371125564, "landuse": "farmland", "closest_distance_restriction": 1.9881757386169696}, {"id": 3747293028, "lat": 50.3217576, "lon": 21.9566222, "way_id": 371125564, "landuse": "farmland", "closest_distance_restriction": 2.014944355421644}, {"id": 3747293030, "lat": 50.3220434, "lon": 21.9647094, "way_id": 371125564, "landuse": "farmland", "closest_distance_restriction": 1.588232980479188}, {"id": 3747293033, "lat": 50.3224309, "lon": 21.9631845, "way_id": 371125564, "landuse": "farmland", "closest_distance_restriction": 1.695513670193579}, {"id": 3747293035, "lat": 50.3236854, "lon": 21.9631162, "way_id": 371125564, "landuse": "farmland", "closest_distance_restriction": 1.7983443722109715}, {"id": 4238876088, "lat": 50.5751007, "lon": 22.4644204, "way_id": 424478597, "landuse": "meadow", "closest_distance_restriction": 3.0620421217880356}, {"id": 4238876089, "lat": 50.5752907, "lon": 22.4639468, "way_id": 424478597, "landuse": "meadow", "closest_distance_restriction": 3.0422851494750462}, {"id": 4238876092, "lat": 50.5755737, "lon": 22.464891, "way_id": 424478597, "landuse": "meadow", "closest_distance_restriction": 3.115926625773864}, {"id": 4238876094, "lat": 50.5757637, "lon": 22.4644175, "way_id": 424478597, "landuse": "meadow", "closest_distance_restriction": 3.0965196850391563}]}