{"nodes": [{"id": 420120904, "lat": 50.520074, "lon": 19.3512607, "way_id": 629107280, "landuse": "farmland", "closest_distance_restriction": 2.140318332104208}, {"id": 420120918, "lat": 50.5203773, "lon": 19.3551194, "way_id": 629107280, "landuse": "farmland", "closest_distance_restriction": 1.869356291687146}, {"id": 420120922, "lat": 50.5198431, "lon": 19.3574609, "way_id": 629107280, "landuse": "farmland", "closest_distance_restriction": 1.732442878106233}, {"id": 420120950, "lat": 50.5203291, "lon": 19.3499757, "way_id": 629107280, "landuse": "farmland", "closest_distance_restriction": 2.2203599267108967}, {"id": 420120952, "lat": 50.52048, "lon": 19.35435, "way_id": 629107280, "landuse": "farmland", "closest_distance_restriction": 1.9180317958446882}, {"id": 420120953, "lat": 50.5203039, "lon": 19.3516065, "way_id": 629107280, "landuse": "farmland", "closest_distance_restriction": 2.109817032091667}, {"id": 420120954, "lat": 50.5200882, "lon": 19.3557015, "way_id": 629107280, "landuse": "farmland", "closest_distance_restriction": 1.8402136911677032}, {"id": 420121151, "lat": 50.5224076, "lon": 19.3479487, "way_id": 629107280, "landuse": "farmland", "closest_distance_restriction": 2.3145425889463027}, {"id": 420121156, "lat": 50.5214226, "lon": 19.3490674, "way_id": 629107280, "landuse": "farmland", "closest_distance_restriction": 2.255497052627315}, {"id": 420121166, "lat": 50.5235902, "lon": 19.3480197, "way_id": 629107280, "landuse": "farmland", "closest_distance_restriction": 2.2936932004485944}, {"id": 510153413, "lat": 50.5255163, "lon": 19.331236, "way_id": 629107228, "landuse": "farmland", "closest_distance_restriction": 2.3106750382631365}, {"id": 4066501520, "lat": 50.5118643, "lon": 19.0929288, "way_id": 404371568, "landuse": "meadow", "closest_distance_restriction": 2.8626425617791607}, {"id": 4066501603, "lat": 50.5149301, "lon": 19.0915958, "way_id": 404371568, "landuse": "meadow", "closest_distance_restriction": 2.5756192324866607}, {"id": 4066501658, "lat": 50.5155218, "lon": 19.0926497, "way_id": 404371568, "landuse": "meadow", "closest_distance_restriction": 2.4866692089677014}, {"id": 4066501925, "lat": 50.512219, "lon": 19.0943236, "way_id": 404371568, "landuse": "meadow", "closest_distance_restriction": 2.7955856726880848}, {"id": 4313829559, "lat": 50.5263852, "lon": 19.3296538, "way_id": 629107228, "landuse": "farmland", "closest_distance_restriction": 2.1770911732779266}, {"id": 5054653284, "lat": 50.5332666, "lon": 19.3564962, "way_id": 518097608, "landuse": "farmland", "closest_distance_restriction": 1.6079466488188447}, {"id": 5067428952, "lat": 50.5326656, "lon": 19.3565693, "way_id": 518097608, "landuse": "farmland", "closest_distance_restriction": 1.6749723343660088}, {"id": 5067428953, "lat": 50.5321401, "lon": 19.3565775, "way_id": 518097608, "landuse": "farmland", "closest_distance_restriction": 1.7332510830403662}, {"id": 5067428954, "lat": 50.5321023, "lon": 19.357162, "way_id": 518097608, "landuse": "farmland", "closest_distance_restriction": 1.7413028365761796}, {"id": 5067428955, "lat": 50.5320745, "lon": 19.3577799, "way_id": 518097608, "landuse": "farmland", "closest_distance_restriction": 1.7495046055827903}, {"id": 5067428956, "lat": 50.5321325, "lon": 19.3583154, "way_id": 518097608, "landuse": "farmland", "closest_distance_restriction": 1.7200698918409374}, {"id": 5067428957, "lat": 50.5322335, "lon": 19.3588945, "way_id": 518097608, "landuse": "farmland", "closest_distance_restriction": 1.6879457105771576}, {"id": 5067428958, "lat": 50.532662, "lon": 19.3599061, "way_id": 518097608, "landuse": "farmland", "closest_distance_restriction": 1.6461577615064902}, {"id": 5939713388, "lat": 50.5254848, "lon": 19.3421669, "way_id": 629107228, "landuse": "farmland", "closest_distance_restriction": 2.6184932588627072}, {"id": 5939713389, "lat": 50.5254007, "lon": 19.3421715, "way_id": 629107228, "landuse": "farmland", "closest_distance_restriction": 2.6271990558440783}, {"id": 5939713390, "lat": 50.5255744, "lon": 19.342138, "way_id": 629107228, "landuse": "farmland", "closest_distance_restriction": 2.609793517469116}, {"id": 5939713391, "lat": 50.5270407, "lon": 19.3416066, "way_id": 629107228, "landuse": "farmland", "closest_distance_restriction": 2.470548369164999}, {"id": 5939713392, "lat": 50.5272544, "lon": 19.3420404, "way_id": 629107228, "landuse": "farmland", "closest_distance_restriction": 2.4371911021381076}, {"id": 5939713393, "lat": 50.5275003, "lon": 19.3418018, "way_id": 629107228, "landuse": "farmland", "closest_distance_restriction": 2.417977027879574}, {"id": 5939713394, "lat": 50.5285483, "lon": 19.341198, "way_id": 629107228, "landuse": "farmland", "closest_distance_restriction": 2.325825000395155}, {"id": 5939713395, "lat": 50.5284334, "lon": 19.3407245, "way_id": 629107228, "landuse": "farmland", "closest_distance_restriction": 2.3507308412760346}, {"id": 5939713396, "lat": 50.5285345, "lon": 19.3405256, "way_id": 629107228, "landuse": "farmland", "closest_distance_restriction": 2.346081149792767}, {"id": 5939713397, "lat": 50.5284701, "lon": 19.3403124, "way_id": 629107228, "landuse": "farmland", "closest_distance_restriction": 2.358756576253671}, {"id": 5939713398, "lat": 50.5281783, "lon": 19.3398388, "way_id": 629107228, "landuse": "farmland", "closest_distance_restriction": 2.4021226313457946}, {"id": 5939713399, "lat": 50.527937, "lon": 19.3391736, "way_id": 629107228, "landuse": "farmland", "closest_distance_restriction": 2.4462769009750334}, {"id": 5939713400, "lat": 50.527829, "lon": 19.3384578, "way_id": 629107228, "landuse": "farmland", "closest_distance_restriction": 2.4790927995277228}, {"id": 5939713401, "lat": 50.5283805, "lon": 19.3364948, "way_id": 629107228, "landuse": "farmland", "closest_distance_restriction": 2.408982793843258}, {"id": 5939713402, "lat": 50.5284724, "lon": 19.336249, "way_id": 629107228, "landuse": "farmland", "closest_distance_restriction": 2.390117512221088}, {"id": 5939713403, "lat": 50.5286999, "lon": 19.3363755, "way_id": 629107228, "landuse": "farmland", "closest_distance_restriction": 2.376127527698289}, {"id": 5939713404, "lat": 50.5287712, "lon": 19.3363321, "way_id": 629107228, "landuse": "farmland", "closest_distance_restriction": 2.368054558289801}, {"id": 5939713405, "lat": 50.5288332, "lon": 19.3361405, "way_id": 629107228, "landuse": "farmland", "closest_distance_restriction": 2.3541339067660654}, {"id": 5939713406, "lat": 50.5288654, "lon": 19.3357465, "way_id": 629107228, "landuse": "farmland", "closest_distance_restriction": 2.3338039083830835}, {"id": 5939713407, "lat": 50.5288148, "lon": 19.3352874, "way_id": 629107228, "landuse": "farmland", "closest_distance_restriction": 2.3180210957092275}, {"id": 5939713408, "lat": 50.5285471, "lon": 19.3339118, "way_id": 629107228, "landuse": "farmland", "closest_distance_restriction": 2.2833980354425396}, {"id": 5939713409, "lat": 50.5280668, "lon": 19.3339462, "way_id": 629107228, "landuse": "farmland", "closest_distance_restriction": 2.328354643896666}, {"id": 5939713410, "lat": 50.5280312, "lon": 19.3338992, "way_id": 629107228, "landuse": "farmland", "closest_distance_restriction": 2.3296958878700975}, {"id": 5939713411, "lat": 50.5280502, "lon": 19.3338423, "way_id": 629107228, "landuse": "farmland", "closest_distance_restriction": 2.3256632163529143}, {"id": 5939713412, "lat": 50.5282771, "lon": 19.3337239, "way_id": 629107228, "landuse": "farmland", "closest_distance_restriction": 2.3001865934863552}, {"id": 5939713413, "lat": 50.528508, "lon": 19.3336281, "way_id": 629107228, "landuse": "farmland", "closest_distance_restriction": 2.275293773550367}, {"id": 5939713414, "lat": 50.5284632, "lon": 19.3324857, "way_id": 629107228, "landuse": "farmland", "closest_distance_restriction": 2.233805536543716}, {"id": 5939713415, "lat": 50.5276129, "lon": 19.3305046, "way_id": 629107228, "landuse": "farmland", "closest_distance_restriction": 2.2056297699632093}, {"id": 5939713416, "lat": 50.5269097, "lon": 19.3298105, "way_id": 629107228, "landuse": "farmland", "closest_distance_restriction": 2.1738466996001993}, {"id": 5939713417, "lat": 50.5226507, "lon": 19.3345819, "way_id": 629107228, "landuse": "farmland", "closest_distance_restriction": 2.637965631452843}, {"id": 5939713418, "lat": 50.5226487, "lon": 19.3347776, "way_id": 629107228, "landuse": "farmland", "closest_distance_restriction": 2.6509241995530775}, {"id": 5939713419, "lat": 50.5226625, "lon": 19.3352838, "way_id": 629107228, "landuse": "farmland", "closest_distance_restriction": 2.6837239770515904}, {"id": 5939713420, "lat": 50.5247379, "lon": 19.3399255, "way_id": 629107228, "landuse": "farmland", "closest_distance_restriction": 2.7524333258327482}, {"id": 5939713421, "lat": 50.5249344, "lon": 19.3406251, "way_id": 629107228, "landuse": "farmland", "closest_distance_restriction": 2.7138838278942483}, {"id": 5939713429, "lat": 50.5253653, "lon": 19.3416463, "way_id": 629107228, "landuse": "farmland", "closest_distance_restriction": 2.6435027885909026}, {"id": 5939713430, "lat": 50.5250711, "lon": 19.3409594, "way_id": 629107228, "landuse": "farmland", "closest_distance_restriction": 2.691192200460746}, {"id": 5939713431, "lat": 50.5237657, "lon": 19.3343366, "way_id": 629107228, "landuse": "farmland", "closest_distance_restriction": 2.578703523102907}, {"id": 5939713432, "lat": 50.523814, "lon": 19.3341197, "way_id": 629107228, "landuse": "farmland", "closest_distance_restriction": 2.562456954175588}, {"id": 5939713433, "lat": 50.5235726, "lon": 19.3339209, "way_id": 629107228, "landuse": "farmland", "closest_distance_restriction": 2.5581208296884337}, {"id": 5939713434, "lat": 50.5235083, "lon": 19.3335377, "way_id": 629107228, "landuse": "farmland", "closest_distance_restriction": 2.5350883661675683}, {"id": 5939713435, "lat": 50.5240645, "lon": 19.3333822, "way_id": 629107228, "landuse": "farmland", "closest_distance_restriction": 2.5040985537846443}, {"id": 5939713436, "lat": 50.5241472, "lon": 19.332952, "way_id": 629107228, "landuse": "farmland", "closest_distance_restriction": 2.472347006203587}, {"id": 5939713437, "lat": 50.5254136, "lon": 19.3324568, "way_id": 629107228, "landuse": "farmland", "closest_distance_restriction": 2.396750542226512}, {"id": 5939713438, "lat": 50.5257238, "lon": 19.3318711, "way_id": 629107228, "landuse": "farmland", "closest_distance_restriction": 2.3475566032451267}, {"id": 5939713439, "lat": 50.5259077, "lon": 19.3307179, "way_id": 629107228, "landuse": "farmland", "closest_distance_restriction": 2.2635356454821625}, {"id": 5939713440, "lat": 50.5259008, "lon": 19.3304504, "way_id": 629107228, "landuse": "farmland", "closest_distance_restriction": 2.2455249210852}, {"id": 5939713460, "lat": 50.5252272, "lon": 19.3566332, "way_id": 629107261, "landuse": "farmland", "closest_distance_restriction": 1.6752239196216339}, {"id": 5939713461, "lat": 50.5235621, "lon": 19.3557052, "way_id": 629107266, "landuse": "farmland", "closest_distance_restriction": 1.753810430085124}, {"id": 5939713462, "lat": 50.5247311, "lon": 19.3554042, "way_id": 629107261, "landuse": "farmland", "closest_distance_restriction": 1.7638937610468022}, {"id": 5939713463, "lat": 50.5195837, "lon": 19.3577172, "way_id": 629107281, "landuse": "farmland", "closest_distance_restriction": 1.7261456659184997}, {"id": 5939714445, "lat": 50.5219615, "lon": 19.3574804, "way_id": 629107259, "landuse": "farmland", "closest_distance_restriction": 1.6615724505033644}, {"id": 5939714446, "lat": 50.5216834, "lon": 19.3585107, "way_id": 629107259, "landuse": "farmland", "closest_distance_restriction": 1.5985208692459374}, {"id": 5939714485, "lat": 50.5277049, "lon": 19.3581311, "way_id": 629107259, "landuse": "farmland", "closest_distance_restriction": 1.5881560624141464}, {"id": 5939714486, "lat": 50.5280128, "lon": 19.3568658, "way_id": 629107259, "landuse": "farmland", "closest_distance_restriction": 1.681932274403932}, {"id": 5939714487, "lat": 50.5299731, "lon": 19.3566236, "way_id": 629107260, "landuse": "farmland", "closest_distance_restriction": 1.7476493774662765}, {"id": 5939714488, "lat": 50.5280795, "lon": 19.3568694, "way_id": 629107260, "landuse": "farmland", "closest_distance_restriction": 1.6829308149821145}, {"id": 5939714489, "lat": 50.5277715, "lon": 19.3581456, "way_id": 629107260, "landuse": "farmland", "closest_distance_restriction": 1.5883057543012082}, {"id": 5939714515, "lat": 50.5322411, "lon": 19.3595771, "way_id": 629107260, "landuse": "farmland", "closest_distance_restriction": 1.6450739288705918}, {"id": 5939714516, "lat": 50.5321722, "lon": 19.3593349, "way_id": 629107260, "landuse": "farmland", "closest_distance_restriction": 1.6569890014571902}, {"id": 5939714517, "lat": 50.5320619, "lon": 19.3590023, "way_id": 629107260, "landuse": "farmland", "closest_distance_restriction": 1.67280518844215}, {"id": 5939714518, "lat": 50.5319562, "lon": 19.3584529, "way_id": 629107260, "landuse": "farmland", "closest_distance_restriction": 1.7030308205619213}, {"id": 5939714519, "lat": 50.5319217, "lon": 19.3576648, "way_id": 629107260, "landuse": "farmland", "closest_distance_restriction": 1.7523098744017527}, {"id": 5939714520, "lat": 50.5319861, "lon": 19.3566272, "way_id": 629107260, "landuse": "farmland", "closest_distance_restriction": 1.750606562842105}, {"id": 5939714521, "lat": 50.5319539, "lon": 19.3564826, "way_id": 629107260, "landuse": "farmland", "closest_distance_restriction": 1.7533565728625262}, {"id": 5939714522, "lat": 50.5318666, "lon": 19.3564501, "way_id": 629107260, "landuse": "farmland", "closest_distance_restriction": 1.7628603497682678}, {"id": 5939714524, "lat": 50.5243191, "lon": 19.3543959, "way_id": 629107266, "landuse": "farmland", "closest_distance_restriction": 1.837790458371651}, {"id": 5939714525, "lat": 50.5251378, "lon": 19.3563995, "way_id": 629107261, "landuse": "farmland", "closest_distance_restriction": 1.6919475222888056}, {"id": 5939714526, "lat": 50.5252941, "lon": 19.356808, "way_id": 629107261, "landuse": "farmland", "closest_distance_restriction": 1.6627513978847395}, {"id": 5939714527, "lat": 50.5253722, "lon": 19.3570249, "way_id": 629107261, "landuse": "farmland", "closest_distance_restriction": 1.6473237599768358}, {"id": 5939714528, "lat": 50.5266247, "lon": 19.3568839, "way_id": 629107261, "landuse": "farmland", "closest_distance_restriction": 1.6619666133077324}, {"id": 5939714529, "lat": 50.5279645, "lon": 19.3567502, "way_id": 629107261, "landuse": "farmland", "closest_distance_restriction": 1.6891098460266882}, {"id": 5939714530, "lat": 50.5293365, "lon": 19.3565802, "way_id": 629107261, "landuse": "farmland", "closest_distance_restriction": 1.7321286227366044}, {"id": 5939714531, "lat": 50.5308302, "lon": 19.3564248, "way_id": 629107261, "landuse": "farmland", "closest_distance_restriction": 1.7898421712970876}, {"id": 5939714532, "lat": 50.5319011, "lon": 19.3563416, "way_id": 629107261, "landuse": "farmland", "closest_distance_restriction": 1.7584719591926932}, {"id": 5939714533, "lat": 50.5324227, "lon": 19.3563055, "way_id": 629107261, "landuse": "farmland", "closest_distance_restriction": 1.7004390517380157}, {"id": 5939714534, "lat": 50.5329305, "lon": 19.3562187, "way_id": 629107261, "landuse": "farmland", "closest_distance_restriction": 1.6436799663698864}, {"id": 5939714536, "lat": 50.5318896, "lon": 19.3542015, "way_id": 629107261, "landuse": "farmland", "closest_distance_restriction": 1.7554698147479049}, {"id": 5939714537, "lat": 50.5313266, "lon": 19.3525422, "way_id": 629107261, "landuse": "farmland", "closest_distance_restriction": 1.8235103957866525}, {"id": 5939714562, "lat": 50.5291936, "lon": 19.347294, "way_id": 629107266, "landuse": "farmland", "closest_distance_restriction": 2.1183811753919044}, {"id": 5939714584, "lat": 50.5299452, "lon": 19.3473089, "way_id": 629107266, "landuse": "farmland", "closest_distance_restriction": 2.0371396833348427}, {"id": 5939714585, "lat": 50.5308164, "lon": 19.3525205, "way_id": 629107266, "landuse": "farmland", "closest_distance_restriction": 1.8801896596554746}, {"id": 5939714586, "lat": 50.5307475, "lon": 19.3519782, "way_id": 629107266, "landuse": "farmland", "closest_distance_restriction": 1.8911520395791699}, {"id": 5939714587, "lat": 50.5330764, "lon": 19.3512281, "way_id": 629107266, "landuse": "farmland", "closest_distance_restriction": 1.640382408184399}, {"id": 5939714588, "lat": 50.532317, "lon": 19.3498128, "way_id": 629107266, "landuse": "farmland", "closest_distance_restriction": 1.7405039018466029}, {"id": 5939714589, "lat": 50.5322193, "lon": 19.3497152, "way_id": 629107266, "landuse": "farmland", "closest_distance_restriction": 1.7525012253148768}, {"id": 5939714590, "lat": 50.5318712, "lon": 19.3497965, "way_id": 629107266, "landuse": "farmland", "closest_distance_restriction": 1.7893844729257027}, {"id": 5939714591, "lat": 50.5318321, "lon": 19.3495381, "way_id": 629107266, "landuse": "farmland", "closest_distance_restriction": 1.7971770341610085}, {"id": 5939714592, "lat": 50.5320389, "lon": 19.3494151, "way_id": 629107266, "landuse": "farmland", "closest_distance_restriction": 1.7764033805852444}, {"id": 5939714593, "lat": 50.5313404, "lon": 19.3479655, "way_id": 629107266, "landuse": "farmland", "closest_distance_restriction": 1.875322316636904}, {"id": 5939714594, "lat": 50.5310531, "lon": 19.347651, "way_id": 629107266, "landuse": "farmland", "closest_distance_restriction": 1.9118425445030336}, {"id": 5939714595, "lat": 50.5305062, "lon": 19.3472786, "way_id": 629107266, "landuse": "farmland", "closest_distance_restriction": 1.977388144389614}, {"id": 5939714596, "lat": 50.5302166, "lon": 19.3472316, "way_id": 629107266, "landuse": "farmland", "closest_distance_restriction": 2.009350616622359}, {"id": 5939714597, "lat": 50.5294675, "lon": 19.3474449, "way_id": 629107266, "landuse": "farmland", "closest_distance_restriction": 2.086249097163872}, {"id": 5939714598, "lat": 50.529348, "lon": 19.3474666, "way_id": 629107266, "landuse": "farmland", "closest_distance_restriction": 2.0987796197633255}, {"id": 5939714599, "lat": 50.5291216, "lon": 19.3472136, "way_id": 629107266, "landuse": "farmland", "closest_distance_restriction": 2.1275298340136874}, {"id": 5939714600, "lat": 50.528986, "lon": 19.3470924, "way_id": 629107266, "landuse": "farmland", "closest_distance_restriction": 2.1442486695465686}, {"id": 5939714601, "lat": 50.5288918, "lon": 19.3470979, "way_id": 629107266, "landuse": "farmland", "closest_distance_restriction": 2.154306704519205}, {"id": 5939714602, "lat": 50.5286253, "lon": 19.3472642, "way_id": 629107266, "landuse": "farmland", "closest_distance_restriction": 2.1802366802175364}, {"id": 5939714603, "lat": 50.52766, "lon": 19.3479745, "way_id": 629107266, "landuse": "farmland", "closest_distance_restriction": 2.273848416006882}, {"id": 5939714604, "lat": 50.5266362, "lon": 19.3487608, "way_id": 629107266, "landuse": "farmland", "closest_distance_restriction": 2.235036467613023}, {"id": 5939714605, "lat": 50.5265305, "lon": 19.348806, "way_id": 629107266, "landuse": "farmland", "closest_distance_restriction": 2.2312115512774926}, {"id": 5939714606, "lat": 50.5259847, "lon": 19.3487463, "way_id": 629107266, "landuse": "farmland", "closest_distance_restriction": 2.2331356513300973}, {"id": 5939714607, "lat": 50.5258916, "lon": 19.3487698, "way_id": 629107266, "landuse": "farmland", "closest_distance_restriction": 2.231248515282343}, {"id": 5939714608, "lat": 50.5255147, "lon": 19.3490862, "way_id": 629107266, "landuse": "farmland", "closest_distance_restriction": 2.208456193545085}, {"id": 5939714609, "lat": 50.5254331, "lon": 19.3491223, "way_id": 629107266, "landuse": "farmland", "closest_distance_restriction": 2.2059158267563572}, {"id": 5939714610, "lat": 50.5250608, "lon": 19.3491295, "way_id": 629107266, "landuse": "farmland", "closest_distance_restriction": 2.20593323658209}, {"id": 5939714611, "lat": 50.5248654, "lon": 19.349182, "way_id": 629107266, "landuse": "farmland", "closest_distance_restriction": 2.2028108684839998}, {"id": 5939714612, "lat": 50.5247586, "lon": 19.3491422, "way_id": 629107266, "landuse": "farmland", "closest_distance_restriction": 2.206034316830579}, {"id": 5939714613, "lat": 50.5243368, "lon": 19.3491097, "way_id": 629107266, "landuse": "farmland", "closest_distance_restriction": 2.2105760832852868}, {"id": 5939714614, "lat": 50.5238312, "lon": 19.3488403, "way_id": 629107266, "landuse": "farmland", "closest_distance_restriction": 2.2335528522132235}, {"id": 5939714615, "lat": 50.5237206, "lon": 19.3486978, "way_id": 629107277, "landuse": "farmland", "closest_distance_restriction": 2.244642137601333}, {"id": 5939714616, "lat": 50.5243656, "lon": 19.3490102, "way_id": 629107277, "landuse": "farmland", "closest_distance_restriction": 2.2174136152204755}, {"id": 5939714617, "lat": 50.5252182, "lon": 19.3490428, "way_id": 629107277, "landuse": "farmland", "closest_distance_restriction": 2.2117441911899087}, {"id": 5939714618, "lat": 50.525448, "lon": 19.3490392, "way_id": 629107277, "landuse": "farmland", "closest_distance_restriction": 2.2117852967356693}, {"id": 5939714619, "lat": 50.5257261, "lon": 19.3487897, "way_id": 629107277, "landuse": "farmland", "closest_distance_restriction": 2.2295579306631046}, {"id": 5939714620, "lat": 50.5259238, "lon": 19.3486271, "way_id": 629107277, "landuse": "farmland", "closest_distance_restriction": 2.2414065860574044}, {"id": 5939714621, "lat": 50.5264248, "lon": 19.3487066, "way_id": 629107277, "landuse": "farmland", "closest_distance_restriction": 2.237657430489242}, {"id": 5939714622, "lat": 50.5265696, "lon": 19.3486813, "way_id": 629107277, "landuse": "farmland", "closest_distance_restriction": 2.240241624524416}, {"id": 5939714623, "lat": 50.5283897, "lon": 19.3473003, "way_id": 629107277, "landuse": "farmland", "closest_distance_restriction": 2.205102777682832}, {"id": 5939714624, "lat": 50.5286241, "lon": 19.3469352, "way_id": 629107277, "landuse": "farmland", "closest_distance_restriction": 2.1859874501746734}, {"id": 5939714625, "lat": 50.529479, "lon": 19.3451855, "way_id": 629107277, "landuse": "farmland", "closest_distance_restriction": 2.1292052937752057}, {"id": 5939714626, "lat": 50.5294238, "lon": 19.344936, "way_id": 629107277, "landuse": "farmland", "closest_distance_restriction": 2.140580697770926}, {"id": 5939714627, "lat": 50.5291917, "lon": 19.3445962, "way_id": 629107277, "landuse": "farmland", "closest_distance_restriction": 2.172735177300532}, {"id": 5939714628, "lat": 50.529001, "lon": 19.3449903, "way_id": 629107277, "landuse": "farmland", "closest_distance_restriction": 2.1840131902652886}, {"id": 5939714629, "lat": 50.5287965, "lon": 19.344824, "way_id": 629107277, "landuse": "farmland", "closest_distance_restriction": 2.20927963105868}, {"id": 5939714630, "lat": 50.5290125, "lon": 19.3443468, "way_id": 629107277, "landuse": "farmland", "closest_distance_restriction": 2.197324995818678}, {"id": 5939714669, "lat": 50.5282932, "lon": 19.343396, "way_id": 629107277, "landuse": "farmland", "closest_distance_restriction": 2.2952545942666145}, {"id": 5939714670, "lat": 50.5276566, "lon": 19.3441154, "way_id": 629107277, "landuse": "farmland", "closest_distance_restriction": 2.3453419935015343}, {"id": 5939714671, "lat": 50.5273395, "lon": 19.3445312, "way_id": 629107277, "landuse": "farmland", "closest_distance_restriction": 2.369873182416347}, {"id": 5939714672, "lat": 50.5270407, "lon": 19.3448421, "way_id": 629107277, "landuse": "farmland", "closest_distance_restriction": 2.395198584071032}, {"id": 5939714673, "lat": 50.5267994, "lon": 19.344936, "way_id": 629107277, "landuse": "farmland", "closest_distance_restriction": 2.419038256446328}, {"id": 5939714674, "lat": 50.5261835, "lon": 19.3449903, "way_id": 629107277, "landuse": "farmland", "closest_distance_restriction": 2.483783056765259}, {"id": 5939714675, "lat": 50.5241277, "lon": 19.3452614, "way_id": 629107277, "landuse": "farmland", "closest_distance_restriction": 2.4835265136756868}, {"id": 5939714676, "lat": 50.5240449, "lon": 19.3453247, "way_id": 629107277, "landuse": "farmland", "closest_distance_restriction": 2.479643990937863}, {"id": 5939714677, "lat": 50.5239082, "lon": 19.3469027, "way_id": 629107277, "landuse": "farmland", "closest_distance_restriction": 2.369426730447626}, {"id": 5939714678, "lat": 50.5237875, "lon": 19.3481209, "way_id": 629107277, "landuse": "farmland", "closest_distance_restriction": 2.284637353671645}, {"id": 5939714679, "lat": 50.5236956, "lon": 19.3488069, "way_id": 629107266, "landuse": "farmland", "closest_distance_restriction": 2.237207108134922}, {"id": 5939714680, "lat": 50.5236094, "lon": 19.3490988, "way_id": 629107266, "landuse": "farmland", "closest_distance_restriction": 2.21754335550718}, {"id": 5939714681, "lat": 50.5233704, "lon": 19.3497748, "way_id": 629107266, "landuse": "farmland", "closest_distance_restriction": 2.1727086878894446}, {"id": 5939714682, "lat": 50.5232038, "lon": 19.3501779, "way_id": 629107266, "landuse": "farmland", "closest_distance_restriction": 2.1465074988767885}, {"id": 5939714683, "lat": 50.5230544, "lon": 19.3505973, "way_id": 629107266, "landuse": "farmland", "closest_distance_restriction": 2.1191383240395485}, {"id": 5939714684, "lat": 50.5229693, "lon": 19.3508521, "way_id": 629107266, "landuse": "farmland", "closest_distance_restriction": 2.1025204204779047}, {"id": 5939714685, "lat": 50.5229417, "lon": 19.3511341, "way_id": 629107266, "landuse": "farmland", "closest_distance_restriction": 2.0831821654541347}, {"id": 5939714686, "lat": 50.5229337, "lon": 19.3517198, "way_id": 629107266, "landuse": "farmland", "closest_distance_restriction": 2.042295795042284}, {"id": 5939714687, "lat": 50.5229268, "lon": 19.3525386, "way_id": 629107266, "landuse": "farmland", "closest_distance_restriction": 1.9851052277879335}, {"id": 5939714688, "lat": 50.5229153, "lon": 19.3527808, "way_id": 629107266, "landuse": "farmland", "closest_distance_restriction": 1.9683493394196256}, {"id": 5939714689, "lat": 50.5228808, "lon": 19.3530302, "way_id": 629107266, "landuse": "farmland", "closest_distance_restriction": 1.9514770050252823}, {"id": 5939714690, "lat": 50.5228004, "lon": 19.3533212, "way_id": 629107266, "landuse": "farmland", "closest_distance_restriction": 1.932504965004238}, {"id": 5939714691, "lat": 50.522451, "lon": 19.3539629, "way_id": 629107266, "landuse": "farmland", "closest_distance_restriction": 1.8941921460567495}, {"id": 5939714692, "lat": 50.5223166, "lon": 19.3542359, "way_id": 629107266, "landuse": "farmland", "closest_distance_restriction": 1.8778681289117751}, {"id": 5939714693, "lat": 50.5222925, "lon": 19.3544112, "way_id": 629107266, "landuse": "farmland", "closest_distance_restriction": 1.866182079325754}, {"id": 5939714694, "lat": 50.5222879, "lon": 19.3549878, "way_id": 629107266, "landuse": "farmland", "closest_distance_restriction": 1.8262411720353144}, {"id": 5939714695, "lat": 50.5221948, "lon": 19.3558066, "way_id": 629107266, "landuse": "farmland", "closest_distance_restriction": 1.7715047216099447}, {"id": 5939714696, "lat": 50.5221833, "lon": 19.3561229, "way_id": 629107266, "landuse": "farmland", "closest_distance_restriction": 1.7498711011013264}, {"id": 5939714697, "lat": 50.5221672, "lon": 19.3565459, "way_id": 629107266, "landuse": "farmland", "closest_distance_restriction": 1.720986918462181}, {"id": 5939714698, "lat": 50.5220511, "lon": 19.3569634, "way_id": 629107266, "landuse": "farmland", "closest_distance_restriction": 1.694934568330618}, {"id": 5939714699, "lat": 50.5219638, "lon": 19.3572942, "way_id": 629107266, "landuse": "farmland", "closest_distance_restriction": 1.6743251310492444}, {"id": 5939714700, "lat": 50.5228923, "lon": 19.3572093, "way_id": 629107266, "landuse": "farmland", "closest_distance_restriction": 1.6596760668876818}, {"id": 5939714701, "lat": 50.5229935, "lon": 19.3571225, "way_id": 629107266, "landuse": "farmland", "closest_distance_restriction": 1.6638244365613055}, {"id": 5939714702, "lat": 50.523044, "lon": 19.3565549, "way_id": 629107266, "landuse": "farmland", "closest_distance_restriction": 1.7024891162809572}, {"id": 5939714703, "lat": 50.5236255, "lon": 19.3563959, "way_id": 629107266, "landuse": "farmland", "closest_distance_restriction": 1.7044867789495612}, {"id": 5939714704, "lat": 50.5234646, "lon": 19.3546426, "way_id": 629107266, "landuse": "farmland", "closest_distance_restriction": 1.8296926159176041}, {"id": 5939714743, "lat": 50.5199503, "lon": 19.3564537, "way_id": 629107280, "landuse": "farmland", "closest_distance_restriction": 1.7950663079137876}, {"id": 5939714744, "lat": 50.5203365, "lon": 19.3548125, "way_id": 629107280, "landuse": "farmland", "closest_distance_restriction": 1.8914179805108333}, {"id": 5939714745, "lat": 50.5204606, "lon": 19.3539376, "way_id": 629107280, "landuse": "farmland", "closest_distance_restriction": 1.9465982630379637}, {"id": 5939714746, "lat": 50.5202308, "lon": 19.3538942, "way_id": 629107280, "landuse": "farmland", "closest_distance_restriction": 1.956907944921932}, {"id": 5939714747, "lat": 50.5202583, "lon": 19.3531206, "way_id": 629107280, "landuse": "farmland", "closest_distance_restriction": 2.008368677503936}, {"id": 5939714748, "lat": 50.5203319, "lon": 19.3524554, "way_id": 629107280, "landuse": "farmland", "closest_distance_restriction": 2.0512196346756393}, {"id": 5939714749, "lat": 50.5203962, "lon": 19.3518625, "way_id": 629107280, "landuse": "farmland", "closest_distance_restriction": 2.089630000169031}, {"id": 5939714750, "lat": 50.5201066, "lon": 19.350778, "way_id": 629107280, "landuse": "farmland", "closest_distance_restriction": 2.172140486946646}, {"id": 5939714751, "lat": 50.520695, "lon": 19.3496357, "way_id": 629107280, "landuse": "farmland", "closest_distance_restriction": 2.2337147786600586}, {"id": 5939714752, "lat": 50.520964, "lon": 19.3500333, "way_id": 629107280, "landuse": "farmland", "closest_distance_restriction": 2.1994842561768713}, {"id": 5939714753, "lat": 50.5208927, "lon": 19.3496863, "way_id": 629107280, "landuse": "farmland", "closest_distance_restriction": 2.225171680658567}, {"id": 5939714754, "lat": 50.5212513, "lon": 19.349585, "way_id": 629107280, "landuse": "farmland", "closest_distance_restriction": 2.2235141945682226}, {"id": 5939714755, "lat": 50.5216581, "lon": 19.3476474, "way_id": 629107280, "landuse": "farmland", "closest_distance_restriction": 2.3492163299590634}, {"id": 5939714756, "lat": 50.5218902, "lon": 19.3473943, "way_id": 629107280, "landuse": "farmland", "closest_distance_restriction": 2.3623995326762146}, {"id": 5939714757, "lat": 50.5225981, "lon": 19.347839, "way_id": 629107280, "landuse": "farmland", "closest_distance_restriction": 2.3191706031641237}, {"id": 5939714758, "lat": 50.5236577, "lon": 19.3480884, "way_id": 629107280, "landuse": "farmland", "closest_distance_restriction": 2.2881734902761486}, {"id": 5939714759, "lat": 50.523614, "lon": 19.3486126, "way_id": 629107280, "landuse": "farmland", "closest_distance_restriction": 2.2517144457993634}, {"id": 5939714760, "lat": 50.5235152, "lon": 19.3490645, "way_id": 629107280, "landuse": "farmland", "closest_distance_restriction": 2.22097320661762}, {"id": 5939714761, "lat": 50.5232899, "lon": 19.3496573, "way_id": 629107280, "landuse": "farmland", "closest_distance_restriction": 2.181955531731376}, {"id": 5939714762, "lat": 50.522936, "lon": 19.3505611, "way_id": 629107280, "landuse": "farmland", "closest_distance_restriction": 2.1234030911648554}, {"id": 5939714763, "lat": 50.5228349, "lon": 19.3509588, "way_id": 629107280, "landuse": "farmland", "closest_distance_restriction": 2.0971039544131704}, {"id": 5939714764, "lat": 50.5228303, "lon": 19.3515842, "way_id": 629107280, "landuse": "farmland", "closest_distance_restriction": 2.053418172146284}, {"id": 5939714765, "lat": 50.5228234, "lon": 19.3526362, "way_id": 629107280, "landuse": "farmland", "closest_distance_restriction": 1.979972180826479}, {"id": 5939714766, "lat": 50.5227705, "lon": 19.3530049, "way_id": 629107280, "landuse": "farmland", "closest_distance_restriction": 1.9551107080808408}, {"id": 5939714767, "lat": 50.5226372, "lon": 19.3533773, "way_id": 629107280, "landuse": "farmland", "closest_distance_restriction": 1.9314929383931072}, {"id": 5939714768, "lat": 50.5222465, "lon": 19.3541328, "way_id": 629107280, "landuse": "farmland", "closest_distance_restriction": 1.8864717054172255}, {"id": 5939714769, "lat": 50.5221821, "lon": 19.3542991, "way_id": 629107280, "landuse": "farmland", "closest_distance_restriction": 1.8762789677168588}, {"id": 5939714770, "lat": 50.5221752, "lon": 19.3546426, "way_id": 629107280, "landuse": "farmland", "closest_distance_restriction": 1.8525980100983304}, {"id": 5939714771, "lat": 50.5221523, "lon": 19.3553077, "way_id": 629107280, "landuse": "farmland", "closest_distance_restriction": 1.8070045324527946}, {"id": 5939714772, "lat": 50.5220718, "lon": 19.3564176, "way_id": 629107280, "landuse": "farmland", "closest_distance_restriction": 1.732098618477649}, {"id": 5939714773, "lat": 50.5219592, "lon": 19.3569671, "way_id": 629107280, "landuse": "farmland", "closest_distance_restriction": 1.696960124027373}, {"id": 5939714774, "lat": 50.5217914, "lon": 19.3573864, "way_id": 629107280, "landuse": "farmland", "closest_distance_restriction": 1.6724872486393325}, {"id": 5939714775, "lat": 50.5199572, "lon": 19.3575744, "way_id": 629107280, "landuse": "farmland", "closest_distance_restriction": 1.7204391826987604}, {"id": 5939714776, "lat": 50.5218902, "lon": 19.3575093, "way_id": 629107281, "landuse": "farmland", "closest_distance_restriction": 1.6614336626452997}, {"id": 5939714777, "lat": 50.5216282, "lon": 19.3584926, "way_id": 629107281, "landuse": "farmland", "closest_distance_restriction": 1.6013570857634474}, {"id": 5939714794, "lat": 50.5191413, "lon": 19.3601122, "way_id": 629107281, "landuse": "farmland", "closest_distance_restriction": 1.5913968515617443}, {"id": 5939714795, "lat": 50.5193665, "lon": 19.3586806, "way_id": 629107281, "landuse": "farmland", "closest_distance_restriction": 1.6727604687169477}, {"id": 5939714796, "lat": 50.5194217, "lon": 19.3578419, "way_id": 629107281, "landuse": "farmland", "closest_distance_restriction": 1.7248491074190035}]}