{"nodes": [{"id": 359462067, "lat": 52.14805, "lon": 22.55904, "way_id": 498687183, "landuse": "meadow", "closest_distance_restriction": 2.327036755012572}, {"id": 359462113, "lat": 52.14834, "lon": 22.55837, "way_id": 498687183, "landuse": "meadow", "closest_distance_restriction": 2.3822487391233995}, {"id": 2136738561, "lat": 52.3274255, "lon": 22.9192473, "way_id": 676797443, "landuse": "meadow", "closest_distance_restriction": 1.5936622562979055}, {"id": 2136738587, "lat": 52.3317941, "lon": 22.9275238, "way_id": 676802581, "landuse": "meadow", "closest_distance_restriction": 2.2546290903100044}, {"id": 2375354094, "lat": 52.181767, "lon": 22.6198603, "way_id": 491370888, "landuse": "farmland", "closest_distance_restriction": 2.048652192798779}, {"id": 2375354095, "lat": 52.1818376, "lon": 22.6208626, "way_id": 491370888, "landuse": "farmland", "closest_distance_restriction": 2.1023693827265806}, {"id": 2375354096, "lat": 52.1820685, "lon": 22.6201046, "way_id": 491370888, "landuse": "farmland", "closest_distance_restriction": 2.084331333318381}, {"id": 2375354097, "lat": 52.1820879, "lon": 22.6232752, "way_id": 491370888, "landuse": "farmland", "closest_distance_restriction": 2.241050181632136}, {"id": 2375354098, "lat": 52.1826277, "lon": 22.6215027, "way_id": 491370888, "landuse": "farmland", "closest_distance_restriction": 2.195372472923845}, {"id": 2375354106, "lat": 52.1828239, "lon": 22.6238914, "way_id": 491370888, "landuse": "farmland", "closest_distance_restriction": 2.327354145090495}, {"id": 2375354108, "lat": 52.1829267, "lon": 22.6160528, "way_id": 491370888, "landuse": "farmland", "closest_distance_restriction": 1.9794900197780123}, {"id": 2375373375, "lat": 52.3274042, "lon": 22.9411316, "way_id": 676887855, "landuse": "farmland", "closest_distance_restriction": 1.7174363622069189}, {"id": 2375373426, "lat": 52.3277273, "lon": 22.9361501, "way_id": 676802596, "landuse": "farmland", "closest_distance_restriction": 1.9195590969930738}, {"id": 2375373539, "lat": 52.3284061, "lon": 22.9348165, "way_id": 676802596, "landuse": "farmland", "closest_distance_restriction": 2.031913050857688}, {"id": 2375373554, "lat": 52.328532, "lon": 22.9395705, "way_id": 676887855, "landuse": "farmland", "closest_distance_restriction": 1.8771777854896576}, {"id": 2375373569, "lat": 52.3286539, "lon": 22.9344503, "way_id": 676802596, "landuse": "farmland", "closest_distance_restriction": 2.068585316124484}, {"id": 2375374472, "lat": 52.3308434, "lon": 22.9315959, "way_id": 676802585, "landuse": "meadow", "closest_distance_restriction": 2.1328865334569582}, {"id": 2375374534, "lat": 52.3310447, "lon": 22.9312298, "way_id": 676802585, "landuse": "meadow", "closest_distance_restriction": 2.1329269529780883}, {"id": 2375374548, "lat": 52.3311717, "lon": 22.9310314, "way_id": 676802585, "landuse": "meadow", "closest_distance_restriction": 2.1317117200412197}, {"id": 2375374622, "lat": 52.3313267, "lon": 22.9308699, "way_id": 676802585, "landuse": "meadow", "closest_distance_restriction": 2.126690518633453}, {"id": 2375374648, "lat": 52.3315023, "lon": 22.9307158, "way_id": 676802585, "landuse": "meadow", "closest_distance_restriction": 2.119859391701331}, {"id": 2375378073, "lat": 52.3416628, "lon": 22.9231725, "way_id": 676802600, "landuse": "farmland", "closest_distance_restriction": 1.8075553534836029}, {"id": 2555684908, "lat": 52.3331148, "lon": 22.9190986, "way_id": 676802588, "landuse": "farmland", "closest_distance_restriction": 1.9776018843277756}, {"id": 2555684920, "lat": 52.3259104, "lon": 22.9235532, "way_id": 676802591, "landuse": "farmland", "closest_distance_restriction": 1.759837321849431}, {"id": 2555684974, "lat": 52.3286719, "lon": 22.9234002, "way_id": 676802598, "landuse": "farmland", "closest_distance_restriction": 1.9043955124173197}, {"id": 2555685022, "lat": 52.334683, "lon": 22.9169871, "way_id": 676802588, "landuse": "farmland", "closest_distance_restriction": 1.9977485636365815}, {"id": 4156496894, "lat": 52.3259544, "lon": 22.9268123, "way_id": 676802596, "landuse": "farmland", "closest_distance_restriction": 1.937545791552694}, {"id": 4156496903, "lat": 52.3266285, "lon": 22.9260521, "way_id": 676802597, "landuse": "farmland", "closest_distance_restriction": 1.9474879160985747}, {"id": 4156496912, "lat": 52.3269292, "lon": 22.9331322, "way_id": 676802596, "landuse": "farmland", "closest_distance_restriction": 1.9653502519045503}, {"id": 4156496913, "lat": 52.3269565, "lon": 22.9255901, "way_id": 676802597, "landuse": "farmland", "closest_distance_restriction": 1.9355121926832288}, {"id": 4156496917, "lat": 52.3273209, "lon": 22.9251876, "way_id": 676802598, "landuse": "farmland", "closest_distance_restriction": 1.930148511096746}, {"id": 4156496921, "lat": 52.3275304, "lon": 22.9344588, "way_id": 676802596, "landuse": "farmland", "closest_distance_restriction": 1.964883150688745}, {"id": 4156496927, "lat": 52.3279585, "lon": 22.9265738, "way_id": 676802598, "landuse": "farmland", "closest_distance_restriction": 2.046820695359628}, {"id": 4156496928, "lat": 52.3281043, "lon": 22.9313585, "way_id": 676802596, "landuse": "farmland", "closest_distance_restriction": 2.142669831559191}, {"id": 4156496935, "lat": 52.3282956, "lon": 22.9335049, "way_id": 676802596, "landuse": "farmland", "closest_distance_restriction": 2.0717782393078807}, {"id": 4156496938, "lat": 52.3284322, "lon": 22.9259478, "way_id": 676802598, "landuse": "farmland", "closest_distance_restriction": 2.0361632758609196}, {"id": 4156496939, "lat": 52.3284504, "lon": 22.9272446, "way_id": 676802598, "landuse": "farmland", "closest_distance_restriction": 2.1133340642747163}, {"id": 4156496940, "lat": 52.3284778, "lon": 22.9300319, "way_id": 676802597, "landuse": "farmland", "closest_distance_restriction": 2.2319543078116344}, {"id": 4156496944, "lat": 52.3288057, "lon": 22.9295996, "way_id": 676802597, "landuse": "farmland", "closest_distance_restriction": 2.272414541604404}, {"id": 4156496945, "lat": 52.328833, "lon": 22.9267229, "way_id": 676802598, "landuse": "farmland", "closest_distance_restriction": 2.1042583176298857}, {"id": 4156496967, "lat": 52.3303724, "lon": 22.9314181, "way_id": 676802598, "landuse": "farmland", "closest_distance_restriction": 2.180224271896271}, {"id": 4156496968, "lat": 52.3306275, "lon": 22.93112, "way_id": 676802598, "landuse": "farmland", "closest_distance_restriction": 2.1723246258346234}, {"id": 4156496969, "lat": 52.332838, "lon": 22.9139372, "way_id": 676797442, "landuse": "meadow", "closest_distance_restriction": 1.7177069998639825}, {"id": 4156496970, "lat": 52.3330267, "lon": 22.9143627, "way_id": 676797442, "landuse": "meadow", "closest_distance_restriction": 1.7521910572753032}, {"id": 4156496981, "lat": 52.3337812, "lon": 22.9220316, "way_id": 676802581, "landuse": "meadow", "closest_distance_restriction": 2.174278080844776}, {"id": 4156497089, "lat": 52.333242, "lon": 22.9208121, "way_id": 676802589, "landuse": "farmland", "closest_distance_restriction": 2.072539368341667}, {"id": 4156497093, "lat": 52.3327933, "lon": 22.9196603, "way_id": 676802589, "landuse": "farmland", "closest_distance_restriction": 1.9810306060287692}, {"id": 4156497096, "lat": 52.3360581, "lon": 22.9173299, "way_id": 676802600, "landuse": "farmland", "closest_distance_restriction": 2.03154268626469}, {"id": 4156497097, "lat": 52.3359638, "lon": 22.9170365, "way_id": 676802600, "landuse": "farmland", "closest_distance_restriction": 2.0106242709928788}, {"id": 4156497098, "lat": 52.3362017, "lon": 22.9177051, "way_id": 676802600, "landuse": "farmland", "closest_distance_restriction": 2.058628870648855}, {"id": 4156497099, "lat": 52.3362127, "lon": 22.9167801, "way_id": 676802600, "landuse": "farmland", "closest_distance_restriction": 1.996335931348874}, {"id": 4156497100, "lat": 52.3361437, "lon": 22.9164906, "way_id": 676802600, "landuse": "farmland", "closest_distance_restriction": 1.9759125387578786}, {"id": 4156497101, "lat": 52.336393, "lon": 22.9196841, "way_id": 676802600, "landuse": "farmland", "closest_distance_restriction": 2.194635993295138}, {"id": 4156497102, "lat": 52.3364294, "lon": 22.9185547, "way_id": 676802600, "landuse": "farmland", "closest_distance_restriction": 2.11891849073634}, {"id": 4156497104, "lat": 52.3366933, "lon": 22.9211099, "way_id": 676802600, "landuse": "farmland", "closest_distance_restriction": 2.2074624913455883}, {"id": 4156497105, "lat": 52.3370029, "lon": 22.9153566, "way_id": 676802600, "landuse": "farmland", "closest_distance_restriction": 1.9130766022527557}, {"id": 4156497106, "lat": 52.3367668, "lon": 22.9192345, "way_id": 676802600, "landuse": "farmland", "closest_distance_restriction": 2.1695462475348783}, {"id": 4156497107, "lat": 52.3371125, "lon": 22.9198664, "way_id": 676802600, "landuse": "farmland", "closest_distance_restriction": 2.2175342836163963}, {"id": 4156497109, "lat": 52.3372218, "lon": 22.9201496, "way_id": 676802600, "landuse": "farmland", "closest_distance_restriction": 2.2300816879578798}, {"id": 4156497110, "lat": 52.3373308, "lon": 22.9203911, "way_id": 676802600, "landuse": "farmland", "closest_distance_restriction": 2.2097456786012453}, {"id": 4156497111, "lat": 52.3376668, "lon": 22.9145656, "way_id": 676802600, "landuse": "farmland", "closest_distance_restriction": 1.8742649868254402}, {"id": 4156497112, "lat": 52.3378365, "lon": 22.9149534, "way_id": 676802600, "landuse": "farmland", "closest_distance_restriction": 1.9040392105840165}, {"id": 4156497115, "lat": 52.3381337, "lon": 22.9145648, "way_id": 676802600, "landuse": "farmland", "closest_distance_restriction": 1.8858293151538728}, {"id": 4156497119, "lat": 52.3398966, "lon": 22.9194538, "way_id": 676802600, "landuse": "farmland", "closest_distance_restriction": 2.1207352400237918}, {"id": 4156497121, "lat": 52.3403567, "lon": 22.9187436, "way_id": 676802600, "landuse": "farmland", "closest_distance_restriction": 2.138943704379197}, {"id": 4156497126, "lat": 52.3417753, "lon": 22.9229518, "way_id": 676802600, "landuse": "farmland", "closest_distance_restriction": 1.8159375756294747}, {"id": 4156497131, "lat": 52.3427497, "lon": 22.9087618, "way_id": 676802586, "landuse": "meadow", "closest_distance_restriction": 1.5654263857042496}, {"id": 4319371896, "lat": 52.3412869, "lon": 22.908252, "way_id": 676887861, "landuse": "farmland", "closest_distance_restriction": 1.6139859667852472}, {"id": 4834930191, "lat": 52.1810773, "lon": 22.6103909, "way_id": 491370883, "landuse": "farmland", "closest_distance_restriction": 1.5970086076456065}, {"id": 4834930210, "lat": 52.1834331, "lon": 22.6019416, "way_id": 491370883, "landuse": "farmland", "closest_distance_restriction": 1.623640887064664}, {"id": 4834930211, "lat": 52.1831257, "lon": 22.6038751, "way_id": 491370883, "landuse": "farmland", "closest_distance_restriction": 1.6260437317275038}, {"id": 4834930212, "lat": 52.1820013, "lon": 22.6109232, "way_id": 491370883, "landuse": "farmland", "closest_distance_restriction": 1.7044617369653214}, {"id": 4834930443, "lat": 52.1826423, "lon": 22.6243435, "way_id": 491370888, "landuse": "farmland", "closest_distance_restriction": 2.3364205250468597}, {"id": 4834930444, "lat": 52.1812769, "lon": 22.6232449, "way_id": 491370888, "landuse": "farmland", "closest_distance_restriction": 2.1799639241603623}, {"id": 4834930445, "lat": 52.1794802, "lon": 22.6217809, "way_id": 491370888, "landuse": "farmland", "closest_distance_restriction": 1.9763188235978084}, {"id": 4834930446, "lat": 52.1777512, "lon": 22.6203573, "way_id": 491370888, "landuse": "farmland", "closest_distance_restriction": 1.7784847224810447}, {"id": 4834930447, "lat": 52.1759049, "lon": 22.6188742, "way_id": 491370888, "landuse": "farmland", "closest_distance_restriction": 1.564898222728779}, {"id": 4834930464, "lat": 52.1814698, "lon": 22.6107213, "way_id": 491370888, "landuse": "farmland", "closest_distance_restriction": 1.6460934809476058}, {"id": 4834930465, "lat": 52.1816522, "lon": 22.6108785, "way_id": 491370888, "landuse": "farmland", "closest_distance_restriction": 1.6690263205107738}, {"id": 4834930466, "lat": 52.1820078, "lon": 22.611108, "way_id": 491370888, "landuse": "farmland", "closest_distance_restriction": 1.7111804539671425}, {"id": 4834930467, "lat": 52.1828416, "lon": 22.611601, "way_id": 491370888, "landuse": "farmland", "closest_distance_restriction": 1.8086166625161408}, {"id": 4834930468, "lat": 52.1833758, "lon": 22.6118219, "way_id": 491370888, "landuse": "farmland", "closest_distance_restriction": 1.8680490674851276}, {"id": 4834930469, "lat": 52.1842223, "lon": 22.6121014, "way_id": 491370888, "landuse": "farmland", "closest_distance_restriction": 1.9602487159040805}, {"id": 4834930470, "lat": 52.1847815, "lon": 22.6123277, "way_id": 491370888, "landuse": "farmland", "closest_distance_restriction": 2.0226343115364913}, {"id": 4834930471, "lat": 52.1855136, "lon": 22.6124955, "way_id": 491370888, "landuse": "farmland", "closest_distance_restriction": 2.1005864494793856}, {"id": 4834930472, "lat": 52.1862888, "lon": 22.6126719, "way_id": 491370888, "landuse": "farmland", "closest_distance_restriction": 2.1834302867285005}, {"id": 4834930473, "lat": 52.1856595, "lon": 22.6146458, "way_id": 491370888, "landuse": "farmland", "closest_distance_restriction": 2.18331205663271}, {"id": 4834930474, "lat": 52.1847672, "lon": 22.6174548, "way_id": 491370888, "landuse": "farmland", "closest_distance_restriction": 2.2015404391669704}, {"id": 4834930475, "lat": 52.183936, "lon": 22.6167706, "way_id": 491370888, "landuse": "farmland", "closest_distance_restriction": 2.099138482495283}, {"id": 4834930476, "lat": 52.1814007, "lon": 22.6146543, "way_id": 491370888, "landuse": "farmland", "closest_distance_restriction": 1.7863894321076752}, {"id": 4834930477, "lat": 52.1813799, "lon": 22.6147074, "way_id": 491370888, "landuse": "farmland", "closest_distance_restriction": 1.7867202333499237}, {"id": 4834930478, "lat": 52.1810737, "lon": 22.6144163, "way_id": 491370888, "landuse": "farmland", "closest_distance_restriction": 1.7475947592052476}, {"id": 4834930479, "lat": 52.1804496, "lon": 22.6163903, "way_id": 491370888, "landuse": "farmland", "closest_distance_restriction": 1.7799803640097158}, {"id": 4834930480, "lat": 52.1807884, "lon": 22.6166559, "way_id": 491370888, "landuse": "farmland", "closest_distance_restriction": 1.82012828637568}, {"id": 4834930481, "lat": 52.1814007, "lon": 22.6147329, "way_id": 491370888, "landuse": "farmland", "closest_distance_restriction": 1.7896136764160644}, {"id": 4884521217, "lat": 52.1835651, "lon": 22.5938985, "way_id": 496781286, "landuse": "farmland", "closest_distance_restriction": 1.6058301527304208}, {"id": 4884521218, "lat": 52.1842849, "lon": 22.594607, "way_id": 496781286, "landuse": "farmland", "closest_distance_restriction": 1.6809392103176197}, {"id": 4884521219, "lat": 52.184756, "lon": 22.595028, "way_id": 496781286, "landuse": "farmland", "closest_distance_restriction": 1.7312361934311804}, {"id": 4884521220, "lat": 52.1850015, "lon": 22.5952898, "way_id": 496781286, "landuse": "farmland", "closest_distance_restriction": 1.757539932355557}, {"id": 4884521221, "lat": 52.1853992, "lon": 22.5958255, "way_id": 496781286, "landuse": "farmland", "closest_distance_restriction": 1.800370992983825}, {"id": 4884521222, "lat": 52.1861074, "lon": 22.5966332, "way_id": 496781286, "landuse": "farmland", "closest_distance_restriction": 1.8784964129389436}, {"id": 4884521223, "lat": 52.1861179, "lon": 22.5968386, "way_id": 496781286, "landuse": "farmland", "closest_distance_restriction": 1.8797697771850568}, {"id": 4884521224, "lat": 52.1860203, "lon": 22.5975283, "way_id": 496781286, "landuse": "farmland", "closest_distance_restriction": 1.8700428155206519}, {"id": 4884521225, "lat": 52.1858031, "lon": 22.5973486, "way_id": 496781286, "landuse": "farmland", "closest_distance_restriction": 1.8454952589559919}, {"id": 4884521226, "lat": 52.1857003, "lon": 22.5977576, "way_id": 496781286, "landuse": "farmland", "closest_distance_restriction": 1.8351326753630173}, {"id": 4884521227, "lat": 52.1859028, "lon": 22.5978996, "way_id": 496781286, "landuse": "farmland", "closest_distance_restriction": 1.8580887252560039}, {"id": 4884521228, "lat": 52.1857947, "lon": 22.5982949, "way_id": 496781286, "landuse": "farmland", "closest_distance_restriction": 1.8476459472851425}, {"id": 4884521229, "lat": 52.1862963, "lon": 22.5986304, "way_id": 496781286, "landuse": "farmland", "closest_distance_restriction": 1.9048912176125565}, {"id": 4884521230, "lat": 52.1861819, "lon": 22.5991438, "way_id": 496781286, "landuse": "farmland", "closest_distance_restriction": 1.8951809975484764}, {"id": 4884521231, "lat": 52.1857454, "lon": 22.5989435, "way_id": 496781286, "landuse": "farmland", "closest_distance_restriction": 1.8455964927321955}, {"id": 4884521232, "lat": 52.1856562, "lon": 22.5993868, "way_id": 496781286, "landuse": "farmland", "closest_distance_restriction": 1.8386767064577132}, {"id": 4884521233, "lat": 52.1853331, "lon": 22.5992584, "way_id": 496781286, "landuse": "farmland", "closest_distance_restriction": 1.8020305469834703}, {"id": 4884521234, "lat": 52.1852858, "lon": 22.5996195, "way_id": 496781286, "landuse": "farmland", "closest_distance_restriction": 1.7995175744482161}, {"id": 4884521235, "lat": 52.1856583, "lon": 22.5997393, "way_id": 496781286, "landuse": "farmland", "closest_distance_restriction": 1.8416122527113512}, {"id": 4884521236, "lat": 52.1855272, "lon": 22.6008175, "way_id": 496781286, "landuse": "farmland", "closest_distance_restriction": 1.8374009669955427}, {"id": 4884521237, "lat": 52.1858472, "lon": 22.6008568, "way_id": 496781286, "landuse": "farmland", "closest_distance_restriction": 1.8729584186596768}, {"id": 4884521238, "lat": 52.1858052, "lon": 22.6011426, "way_id": 496781286, "landuse": "farmland", "closest_distance_restriction": 1.871524707197424}, {"id": 4884521239, "lat": 52.1850382, "lon": 22.6011084, "way_id": 496781286, "landuse": "farmland", "closest_distance_restriction": 1.7871013714686237}, {"id": 4884521240, "lat": 52.1850099, "lon": 22.6014952, "way_id": 496781286, "landuse": "farmland", "closest_distance_restriction": 1.78880942047905}, {"id": 4884521241, "lat": 52.1852659, "lon": 22.6015208, "way_id": 496781286, "landuse": "farmland", "closest_distance_restriction": 1.8170943938740585}, {"id": 4884521242, "lat": 52.1852596, "lon": 22.601757, "way_id": 496781286, "landuse": "farmland", "closest_distance_restriction": 1.8194939683306053}, {"id": 4884521243, "lat": 52.1845325, "lon": 22.6017827, "way_id": 496781286, "landuse": "farmland", "closest_distance_restriction": 1.7406445639888704}, {"id": 4884521244, "lat": 52.1833657, "lon": 22.6018477, "way_id": 496781286, "landuse": "farmland", "closest_distance_restriction": 1.6148932202412638}, {"id": 4900598196, "lat": 52.1532154, "lon": 22.5550714, "way_id": 498687183, "landuse": "meadow", "closest_distance_restriction": 2.539122810100835}, {"id": 4900598489, "lat": 52.1527408, "lon": 22.5634671, "way_id": 498687183, "landuse": "meadow", "closest_distance_restriction": 2.0725105649442686}, {"id": 4900598490, "lat": 52.1527393, "lon": 22.5635791, "way_id": 498687183, "landuse": "meadow", "closest_distance_restriction": 2.066346980310978}, {"id": 4900598492, "lat": 52.151311, "lon": 22.5755057, "way_id": 498687183, "landuse": "meadow", "closest_distance_restriction": 1.606694351173585}, {"id": 4900598493, "lat": 52.1528018, "lon": 22.5697831, "way_id": 498687183, "landuse": "meadow", "closest_distance_restriction": 1.7322437937743103}, {"id": 4900598494, "lat": 52.1512173, "lon": 22.5685555, "way_id": 498687183, "landuse": "meadow", "closest_distance_restriction": 1.914930437766942}, {"id": 4900598495, "lat": 52.1526674, "lon": 22.5667499, "way_id": 498687183, "landuse": "meadow", "closest_distance_restriction": 1.898380967599403}, {"id": 4900598496, "lat": 52.1465713, "lon": 22.5618702, "way_id": 498687183, "landuse": "meadow", "closest_distance_restriction": 2.082580134411888}, {"id": 4900598497, "lat": 52.1489295, "lon": 22.5587861, "way_id": 498687183, "landuse": "meadow", "closest_distance_restriction": 2.3865699204733546}, {"id": 4900598498, "lat": 52.1505047, "lon": 22.5592827, "way_id": 498687183, "landuse": "meadow", "closest_distance_restriction": 2.444093117194245}, {"id": 4900598499, "lat": 52.1509422, "lon": 22.5591197, "way_id": 498687183, "landuse": "meadow", "closest_distance_restriction": 2.4302018745782212}, {"id": 4900598500, "lat": 52.151136, "lon": 22.5588905, "way_id": 498687183, "landuse": "meadow", "closest_distance_restriction": 2.430889103004286}, {"id": 4900598501, "lat": 52.151647, "lon": 22.5587428, "way_id": 498687183, "landuse": "meadow", "closest_distance_restriction": 2.4078854433904935}, {"id": 4900598502, "lat": 52.151997, "lon": 22.557803, "way_id": 498687183, "landuse": "meadow", "closest_distance_restriction": 2.4414900010596634}, {"id": 4900598503, "lat": 52.1521783, "lon": 22.55723, "way_id": 498687183, "landuse": "meadow", "closest_distance_restriction": 2.4646818691562142}, {"id": 4900598504, "lat": 52.1528854, "lon": 22.5549124, "way_id": 498687183, "landuse": "meadow", "closest_distance_restriction": 2.5653735928235273}, {"id": 4900598505, "lat": 52.1538464, "lon": 22.5553753, "way_id": 498687183, "landuse": "meadow", "closest_distance_restriction": 2.489803183384196}, {"id": 4900598506, "lat": 52.1551769, "lon": 22.5514934, "way_id": 498687183, "landuse": "meadow", "closest_distance_restriction": 2.677396974625276}, {"id": 4900598507, "lat": 52.1561519, "lon": 22.5519136, "way_id": 498687183, "landuse": "meadow", "closest_distance_restriction": 2.6149772512632508}, {"id": 4900598508, "lat": 52.1570737, "lon": 22.5523211, "way_id": 498687183, "landuse": "meadow", "closest_distance_restriction": 2.558414735633544}, {"id": 4900598509, "lat": 52.1561768, "lon": 22.5544808, "way_id": 498687183, "landuse": "meadow", "closest_distance_restriction": 2.448097946310545}, {"id": 4900598510, "lat": 52.1556847, "lon": 22.5542668, "way_id": 498687183, "landuse": "meadow", "closest_distance_restriction": 2.4803228496482808}, {"id": 4900598511, "lat": 52.1557019, "lon": 22.5538976, "way_id": 498687183, "landuse": "meadow", "closest_distance_restriction": 2.5033070851696615}, {"id": 4900598512, "lat": 52.155244, "lon": 22.5536556, "way_id": 498687183, "landuse": "meadow", "closest_distance_restriction": 2.5366167590164546}, {"id": 4900598513, "lat": 52.1547237, "lon": 22.5557287, "way_id": 498687183, "landuse": "meadow", "closest_distance_restriction": 2.427561704399783}, {"id": 4900598514, "lat": 52.1549878, "lon": 22.5558688, "way_id": 498687183, "landuse": "meadow", "closest_distance_restriction": 2.4072121189498787}, {"id": 4900598515, "lat": 52.1545878, "lon": 22.5578221, "way_id": 498687183, "landuse": "meadow", "closest_distance_restriction": 2.30365862615803}, {"id": 4900598516, "lat": 52.1542503, "lon": 22.5576133, "way_id": 498687183, "landuse": "meadow", "closest_distance_restriction": 2.332704027152969}, {"id": 4900598517, "lat": 52.1542253, "lon": 22.5577254, "way_id": 498687183, "landuse": "meadow", "closest_distance_restriction": 2.3270468006338088}, {"id": 4900598518, "lat": 52.1558753, "lon": 22.5587186, "way_id": 498687183, "landuse": "meadow", "closest_distance_restriction": 2.189768597584644}, {"id": 4900598605, "lat": 52.1541971, "lon": 22.5643852, "way_id": 498687183, "landuse": "meadow", "closest_distance_restriction": 1.9308588853551416}, {"id": 4900598606, "lat": 52.154155, "lon": 22.5642044, "way_id": 498687183, "landuse": "meadow", "closest_distance_restriction": 1.9437989109341942}, {"id": 4900598607, "lat": 52.1543253, "lon": 22.5639802, "way_id": 498687183, "landuse": "meadow", "closest_distance_restriction": 1.946891563074351}, {"id": 4900598608, "lat": 52.1545253, "lon": 22.5635473, "way_id": 498687183, "landuse": "meadow", "closest_distance_restriction": 1.9608890722315904}, {"id": 4900598609, "lat": 52.154505, "lon": 22.5631093, "way_id": 498687183, "landuse": "meadow", "closest_distance_restriction": 1.9878770393349663}, {"id": 4900598610, "lat": 52.1546972, "lon": 22.5626279, "way_id": 498687183, "landuse": "meadow", "closest_distance_restriction": 2.006001527471125}, {"id": 4900598611, "lat": 52.1548519, "lon": 22.5616347, "way_id": 498687183, "landuse": "meadow", "closest_distance_restriction": 2.057565030835819}, {"id": 4900598612, "lat": 52.1549862, "lon": 22.5612399, "way_id": 498687183, "landuse": "meadow", "closest_distance_restriction": 2.074689339054549}, {"id": 4900598613, "lat": 52.1555409, "lon": 22.5616092, "way_id": 498687183, "landuse": "meadow", "closest_distance_restriction": 2.0248186206142966}, {"id": 4900598614, "lat": 52.1558112, "lon": 22.5596456, "way_id": 498687183, "landuse": "meadow", "closest_distance_restriction": 2.1342997550796605}, {"id": 4900598615, "lat": 52.1560769, "lon": 22.5597628, "way_id": 498687183, "landuse": "meadow", "closest_distance_restriction": 2.115389245120511}, {"id": 4900598616, "lat": 52.1562706, "lon": 22.5597526, "way_id": 498687183, "landuse": "meadow", "closest_distance_restriction": 2.107818760836873}, {"id": 4900598617, "lat": 52.156494, "lon": 22.5596431, "way_id": 498687183, "landuse": "meadow", "closest_distance_restriction": 2.105532897817686}, {"id": 4900598618, "lat": 52.1563925, "lon": 22.55934, "way_id": 498687183, "landuse": "meadow", "closest_distance_restriction": 2.1289067401100628}, {"id": 4900598619, "lat": 52.1566737, "lon": 22.5592585, "way_id": 498687183, "landuse": "meadow", "closest_distance_restriction": 2.122837081158101}, {"id": 4900598620, "lat": 52.1569237, "lon": 22.5593375, "way_id": 498687183, "landuse": "meadow", "closest_distance_restriction": 2.108115708423271}, {"id": 4900598649, "lat": 52.1538065, "lon": 22.5716206, "way_id": 498687183, "landuse": "meadow", "closest_distance_restriction": 1.56436930624689}, {"id": 4900598650, "lat": 52.1538643, "lon": 22.5710068, "way_id": 498687183, "landuse": "meadow", "closest_distance_restriction": 1.5909208726028565}, {"id": 4900598651, "lat": 52.153905, "lon": 22.5705942, "way_id": 498687183, "landuse": "meadow", "closest_distance_restriction": 1.6090145929028996}, {"id": 4900598652, "lat": 52.1540331, "lon": 22.5705025, "way_id": 498687183, "landuse": "meadow", "closest_distance_restriction": 1.6044391075966995}, {"id": 4900598653, "lat": 52.1541706, "lon": 22.5700976, "way_id": 498687183, "landuse": "meadow", "closest_distance_restriction": 1.615759373669215}, {"id": 4900598654, "lat": 52.154319, "lon": 22.5697538, "way_id": 498687183, "landuse": "meadow", "closest_distance_restriction": 1.62359639481712}, {"id": 4900598655, "lat": 52.1540409, "lon": 22.5694864, "way_id": 498687183, "landuse": "meadow", "closest_distance_restriction": 1.6571788956765177}, {"id": 4900598656, "lat": 52.153819, "lon": 22.5690738, "way_id": 498687183, "landuse": "meadow", "closest_distance_restriction": 1.6945823731610692}, {"id": 4900598657, "lat": 52.1537737, "lon": 22.5684728, "way_id": 498687183, "landuse": "meadow", "closest_distance_restriction": 1.729747888788432}, {"id": 4900598658, "lat": 52.1538518, "lon": 22.5680704, "way_id": 498687183, "landuse": "meadow", "closest_distance_restriction": 1.7460746226167911}, {"id": 4900598659, "lat": 52.1541503, "lon": 22.5674821, "way_id": 498687183, "landuse": "meadow", "closest_distance_restriction": 1.758431490804898}, {"id": 4900598660, "lat": 52.1536143, "lon": 22.5671586, "way_id": 498687183, "landuse": "meadow", "closest_distance_restriction": 1.8115775931715274}, {"id": 4900598661, "lat": 52.153644, "lon": 22.5668734, "way_id": 498687183, "landuse": "meadow", "closest_distance_restriction": 1.825191107441515}, {"id": 4900598662, "lat": 52.1537768, "lon": 22.5665831, "way_id": 498687183, "landuse": "meadow", "closest_distance_restriction": 1.8324689870128725}, {"id": 4900598664, "lat": 52.1542925, "lon": 22.5672274, "way_id": 498687183, "landuse": "meadow", "closest_distance_restriction": 1.7634015348791166}, {"id": 4900598665, "lat": 52.15438, "lon": 22.5669218, "way_id": 498687183, "landuse": "meadow", "closest_distance_restriction": 1.7749721462585486}, {"id": 4900598666, "lat": 52.1540065, "lon": 22.5660584, "way_id": 498687183, "landuse": "meadow", "closest_distance_restriction": 1.8470391463836568}, {"id": 4900598667, "lat": 52.1538237, "lon": 22.5658649, "way_id": 498687183, "landuse": "meadow", "closest_distance_restriction": 1.8694541173159287}, {"id": 4900598668, "lat": 52.1540175, "lon": 22.5648385, "way_id": 498687183, "landuse": "meadow", "closest_distance_restriction": 1.9155411581995303}, {"id": 4900598669, "lat": 52.1542003, "lon": 22.5645023, "way_id": 498687183, "landuse": "meadow", "closest_distance_restriction": 1.9239036287689282}, {"id": 5433239968, "lat": 52.3366218, "lon": 22.922856, "way_id": 676802581, "landuse": "meadow", "closest_distance_restriction": 2.115027106376171}, {"id": 5433239969, "lat": 52.3371402, "lon": 22.9221321, "way_id": 676802600, "landuse": "farmland", "closest_distance_restriction": 2.122092375369145}, {"id": 5433239970, "lat": 52.3371436, "lon": 22.9219907, "way_id": 676802600, "landuse": "farmland", "closest_distance_restriction": 2.129842904575909}, {"id": 5433239971, "lat": 52.33704, "lon": 22.9217362, "way_id": 676802600, "landuse": "farmland", "closest_distance_restriction": 2.1506198213530516}, {"id": 6260524292, "lat": 52.2753757, "lon": 23.1286627, "way_id": 668528183, "landuse": "farmland", "closest_distance_restriction": 1.6312168304412802}, {"id": 6260524293, "lat": 52.2729345, "lon": 23.1261311, "way_id": 668528183, "landuse": "farmland", "closest_distance_restriction": 1.6723185549252935}, {"id": 6260524294, "lat": 52.2734232, "lon": 23.1247598, "way_id": 668528183, "landuse": "farmland", "closest_distance_restriction": 1.5758539136175727}, {"id": 6335325437, "lat": 52.3279504, "lon": 22.9197357, "way_id": 676797443, "landuse": "meadow", "closest_distance_restriction": 1.654934433278492}, {"id": 6335325456, "lat": 52.3271233, "lon": 22.9194243, "way_id": 676797443, "landuse": "meadow", "closest_distance_restriction": 1.5841637822321804}, {"id": 6337683875, "lat": 52.336142, "lon": 22.9190178, "way_id": 676802600, "landuse": "farmland", "closest_distance_restriction": 2.1465682818450444}, {"id": 6337704530, "lat": 52.3323938, "lon": 22.9295974, "way_id": 676802585, "landuse": "meadow", "closest_distance_restriction": 2.105236197735498}, {"id": 6337704531, "lat": 52.3320409, "lon": 22.9289979, "way_id": 676802585, "landuse": "meadow", "closest_distance_restriction": 2.161780993436777}, {"id": 6337704532, "lat": 52.3313726, "lon": 22.929563, "way_id": 676802585, "landuse": "meadow", "closest_distance_restriction": 2.1852360487909985}, {"id": 6337704533, "lat": 52.3312931, "lon": 22.9292215, "way_id": 676802585, "landuse": "meadow", "closest_distance_restriction": 2.2079768807942024}, {"id": 6337704534, "lat": 52.3314795, "lon": 22.9287377, "way_id": 676802585, "landuse": "meadow", "closest_distance_restriction": 2.2172810870297037}, {"id": 6337704535, "lat": 52.331785, "lon": 22.9285669, "way_id": 676802585, "landuse": "meadow", "closest_distance_restriction": 2.202598238158235}, {"id": 6337704536, "lat": 52.3319664, "lon": 22.9280628, "way_id": 676802585, "landuse": "meadow", "closest_distance_restriction": 2.21449835360571}, {"id": 6337704537, "lat": 52.3321328, "lon": 22.9278108, "way_id": 676802581, "landuse": "meadow", "closest_distance_restriction": 2.215163275564407}, {"id": 6337704538, "lat": 52.3322894, "lon": 22.9277091, "way_id": 676802581, "landuse": "meadow", "closest_distance_restriction": 2.2090422642039975}, {"id": 6337704539, "lat": 52.3324434, "lon": 22.9278189, "way_id": 676802581, "landuse": "meadow", "closest_distance_restriction": 2.192265033067672}, {"id": 6337704540, "lat": 52.3325303, "lon": 22.9277986, "way_id": 676802581, "landuse": "meadow", "closest_distance_restriction": 2.1865247915098953}, {"id": 6337704541, "lat": 52.332662, "lon": 22.927579, "way_id": 676802581, "landuse": "meadow", "closest_distance_restriction": 2.1845874725372383}, {"id": 6337704542, "lat": 52.3330421, "lon": 22.9275465, "way_id": 676802581, "landuse": "meadow", "closest_distance_restriction": 2.1535280321399375}, {"id": 6337704543, "lat": 52.3332657, "lon": 22.9274733, "way_id": 676802581, "landuse": "meadow", "closest_distance_restriction": 2.137832564463118}, {"id": 6337704544, "lat": 52.3335564, "lon": 22.9277782, "way_id": 676802581, "landuse": "meadow", "closest_distance_restriction": 2.0998245734456287}, {"id": 6337704545, "lat": 52.3337153, "lon": 22.9273961, "way_id": 676802581, "landuse": "meadow", "closest_distance_restriction": 2.1036761081750046}, {"id": 6337704546, "lat": 52.3339489, "lon": 22.9271887, "way_id": 676802581, "landuse": "meadow", "closest_distance_restriction": 2.0938442888929374}, {"id": 6337704547, "lat": 52.3341377, "lon": 22.9270871, "way_id": 676802581, "landuse": "meadow", "closest_distance_restriction": 2.083108038709051}, {"id": 6337704548, "lat": 52.3343016, "lon": 22.926957, "way_id": 676802581, "landuse": "meadow", "closest_distance_restriction": 2.0758929115798934}, {"id": 6337704549, "lat": 52.3345823, "lon": 22.9266765, "way_id": 676802581, "landuse": "meadow", "closest_distance_restriction": 2.066684378114455}, {"id": 6337704550, "lat": 52.3344333, "lon": 22.9259569, "way_id": 676802581, "landuse": "meadow", "closest_distance_restriction": 2.1128984092470464}, {"id": 6337704551, "lat": 52.3344954, "lon": 22.9259122, "way_id": 676802581, "landuse": "meadow", "closest_distance_restriction": 2.110190671857194}, {"id": 6337704552, "lat": 52.3346295, "lon": 22.9265383, "way_id": 676802581, "landuse": "meadow", "closest_distance_restriction": 2.069548032088973}, {"id": 6337704553, "lat": 52.3347786, "lon": 22.9264, "way_id": 676802581, "landuse": "meadow", "closest_distance_restriction": 2.064481783615383}, {"id": 6337704555, "lat": 52.3360604, "lon": 22.9294451, "way_id": 676802581, "landuse": "meadow", "closest_distance_restriction": 1.8177074200391632}, {"id": 6337704556, "lat": 52.3364604, "lon": 22.9290223, "way_id": 676802581, "landuse": "meadow", "closest_distance_restriction": 1.806313951842686}, {"id": 6337704557, "lat": 52.3369994, "lon": 22.9298597, "way_id": 676802600, "landuse": "farmland", "closest_distance_restriction": 1.7237296209225272}, {"id": 6337704558, "lat": 52.3363237, "lon": 22.9307135, "way_id": 676802600, "landuse": "farmland", "closest_distance_restriction": 1.7373562502330135}, {"id": 6337704559, "lat": 52.3355934, "lon": 22.9289979, "way_id": 676802600, "landuse": "farmland", "closest_distance_restriction": 1.8762456853428044}, {"id": 6337704560, "lat": 52.3353847, "lon": 22.9291889, "way_id": 676802600, "landuse": "farmland", "closest_distance_restriction": 1.8843303353924894}, {"id": 6337704561, "lat": 52.3348034, "lon": 22.9277864, "way_id": 676802600, "landuse": "farmland", "closest_distance_restriction": 1.9966278382406175}, {"id": 6337704562, "lat": 52.3344209, "lon": 22.9285181, "way_id": 676802600, "landuse": "farmland", "closest_distance_restriction": 1.9943861281167063}, {"id": 6337704563, "lat": 52.3342072, "lon": 22.9285507, "way_id": 676802600, "landuse": "farmland", "closest_distance_restriction": 2.010768991272552}, {"id": 6337704567, "lat": 52.3339638, "lon": 22.9289694, "way_id": 676802600, "landuse": "farmland", "closest_distance_restriction": 2.012861337456359}, {"id": 6337704568, "lat": 52.3341277, "lon": 22.9301281, "way_id": 676802600, "landuse": "farmland", "closest_distance_restriction": 1.9489354056408217}, {"id": 6337704572, "lat": 52.3342728, "lon": 22.9304675, "way_id": 676802600, "landuse": "farmland", "closest_distance_restriction": 1.9219651642553939}, {"id": 6337704573, "lat": 52.3347566, "lon": 22.9309952, "way_id": 676802600, "landuse": "farmland", "closest_distance_restriction": 1.8575316581344476}, {"id": 6337704574, "lat": 52.3352171, "lon": 22.9314949, "way_id": 676802600, "landuse": "farmland", "closest_distance_restriction": 1.7963256521987931}, {"id": 6337704575, "lat": 52.3350444, "lon": 22.9320196, "way_id": 676802603, "landuse": "farmland", "closest_distance_restriction": 1.7879016878574812}, {"id": 6337704576, "lat": 52.3355164, "lon": 22.9334739, "way_id": 676802603, "landuse": "farmland", "closest_distance_restriction": 1.6782615623207253}, {"id": 6337706094, "lat": 52.335922, "lon": 22.9347074, "way_id": 676802603, "landuse": "farmland", "closest_distance_restriction": 1.5851334401354844}, {"id": 6337706095, "lat": 52.3362684, "lon": 22.9342699, "way_id": 676802603, "landuse": "farmland", "closest_distance_restriction": 1.5834370518730463}, {"id": 6337706104, "lat": 52.3316595, "lon": 22.9273467, "way_id": 676802581, "landuse": "meadow", "closest_distance_restriction": 2.2735527825549107}, {"id": 6337706105, "lat": 52.3323213, "lon": 22.926117, "way_id": 676802581, "landuse": "meadow", "closest_distance_restriction": 2.277543077351271}, {"id": 6337706106, "lat": 52.33293, "lon": 22.9250153, "way_id": 676802581, "landuse": "meadow", "closest_distance_restriction": 2.272227043817196}, {"id": 6337706107, "lat": 52.3329797, "lon": 22.9251169, "way_id": 676802581, "landuse": "meadow", "closest_distance_restriction": 2.268600458481429}, {"id": 6337706108, "lat": 52.3324008, "lon": 22.9261333, "way_id": 676802581, "landuse": "meadow", "closest_distance_restriction": 2.2701280144722316}, {"id": 6337706109, "lat": 52.3326592, "lon": 22.9266943, "way_id": 676802581, "landuse": "meadow", "closest_distance_restriction": 2.2234802130924622}, {"id": 6337706110, "lat": 52.3325524, "lon": 22.9266943, "way_id": 676802581, "landuse": "meadow", "closest_distance_restriction": 2.232509072809859}, {"id": 6337706111, "lat": 52.3323288, "lon": 22.9265357, "way_id": 676802581, "landuse": "meadow", "closest_distance_restriction": 2.2584402067487646}, {"id": 6337706113, "lat": 52.3305485, "lon": 22.9233423, "way_id": 676802599, "landuse": "farmland", "closest_distance_restriction": 2.0245832744104884}, {"id": 6337706114, "lat": 52.3304231, "lon": 22.9242837, "way_id": 676802599, "landuse": "farmland", "closest_distance_restriction": 2.066869979394107}, {"id": 6337706115, "lat": 52.3305745, "lon": 22.9243686, "way_id": 676802599, "landuse": "farmland", "closest_distance_restriction": 2.0815938226139528}, {"id": 6337706116, "lat": 52.3279494, "lon": 22.9220829, "way_id": 676802590, "landuse": "farmland", "closest_distance_restriction": 1.7852825979713094}, {"id": 6337706117, "lat": 52.3273416, "lon": 22.9208711, "way_id": 676802590, "landuse": "farmland", "closest_distance_restriction": 1.679315645257908}, {"id": 6337706163, "lat": 52.336685, "lon": 22.92393, "way_id": 676802600, "landuse": "farmland", "closest_distance_restriction": 2.052294983898625}, {"id": 6337706164, "lat": 52.337334, "lon": 22.9254964, "way_id": 676802600, "landuse": "farmland", "closest_distance_restriction": 1.9239040102861023}, {"id": 6337706165, "lat": 52.3381731, "lon": 22.9247776, "way_id": 676802600, "landuse": "farmland", "closest_distance_restriction": 1.908876205516315}, {"id": 6337706166, "lat": 52.3377011, "lon": 22.9234365, "way_id": 676802600, "landuse": "farmland", "closest_distance_restriction": 2.013741816542506}, {"id": 6337706167, "lat": 52.3370652, "lon": 22.923651, "way_id": 676802600, "landuse": "farmland", "closest_distance_restriction": 2.0423443298199118}, {"id": 6337706168, "lat": 52.3369276, "lon": 22.9235867, "way_id": 676802600, "landuse": "farmland", "closest_distance_restriction": 2.054881591483175}, {"id": 6337706246, "lat": 52.3240826, "lon": 22.9236791, "way_id": 676797443, "landuse": "meadow", "closest_distance_restriction": 1.6420238637523312}, {"id": 6337706247, "lat": 52.3245249, "lon": 22.9246304, "way_id": 676802591, "landuse": "farmland", "closest_distance_restriction": 1.7207120857489189}, {"id": 6337706248, "lat": 52.3247237, "lon": 22.9241019, "way_id": 676802591, "landuse": "farmland", "closest_distance_restriction": 1.7160156994136484}, {"id": 6337706249, "lat": 52.3249075, "lon": 22.9233457, "way_id": 676802591, "landuse": "farmland", "closest_distance_restriction": 1.701429922599239}, {"id": 6337706250, "lat": 52.3249622, "lon": 22.9226058, "way_id": 676802591, "landuse": "farmland", "closest_distance_restriction": 1.6574860300046474}, {"id": 6337706251, "lat": 52.3251958, "lon": 22.9220935, "way_id": 676802591, "landuse": "farmland", "closest_distance_restriction": 1.636253738322352}, {"id": 6337706252, "lat": 52.3254989, "lon": 22.9215894, "way_id": 676802591, "landuse": "farmland", "closest_distance_restriction": 1.6198165148225312}, {"id": 6337706253, "lat": 52.3253598, "lon": 22.9211016, "way_id": 676797443, "landuse": "meadow", "closest_distance_restriction": 1.5832439710795962}, {"id": 6337706255, "lat": 52.3248479, "lon": 22.9216382, "way_id": 676797443, "landuse": "meadow", "closest_distance_restriction": 1.5921423497341496}, {"id": 6337706256, "lat": 52.3246491, "lon": 22.9221992, "way_id": 676797443, "landuse": "meadow", "closest_distance_restriction": 1.6184516383922027}, {"id": 6337706257, "lat": 52.3244305, "lon": 22.9218903, "way_id": 676797443, "landuse": "meadow", "closest_distance_restriction": 1.589791168598993}, {"id": 6337706258, "lat": 52.3243758, "lon": 22.9221423, "way_id": 676797443, "landuse": "meadow", "closest_distance_restriction": 1.6034173683947714}, {"id": 6337706259, "lat": 52.3245547, "lon": 22.9225976, "way_id": 676797443, "landuse": "meadow", "closest_distance_restriction": 1.6395331869880172}, {"id": 6337706260, "lat": 52.3244354, "lon": 22.9231993, "way_id": 676797443, "landuse": "meadow", "closest_distance_restriction": 1.6536011683525995}, {"id": 6337706261, "lat": 52.3244255, "lon": 22.9237441, "way_id": 676797443, "landuse": "meadow", "closest_distance_restriction": 1.6749038800863938}, {"id": 6337706262, "lat": 52.3242068, "lon": 22.9234839, "way_id": 676797443, "landuse": "meadow", "closest_distance_restriction": 1.6448437657507096}, {"id": 6337720836, "lat": 52.3333605, "lon": 22.9151748, "way_id": 676802588, "landuse": "farmland", "closest_distance_restriction": 1.8158829280735695}, {"id": 6337720837, "lat": 52.3324492, "lon": 22.9162584, "way_id": 676802588, "landuse": "farmland", "closest_distance_restriction": 1.7889913505879054}, {"id": 6337720838, "lat": 52.3323344, "lon": 22.9198542, "way_id": 676802587, "landuse": "farmland", "closest_distance_restriction": 1.956940345429041}, {"id": 6337720839, "lat": 52.3316296, "lon": 22.9171167, "way_id": 676802587, "landuse": "farmland", "closest_distance_restriction": 1.7662542788870395}, {"id": 6337720840, "lat": 52.331905, "lon": 22.9168914, "way_id": 676802587, "landuse": "farmland", "closest_distance_restriction": 1.7762672157827113}, {"id": 6337720841, "lat": 52.3310527, "lon": 22.9147456, "way_id": 676802587, "landuse": "farmland", "closest_distance_restriction": 1.60595151680954}, {"id": 6337720842, "lat": 52.3301872, "lon": 22.9156898, "way_id": 676802587, "landuse": "farmland", "closest_distance_restriction": 1.5867469981732183}, {"id": 6337720845, "lat": 52.3297348, "lon": 22.9166554, "way_id": 676802587, "landuse": "farmland", "closest_distance_restriction": 1.6050397130280205}, {"id": 6337720846, "lat": 52.3293611, "lon": 22.917106, "way_id": 676802587, "landuse": "farmland", "closest_distance_restriction": 1.6041472135414663}, {"id": 6337720851, "lat": 52.3282185, "lon": 22.9191767, "way_id": 676802587, "landuse": "farmland", "closest_distance_restriction": 1.6421749626863296}, {"id": 6337720852, "lat": 52.3279949, "lon": 22.9197702, "way_id": 676797443, "landuse": "meadow", "closest_distance_restriction": 1.6597740675350436}, {"id": 6337720853, "lat": 52.3271799, "lon": 22.9195426, "way_id": 676797443, "landuse": "meadow", "closest_distance_restriction": 1.5943541553057268}, {"id": 6337720855, "lat": 52.3264792, "lon": 22.9197052, "way_id": 676802591, "landuse": "farmland", "closest_distance_restriction": 1.5608828861300155}, {"id": 6337720860, "lat": 52.3257984, "lon": 22.9207053, "way_id": 676802591, "landuse": "farmland", "closest_distance_restriction": 1.5816816817054336}, {"id": 6337720861, "lat": 52.3253886, "lon": 22.9212026, "way_id": 676802591, "landuse": "farmland", "closest_distance_restriction": 1.5908163190287916}, {"id": 6337757579, "lat": 52.3295646, "lon": 22.9198747, "way_id": 676802587, "landuse": "farmland", "closest_distance_restriction": 1.7713968287877335}, {"id": 6337757580, "lat": 52.330506, "lon": 22.9190181, "way_id": 676802587, "landuse": "farmland", "closest_distance_restriction": 1.7844770474699665}, {"id": 6337757581, "lat": 52.3313685, "lon": 22.9207894, "way_id": 676802579, "landuse": "meadow", "closest_distance_restriction": 1.9383402600715143}, {"id": 6337757582, "lat": 52.3304142, "lon": 22.9217133, "way_id": 676802587, "landuse": "farmland", "closest_distance_restriction": 1.9277355670643184}, {"id": 6337757583, "lat": 52.3314625, "lon": 22.920799, "way_id": 676802589, "landuse": "farmland", "closest_distance_restriction": 1.9452179191813348}, {"id": 6337757584, "lat": 52.3323474, "lon": 22.9228263, "way_id": 676802589, "landuse": "farmland", "closest_distance_restriction": 2.1144046712671423}, {"id": 6337758185, "lat": 52.3335033, "lon": 22.9213968, "way_id": 676802589, "landuse": "farmland", "closest_distance_restriction": 2.1215181471889495}, {"id": 6337758186, "lat": 52.3350594, "lon": 22.9203306, "way_id": 676802581, "landuse": "meadow", "closest_distance_restriction": 2.189988523139334}, {"id": 6337758187, "lat": 52.3356195, "lon": 22.9216863, "way_id": 676802581, "landuse": "meadow", "closest_distance_restriction": 2.245353663704298}, {"id": 6337758188, "lat": 52.3359471, "lon": 22.9217664, "way_id": 676802581, "landuse": "meadow", "closest_distance_restriction": 2.219123796108589}, {"id": 6337758189, "lat": 52.336542, "lon": 22.9211009, "way_id": 676802581, "landuse": "meadow", "closest_distance_restriction": 2.2174568965056647}, {"id": 6337758190, "lat": 52.3370804, "lon": 22.92213, "way_id": 676802581, "landuse": "meadow", "closest_distance_restriction": 2.1259456460600488}, {"id": 6337758191, "lat": 52.3361391, "lon": 22.9235658, "way_id": 676802581, "landuse": "meadow", "closest_distance_restriction": 2.108960726347455}, {"id": 6337758192, "lat": 52.3364215, "lon": 22.9241943, "way_id": 676802600, "landuse": "farmland", "closest_distance_restriction": 2.0559815114944358}, {"id": 6337758193, "lat": 52.3366399, "lon": 22.9252172, "way_id": 676802600, "landuse": "farmland", "closest_distance_restriction": 1.9864643000451905}, {"id": 6337758194, "lat": 52.3359358, "lon": 22.9260491, "way_id": 676802600, "landuse": "farmland", "closest_distance_restriction": 1.9938459270714393}, {"id": 6337758195, "lat": 52.3360262, "lon": 22.9262956, "way_id": 676802600, "landuse": "farmland", "closest_distance_restriction": 1.9746509465299737}, {"id": 6337758196, "lat": 52.3357475, "lon": 22.9266468, "way_id": 676802600, "landuse": "farmland", "closest_distance_restriction": 1.977834785148038}, {"id": 6337758197, "lat": 52.3370428, "lon": 22.9298265, "way_id": 676802600, "landuse": "farmland", "closest_distance_restriction": 1.7219750455035376}, {"id": 6337758198, "lat": 52.3320741, "lon": 22.9279045, "way_id": 676802585, "landuse": "meadow", "closest_distance_restriction": 2.214650334302526}, {"id": 6337758199, "lat": 52.3314361, "lon": 22.9269981, "way_id": 676802599, "landuse": "farmland", "closest_distance_restriction": 2.2821350683287007}, {"id": 6337758200, "lat": 52.3318014, "lon": 22.9263695, "way_id": 676802599, "landuse": "farmland", "closest_distance_restriction": 2.2724649227693394}, {"id": 6337758201, "lat": 52.3306056, "lon": 22.9241294, "way_id": 676802599, "landuse": "farmland", "closest_distance_restriction": 2.0707432287569905}, {"id": 6337758202, "lat": 52.3300767, "lon": 22.9222224, "way_id": 676802599, "landuse": "farmland", "closest_distance_restriction": 1.932343373180694}, {"id": 6337758203, "lat": 52.3302801, "lon": 22.9298388, "way_id": 676802598, "landuse": "farmland", "closest_distance_restriction": 2.2595000520744692}, {"id": 6337758204, "lat": 52.3307771, "lon": 22.9288344, "way_id": 676802598, "landuse": "farmland", "closest_distance_restriction": 2.267029632929458}, {"id": 6337758205, "lat": 52.3314648, "lon": 22.9270905, "way_id": 676802598, "landuse": "farmland", "closest_distance_restriction": 2.289085434874641}, {"id": 6337758206, "lat": 52.3311932, "lon": 22.931009, "way_id": 676802585, "landuse": "meadow", "closest_distance_restriction": 2.131004164371592}, {"id": 6337758207, "lat": 52.3305173, "lon": 22.9309356, "way_id": 676802598, "landuse": "farmland", "closest_distance_restriction": 2.189811959754378}, {"id": 6337758208, "lat": 52.3306755, "lon": 22.9306522, "way_id": 676802598, "landuse": "farmland", "closest_distance_restriction": 2.1897108378330774}, {"id": 6337758225, "lat": 52.3280043, "lon": 22.9197452, "way_id": 676802587, "landuse": "farmland", "closest_distance_restriction": 1.6590410431749802}, {"id": 6337758226, "lat": 52.3283184, "lon": 22.9204592, "way_id": 676802587, "landuse": "farmland", "closest_distance_restriction": 1.7188134058865225}, {"id": 6337758227, "lat": 52.3280736, "lon": 22.9208104, "way_id": 676802587, "landuse": "farmland", "closest_distance_restriction": 1.7219774248068707}, {"id": 6337758228, "lat": 52.3281361, "lon": 22.9213751, "way_id": 676802587, "landuse": "farmland", "closest_distance_restriction": 1.7572964571695546}, {"id": 6337758230, "lat": 52.3309031, "lon": 22.9198337, "way_id": 676802587, "landuse": "farmland", "closest_distance_restriction": 1.855320565432703}, {"id": 6337758231, "lat": 52.331203, "lon": 22.9194671, "way_id": 676802587, "landuse": "farmland", "closest_distance_restriction": 1.856187159611057}, {"id": 6337758232, "lat": 52.3316247, "lon": 22.9204962, "way_id": 676802587, "landuse": "farmland", "closest_distance_restriction": 1.9401045730010549}, {"id": 6337758233, "lat": 52.3293865, "lon": 22.9170753, "way_id": 676802587, "landuse": "farmland", "closest_distance_restriction": 1.6041512750718663}, {"id": 6337758234, "lat": 52.3298398, "lon": 22.9180745, "way_id": 676802587, "landuse": "farmland", "closest_distance_restriction": 1.6887141799097853}, {"id": 6337758235, "lat": 52.3295009, "lon": 22.9184812, "way_id": 676802587, "landuse": "farmland", "closest_distance_restriction": 1.6890964519981646}, {"id": 6337758236, "lat": 52.3291055, "lon": 22.9188694, "way_id": 676802587, "landuse": "farmland", "closest_distance_restriction": 1.6862686083455036}, {"id": 6337758237, "lat": 52.3287741, "lon": 22.9181361, "way_id": 676802587, "landuse": "farmland", "closest_distance_restriction": 1.6243945387051975}, {"id": 6337758238, "lat": 52.329403, "lon": 22.9174275, "way_id": 676802587, "landuse": "farmland", "closest_distance_restriction": 1.6245140456653369}, {"id": 6337758239, "lat": 52.3336095, "lon": 22.9148333, "way_id": 676802588, "landuse": "farmland", "closest_distance_restriction": 1.8227337361925464}, {"id": 6337758240, "lat": 52.3270718, "lon": 22.9209357, "way_id": 676802590, "landuse": "farmland", "closest_distance_restriction": 1.6667460576908542}, {"id": 6337758241, "lat": 52.3272189, "lon": 22.9205868, "way_id": 676802590, "landuse": "farmland", "closest_distance_restriction": 1.655677438906244}, {"id": 6337758242, "lat": 52.3259806, "lon": 22.9266453, "way_id": 676802591, "landuse": "farmland", "closest_distance_restriction": 1.9326621682170155}, {"id": 6337758243, "lat": 52.3254369, "lon": 22.9249849, "way_id": 676802591, "landuse": "farmland", "closest_distance_restriction": 1.8154647707329399}, {"id": 6337758244, "lat": 52.3258046, "lon": 22.9241067, "way_id": 676802591, "landuse": "farmland", "closest_distance_restriction": 1.788843457897252}, {"id": 6337758245, "lat": 52.325899, "lon": 22.9243507, "way_id": 676802590, "landuse": "farmland", "closest_distance_restriction": 1.8083015749855567}, {"id": 6337758246, "lat": 52.326063, "lon": 22.9240579, "way_id": 676802590, "landuse": "farmland", "closest_distance_restriction": 1.7981015362469894}, {"id": 6337758247, "lat": 52.3264109, "lon": 22.9248873, "way_id": 676802590, "landuse": "farmland", "closest_distance_restriction": 1.8656936212438517}, {"id": 6337758248, "lat": 52.3268929, "lon": 22.9241962, "way_id": 676802590, "landuse": "farmland", "closest_distance_restriction": 1.84826689720588}, {"id": 6337758249, "lat": 52.3267985, "lon": 22.9239034, "way_id": 676802590, "landuse": "farmland", "closest_distance_restriction": 1.8257703571223658}, {"id": 6337758250, "lat": 52.3270596, "lon": 22.9235734, "way_id": 676802590, "landuse": "farmland", "closest_distance_restriction": 1.820051478171878}, {"id": 6337758251, "lat": 52.3264493, "lon": 22.9222635, "way_id": 676802591, "landuse": "farmland", "closest_distance_restriction": 1.7092867685232873}, {"id": 6337758252, "lat": 52.3268044, "lon": 22.9214139, "way_id": 676802590, "landuse": "farmland", "closest_distance_restriction": 1.6788324329367295}, {"id": 6337758253, "lat": 52.3271413, "lon": 22.9221634, "way_id": 676802590, "landuse": "farmland", "closest_distance_restriction": 1.7417846625695563}, {"id": 6337758254, "lat": 52.3274395, "lon": 22.9216918, "way_id": 676802590, "landuse": "farmland", "closest_distance_restriction": 1.7320449027515867}, {"id": 6337758256, "lat": 52.3267582, "lon": 22.9202684, "way_id": 676802591, "landuse": "farmland", "closest_distance_restriction": 1.609786298759654}, {"id": 6337758257, "lat": 52.3265527, "lon": 22.920614, "way_id": 676802591, "landuse": "farmland", "closest_distance_restriction": 1.6178198731628748}, {"id": 6337758258, "lat": 52.326885, "lon": 22.921221, "way_id": 676802591, "landuse": "farmland", "closest_distance_restriction": 1.6722468969697943}, {"id": 6337758259, "lat": 52.326654, "lon": 22.9217737, "way_id": 676802591, "landuse": "farmland", "closest_distance_restriction": 1.6914423848525615}, {"id": 6337758260, "lat": 52.3263757, "lon": 22.9211651, "way_id": 676802591, "landuse": "farmland", "closest_distance_restriction": 1.6401649779815077}, {"id": 6337758261, "lat": 52.3261759, "lon": 22.9214873, "way_id": 676802591, "landuse": "farmland", "closest_distance_restriction": 1.648417934533804}, {"id": 6337758262, "lat": 52.3265306, "lon": 22.922069, "way_id": 676802591, "landuse": "farmland", "closest_distance_restriction": 1.7021094747089547}, {"id": 6337758263, "lat": 52.3256708, "lon": 22.9230611, "way_id": 676802591, "landuse": "farmland", "closest_distance_restriction": 1.7181795376959195}, {"id": 6337758264, "lat": 52.3254909, "lon": 22.9234627, "way_id": 676802591, "landuse": "farmland", "closest_distance_restriction": 1.7345302170618886}, {"id": 6337758265, "lat": 52.3254765, "lon": 22.927253, "way_id": 676802591, "landuse": "farmland", "closest_distance_restriction": 1.9161232695649413}, {"id": 6337758278, "lat": 52.3246567, "lon": 22.9255789, "way_id": 676802595, "landuse": "farmland", "closest_distance_restriction": 1.772932848633522}, {"id": 6337758279, "lat": 52.3236991, "lon": 22.926552, "way_id": 676802595, "landuse": "farmland", "closest_distance_restriction": 1.738030557893693}, {"id": 6337758280, "lat": 52.3245212, "lon": 22.9283173, "way_id": 676802595, "landuse": "farmland", "closest_distance_restriction": 1.8872526180328641}, {"id": 6337758281, "lat": 52.3241976, "lon": 22.928795, "way_id": 676802595, "landuse": "farmland", "closest_distance_restriction": 1.8850996051400113}, {"id": 6337758285, "lat": 52.3241742, "lon": 22.9289727, "way_id": 676887855, "landuse": "farmland", "closest_distance_restriction": 1.8920307025121645}, {"id": 6337758286, "lat": 52.3255447, "lon": 22.931789, "way_id": 676887855, "landuse": "farmland", "closest_distance_restriction": 1.9088364651452652}, {"id": 6337758287, "lat": 52.3253185, "lon": 22.9320948, "way_id": 676887855, "landuse": "farmland", "closest_distance_restriction": 1.8762859441566648}, {"id": 6337758288, "lat": 52.3275389, "lon": 22.936632, "way_id": 676802596, "landuse": "farmland", "closest_distance_restriction": 1.884520396185543}, {"id": 6337758289, "lat": 52.3300789, "lon": 22.9222277, "way_id": 676802599, "landuse": "farmland", "closest_distance_restriction": 1.9327775984246216}, {"id": 6337758290, "lat": 52.3287252, "lon": 22.9234673, "way_id": 676802599, "landuse": "farmland", "closest_distance_restriction": 1.9114982588486704}, {"id": 6337758291, "lat": 52.3365678, "lon": 22.9229353, "way_id": 676802600, "landuse": "farmland", "closest_distance_restriction": 2.114232832167453}, {"id": 6338448963, "lat": 52.3224969, "lon": 22.9252966, "way_id": 676887854, "landuse": "farmland", "closest_distance_restriction": 1.582892415594707}, {"id": 6338448964, "lat": 52.3220866, "lon": 22.9259753, "way_id": 676887854, "landuse": "farmland", "closest_distance_restriction": 1.584690014483975}, {"id": 6338448970, "lat": 52.3210245, "lon": 22.9275651, "way_id": 676887858, "landuse": "meadow", "closest_distance_restriction": 1.5924828720082234}, {"id": 6338448971, "lat": 52.320791, "lon": 22.9284771, "way_id": 676887854, "landuse": "farmland", "closest_distance_restriction": 1.6276108235345048}, {"id": 6338448972, "lat": 52.322467, "lon": 22.9319279, "way_id": 676887854, "landuse": "farmland", "closest_distance_restriction": 1.6696517963182411}, {"id": 6338448973, "lat": 52.3225386, "lon": 22.931743, "way_id": 676887854, "landuse": "farmland", "closest_distance_restriction": 1.6844386030306049}, {"id": 6338448974, "lat": 52.3223164, "lon": 22.9312439, "way_id": 676887854, "landuse": "farmland", "closest_distance_restriction": 1.6960050108910678}, {"id": 6338448975, "lat": 52.3226139, "lon": 22.9306092, "way_id": 676887854, "landuse": "farmland", "closest_distance_restriction": 1.7503654862724984}, {"id": 6338448976, "lat": 52.3228362, "lon": 22.9310652, "way_id": 676887854, "landuse": "farmland", "closest_distance_restriction": 1.741086782145446}, {"id": 6338448977, "lat": 52.3235706, "lon": 22.9294569, "way_id": 676887854, "landuse": "farmland", "closest_distance_restriction": 1.8709877033006699}, {"id": 6338448978, "lat": 52.3241779, "lon": 22.9287544, "way_id": 676887854, "landuse": "farmland", "closest_distance_restriction": 1.8815923541361264}, {"id": 6338448979, "lat": 52.3237099, "lon": 22.9294877, "way_id": 676887855, "landuse": "farmland", "closest_distance_restriction": 1.882824314546571}, {"id": 6338448980, "lat": 52.3234237, "lon": 22.9300608, "way_id": 676887855, "landuse": "farmland", "closest_distance_restriction": 1.8351996794576322}, {"id": 6338448981, "lat": 52.3229115, "lon": 22.9312069, "way_id": 676887855, "landuse": "farmland", "closest_distance_restriction": 1.7388122178033707}, {"id": 6338448982, "lat": 52.3232806, "lon": 22.9319217, "way_id": 676887855, "landuse": "farmland", "closest_distance_restriction": 1.727945541835437}, {"id": 6338448983, "lat": 52.3229642, "lon": 22.9324085, "way_id": 676887855, "landuse": "farmland", "closest_distance_restriction": 1.6799012165781189}, {"id": 6338448984, "lat": 52.3226328, "lon": 22.931817, "way_id": 676887855, "landuse": "farmland", "closest_distance_restriction": 1.6870843521591892}, {"id": 6338449685, "lat": 52.3225311, "lon": 22.9320388, "way_id": 676887855, "landuse": "farmland", "closest_distance_restriction": 1.6682528125817733}, {"id": 6338449686, "lat": 52.3221883, "lon": 22.9327598, "way_id": 676887855, "landuse": "farmland", "closest_distance_restriction": 1.6061837178316924}, {"id": 6338449687, "lat": 52.3237024, "lon": 22.935773, "way_id": 676887855, "landuse": "farmland", "closest_distance_restriction": 1.5748876458332073}, {"id": 6338449688, "lat": 52.3240828, "lon": 22.9353109, "way_id": 676887855, "landuse": "farmland", "closest_distance_restriction": 1.6273884935980552}, {"id": 6338449689, "lat": 52.3243577, "lon": 22.9356683, "way_id": 676887855, "landuse": "farmland", "closest_distance_restriction": 1.6347894111323424}, {"id": 6338449690, "lat": 52.3239585, "lon": 22.9362537, "way_id": 676887855, "landuse": "farmland", "closest_distance_restriction": 1.5752160816353682}, {"id": 6338449691, "lat": 52.3255855, "lon": 22.9396428, "way_id": 676887855, "landuse": "farmland", "closest_distance_restriction": 1.5906656122862504}, {"id": 6338449692, "lat": 52.325947, "lon": 22.9391252, "way_id": 676887855, "landuse": "farmland", "closest_distance_restriction": 1.6435050583914472}, {"id": 6338449693, "lat": 52.3260713, "lon": 22.939649, "way_id": 676887855, "landuse": "farmland", "closest_distance_restriction": 1.6361953935912223}, {"id": 6338449694, "lat": 52.32577, "lon": 22.9400249, "way_id": 676887855, "landuse": "farmland", "closest_distance_restriction": 1.5942798742592976}, {"id": 6338449695, "lat": 52.3263801, "lon": 22.9412203, "way_id": 676887855, "landuse": "farmland", "closest_distance_restriction": 1.6131716876462057}, {"id": 6338449696, "lat": 52.3269978, "lon": 22.940259, "way_id": 676887855, "landuse": "farmland", "closest_distance_restriction": 1.7045607213799838}, {"id": 6338449697, "lat": 52.3268622, "lon": 22.9364878, "way_id": 676887855, "landuse": "farmland", "closest_distance_restriction": 1.8260779878150715}, {"id": 6338449698, "lat": 52.3269375, "lon": 22.9363215, "way_id": 676887855, "landuse": "farmland", "closest_distance_restriction": 1.839258711905528}, {"id": 6338449699, "lat": 52.3273668, "lon": 22.9369561, "way_id": 676887855, "landuse": "farmland", "closest_distance_restriction": 1.856523235512992}, {"id": 6338449700, "lat": 52.3274883, "lon": 22.9365285, "way_id": 676887855, "landuse": "farmland", "closest_distance_restriction": 1.8834142396175035}, {"id": 6338449720, "lat": 52.3208662, "lon": 22.9281835, "way_id": 676887858, "landuse": "meadow", "closest_distance_restriction": 1.6160822067623717}, {"id": 6338449755, "lat": 52.3421854, "lon": 22.9083836, "way_id": 676887861, "landuse": "farmland", "closest_distance_restriction": 1.6138585706749706}, {"id": 7578617846, "lat": 52.3279635, "lon": 22.9215287, "way_id": 676802587, "landuse": "farmland", "closest_distance_restriction": 1.7549411534987838}, {"id": 7578617847, "lat": 52.3280071, "lon": 22.9218377, "way_id": 676802587, "landuse": "farmland", "closest_distance_restriction": 1.7750270261639465}, {"id": 7578617848, "lat": 52.3282685, "lon": 22.9226553, "way_id": 676802587, "landuse": "farmland", "closest_distance_restriction": 1.837341304408975}, {"id": 7578617849, "lat": 52.3282424, "lon": 22.9229072, "way_id": 676802590, "landuse": "farmland", "closest_distance_restriction": 1.849969631708975}, {"id": 7578617850, "lat": 52.3284545, "lon": 22.9232352, "way_id": 676802590, "landuse": "farmland", "closest_distance_restriction": 1.8815914545655161}, {"id": 7578617851, "lat": 52.3285648, "lon": 22.9234254, "way_id": 676802590, "landuse": "farmland", "closest_distance_restriction": 1.8991546664320311}, {"id": 7578617852, "lat": 52.3280826, "lon": 22.9224984, "way_id": 676802590, "landuse": "farmland", "closest_distance_restriction": 1.8169971242147063}, {"id": 7578617855, "lat": 52.3353564, "lon": 22.9318012, "way_id": 676802603, "landuse": "farmland", "closest_distance_restriction": 1.77124640562006}, {"id": 7578617856, "lat": 52.3351763, "lon": 22.9317822, "way_id": 676802603, "landuse": "farmland", "closest_distance_restriction": 1.787777713576538}, {"id": 7578617858, "lat": 52.3354203, "lon": 22.9327614, "way_id": 676802603, "landuse": "farmland", "closest_distance_restriction": 1.7224268520906656}, {"id": 7578617859, "lat": 52.3364195, "lon": 22.9328613, "way_id": 676802603, "landuse": "farmland", "closest_distance_restriction": 1.6339563429267983}, {"id": 7578617860, "lat": 52.3360041, "lon": 22.9324239, "way_id": 676802603, "landuse": "farmland", "closest_distance_restriction": 1.688565471218116}, {"id": 7578617861, "lat": 52.3359315, "lon": 22.9324572, "way_id": 676802603, "landuse": "farmland", "closest_distance_restriction": 1.6934527541875548}, {"id": 7578617862, "lat": 52.3355452, "lon": 22.9320341, "way_id": 676802603, "landuse": "farmland", "closest_distance_restriction": 1.7449648833090494}, {"id": 7578617863, "lat": 52.3364834, "lon": 22.9330181, "way_id": 676802603, "landuse": "farmland", "closest_distance_restriction": 1.6217341978000197}, {"id": 7858101989, "lat": 52.3282685, "lon": 22.9399353, "way_id": 676887855, "landuse": "farmland", "closest_distance_restriction": 1.8397825473673337}]}