{"nodes": [{"id": 1258029373, "lat": 50.9626605, "lon": 16.1910898, "way_id": 628061313, "landuse": "farmland", "closest_distance_restriction": 1.7954048706740073}, {"id": 1258031045, "lat": 50.9595039, "lon": 16.1893581, "way_id": 628061313, "landuse": "farmland", "closest_distance_restriction": 2.096062690345372}, {"id": 1258038148, "lat": 50.963132, "lon": 16.186271, "way_id": 628061313, "landuse": "farmland", "closest_distance_restriction": 1.6556767776824028}, {"id": 1258044190, "lat": 50.9603858, "lon": 16.1916183, "way_id": 628061313, "landuse": "farmland", "closest_distance_restriction": 2.046735420485759}, {"id": 2065212776, "lat": 51.1309723, "lon": 16.3066963, "way_id": 457147617, "landuse": "farmland", "closest_distance_restriction": 2.149254054605112}, {"id": 2065212781, "lat": 51.1311757, "lon": 16.3064441, "way_id": 457147617, "landuse": "farmland", "closest_distance_restriction": 2.176867709892943}, {"id": 2065212783, "lat": 51.131367, "lon": 16.3060451, "way_id": 457147617, "landuse": "farmland", "closest_distance_restriction": 2.211903135896875}, {"id": 2065212786, "lat": 51.1315148, "lon": 16.3056543, "way_id": 457147617, "landuse": "farmland", "closest_distance_restriction": 2.243590284301386}, {"id": 2065212789, "lat": 51.1316331, "lon": 16.3052137, "way_id": 457147617, "landuse": "farmland", "closest_distance_restriction": 2.276123986586782}, {"id": 2065212791, "lat": 51.1317148, "lon": 16.3048036, "way_id": 457147617, "landuse": "farmland", "closest_distance_restriction": 2.304561759443563}, {"id": 2065212793, "lat": 51.1318505, "lon": 16.3041246, "way_id": 457147617, "landuse": "farmland", "closest_distance_restriction": 2.3419068131873995}, {"id": 2065212794, "lat": 51.13188, "lon": 16.3038198, "way_id": 457147617, "landuse": "farmland", "closest_distance_restriction": 2.3508849728063073}, {"id": 2065269747, "lat": 51.1723564, "lon": 16.273269, "way_id": 217299146, "landuse": "farmland", "closest_distance_restriction": 6.121466227911687}, {"id": 2065269759, "lat": 51.1738845, "lon": 16.2706651, "way_id": 217299146, "landuse": "farmland", "closest_distance_restriction": 6.369596525760816}, {"id": 2261348461, "lat": 51.1509195, "lon": 16.2678366, "way_id": 457147617, "landuse": "farmland", "closest_distance_restriction": 4.806843539140403}, {"id": 2261348472, "lat": 51.151472, "lon": 16.2750514, "way_id": 457147617, "landuse": "farmland", "closest_distance_restriction": 4.819569064563724}, {"id": 2261348473, "lat": 51.1514738, "lon": 16.2755273, "way_id": 457147617, "landuse": "farmland", "closest_distance_restriction": 4.81843348195092}, {"id": 2261348481, "lat": 51.1521179, "lon": 16.2755726, "way_id": 457147617, "landuse": "farmland", "closest_distance_restriction": 4.855673091639595}, {"id": 2265712803, "lat": 51.1742648, "lon": 16.2700386, "way_id": 217299146, "landuse": "farmland", "closest_distance_restriction": 6.430196247866986}, {"id": 2265712805, "lat": 51.1752893, "lon": 16.2683769, "way_id": 217299146, "landuse": "farmland", "closest_distance_restriction": 6.5920653823862425}, {"id": 2265712807, "lat": 51.1759101, "lon": 16.2674328, "way_id": 217299146, "landuse": "farmland", "closest_distance_restriction": 6.686795987437953}, {"id": 2265712809, "lat": 51.1765212, "lon": 16.2666383, "way_id": 217299146, "landuse": "farmland", "closest_distance_restriction": 6.772847005878856}, {"id": 2265712810, "lat": 51.1766223, "lon": 16.2665001, "way_id": 217299146, "landuse": "farmland", "closest_distance_restriction": 6.787448561386624}, {"id": 2265712815, "lat": 51.1769573, "lon": 16.266089, "way_id": 217299146, "landuse": "farmland", "closest_distance_restriction": 6.833335949284506}, {"id": 2265712842, "lat": 51.1770637, "lon": 16.2659478, "way_id": 217299146, "landuse": "farmland", "closest_distance_restriction": 6.848480980376251}, {"id": 2265712878, "lat": 51.1773182, "lon": 16.2656015, "way_id": 217299146, "landuse": "farmland", "closest_distance_restriction": 6.885167724022533}, {"id": 2265712939, "lat": 51.1781266, "lon": 16.2643964, "way_id": 217299146, "landuse": "farmland", "closest_distance_restriction": 7.007331325911055}, {"id": 2265713010, "lat": 51.1790457, "lon": 16.2630033, "way_id": 217299146, "landuse": "farmland", "closest_distance_restriction": 7.147479684267079}, {"id": 2265713013, "lat": 51.1791227, "lon": 16.262892, "way_id": 217299146, "landuse": "farmland", "closest_distance_restriction": 7.15893479322366}, {"id": 2265713032, "lat": 51.1792165, "lon": 16.2626924, "way_id": 217299146, "landuse": "farmland", "closest_distance_restriction": 7.176292023164639}, {"id": 2265713058, "lat": 51.1799143, "lon": 16.2615679, "way_id": 217299146, "landuse": "farmland", "closest_distance_restriction": 7.286264737477918}, {"id": 2265713059, "lat": 51.1799539, "lon": 16.261542, "way_id": 217299146, "landuse": "farmland", "closest_distance_restriction": 7.290492730652266}, {"id": 2265713095, "lat": 51.1807226, "lon": 16.2621567, "way_id": 217299146, "landuse": "farmland", "closest_distance_restriction": 7.313833221467585}, {"id": 2265713130, "lat": 51.181231, "lon": 16.2625669, "way_id": 217299146, "landuse": "farmland", "closest_distance_restriction": 7.32972483501149}, {"id": 2265713132, "lat": 51.1812781, "lon": 16.2703362, "way_id": 217299146, "landuse": "farmland", "closest_distance_restriction": 6.937762884789157}, {"id": 2265713140, "lat": 51.1812767, "lon": 16.2626666, "way_id": 217299146, "landuse": "farmland", "closest_distance_restriction": 7.327906299186287}, {"id": 2265713186, "lat": 51.1813313, "lon": 16.2638745, "way_id": 217299146, "landuse": "farmland", "closest_distance_restriction": 7.269295351748342}, {"id": 2265713190, "lat": 51.181377, "lon": 16.2702531, "way_id": 217299146, "landuse": "farmland", "closest_distance_restriction": 6.949610326458555}, {"id": 2265713193, "lat": 51.1814396, "lon": 16.2656284, "way_id": 217299146, "landuse": "farmland", "closest_distance_restriction": 7.187301997398688}, {"id": 2265713194, "lat": 51.1814637, "lon": 16.2702109, "way_id": 217299146, "landuse": "farmland", "closest_distance_restriction": 6.958478684182929}, {"id": 2265713356, "lat": 51.1815166, "lon": 16.2701111, "way_id": 217299146, "landuse": "farmland", "closest_distance_restriction": 6.967561113202818}, {"id": 2265713357, "lat": 51.1815406, "lon": 16.2670868, "way_id": 217299146, "landuse": "farmland", "closest_distance_restriction": 7.120857518542311}, {"id": 2265713359, "lat": 51.181608, "lon": 16.2697043, "way_id": 217299146, "landuse": "farmland", "closest_distance_restriction": 6.994882775036277}, {"id": 2265713360, "lat": 51.1816104, "lon": 16.2682881, "way_id": 217299146, "landuse": "farmland", "closest_distance_restriction": 7.065735478444739}, {"id": 2265713362, "lat": 51.1816729, "lon": 16.2693583, "way_id": 217299146, "landuse": "farmland", "closest_distance_restriction": 7.017138808275004}, {"id": 2265713364, "lat": 51.181697, "lon": 16.2693128, "way_id": 217299146, "landuse": "farmland", "closest_distance_restriction": 7.021279332719253}, {"id": 2265717756, "lat": 51.1732939, "lon": 16.2716445, "way_id": 217299146, "landuse": "farmland", "closest_distance_restriction": 6.275145195320456}, {"id": 2265717761, "lat": 51.1734863, "lon": 16.2713204, "way_id": 217299146, "landuse": "farmland", "closest_distance_restriction": 6.306185194544305}, {"id": 2265740603, "lat": 51.1807392, "lon": 16.2734714, "way_id": 217299146, "landuse": "farmland", "closest_distance_restriction": 6.741010137367949}, {"id": 2265740608, "lat": 51.1809544, "lon": 16.2725987, "way_id": 217299146, "landuse": "farmland", "closest_distance_restriction": 6.800743380200612}, {"id": 2265740739, "lat": 51.1810569, "lon": 16.271748, "way_id": 217299146, "landuse": "farmland", "closest_distance_restriction": 6.850624235184145}, {"id": 2265740741, "lat": 51.1812877, "lon": 16.2704146, "way_id": 217299146, "landuse": "farmland", "closest_distance_restriction": 6.934623403608763}, {"id": 2265740743, "lat": 51.1813056, "lon": 16.270705, "way_id": 217299146, "landuse": "farmland", "closest_distance_restriction": 6.921638032391137}, {"id": 2265740745, "lat": 51.1813263, "lon": 16.2710087, "way_id": 217299146, "landuse": "farmland", "closest_distance_restriction": 6.908251423026212}, {"id": 2265740747, "lat": 51.1813088, "lon": 16.2708274, "way_id": 217299146, "landuse": "farmland", "closest_distance_restriction": 6.915834921303581}, {"id": 2265740749, "lat": 51.1813678, "lon": 16.2713847, "way_id": 217299146, "landuse": "farmland", "closest_distance_restriction": 6.892983052074848}, {"id": 2265740753, "lat": 51.181397, "lon": 16.2718531, "way_id": 217299146, "landuse": "farmland", "closest_distance_restriction": 6.872280816315663}, {"id": 2265740755, "lat": 51.1816033, "lon": 16.2736922, "way_id": 217299146, "landuse": "farmland", "closest_distance_restriction": 6.799274228803839}, {"id": 2265740757, "lat": 51.1813675, "lon": 16.2715169, "way_id": 217299146, "landuse": "farmland", "closest_distance_restriction": 6.886457229748498}, {"id": 2265740769, "lat": 51.181762, "lon": 16.2728318, "way_id": 217299146, "landuse": "farmland", "closest_distance_restriction": 6.853585335859134}, {"id": 2265757556, "lat": 51.1585726, "lon": 16.2921423, "way_id": 217299146, "landuse": "farmland", "closest_distance_restriction": 4.146959657294334}, {"id": 2265757558, "lat": 51.1594782, "lon": 16.2910065, "way_id": 217299146, "landuse": "farmland", "closest_distance_restriction": 4.2694377600033935}, {"id": 2265757561, "lat": 51.1600371, "lon": 16.2903079, "way_id": 217299146, "landuse": "farmland", "closest_distance_restriction": 4.345052814038499}, {"id": 2265757563, "lat": 51.1609067, "lon": 16.2892445, "way_id": 217299146, "landuse": "farmland", "closest_distance_restriction": 4.461599482100789}, {"id": 2265757565, "lat": 51.1616095, "lon": 16.2883692, "way_id": 217299146, "landuse": "farmland", "closest_distance_restriction": 4.556887036469387}, {"id": 2265757567, "lat": 51.1622763, "lon": 16.2875594, "way_id": 217299146, "landuse": "farmland", "closest_distance_restriction": 4.6462831826493876}, {"id": 2265757569, "lat": 51.1627047, "lon": 16.2870277, "way_id": 217299146, "landuse": "farmland", "closest_distance_restriction": 4.70443438611335}, {"id": 2265757571, "lat": 51.1629227, "lon": 16.2867578, "way_id": 217299146, "landuse": "farmland", "closest_distance_restriction": 4.734009688975468}, {"id": 2265757573, "lat": 51.1631407, "lon": 16.286541, "way_id": 217299146, "landuse": "farmland", "closest_distance_restriction": 4.760636126092495}, {"id": 2265757586, "lat": 51.1639768, "lon": 16.2859357, "way_id": 217299146, "landuse": "farmland", "closest_distance_restriction": 4.85042858186091}, {"id": 2265757588, "lat": 51.1646462, "lon": 16.2854776, "way_id": 217299146, "landuse": "farmland", "closest_distance_restriction": 4.921204592315515}, {"id": 2265757590, "lat": 51.1649566, "lon": 16.2852404, "way_id": 217299146, "landuse": "farmland", "closest_distance_restriction": 4.9554889334612096}, {"id": 2265757593, "lat": 51.1652105, "lon": 16.2849255, "way_id": 217299146, "landuse": "farmland", "closest_distance_restriction": 4.990196352344121}, {"id": 2265757598, "lat": 51.165608, "lon": 16.2843692, "way_id": 217299146, "landuse": "farmland", "closest_distance_restriction": 5.048024800565787}, {"id": 2265757600, "lat": 51.1666211, "lon": 16.2828437, "way_id": 217299146, "landuse": "farmland", "closest_distance_restriction": 5.201376252858268}, {"id": 2265757602, "lat": 51.1671519, "lon": 16.2820339, "way_id": 217299146, "landuse": "farmland", "closest_distance_restriction": 5.28233197001358}, {"id": 2265757604, "lat": 51.1675751, "lon": 16.2814572, "way_id": 217299146, "landuse": "farmland", "closest_distance_restriction": 5.343145773383134}, {"id": 2265757606, "lat": 51.168465, "lon": 16.2802752, "way_id": 217299146, "landuse": "farmland", "closest_distance_restriction": 5.469441764237286}, {"id": 2265757608, "lat": 51.1693798, "lon": 16.2790482, "way_id": 217299146, "landuse": "farmland", "closest_distance_restriction": 5.600030884721014}, {"id": 2265762192, "lat": 51.1694619, "lon": 16.2789549, "way_id": 217299146, "landuse": "farmland", "closest_distance_restriction": 5.610849375033332}, {"id": 2266974192, "lat": 51.1682949, "lon": 16.332118, "way_id": 217299146, "landuse": "farmland", "closest_distance_restriction": 3.1675603633969875}, {"id": 2266974195, "lat": 51.1685409, "lon": 16.3321126, "way_id": 217299146, "landuse": "farmland", "closest_distance_restriction": 3.191077390133572}, {"id": 2266974196, "lat": 51.1685423, "lon": 16.330982, "way_id": 217299146, "landuse": "farmland", "closest_distance_restriction": 3.2329631493150597}, {"id": 2266974197, "lat": 51.169102, "lon": 16.3310005, "way_id": 217299146, "landuse": "farmland", "closest_distance_restriction": 3.284894512604138}, {"id": 2266974198, "lat": 51.169083, "lon": 16.3312858, "way_id": 217299146, "landuse": "farmland", "closest_distance_restriction": 3.2726068765629623}, {"id": 2266974202, "lat": 51.169579, "lon": 16.3313731, "way_id": 217299146, "landuse": "farmland", "closest_distance_restriction": 3.3165099696588873}, {"id": 2266974204, "lat": 51.1697112, "lon": 16.3314108, "way_id": 217299146, "landuse": "farmland", "closest_distance_restriction": 3.3277525481264996}, {"id": 2266974205, "lat": 51.1697155, "lon": 16.3305727, "way_id": 217299146, "landuse": "farmland", "closest_distance_restriction": 3.35857480250153}, {"id": 2266974207, "lat": 51.1703851, "lon": 16.3307038, "way_id": 217299146, "landuse": "farmland", "closest_distance_restriction": 3.4173692941306872}, {"id": 2266974208, "lat": 51.1705626, "lon": 16.3307077, "way_id": 217299146, "landuse": "farmland", "closest_distance_restriction": 3.434162626262055}, {"id": 2266974209, "lat": 51.1705894, "lon": 16.3300911, "way_id": 217299146, "landuse": "farmland", "closest_distance_restriction": 3.4589334232569025}, {"id": 2266974211, "lat": 51.1706185, "lon": 16.3298468, "way_id": 217299146, "landuse": "farmland", "closest_distance_restriction": 3.4705966313433807}, {"id": 2270078684, "lat": 51.1797985, "lon": 16.277563, "way_id": 217299146, "landuse": "farmland", "closest_distance_restriction": 6.467933034816867}, {"id": 2270078685, "lat": 51.1800568, "lon": 16.27625, "way_id": 217299146, "landuse": "farmland", "closest_distance_restriction": 6.551765613552291}, {"id": 2270078686, "lat": 51.1801367, "lon": 16.2759388, "way_id": 217299146, "landuse": "farmland", "closest_distance_restriction": 6.573183009419009}, {"id": 2270078688, "lat": 51.1802983, "lon": 16.2752482, "way_id": 217299146, "landuse": "farmland", "closest_distance_restriction": 6.619503336749125}, {"id": 2270078690, "lat": 51.1806235, "lon": 16.2739441, "way_id": 217299146, "landuse": "farmland", "closest_distance_restriction": 6.708768103731721}, {"id": 2270078691, "lat": 51.1807067, "lon": 16.2735431, "way_id": 217299146, "landuse": "farmland", "closest_distance_restriction": 6.7349305583674015}, {"id": 2270080841, "lat": 51.1797774, "lon": 16.2776813, "way_id": 217299146, "landuse": "farmland", "closest_distance_restriction": 6.460572299185954}, {"id": 2270090450, "lat": 51.1792293, "lon": 16.2819765, "way_id": 217299146, "landuse": "farmland", "closest_distance_restriction": 6.213536094962684}, {"id": 2270090451, "lat": 51.1792386, "lon": 16.2829308, "way_id": 217299146, "landuse": "farmland", "closest_distance_restriction": 6.170330499897095}, {"id": 2270090452, "lat": 51.1792405, "lon": 16.2812355, "way_id": 217299146, "landuse": "farmland", "closest_distance_restriction": 6.248890419212524}, {"id": 2270090453, "lat": 51.1792535, "lon": 16.2822314, "way_id": 217299146, "landuse": "farmland", "closest_distance_restriction": 6.203763885945391}, {"id": 2270090454, "lat": 51.179272, "lon": 16.2825663, "way_id": 217299146, "landuse": "farmland", "closest_distance_restriction": 6.189870057424188}, {"id": 2270090456, "lat": 51.179297, "lon": 16.280595, "way_id": 217299146, "landuse": "farmland", "closest_distance_restriction": 6.283485733987794}, {"id": 2270090457, "lat": 51.1793033, "lon": 16.2805385, "way_id": 217299146, "landuse": "farmland", "closest_distance_restriction": 6.286652165625135}, {"id": 2270090459, "lat": 51.1793813, "lon": 16.2799253, "way_id": 217299146, "landuse": "farmland", "closest_distance_restriction": 6.321867837031906}, {"id": 2270090460, "lat": 51.1794575, "lon": 16.2792966, "way_id": 217299146, "landuse": "farmland", "closest_distance_restriction": 6.357773893441494}, {"id": 2270090461, "lat": 51.1796283, "lon": 16.278475, "way_id": 217299146, "landuse": "farmland", "closest_distance_restriction": 6.410652705510517}, {"id": 2270090462, "lat": 51.1797124, "lon": 16.2780726, "way_id": 217299146, "landuse": "farmland", "closest_distance_restriction": 6.436635628964697}, {"id": 2301059334, "lat": 51.1706805, "lon": 16.3295285, "way_id": 217299146, "landuse": "farmland", "closest_distance_restriction": 3.4881375052283565}, {"id": 2301059337, "lat": 51.1708399, "lon": 16.3294102, "way_id": 217299146, "landuse": "farmland", "closest_distance_restriction": 3.507545200090893}, {"id": 2301059343, "lat": 51.17098, "lon": 16.3291649, "way_id": 217299146, "landuse": "farmland", "closest_distance_restriction": 3.529807330698294}, {"id": 2301059346, "lat": 51.1711338, "lon": 16.3293489, "way_id": 217299146, "landuse": "farmland", "closest_distance_restriction": 3.5375885446489455}, {"id": 2301059350, "lat": 51.171197, "lon": 16.3293314, "way_id": 217299146, "landuse": "farmland", "closest_distance_restriction": 3.544213441883349}, {"id": 2301059384, "lat": 51.1713894, "lon": 16.3285345, "way_id": 217299146, "landuse": "farmland", "closest_distance_restriction": 3.5917147436628567}, {"id": 2301059390, "lat": 51.1717376, "lon": 16.3272139, "way_id": 217299146, "landuse": "farmland", "closest_distance_restriction": 3.673941724818289}, {"id": 2301059398, "lat": 51.172027, "lon": 16.326108, "way_id": 217299146, "landuse": "farmland", "closest_distance_restriction": 3.743259158237748}, {"id": 2301059435, "lat": 51.172532, "lon": 16.3241347, "way_id": 217299146, "landuse": "farmland", "closest_distance_restriction": 3.8673057109761673}, {"id": 2301059439, "lat": 51.1728136, "lon": 16.3229668, "way_id": 217299146, "landuse": "farmland", "closest_distance_restriction": 3.9399625581834203}, {"id": 2301059446, "lat": 51.1729458, "lon": 16.3225041, "way_id": 217299146, "landuse": "farmland", "closest_distance_restriction": 3.970767240779873}, {"id": 2301059450, "lat": 51.1730169, "lon": 16.3221369, "way_id": 217299146, "landuse": "farmland", "closest_distance_restriction": 3.992233985538959}, {"id": 2301059454, "lat": 51.1730641, "lon": 16.3218715, "way_id": 217299146, "landuse": "farmland", "closest_distance_restriction": 4.007414348956162}, {"id": 2301059456, "lat": 51.1731213, "lon": 16.3217102, "way_id": 217299146, "landuse": "farmland", "closest_distance_restriction": 4.019207451343428}, {"id": 2301059485, "lat": 51.1732071, "lon": 16.3212254, "way_id": 217299146, "landuse": "farmland", "closest_distance_restriction": 4.047016959638555}, {"id": 2301059489, "lat": 51.1734548, "lon": 16.3200346, "way_id": 217299146, "landuse": "farmland", "closest_distance_restriction": 4.119060848989982}, {"id": 2301059515, "lat": 51.1738649, "lon": 16.318398, "way_id": 217299146, "landuse": "farmland", "closest_distance_restriction": 4.225104929743544}, {"id": 2301059526, "lat": 51.1742955, "lon": 16.3168584, "way_id": 217299146, "landuse": "farmland", "closest_distance_restriction": 4.329546960490698}, {"id": 2301059551, "lat": 51.1748286, "lon": 16.3149231, "way_id": 217299146, "landuse": "farmland", "closest_distance_restriction": 4.461059223415537}, {"id": 2301059594, "lat": 51.1753997, "lon": 16.3130311, "way_id": 217299146, "landuse": "farmland", "closest_distance_restriction": 4.59477160137865}, {"id": 2301059602, "lat": 51.1756042, "lon": 16.3122834, "way_id": 217299146, "landuse": "farmland", "closest_distance_restriction": 4.646044082764256}, {"id": 2301059770, "lat": 51.1757073, "lon": 16.3118574, "way_id": 217299146, "landuse": "farmland", "closest_distance_restriction": 4.674190932662471}, {"id": 2301059773, "lat": 51.1758479, "lon": 16.3109645, "way_id": 217299146, "landuse": "farmland", "closest_distance_restriction": 4.727055674523462}, {"id": 2301059774, "lat": 51.1758631, "lon": 16.3107659, "way_id": 217299146, "landuse": "farmland", "closest_distance_restriction": 4.737517264262944}, {"id": 2301059775, "lat": 51.175755, "lon": 16.3116021, "way_id": 217299146, "landuse": "farmland", "closest_distance_restriction": 4.689904127210039}, {"id": 2301059777, "lat": 51.1757804, "lon": 16.3113777, "way_id": 217299146, "landuse": "farmland", "closest_distance_restriction": 4.702353617551294}, {"id": 2301059778, "lat": 51.1758354, "lon": 16.3110295, "way_id": 217299146, "landuse": "farmland", "closest_distance_restriction": 4.723009362622063}, {"id": 2301059780, "lat": 51.1758905, "lon": 16.310543, "way_id": 217299146, "landuse": "farmland", "closest_distance_restriction": 4.750137228366326}, {"id": 2301059784, "lat": 51.1759263, "lon": 16.3103625, "way_id": 217299146, "landuse": "farmland", "closest_distance_restriction": 4.761497395167241}, {"id": 2301059785, "lat": 51.1759426, "lon": 16.3102552, "way_id": 217299146, "landuse": "farmland", "closest_distance_restriction": 4.767842998358783}, {"id": 2301059789, "lat": 51.1760453, "lon": 16.3092322, "way_id": 217299146, "landuse": "farmland", "closest_distance_restriction": 4.824215888564769}, {"id": 2301059790, "lat": 51.1761719, "lon": 16.3080051, "way_id": 217299146, "landuse": "farmland", "closest_distance_restriction": 4.879521031342206}, {"id": 2301059791, "lat": 51.1762339, "lon": 16.3072229, "way_id": 217299146, "landuse": "farmland", "closest_distance_restriction": 4.9121441120955}, {"id": 2301059794, "lat": 51.1763945, "lon": 16.3052716, "way_id": 217299146, "landuse": "farmland", "closest_distance_restriction": 4.995803226676721}, {"id": 2301059796, "lat": 51.1765416, "lon": 16.3034368, "way_id": 217299146, "landuse": "farmland", "closest_distance_restriction": 5.07622555753132}, {"id": 2301059798, "lat": 51.1766825, "lon": 16.3015011, "way_id": 217299146, "landuse": "farmland", "closest_distance_restriction": 5.161874473158536}, {"id": 2301059799, "lat": 51.1768183, "lon": 16.299891, "way_id": 217299146, "landuse": "farmland", "closest_distance_restriction": 5.236451495255745}, {"id": 2301059801, "lat": 51.1769306, "lon": 16.2986041, "way_id": 217299146, "landuse": "farmland", "closest_distance_restriction": 5.297389405349863}, {"id": 2301059804, "lat": 51.177243, "lon": 16.2961898, "way_id": 217299146, "landuse": "farmland", "closest_distance_restriction": 5.423017663338019}, {"id": 2301059805, "lat": 51.1774294, "lon": 16.2946843, "way_id": 217299146, "landuse": "farmland", "closest_distance_restriction": 5.501101878625545}, {"id": 2301059806, "lat": 51.1775207, "lon": 16.2942288, "way_id": 217299146, "landuse": "farmland", "closest_distance_restriction": 5.528045313726657}, {"id": 2301059807, "lat": 51.1775863, "lon": 16.293919, "way_id": 217299146, "landuse": "farmland", "closest_distance_restriction": 5.5467236170851635}, {"id": 2301059809, "lat": 51.1783169, "lon": 16.2916294, "way_id": 217299146, "landuse": "farmland", "closest_distance_restriction": 5.707432753257473}, {"id": 2301059812, "lat": 51.1790695, "lon": 16.2890578, "way_id": 217299146, "landuse": "farmland", "closest_distance_restriction": 5.883253609933386}, {"id": 2301059815, "lat": 51.1795999, "lon": 16.2874101, "way_id": 217299146, "landuse": "farmland", "closest_distance_restriction": 6.000812302879804}, {"id": 2301059817, "lat": 51.1800141, "lon": 16.2860252, "way_id": 217299146, "landuse": "farmland", "closest_distance_restriction": 6.097254729256791}, {"id": 2301059818, "lat": 51.1800844, "lon": 16.285714, "way_id": 217299146, "landuse": "farmland", "closest_distance_restriction": 6.117011797087034}, {"id": 2301059819, "lat": 51.1801348, "lon": 16.2853374, "way_id": 217299146, "landuse": "farmland", "closest_distance_restriction": 6.137970226298703}, {"id": 2301059820, "lat": 51.1801789, "lon": 16.2844182, "way_id": 217299146, "landuse": "farmland", "closest_distance_restriction": 6.182571305103921}, {"id": 2301059821, "lat": 51.1802207, "lon": 16.2834965, "way_id": 217299146, "landuse": "farmland", "closest_distance_restriction": 6.227433816485179}, {"id": 2326830352, "lat": 51.153882, "lon": 16.3117895, "way_id": 217299146, "landuse": "farmland", "closest_distance_restriction": 2.7442378095780877}, {"id": 2326833683, "lat": 51.1518407, "lon": 16.3140775, "way_id": 217299146, "landuse": "farmland", "closest_distance_restriction": 2.4748334555292626}, {"id": 2326833691, "lat": 51.1524486, "lon": 16.3127546, "way_id": 217299146, "landuse": "farmland", "closest_distance_restriction": 2.5889370819661615}, {"id": 2326833701, "lat": 51.1529886, "lon": 16.3113806, "way_id": 217299146, "landuse": "farmland", "closest_distance_restriction": 2.700959083139306}, {"id": 2326833718, "lat": 51.1538266, "lon": 16.311818, "way_id": 217299146, "landuse": "farmland", "closest_distance_restriction": 2.7386544498212926}, {"id": 2326863800, "lat": 51.1618015, "lon": 16.3357087, "way_id": 217299146, "landuse": "farmland", "closest_distance_restriction": 2.427150909301415}, {"id": 2326863801, "lat": 51.1623608, "lon": 16.3353746, "way_id": 217299146, "landuse": "farmland", "closest_distance_restriction": 2.491356390043076}, {"id": 2326863802, "lat": 51.1629634, "lon": 16.3350094, "way_id": 217299146, "landuse": "farmland", "closest_distance_restriction": 2.560866296676027}, {"id": 2326866793, "lat": 51.1697843, "lon": 16.3305862, "way_id": 217299146, "landuse": "farmland", "closest_distance_restriction": 3.3645849807434995}, {"id": 2326866796, "lat": 51.1702537, "lon": 16.3295707, "way_id": 217299146, "landuse": "farmland", "closest_distance_restriction": 3.4463577492387687}, {"id": 2326867760, "lat": 51.1705683, "lon": 16.32973, "way_id": 217299146, "landuse": "farmland", "closest_distance_restriction": 3.4701280066992504}, {"id": 2326910998, "lat": 51.1613395, "lon": 16.3359894, "way_id": 217299146, "landuse": "farmland", "closest_distance_restriction": 2.3740134214916666}, {"id": 2326911004, "lat": 51.1617428, "lon": 16.335802, "way_id": 217299146, "landuse": "farmland", "closest_distance_restriction": 2.418058218777817}, {"id": 2326915815, "lat": 51.1561144, "lon": 16.3430879, "way_id": 217299146, "landuse": "farmland", "closest_distance_restriction": 1.6142614176828438}, {"id": 2326915818, "lat": 51.1563915, "lon": 16.3428125, "way_id": 217299146, "landuse": "farmland", "closest_distance_restriction": 1.6505523271815763}, {"id": 2326915835, "lat": 51.1570629, "lon": 16.3418616, "way_id": 217299146, "landuse": "farmland", "closest_distance_restriction": 1.7495092444059046}, {"id": 2326915836, "lat": 51.1579037, "lon": 16.3405988, "way_id": 217299146, "landuse": "farmland", "closest_distance_restriction": 1.8764256453781103}, {"id": 2326915839, "lat": 51.1594322, "lon": 16.3384163, "way_id": 217299146, "landuse": "farmland", "closest_distance_restriction": 2.1030237075439984}, {"id": 2326915842, "lat": 51.1606999, "lon": 16.3365716, "way_id": 217299146, "landuse": "farmland", "closest_distance_restriction": 2.2926108633429707}, {"id": 2326915844, "lat": 51.1609313, "lon": 16.3362936, "way_id": 217299146, "landuse": "farmland", "closest_distance_restriction": 2.324823178241529}, {"id": 2326915847, "lat": 51.1611056, "lon": 16.3361585, "way_id": 217299146, "landuse": "farmland", "closest_distance_restriction": 2.3460360829071907}, {"id": 2327001116, "lat": 51.1489891, "lon": 16.3183401, "way_id": 217299146, "landuse": "farmland", "closest_distance_restriction": 2.0435926225149887}, {"id": 2327001118, "lat": 51.1490561, "lon": 16.3182608, "way_id": 217299146, "landuse": "farmland", "closest_distance_restriction": 2.052577584726323}, {"id": 2327001126, "lat": 51.1492299, "lon": 16.3180206, "way_id": 217299146, "landuse": "farmland", "closest_distance_restriction": 2.077763414365856}, {"id": 2327001149, "lat": 51.1499529, "lon": 16.3170712, "way_id": 217299146, "landuse": "farmland", "closest_distance_restriction": 2.179955297161798}, {"id": 2327001153, "lat": 51.1502912, "lon": 16.3165872, "way_id": 217299146, "landuse": "farmland", "closest_distance_restriction": 2.2299633502395824}, {"id": 2327001161, "lat": 51.1510698, "lon": 16.3152906, "way_id": 217299146, "landuse": "farmland", "closest_distance_restriction": 2.354883858431463}, {"id": 2327001184, "lat": 51.1517223, "lon": 16.3142898, "way_id": 217299146, "landuse": "farmland", "closest_distance_restriction": 2.4550249875327337}, {"id": 2327006275, "lat": 51.1457588, "lon": 16.3225231, "way_id": 217299146, "landuse": "farmland", "closest_distance_restriction": 1.5938334968597285}, {"id": 2327006276, "lat": 51.1460177, "lon": 16.3221182, "way_id": 217299146, "landuse": "farmland", "closest_distance_restriction": 1.6335553028422203}, {"id": 2327006281, "lat": 51.1465175, "lon": 16.3214573, "way_id": 217299146, "landuse": "farmland", "closest_distance_restriction": 1.7035232008198355}, {"id": 2327006285, "lat": 51.1473336, "lon": 16.3204307, "way_id": 217299146, "landuse": "farmland", "closest_distance_restriction": 1.8152279433986127}, {"id": 2327006294, "lat": 51.1481848, "lon": 16.3193507, "way_id": 217299146, "landuse": "farmland", "closest_distance_restriction": 1.932730726969784}, {"id": 2327006297, "lat": 51.1488338, "lon": 16.3185383, "way_id": 217299146, "landuse": "farmland", "closest_distance_restriction": 2.0219938955733014}, {"id": 2327006300, "lat": 51.1489091, "lon": 16.3184363, "way_id": 217299146, "landuse": "farmland", "closest_distance_restriction": 2.0327855286723127}, {"id": 2327042688, "lat": 51.1517859, "lon": 16.3141838, "way_id": 217299146, "landuse": "farmland", "closest_distance_restriction": 2.465237668571224}, {"id": 2328297270, "lat": 51.1456807, "lon": 16.3223134, "way_id": 457147617, "landuse": "farmland", "closest_distance_restriction": 1.600786804014526}, {"id": 2328297277, "lat": 51.146052, "lon": 16.3217735, "way_id": 457147617, "landuse": "farmland", "closest_distance_restriction": 1.6553429133630744}, {"id": 2328297278, "lat": 51.1462077, "lon": 16.3215777, "way_id": 457147617, "landuse": "farmland", "closest_distance_restriction": 1.6765088191064275}, {"id": 2328297332, "lat": 51.14645, "lon": 16.3212274, "way_id": 457147617, "landuse": "farmland", "closest_distance_restriction": 1.7120704090811267}, {"id": 2328297444, "lat": 51.1469936, "lon": 16.3205318, "way_id": 457147617, "landuse": "farmland", "closest_distance_restriction": 1.7869008833924678}, {"id": 2328297463, "lat": 51.1479179, "lon": 16.319339, "way_id": 457147617, "landuse": "farmland", "closest_distance_restriction": 1.915182310756048}, {"id": 2328297621, "lat": 51.1487063, "lon": 16.3183201, "way_id": 457147617, "landuse": "farmland", "closest_distance_restriction": 2.025084034890204}, {"id": 2328297631, "lat": 51.1492383, "lon": 16.317652, "way_id": 457147617, "landuse": "farmland", "closest_distance_restriction": 2.0983618060622584}, {"id": 2328297633, "lat": 51.1493031, "lon": 16.3175785, "way_id": 457147617, "landuse": "farmland", "closest_distance_restriction": 2.1068685134921017}, {"id": 2328297933, "lat": 51.1564255, "lon": 16.2934804, "way_id": 457147617, "landuse": "farmland", "closest_distance_restriction": 3.9374746592964716}, {"id": 2328297970, "lat": 51.1564896, "lon": 16.2931444, "way_id": 457147617, "landuse": "farmland", "closest_distance_restriction": 3.9610844750221403}, {"id": 2328298022, "lat": 51.1565267, "lon": 16.2929881, "way_id": 457147617, "landuse": "farmland", "closest_distance_restriction": 3.972503165168285}, {"id": 2329292311, "lat": 51.1538368, "lon": 16.2828626, "way_id": 457147617, "landuse": "farmland", "closest_distance_restriction": 4.454717695930872}, {"id": 2329292321, "lat": 51.1539399, "lon": 16.2827592, "way_id": 457147617, "landuse": "farmland", "closest_distance_restriction": 4.465992562317899}, {"id": 2329292324, "lat": 51.154018, "lon": 16.282746, "way_id": 457147617, "landuse": "farmland", "closest_distance_restriction": 4.470402438781104}, {"id": 2329292327, "lat": 51.1540662, "lon": 16.2827539, "way_id": 457147617, "landuse": "farmland", "closest_distance_restriction": 4.472111076342314}, {"id": 2329292328, "lat": 51.1541078, "lon": 16.2828149, "way_id": 457147617, "landuse": "farmland", "closest_distance_restriction": 4.470150665250756}, {"id": 2329292330, "lat": 51.1542557, "lon": 16.28317, "way_id": 457147617, "landuse": "farmland", "closest_distance_restriction": 4.454491764344065}, {"id": 2329292332, "lat": 51.1546305, "lon": 16.2840555, "way_id": 457147617, "landuse": "farmland", "closest_distance_restriction": 4.416362396778504}, {"id": 2329292335, "lat": 51.1549175, "lon": 16.2847277, "way_id": 457147617, "landuse": "farmland", "closest_distance_restriction": 4.388164067611762}, {"id": 2329292337, "lat": 51.1550255, "lon": 16.2850524, "way_id": 457147617, "landuse": "farmland", "closest_distance_restriction": 4.373218906019414}, {"id": 2329292340, "lat": 51.1551141, "lon": 16.2854958, "way_id": 457147617, "landuse": "farmland", "closest_distance_restriction": 4.350012146385066}, {"id": 2329292345, "lat": 51.1552133, "lon": 16.28636, "way_id": 457147617, "landuse": "farmland", "closest_distance_restriction": 4.301368538283653}, {"id": 2329292350, "lat": 51.1553833, "lon": 16.2877777, "way_id": 457147617, "landuse": "farmland", "closest_distance_restriction": 4.22266448343657}, {"id": 2329292354, "lat": 51.1555374, "lon": 16.2890401, "way_id": 457147617, "landuse": "farmland", "closest_distance_restriction": 4.153528153394479}, {"id": 2329292358, "lat": 51.1556738, "lon": 16.2898619, "way_id": 457147617, "landuse": "farmland", "closest_distance_restriction": 4.110925278247676}, {"id": 2329292370, "lat": 51.1558935, "lon": 16.2908644, "way_id": 457147617, "landuse": "farmland", "closest_distance_restriction": 4.06251119685046}, {"id": 2329292378, "lat": 51.1561273, "lon": 16.2917032, "way_id": 457147617, "landuse": "farmland", "closest_distance_restriction": 4.025467321510528}, {"id": 2329292382, "lat": 51.1563345, "lon": 16.2924798, "way_id": 457147617, "landuse": "farmland", "closest_distance_restriction": 3.99123804712995}, {"id": 2329292396, "lat": 51.1564372, "lon": 16.292782, "way_id": 457147617, "landuse": "farmland", "closest_distance_restriction": 3.979375713981969}, {"id": 2329294254, "lat": 51.1535844, "lon": 16.301865, "way_id": 457147617, "landuse": "farmland", "closest_distance_restriction": 3.274795413765418}, {"id": 2329294255, "lat": 51.1536207, "lon": 16.3017388, "way_id": 457147617, "landuse": "farmland", "closest_distance_restriction": 3.284370454009237}, {"id": 2329294256, "lat": 51.1540103, "lon": 16.3002675, "way_id": 457147617, "landuse": "farmland", "closest_distance_restriction": 3.3940171681590816}, {"id": 2329294258, "lat": 51.1543961, "lon": 16.2988237, "way_id": 457147617, "landuse": "farmland", "closest_distance_restriction": 3.5019291577286475}, {"id": 2329295193, "lat": 51.1521177, "lon": 16.3082264, "way_id": 457147617, "landuse": "farmland", "closest_distance_restriction": 2.816298294466094}, {"id": 2329295195, "lat": 51.1524702, "lon": 16.306484, "way_id": 457147617, "landuse": "farmland", "closest_distance_restriction": 2.938318674788943}, {"id": 2329295196, "lat": 51.1528197, "lon": 16.3049577, "way_id": 457147617, "landuse": "farmland", "closest_distance_restriction": 3.048124367743675}, {"id": 2329296558, "lat": 51.1528459, "lon": 16.304858, "way_id": 457147617, "landuse": "farmland", "closest_distance_restriction": 3.055515941853947}, {"id": 2329296573, "lat": 51.153124, "lon": 16.3035928, "way_id": 457147617, "landuse": "farmland", "closest_distance_restriction": 3.146022076742584}, {"id": 2329296574, "lat": 51.1531612, "lon": 16.303381, "way_id": 457147617, "landuse": "farmland", "closest_distance_restriction": 3.1606150890347346}, {"id": 2329296575, "lat": 51.1532232, "lon": 16.3031777, "way_id": 457147617, "landuse": "farmland", "closest_distance_restriction": 3.1762427007463487}, {"id": 2329296576, "lat": 51.1533029, "lon": 16.3030082, "way_id": 457147617, "landuse": "farmland", "closest_distance_restriction": 3.190992655446223}, {"id": 2329296578, "lat": 51.153411, "lon": 16.3026044, "way_id": 457147617, "landuse": "farmland", "closest_distance_restriction": 3.221113303288648}, {"id": 2329296580, "lat": 51.1535585, "lon": 16.3019607, "way_id": 457147617, "landuse": "farmland", "closest_distance_restriction": 3.2676340643532784}, {"id": 2329300794, "lat": 51.1520248, "lon": 16.3086633, "way_id": 457147617, "landuse": "farmland", "closest_distance_restriction": 2.7854899186208315}, {"id": 2329300796, "lat": 51.1521009, "lon": 16.3082961, "way_id": 457147617, "landuse": "farmland", "closest_distance_restriction": 2.811253709279737}, {"id": 2329300820, "lat": 51.1538685, "lon": 16.2826988, "way_id": 457147617, "landuse": "farmland", "closest_distance_restriction": 4.466584828487235}, {"id": 2329300822, "lat": 51.1539411, "lon": 16.2825604, "way_id": 457147617, "landuse": "farmland", "closest_distance_restriction": 4.478694651466195}, {"id": 2329300824, "lat": 51.153957, "lon": 16.2824475, "way_id": 457147617, "landuse": "farmland", "closest_distance_restriction": 4.486603067855982}, {"id": 2356608987, "lat": 51.135351, "lon": 16.2952732, "way_id": 457147617, "landuse": "farmland", "closest_distance_restriction": 2.924645886060189}, {"id": 2356608992, "lat": 51.1354302, "lon": 16.2950587, "way_id": 457147617, "landuse": "farmland", "closest_distance_restriction": 2.9390194256246946}, {"id": 2356609002, "lat": 51.1360876, "lon": 16.2933484, "way_id": 457147617, "landuse": "farmland", "closest_distance_restriction": 3.0573065999192646}, {"id": 2356609021, "lat": 51.1366697, "lon": 16.2919157, "way_id": 457147617, "landuse": "farmland", "closest_distance_restriction": 3.1608410368716418}, {"id": 2356632973, "lat": 51.137974, "lon": 16.2890153, "way_id": 457147617, "landuse": "farmland", "closest_distance_restriction": 3.385713642051709}, {"id": 2356632974, "lat": 51.137982, "lon": 16.2889238, "way_id": 457147617, "landuse": "farmland", "closest_distance_restriction": 3.38966887273663}, {"id": 2356632975, "lat": 51.137982, "lon": 16.2891163, "way_id": 457147617, "landuse": "farmland", "closest_distance_restriction": 3.3829810856515565}, {"id": 2356632976, "lat": 51.1380196, "lon": 16.2887502, "way_id": 457147617, "landuse": "farmland", "closest_distance_restriction": 3.3993506259936366}, {"id": 2356632977, "lat": 51.1380473, "lon": 16.2892172, "way_id": 457147617, "landuse": "farmland", "closest_distance_restriction": 3.3858031120667973}, {"id": 2356632978, "lat": 51.1382017, "lon": 16.2881822, "way_id": 457147617, "landuse": "farmland", "closest_distance_restriction": 3.4131924887583662}, {"id": 2356632980, "lat": 51.1392669, "lon": 16.2854274, "way_id": 457147617, "landuse": "farmland", "closest_distance_restriction": 3.495779378689819}, {"id": 2356632982, "lat": 51.1402291, "lon": 16.2830166, "way_id": 457147617, "landuse": "farmland", "closest_distance_restriction": 3.5815194670046937}, {"id": 2356632986, "lat": 51.1410706, "lon": 16.2809024, "way_id": 457147617, "landuse": "farmland", "closest_distance_restriction": 3.663739748188211}, {"id": 2356632988, "lat": 51.141617, "lon": 16.2794828, "way_id": 457147617, "landuse": "farmland", "closest_distance_restriction": 3.7204606592827125}, {"id": 2356632994, "lat": 51.1422161, "lon": 16.278048, "way_id": 457147617, "landuse": "farmland", "closest_distance_restriction": 3.7857649364645103}, {"id": 2356632996, "lat": 51.1423841, "lon": 16.2775951, "way_id": 457147617, "landuse": "farmland", "closest_distance_restriction": 3.8045878169352068}, {"id": 2356632998, "lat": 51.1425367, "lon": 16.2772671, "way_id": 457147617, "landuse": "farmland", "closest_distance_restriction": 3.821821213310809}, {"id": 2356633001, "lat": 51.1429245, "lon": 16.2762898, "way_id": 457147617, "landuse": "farmland", "closest_distance_restriction": 3.8665242435854226}, {"id": 2356633003, "lat": 51.1431679, "lon": 16.2758817, "way_id": 457147617, "landuse": "farmland", "closest_distance_restriction": 3.8945863443091104}, {"id": 2356633004, "lat": 51.1434114, "lon": 16.2756545, "way_id": 457147617, "landuse": "farmland", "closest_distance_restriction": 3.922290191972051}, {"id": 2356633006, "lat": 51.1435559, "lon": 16.2755156, "way_id": 457147617, "landuse": "farmland", "closest_distance_restriction": 3.938769345865935}, {"id": 2356633007, "lat": 51.1436113, "lon": 16.2754178, "way_id": 457147617, "landuse": "farmland", "closest_distance_restriction": 3.9452371655912457}, {"id": 2356633008, "lat": 51.1436648, "lon": 16.2753168, "way_id": 457147617, "landuse": "farmland", "closest_distance_restriction": 3.951515607483311}, {"id": 2356633009, "lat": 51.1442587, "lon": 16.2747898, "way_id": 457147617, "landuse": "farmland", "closest_distance_restriction": 4.019402235124295}, {"id": 2356633011, "lat": 51.1450723, "lon": 16.2741619, "way_id": 457147617, "landuse": "farmland", "closest_distance_restriction": 4.112397979387439}, {"id": 2356633015, "lat": 51.145781, "lon": 16.273575, "way_id": 457147617, "landuse": "farmland", "closest_distance_restriction": 4.193893905943935}, {"id": 2356633020, "lat": 51.1470222, "lon": 16.2726977, "way_id": 457147617, "landuse": "farmland", "closest_distance_restriction": 4.336395259065885}, {"id": 2356633024, "lat": 51.1478576, "lon": 16.2721834, "way_id": 457147617, "landuse": "farmland", "closest_distance_restriction": 4.432127510110687}, {"id": 2356633028, "lat": 51.1480595, "lon": 16.2719688, "way_id": 457147617, "landuse": "farmland", "closest_distance_restriction": 4.455886858878331}, {"id": 2356633029, "lat": 51.1482218, "lon": 16.2717542, "way_id": 457147617, "landuse": "farmland", "closest_distance_restriction": 4.475300816824496}, {"id": 2356633030, "lat": 51.1485379, "lon": 16.2712398, "way_id": 457147617, "landuse": "farmland", "closest_distance_restriction": 4.513927333732382}, {"id": 2356633032, "lat": 51.1487676, "lon": 16.270879, "way_id": 457147617, "landuse": "farmland", "closest_distance_restriction": 4.542038267601871}, {"id": 2356633033, "lat": 51.1488815, "lon": 16.2707173, "way_id": 457147617, "landuse": "farmland", "closest_distance_restriction": 4.5558825092914725}, {"id": 2356633035, "lat": 51.1492716, "lon": 16.2745472, "way_id": 457147617, "landuse": "farmland", "closest_distance_restriction": 4.576894868715965}, {"id": 2356633038, "lat": 51.1493696, "lon": 16.2730165, "way_id": 457147617, "landuse": "farmland", "closest_distance_restriction": 4.594732806884239}, {"id": 2356633050, "lat": 51.1503903, "lon": 16.2748772, "way_id": 457147617, "landuse": "farmland", "closest_distance_restriction": 4.699967207311903}, {"id": 2356633055, "lat": 51.1504779, "lon": 16.2749275, "way_id": 457147617, "landuse": "farmland", "closest_distance_restriction": 4.709532396125481}, {"id": 2356633057, "lat": 51.1505225, "lon": 16.2733448, "way_id": 457147617, "landuse": "farmland", "closest_distance_restriction": 4.720907405825649}, {"id": 2356633059, "lat": 51.1506577, "lon": 16.2711807, "way_id": 457147617, "landuse": "farmland", "closest_distance_restriction": 4.748801484272152}, {"id": 2356633082, "lat": 51.1525012, "lon": 16.2760605, "way_id": 457147617, "landuse": "farmland", "closest_distance_restriction": 4.838198175191373}, {"id": 2356633083, "lat": 51.1527434, "lon": 16.2765202, "way_id": 457147617, "landuse": "farmland", "closest_distance_restriction": 4.81755888860759}, {"id": 2356633084, "lat": 51.1528609, "lon": 16.2768683, "way_id": 457147617, "landuse": "farmland", "closest_distance_restriction": 4.7994947605972955}, {"id": 2356633085, "lat": 51.1529953, "lon": 16.2774127, "way_id": 457147617, "landuse": "farmland", "closest_distance_restriction": 4.7694358555777105}, {"id": 2356633086, "lat": 51.1534264, "lon": 16.27976, "way_id": 457147617, "landuse": "farmland", "closest_distance_restriction": 4.635367425779937}, {"id": 2356633087, "lat": 51.1538182, "lon": 16.2818173, "way_id": 457147617, "landuse": "farmland", "closest_distance_restriction": 4.520515807049131}, {"id": 2356633088, "lat": 51.153905, "lon": 16.2822189, "way_id": 457147617, "landuse": "farmland", "closest_distance_restriction": 4.498803737824389}, {"id": 2356651756, "lat": 51.138127, "lon": 16.2895399, "way_id": 457147617, "landuse": "farmland", "closest_distance_restriction": 3.382472178328209}, {"id": 2356661298, "lat": 51.1489531, "lon": 16.2706112, "way_id": 457147617, "landuse": "farmland", "closest_distance_restriction": 4.5646314678451025}, {"id": 2356661304, "lat": 51.1495572, "lon": 16.2698051, "way_id": 457147617, "landuse": "farmland", "closest_distance_restriction": 4.638028395412191}, {"id": 2356661309, "lat": 51.150369, "lon": 16.2686671, "way_id": 457147617, "landuse": "farmland", "closest_distance_restriction": 4.73794866138097}, {"id": 2356661310, "lat": 51.150435, "lon": 16.2748882, "way_id": 457147617, "landuse": "farmland", "closest_distance_restriction": 4.704895795543431}, {"id": 2356661315, "lat": 51.1506941, "lon": 16.2709085, "way_id": 457147617, "landuse": "farmland", "closest_distance_restriction": 4.754786139265617}, {"id": 2372486868, "lat": 50.8824093, "lon": 16.2094909, "way_id": 278970261, "landuse": "meadow", "closest_distance_restriction": 2.5340118271448713}, {"id": 2372487634, "lat": 50.8828272, "lon": 16.2046805, "way_id": 278970261, "landuse": "meadow", "closest_distance_restriction": 2.2066770465218926}, {"id": 2372487668, "lat": 50.8830015, "lon": 16.2052497, "way_id": 278970261, "landuse": "meadow", "closest_distance_restriction": 2.234885122945241}, {"id": 2372487721, "lat": 50.8830028, "lon": 16.2032561, "way_id": 278970261, "landuse": "meadow", "closest_distance_restriction": 2.1080458691957635}, {"id": 2372487737, "lat": 50.8831299, "lon": 16.2061708, "way_id": 278970261, "landuse": "meadow", "closest_distance_restriction": 2.2883053928737827}, {"id": 2372487768, "lat": 50.883118, "lon": 16.2014511, "way_id": 278970261, "landuse": "meadow", "closest_distance_restriction": 1.9889150393438944}, {"id": 2372487802, "lat": 50.8832696, "lon": 16.2069333, "way_id": 278970261, "landuse": "meadow", "closest_distance_restriction": 2.331606380954641}, {"id": 2372488040, "lat": 50.8837499, "lon": 16.2111008, "way_id": 278970261, "landuse": "meadow", "closest_distance_restriction": 2.58667117037201}, {"id": 2372488095, "lat": 50.8840438, "lon": 16.200969, "way_id": 278970261, "landuse": "meadow", "closest_distance_restriction": 1.9135457753938363}, {"id": 2372488098, "lat": 50.884064, "lon": 16.2009586, "way_id": 278970261, "landuse": "meadow", "closest_distance_restriction": 1.9119442271463014}, {"id": 2372488268, "lat": 50.8848817, "lon": 16.2005378, "way_id": 278970261, "landuse": "meadow", "closest_distance_restriction": 1.8484950120171564}, {"id": 2372488319, "lat": 50.8851861, "lon": 16.2005024, "way_id": 278970261, "landuse": "meadow", "closest_distance_restriction": 1.8334992108438355}, {"id": 2372488408, "lat": 50.8856093, "lon": 16.2038661, "way_id": 278970261, "landuse": "meadow", "closest_distance_restriction": 2.039853240023427}, {"id": 2372488412, "lat": 50.8855101, "lon": 16.2008584, "way_id": 278970261, "landuse": "meadow", "closest_distance_restriction": 1.8439868214267519}, {"id": 2372488458, "lat": 50.8852203, "lon": 16.2057174, "way_id": 278970261, "landuse": "meadow", "closest_distance_restriction": 2.176730174579254}, {"id": 2372496689, "lat": 50.9145037, "lon": 16.198334, "way_id": 279163974, "landuse": "meadow", "closest_distance_restriction": 2.0773842845919495}, {"id": 2372496696, "lat": 50.9143675, "lon": 16.1962886, "way_id": 279163974, "landuse": "meadow", "closest_distance_restriction": 1.9520460944103573}, {"id": 2372496701, "lat": 50.9144378, "lon": 16.1965656, "way_id": 279163974, "landuse": "meadow", "closest_distance_restriction": 1.9722959851381066}, {"id": 2372496702, "lat": 50.914446, "lon": 16.1959512, "way_id": 279163968, "landuse": "farmland", "closest_distance_restriction": 1.9381483806679722}, {"id": 2372496704, "lat": 50.9144617, "lon": 16.1971967, "way_id": 279163974, "landuse": "meadow", "closest_distance_restriction": 2.009574085188136}, {"id": 2372496723, "lat": 50.91463, "lon": 16.1967068, "way_id": 279163974, "landuse": "meadow", "closest_distance_restriction": 1.9930043164272393}, {"id": 2372512045, "lat": 50.9590639, "lon": 16.1854043, "way_id": 628061313, "landuse": "farmland", "closest_distance_restriction": 2.0945249075866856}, {"id": 2372512102, "lat": 50.9594479, "lon": 16.1863969, "way_id": 628061313, "landuse": "farmland", "closest_distance_restriction": 2.0612770950759427}, {"id": 2372512122, "lat": 50.9595937, "lon": 16.1865588, "way_id": 628061313, "landuse": "farmland", "closest_distance_restriction": 2.046973765503263}, {"id": 2372513803, "lat": 50.9597528, "lon": 16.1868728, "way_id": 628061313, "landuse": "farmland", "closest_distance_restriction": 2.0330542046214277}, {"id": 2372513827, "lat": 50.9597692, "lon": 16.1846911, "way_id": 628061313, "landuse": "farmland", "closest_distance_restriction": 2.009331311602307}, {"id": 2372513920, "lat": 50.9599886, "lon": 16.1845922, "way_id": 628061313, "landuse": "farmland", "closest_distance_restriction": 1.984188939212304}, {"id": 2372514059, "lat": 50.9604911, "lon": 16.1862125, "way_id": 628061313, "landuse": "farmland", "closest_distance_restriction": 1.944651918353785}, {"id": 2372514060, "lat": 50.9605078, "lon": 16.1861046, "way_id": 628061313, "landuse": "farmland", "closest_distance_restriction": 1.9416901768709214}, {"id": 2372514182, "lat": 50.9609511, "lon": 16.185857, "way_id": 628061313, "landuse": "farmland", "closest_distance_restriction": 1.890408701167282}, {"id": 2372514185, "lat": 50.9610373, "lon": 16.1737427, "way_id": 279352746, "landuse": "farmland", "closest_distance_restriction": 1.574485977404549}, {"id": 2372514277, "lat": 50.9616956, "lon": 16.1827653, "way_id": 628061313, "landuse": "farmland", "closest_distance_restriction": 1.7806931164364634}, {"id": 2372514369, "lat": 50.9631539, "lon": 16.1837177, "way_id": 628061313, "landuse": "farmland", "closest_distance_restriction": 1.6271018403569217}, {"id": 2372523950, "lat": 51.0013114, "lon": 16.0151336, "way_id": 228595895, "landuse": "meadow", "closest_distance_restriction": 1.5985709404532606}, {"id": 2372523954, "lat": 51.0013137, "lon": 16.0151379, "way_id": 228595895, "landuse": "meadow", "closest_distance_restriction": 1.5989333578395128}, {"id": 2372524532, "lat": 51.0022388, "lon": 16.0167975, "way_id": 228595895, "landuse": "meadow", "closest_distance_restriction": 1.568062544886096}, {"id": 2372524589, "lat": 51.0022785, "lon": 16.0168687, "way_id": 228595895, "landuse": "meadow", "closest_distance_restriction": 1.5660180081378443}, {"id": 2372619198, "lat": 50.9964649, "lon": 16.2369089, "way_id": 302706113, "landuse": "farmland", "closest_distance_restriction": 1.761471424586571}, {"id": 2372619309, "lat": 50.9975528, "lon": 16.2363856, "way_id": 302706113, "landuse": "farmland", "closest_distance_restriction": 1.6405001351060458}, {"id": 2794449476, "lat": 51.1280712, "lon": 16.4590014, "way_id": 457682851, "landuse": "farmland", "closest_distance_restriction": 1.5748126496860806}, {"id": 2794449477, "lat": 51.1292005, "lon": 16.4594397, "way_id": 457682851, "landuse": "farmland", "closest_distance_restriction": 1.6370746819683397}, {"id": 2794449479, "lat": 51.1298516, "lon": 16.4597872, "way_id": 457682851, "landuse": "farmland", "closest_distance_restriction": 1.6826971952141956}, {"id": 2794449481, "lat": 51.1303142, "lon": 16.4607309, "way_id": 457682851, "landuse": "farmland", "closest_distance_restriction": 1.762019598329303}, {"id": 2832484908, "lat": 50.8824077, "lon": 16.2041047, "way_id": 278970261, "landuse": "meadow", "closest_distance_restriction": 2.190683672798647}, {"id": 2832484909, "lat": 50.8824956, "lon": 16.2038571, "way_id": 278970261, "landuse": "meadow", "closest_distance_restriction": 2.170775013012995}, {"id": 2832484910, "lat": 50.8825379, "lon": 16.2043169, "way_id": 278970261, "landuse": "meadow", "closest_distance_restriction": 2.1975834179552627}, {"id": 2832484911, "lat": 50.882768, "lon": 16.2039049, "way_id": 278970261, "landuse": "meadow", "closest_distance_restriction": 2.1603887872073004}, {"id": 2832484915, "lat": 50.8833811, "lon": 16.2075942, "way_id": 278970261, "landuse": "meadow", "closest_distance_restriction": 2.369949525248623}, {"id": 2832484918, "lat": 50.8840628, "lon": 16.2101227, "way_id": 278970261, "landuse": "meadow", "closest_distance_restriction": 2.5105273311049787}, {"id": 2832484920, "lat": 50.8842417, "lon": 16.2096188, "way_id": 278970261, "landuse": "meadow", "closest_distance_restriction": 2.470697620759906}, {"id": 2832484921, "lat": 50.8842486, "lon": 16.2086444, "way_id": 278970261, "landuse": "meadow", "closest_distance_restriction": 2.405674325044235}, {"id": 2834090404, "lat": 50.9115377, "lon": 16.1992394, "way_id": 279163974, "landuse": "meadow", "closest_distance_restriction": 1.9581118503351698}, {"id": 2834090410, "lat": 50.9116758, "lon": 16.1987555, "way_id": 279163974, "landuse": "meadow", "closest_distance_restriction": 1.93536619123162}, {"id": 2834090422, "lat": 50.9119378, "lon": 16.198331, "way_id": 279163974, "landuse": "meadow", "closest_distance_restriction": 1.9234795295518514}, {"id": 2834090430, "lat": 50.9121623, "lon": 16.1979338, "way_id": 279163974, "landuse": "meadow", "closest_distance_restriction": 1.9119391396560574}, {"id": 2834090431, "lat": 50.9123522, "lon": 16.1977101, "way_id": 279163974, "landuse": "meadow", "closest_distance_restriction": 1.909406680314364}, {"id": 2834090434, "lat": 50.9124846, "lon": 16.1989153, "way_id": 279163974, "landuse": "meadow", "closest_distance_restriction": 1.989410301103054}, {"id": 2834090438, "lat": 50.9126084, "lon": 16.1976782, "way_id": 279163974, "landuse": "meadow", "closest_distance_restriction": 1.9225402372423774}, {"id": 2834090441, "lat": 50.912666, "lon": 16.1989975, "way_id": 279163974, "landuse": "meadow", "closest_distance_restriction": 2.00468052411791}, {"id": 2834090443, "lat": 50.9126919, "lon": 16.1986186, "way_id": 279163974, "landuse": "meadow", "closest_distance_restriction": 1.9834519522879221}, {"id": 2834090454, "lat": 50.9129768, "lon": 16.196998, "way_id": 279163968, "landuse": "farmland", "closest_distance_restriction": 1.9049946421588124}, {"id": 2834090460, "lat": 50.913092, "lon": 16.1973541, "way_id": 279163974, "landuse": "meadow", "closest_distance_restriction": 1.932855857722721}, {"id": 2834090469, "lat": 50.9133942, "lon": 16.1964319, "way_id": 279163968, "landuse": "farmland", "closest_distance_restriction": 1.8977096696222737}, {"id": 2834090481, "lat": 50.9136331, "lon": 16.1984771, "way_id": 279163974, "landuse": "meadow", "closest_distance_restriction": 2.031774416670658}, {"id": 2834090493, "lat": 50.9138633, "lon": 16.1964958, "way_id": 279163974, "landuse": "meadow", "closest_distance_restriction": 1.9309424481352027}, {"id": 2834090494, "lat": 50.9138691, "lon": 16.1957837, "way_id": 279163968, "landuse": "farmland", "closest_distance_restriction": 1.8906933890762099}, {"id": 2834090702, "lat": 50.914013, "lon": 16.1954459, "way_id": 279163968, "landuse": "farmland", "closest_distance_restriction": 1.8811235398369137}, {"id": 2834090710, "lat": 50.9141627, "lon": 16.195035, "way_id": 279163968, "landuse": "farmland", "closest_distance_restriction": 1.867366235605117}, {"id": 2834090714, "lat": 50.9142029, "lon": 16.1964182, "way_id": 279163974, "landuse": "meadow", "closest_distance_restriction": 1.9485002361632668}, {"id": 2834090722, "lat": 50.9142847, "lon": 16.1944077, "way_id": 279163968, "landuse": "farmland", "closest_distance_restriction": 1.8392459305209001}, {"id": 2834090724, "lat": 50.9143066, "lon": 16.1978973, "way_id": 279163974, "landuse": "meadow", "closest_distance_restriction": 2.039737909705488}, {"id": 2834090726, "lat": 50.9143098, "lon": 16.1951187, "way_id": 279163968, "landuse": "farmland", "closest_distance_restriction": 1.8815174352912751}, {"id": 2834090728, "lat": 50.914346, "lon": 16.1932506, "way_id": 279163981, "landuse": "farmland", "closest_distance_restriction": 1.7781907763830775}, {"id": 2834090730, "lat": 50.9143685, "lon": 16.192668, "way_id": 279163981, "landuse": "farmland", "closest_distance_restriction": 1.7454994655960892}, {"id": 2834090765, "lat": 50.915482, "lon": 16.1929193, "way_id": 279163981, "landuse": "farmland", "closest_distance_restriction": 1.806383720044866}, {"id": 2834090769, "lat": 50.9155197, "lon": 16.1924215, "way_id": 279163981, "landuse": "farmland", "closest_distance_restriction": 1.772020939491383}, {"id": 2835645246, "lat": 50.9547631, "lon": 16.1857605, "way_id": 628061313, "landuse": "farmland", "closest_distance_restriction": 2.2228288436658055}, {"id": 2835645249, "lat": 50.9556843, "lon": 16.1851719, "way_id": 628061313, "landuse": "farmland", "closest_distance_restriction": 2.3134841042659686}, {"id": 2835645250, "lat": 50.9557302, "lon": 16.1834243, "way_id": 628061313, "landuse": "farmland", "closest_distance_restriction": 2.2959938175320684}, {"id": 2835645251, "lat": 50.9561353, "lon": 16.1848806, "way_id": 628061313, "landuse": "farmland", "closest_distance_restriction": 2.3584384466996458}, {"id": 2835658377, "lat": 50.9568455, "lon": 16.1825391, "way_id": 628061313, "landuse": "farmland", "closest_distance_restriction": 2.2745254891352906}, {"id": 2835658395, "lat": 50.9574647, "lon": 16.1839623, "way_id": 628061313, "landuse": "farmland", "closest_distance_restriction": 2.252515021003411}, {"id": 2835658802, "lat": 50.9577003, "lon": 16.1819963, "way_id": 628061313, "landuse": "farmland", "closest_distance_restriction": 2.1721666625931357}, {"id": 2835658803, "lat": 50.9577096, "lon": 16.1823191, "way_id": 628061313, "landuse": "farmland", "closest_distance_restriction": 2.1800422754927795}, {"id": 2835658805, "lat": 50.9577373, "lon": 16.1814608, "way_id": 628061313, "landuse": "farmland", "closest_distance_restriction": 2.154148307690103}, {"id": 2835658806, "lat": 50.9577651, "lon": 16.1812801, "way_id": 628061313, "landuse": "farmland", "closest_distance_restriction": 2.1465995121440975}, {"id": 2835658811, "lat": 50.9579176, "lon": 16.1813974, "way_id": 628061313, "landuse": "farmland", "closest_distance_restriction": 2.1338885708809485}, {"id": 2835658816, "lat": 50.9581347, "lon": 16.1812581, "way_id": 628061313, "landuse": "farmland", "closest_distance_restriction": 2.1078510950358122}, {"id": 2835658819, "lat": 50.9582503, "lon": 16.1818009, "way_id": 628061313, "landuse": "farmland", "closest_distance_restriction": 2.1104944025699672}, {"id": 2835658823, "lat": 50.9583842, "lon": 16.1833754, "way_id": 628061313, "landuse": "farmland", "closest_distance_restriction": 2.142568503474422}, {"id": 2835658826, "lat": 50.9584443, "lon": 16.1817349, "way_id": 628061313, "landuse": "farmland", "closest_distance_restriction": 2.0888354660759183}, {"id": 2835658830, "lat": 50.9585183, "lon": 16.1820503, "way_id": 628061313, "landuse": "farmland", "closest_distance_restriction": 2.0900726629855435}, {"id": 2835658834, "lat": 50.9587724, "lon": 16.1819036, "way_id": 628061313, "landuse": "farmland", "closest_distance_restriction": 2.0600740529263226}, {"id": 2835658838, "lat": 50.9589291, "lon": 16.1774906, "way_id": 279352746, "landuse": "farmland", "closest_distance_restriction": 1.925657711359938}, {"id": 2835658839, "lat": 50.9589748, "lon": 16.1777136, "way_id": 279352746, "landuse": "farmland", "closest_distance_restriction": 1.933119658819957}, {"id": 2835658841, "lat": 50.9590912, "lon": 16.183004, "way_id": 628061313, "landuse": "farmland", "closest_distance_restriction": 2.0605108831861156}, {"id": 2835658846, "lat": 50.9592113, "lon": 16.1758855, "way_id": 279352746, "landuse": "farmland", "closest_distance_restriction": 1.8250600597643543}, {"id": 2835658847, "lat": 50.9592437, "lon": 16.1824905, "way_id": 628061313, "landuse": "farmland", "closest_distance_restriction": 2.029579658903114}, {"id": 2835658848, "lat": 50.9593269, "lon": 16.1828793, "way_id": 628061313, "landuse": "farmland", "closest_distance_restriction": 2.033140659974719}, {"id": 2835658850, "lat": 50.9595172, "lon": 16.1794046, "way_id": 279352746, "landuse": "farmland", "closest_distance_restriction": 1.91781870803962}, {"id": 2835658851, "lat": 50.9595301, "lon": 16.1756068, "way_id": 279352746, "landuse": "farmland", "closest_distance_restriction": 1.785852616215637}, {"id": 2835658853, "lat": 50.959581, "lon": 16.1803924, "way_id": 628061313, "landuse": "farmland", "closest_distance_restriction": 1.936024536799024}, {"id": 2835658854, "lat": 50.9596119, "lon": 16.1769355, "way_id": 279352746, "landuse": "farmland", "closest_distance_restriction": 1.8445836412840464}, {"id": 2835658855, "lat": 50.9596226, "lon": 16.1809279, "way_id": 628061313, "landuse": "farmland", "closest_distance_restriction": 1.9461439987958673}, {"id": 2835658856, "lat": 50.9596262, "lon": 16.179787, "way_id": 279352746, "landuse": "farmland", "closest_distance_restriction": 1.915829382911554}, {"id": 2835658858, "lat": 50.9596965, "lon": 16.1808693, "way_id": 628061313, "landuse": "farmland", "closest_distance_restriction": 1.9369753817298072}, {"id": 2835658860, "lat": 50.9599252, "lon": 16.1751336, "way_id": 279352746, "landuse": "farmland", "closest_distance_restriction": 1.731164346693925}, {"id": 2835658861, "lat": 50.9599276, "lon": 16.1820063, "way_id": 628061313, "landuse": "farmland", "closest_distance_restriction": 1.9463419676555769}, {"id": 2835658863, "lat": 50.960153, "lon": 16.179699, "way_id": 279352746, "landuse": "farmland", "closest_distance_restriction": 1.8589708721369307}, {"id": 2835658864, "lat": 50.9602179, "lon": 16.18001, "way_id": 628061313, "landuse": "farmland", "closest_distance_restriction": 1.860330038764453}, {"id": 2835658865, "lat": 50.9602278, "lon": 16.1746605, "way_id": 279352746, "landuse": "farmland", "closest_distance_restriction": 1.6839484766365405}, {"id": 2835658866, "lat": 50.9603273, "lon": 16.1799244, "way_id": 628061313, "landuse": "farmland", "closest_distance_restriction": 1.8468041569929574}, {"id": 2835658867, "lat": 50.9605919, "lon": 16.1794569, "way_id": 279352746, "landuse": "farmland", "closest_distance_restriction": 1.8073454860401519}, {"id": 2835658869, "lat": 50.9606541, "lon": 16.1815298, "way_id": 628061313, "landuse": "farmland", "closest_distance_restriction": 1.8590699934711226}, {"id": 2835658870, "lat": 50.9607651, "lon": 16.1814339, "way_id": 628061313, "landuse": "farmland", "closest_distance_restriction": 1.8450360074922403}, {"id": 2835658872, "lat": 50.9610041, "lon": 16.1736554, "way_id": 279352746, "landuse": "farmland", "closest_distance_restriction": 1.5729014344828691}, {"id": 2835658873, "lat": 50.9610172, "lon": 16.1791026, "way_id": 279352746, "landuse": "farmland", "closest_distance_restriction": 1.7542665561969317}, {"id": 2835658874, "lat": 50.9613831, "lon": 16.178864, "way_id": 279352746, "landuse": "farmland", "closest_distance_restriction": 1.7102903784991432}, {"id": 2853201640, "lat": 50.951135, "lon": 16.1882297, "way_id": 628061313, "landuse": "farmland", "closest_distance_restriction": 1.890283397653257}, {"id": 2853201641, "lat": 50.9526821, "lon": 16.1877641, "way_id": 628061313, "landuse": "farmland", "closest_distance_restriction": 2.0402096223491664}, {"id": 2853201642, "lat": 50.9528949, "lon": 16.1876006, "way_id": 628061313, "landuse": "farmland", "closest_distance_restriction": 2.0589147346668386}, {"id": 2853201649, "lat": 50.9536749, "lon": 16.1864329, "way_id": 628061313, "landuse": "farmland", "closest_distance_restriction": 2.117723648334501}, {"id": 2853201656, "lat": 50.9538803, "lon": 16.1861024, "way_id": 628061313, "landuse": "farmland", "closest_distance_restriction": 2.133632638174199}, {"id": 2853201657, "lat": 50.95428, "lon": 16.1850493, "way_id": 628061313, "landuse": "farmland", "closest_distance_restriction": 2.1591394512645063}, {"id": 2853201658, "lat": 50.9544382, "lon": 16.1846395, "way_id": 628061313, "landuse": "farmland", "closest_distance_restriction": 2.1701980251150714}, {"id": 2853201659, "lat": 50.9545937, "lon": 16.1860231, "way_id": 628061313, "landuse": "farmland", "closest_distance_restriction": 2.208995170200452}, {"id": 2853201660, "lat": 50.9547907, "lon": 16.1871467, "way_id": 628061313, "landuse": "farmland", "closest_distance_restriction": 2.2507448127032452}, {"id": 2853201661, "lat": 50.9548324, "lon": 16.1883144, "way_id": 628061313, "landuse": "farmland", "closest_distance_restriction": 2.2791648811570453}, {"id": 2853201662, "lat": 50.9565422, "lon": 16.1828241, "way_id": 628061313, "landuse": "farmland", "closest_distance_restriction": 2.3133447117799926}, {"id": 2853201663, "lat": 50.9599504, "lon": 16.1802016, "way_id": 628061313, "landuse": "farmland", "closest_distance_restriction": 1.8929378812803024}, {"id": 2853201664, "lat": 50.960759, "lon": 16.1795535, "way_id": 628061313, "landuse": "farmland", "closest_distance_restriction": 1.7925707104980655}, {"id": 2853201665, "lat": 50.9611004, "lon": 16.179298, "way_id": 628061313, "landuse": "farmland", "closest_distance_restriction": 1.7506775635498222}, {"id": 2853201666, "lat": 50.962325, "lon": 16.1786188, "way_id": 628061313, "landuse": "farmland", "closest_distance_restriction": 1.606590885211202}, {"id": 2853201667, "lat": 50.9626474, "lon": 16.1811386, "way_id": 628061313, "landuse": "farmland", "closest_distance_restriction": 1.6489927790351047}, {"id": 2853201668, "lat": 50.9626807, "lon": 16.1810681, "way_id": 628061313, "landuse": "farmland", "closest_distance_restriction": 1.6434000848554071}, {"id": 2853201669, "lat": 50.962775, "lon": 16.1817467, "way_id": 628061313, "landuse": "farmland", "closest_distance_restriction": 1.6559159759632}, {"id": 2853201670, "lat": 50.9628527, "lon": 16.1817555, "way_id": 628061313, "landuse": "farmland", "closest_distance_restriction": 1.6473205635581931}, {"id": 2853201671, "lat": 50.962936, "lon": 16.1813061, "way_id": 628061313, "landuse": "farmland", "closest_distance_restriction": 1.6264375390064016}, {"id": 2853201672, "lat": 50.9629748, "lon": 16.1815881, "way_id": 628061313, "landuse": "farmland", "closest_distance_restriction": 1.6313760949761442}, {"id": 2853201673, "lat": 50.9630323, "lon": 16.1838358, "way_id": 628061313, "landuse": "farmland", "closest_distance_restriction": 1.6416477442151645}, {"id": 2853201674, "lat": 50.9632079, "lon": 16.1810153, "way_id": 628061313, "landuse": "farmland", "closest_distance_restriction": 1.5901206668680592}, {"id": 2853201675, "lat": 50.9632135, "lon": 16.1811474, "way_id": 628061313, "landuse": "farmland", "closest_distance_restriction": 1.5940757806572958}, {"id": 2853201676, "lat": 50.96343, "lon": 16.1862764, "way_id": 628061313, "landuse": "farmland", "closest_distance_restriction": 1.623159411925711}, {"id": 2853201677, "lat": 50.963491, "lon": 16.1848752, "way_id": 628061313, "landuse": "farmland", "closest_distance_restriction": 1.6013291395721083}, {"id": 2853201678, "lat": 50.9635243, "lon": 16.1811827, "way_id": 628061313, "landuse": "farmland", "closest_distance_restriction": 1.5642040277029445}, {"id": 2853201680, "lat": 50.9636964, "lon": 16.1845227, "way_id": 628061313, "landuse": "farmland", "closest_distance_restriction": 1.5757399748071461}, {"id": 2853201681, "lat": 50.9637075, "lon": 16.1856419, "way_id": 628061313, "landuse": "farmland", "closest_distance_restriction": 1.585133392609166}, {"id": 2853201685, "lat": 50.9638129, "lon": 16.1844081, "way_id": 628061313, "landuse": "farmland", "closest_distance_restriction": 1.5619887635251146}, {"id": 2853201689, "lat": 50.9639609, "lon": 16.1879827, "way_id": 628061313, "landuse": "farmland", "closest_distance_restriction": 1.5922160744112093}, {"id": 2853201695, "lat": 50.9643069, "lon": 16.189872, "way_id": 628061313, "landuse": "farmland", "closest_distance_restriction": 1.5944562138312097}, {"id": 3069737819, "lat": 50.9950932, "lon": 16.2255716, "way_id": 302706113, "landuse": "farmland", "closest_distance_restriction": 1.7223982096460089}, {"id": 3069737845, "lat": 50.9959557, "lon": 16.230723, "way_id": 302706113, "landuse": "farmland", "closest_distance_restriction": 1.8425253098381036}, {"id": 3069737847, "lat": 50.9960077, "lon": 16.2316806, "way_id": 302706113, "landuse": "farmland", "closest_distance_restriction": 1.8266410380846074}, {"id": 3069737849, "lat": 50.9960492, "lon": 16.2335051, "way_id": 302706113, "landuse": "farmland", "closest_distance_restriction": 1.809333433863393}, {"id": 3069737857, "lat": 50.996255, "lon": 16.2333901, "way_id": 302706113, "landuse": "farmland", "closest_distance_restriction": 1.787044589618499}, {"id": 3069737865, "lat": 50.996416, "lon": 16.2324948, "way_id": 302706113, "landuse": "farmland", "closest_distance_restriction": 1.7747252236160092}, {"id": 3069737866, "lat": 50.9964428, "lon": 16.2331343, "way_id": 302706113, "landuse": "farmland", "closest_distance_restriction": 1.7675745208568174}, {"id": 3069737894, "lat": 50.9987914, "lon": 16.2237435, "way_id": 302706113, "landuse": "farmland", "closest_distance_restriction": 1.6984956207620354}, {"id": 3715691895, "lat": 50.9987351, "lon": 16.2237723, "way_id": 302706113, "landuse": "farmland", "closest_distance_restriction": 1.703171946886285}, {"id": 3808883540, "lat": 51.0920698, "lon": 16.3455336, "way_id": 377514595, "landuse": "farmland", "closest_distance_restriction": 1.572374830382437}, {"id": 3808883549, "lat": 51.0921074, "lon": 16.3683721, "way_id": 377514600, "landuse": "farmland", "closest_distance_restriction": 1.5604224016065977}, {"id": 3808883551, "lat": 51.0921119, "lon": 16.3451171, "way_id": 377514595, "landuse": "farmland", "closest_distance_restriction": 1.585698807111606}, {"id": 3808883557, "lat": 51.0921329, "lon": 16.3444758, "way_id": 377514595, "landuse": "farmland", "closest_distance_restriction": 1.5940454941813729}, {"id": 3808883560, "lat": 51.0921389, "lon": 16.3437195, "way_id": 377514595, "landuse": "farmland", "closest_distance_restriction": 1.6033919412708637}, {"id": 3808883604, "lat": 51.0930333, "lon": 16.3687503, "way_id": 377514600, "landuse": "farmland", "closest_distance_restriction": 1.6644395425675407}, {"id": 3808883605, "lat": 51.0930363, "lon": 16.3654428, "way_id": 377514600, "landuse": "farmland", "closest_distance_restriction": 1.577708524438334}, {"id": 3808883609, "lat": 51.0931131, "lon": 16.3652066, "way_id": 377514605, "landuse": "farmland", "closest_distance_restriction": 1.5807442206837279}, {"id": 3808883620, "lat": 51.0934001, "lon": 16.3664432, "way_id": 377514600, "landuse": "farmland", "closest_distance_restriction": 1.6389280140547995}, {"id": 3808883621, "lat": 51.0934637, "lon": 16.3660612, "way_id": 377514605, "landuse": "farmland", "closest_distance_restriction": 1.636596864288416}, {"id": 3808883625, "lat": 51.0935755, "lon": 16.3608102, "way_id": 377514603, "landuse": "farmland", "closest_distance_restriction": 1.5673491897058276}, {"id": 3808883626, "lat": 51.0935798, "lon": 16.3664345, "way_id": 377514605, "landuse": "farmland", "closest_distance_restriction": 1.6574911798214302}, {"id": 3808883628, "lat": 51.0937025, "lon": 16.3609458, "way_id": 377514605, "landuse": "farmland", "closest_distance_restriction": 1.5824429118268488}, {"id": 3808883630, "lat": 51.093863, "lon": 16.3603484, "way_id": 377514603, "landuse": "farmland", "closest_distance_restriction": 1.5959886146491782}, {"id": 3808883632, "lat": 51.0939457, "lon": 16.367781, "way_id": 377514605, "landuse": "farmland", "closest_distance_restriction": 1.7293836879691358}, {"id": 3808883633, "lat": 51.0939592, "lon": 16.3686258, "way_id": 377514600, "landuse": "farmland", "closest_distance_restriction": 1.7540726376175935}, {"id": 3808883635, "lat": 51.0939961, "lon": 16.3604783, "way_id": 377514605, "landuse": "farmland", "closest_distance_restriction": 1.6115432653172763}, {"id": 3808883637, "lat": 51.0941216, "lon": 16.3691284, "way_id": 377514600, "landuse": "farmland", "closest_distance_restriction": 1.7850809756614807}, {"id": 3808883638, "lat": 51.0941336, "lon": 16.3600373, "way_id": 377514603, "landuse": "farmland", "closest_distance_restriction": 1.6242461203887992}, {"id": 3808883639, "lat": 51.0941779, "lon": 16.368681, "way_id": 377514605, "landuse": "farmland", "closest_distance_restriction": 1.7778511888747779}, {"id": 3808883642, "lat": 51.0943335, "lon": 16.3691205, "way_id": 377514605, "landuse": "farmland", "closest_distance_restriction": 1.8062430401917522}, {"id": 3808883643, "lat": 51.094351, "lon": 16.3600458, "way_id": 377514605, "landuse": "farmland", "closest_distance_restriction": 1.6483997605717915}, {"id": 3808883645, "lat": 51.0944408, "lon": 16.3694171, "way_id": 377514605, "landuse": "farmland", "closest_distance_restriction": 1.825769208882232}, {"id": 3808883648, "lat": 51.0945935, "lon": 16.3595108, "way_id": 377514603, "landuse": "farmland", "closest_distance_restriction": 1.611850737964767}, {"id": 3808883649, "lat": 51.0945964, "lon": 16.3697554, "way_id": 377514605, "landuse": "farmland", "closest_distance_restriction": 1.85149952950705}, {"id": 3808883652, "lat": 51.0947694, "lon": 16.3701775, "way_id": 377514605, "landuse": "farmland", "closest_distance_restriction": 1.8562930012810284}, {"id": 3808883653, "lat": 51.0948067, "lon": 16.3595644, "way_id": 377514605, "landuse": "farmland", "closest_distance_restriction": 1.5906128598592875}, {"id": 3808883655, "lat": 51.0948856, "lon": 16.3705264, "way_id": 377514605, "landuse": "farmland", "closest_distance_restriction": 1.8420194304698878}, {"id": 3808883757, "lat": 51.0949302, "lon": 16.3591566, "way_id": 377514603, "landuse": "farmland", "closest_distance_restriction": 1.5685216743532873}, {"id": 3808883759, "lat": 51.0949622, "lon": 16.3708543, "way_id": 377514605, "landuse": "farmland", "closest_distance_restriction": 1.826966193197051}, {"id": 3808883760, "lat": 51.0950061, "lon": 16.371081, "way_id": 377514605, "landuse": "farmland", "closest_distance_restriction": 1.8161402766251473}, {"id": 3808883762, "lat": 51.0950696, "lon": 16.3705996, "way_id": 377514605, "landuse": "farmland", "closest_distance_restriction": 1.8483770314622727}, {"id": 3808883765, "lat": 51.0951419, "lon": 16.3700275, "way_id": 377514605, "landuse": "farmland", "closest_distance_restriction": 1.8866009799554515}, {"id": 3808883767, "lat": 51.0952536, "lon": 16.3695147, "way_id": 377514605, "landuse": "farmland", "closest_distance_restriction": 1.8934173622680797}, {"id": 3808883770, "lat": 51.0955275, "lon": 16.3689217, "way_id": 377514605, "landuse": "farmland", "closest_distance_restriction": 1.843549568332459}, {"id": 3808883772, "lat": 51.0957926, "lon": 16.3684682, "way_id": 377514605, "landuse": "farmland", "closest_distance_restriction": 1.8006760445636523}, {"id": 3808883779, "lat": 51.0963801, "lon": 16.3674147, "way_id": 377514605, "landuse": "farmland", "closest_distance_restriction": 1.7036132466212757}, {"id": 3808883782, "lat": 51.0968839, "lon": 16.3665217, "way_id": 377514605, "landuse": "farmland", "closest_distance_restriction": 1.6209560571828536}, {"id": 3808883783, "lat": 51.0970548, "lon": 16.3662217, "way_id": 377514605, "landuse": "farmland", "closest_distance_restriction": 1.5930707006096676}, {"id": 3808883784, "lat": 51.0971205, "lon": 16.3659356, "way_id": 377514605, "landuse": "farmland", "closest_distance_restriction": 1.5750398779759822}, {"id": 3904000216, "lat": 51.1502506, "lon": 16.3943112, "way_id": 457047457, "landuse": "farmland", "closest_distance_restriction": 2.645259929504023}, {"id": 4099015915, "lat": 51.129739, "lon": 16.315661, "way_id": 457147617, "landuse": "farmland", "closest_distance_restriction": 1.5657311062461543}, {"id": 4099015917, "lat": 51.1299226, "lon": 16.3130636, "way_id": 457147617, "landuse": "farmland", "closest_distance_restriction": 1.7287033951849538}, {"id": 4099015918, "lat": 51.130131, "lon": 16.3111155, "way_id": 457147617, "landuse": "farmland", "closest_distance_restriction": 1.8489013314121368}, {"id": 4099015919, "lat": 51.1306373, "lon": 16.3083384, "way_id": 457147617, "landuse": "farmland", "closest_distance_restriction": 2.03534736233522}, {"id": 4099015920, "lat": 51.1309437, "lon": 16.3071041, "way_id": 457147617, "landuse": "farmland", "closest_distance_restriction": 2.124537016380743}, {"id": 4099015921, "lat": 51.1310665, "lon": 16.3067918, "way_id": 457147617, "landuse": "farmland", "closest_distance_restriction": 2.1501638860922587}, {"id": 4099015922, "lat": 51.1321506, "lon": 16.3032203, "way_id": 457147617, "landuse": "farmland", "closest_distance_restriction": 2.391622861578928}, {"id": 4099015923, "lat": 51.1327292, "lon": 16.3020554, "way_id": 457147617, "landuse": "farmland", "closest_distance_restriction": 2.4775079005340626}, {"id": 4099015924, "lat": 51.1328972, "lon": 16.3015994, "way_id": 457147617, "landuse": "farmland", "closest_distance_restriction": 2.505335844500148}, {"id": 4099015926, "lat": 51.1334524, "lon": 16.2999958, "way_id": 457147617, "landuse": "farmland", "closest_distance_restriction": 2.6012853224435735}, {"id": 4099015940, "lat": 51.1344866, "lon": 16.297609, "way_id": 457147617, "landuse": "farmland", "closest_distance_restriction": 2.7701463974222404}, {"id": 4099015941, "lat": 51.1349345, "lon": 16.2963574, "way_id": 457147617, "landuse": "farmland", "closest_distance_restriction": 2.850864238570267}, {"id": 4099015943, "lat": 51.1352464, "lon": 16.2955395, "way_id": 457147617, "landuse": "farmland", "closest_distance_restriction": 2.906214778722163}, {"id": 4099015962, "lat": 51.1368941, "lon": 16.2915094, "way_id": 457147617, "landuse": "farmland", "closest_distance_restriction": 3.1962095490889832}, {"id": 4099015966, "lat": 51.1375799, "lon": 16.2899505, "way_id": 457147617, "landuse": "farmland", "closest_distance_restriction": 3.3153952875165325}, {"id": 4099015967, "lat": 51.1378101, "lon": 16.2894895, "way_id": 457147617, "landuse": "farmland", "closest_distance_restriction": 3.3534875705836993}, {"id": 4099015968, "lat": 51.1380931, "lon": 16.2895812, "way_id": 457147617, "landuse": "farmland", "closest_distance_restriction": 3.377776068780783}, {"id": 4099015969, "lat": 51.1381961, "lon": 16.2893422, "way_id": 457147617, "landuse": "farmland", "closest_distance_restriction": 3.3959180143957077}, {"id": 4099016487, "lat": 51.1499325, "lon": 16.316772, "way_id": 457147617, "landuse": "farmland", "closest_distance_restriction": 2.194629961721246}, {"id": 4099016504, "lat": 51.1504298, "lon": 16.3159986, "way_id": 457147617, "landuse": "farmland", "closest_distance_restriction": 2.271407978480035}, {"id": 4099016505, "lat": 51.1504616, "lon": 16.2749253, "way_id": 457147617, "landuse": "farmland", "closest_distance_restriction": 4.707729029249857}, {"id": 4099016508, "lat": 51.1505342, "lon": 16.2733151, "way_id": 457147617, "landuse": "farmland", "closest_distance_restriction": 4.722350279662212}, {"id": 4099016524, "lat": 51.1512788, "lon": 16.3146336, "way_id": 457147617, "landuse": "farmland", "closest_distance_restriction": 2.404946299947139}, {"id": 4099016556, "lat": 51.1516938, "lon": 16.3142759, "way_id": 217299146, "landuse": "farmland", "closest_distance_restriction": 2.453717196837837}, {"id": 4099016560, "lat": 51.1517059, "lon": 16.3143371, "way_id": 217299146, "landuse": "farmland", "closest_distance_restriction": 2.45132935323023}, {"id": 4099016561, "lat": 51.1517106, "lon": 16.3139375, "way_id": 457147617, "landuse": "farmland", "closest_distance_restriction": 2.472985161773861}, {"id": 4099016564, "lat": 51.1517208, "lon": 16.310323, "way_id": 457147617, "landuse": "farmland", "closest_distance_restriction": 2.6719760740981062}, {"id": 4099016648, "lat": 51.1521811, "lon": 16.3128973, "way_id": 457147617, "landuse": "farmland", "closest_distance_restriction": 2.56221152870092}, {"id": 4099016685, "lat": 51.152608, "lon": 16.3119035, "way_id": 457147617, "landuse": "farmland", "closest_distance_restriction": 2.6458684157911287}, {"id": 4099016702, "lat": 51.1527698, "lon": 16.3106805, "way_id": 457147617, "landuse": "farmland", "closest_distance_restriction": 2.7233750367913934}, {"id": 4099016703, "lat": 51.152773, "lon": 16.3113776, "way_id": 457147617, "landuse": "farmland", "closest_distance_restriction": 2.6858442991278664}, {"id": 4099016710, "lat": 51.1528451, "lon": 16.3112127, "way_id": 457147617, "landuse": "farmland", "closest_distance_restriction": 2.6998209046705552}, {"id": 4099016718, "lat": 51.1532752, "lon": 16.3101446, "way_id": 457147617, "landuse": "farmland", "closest_distance_restriction": 2.787768156521062}, {"id": 4099016720, "lat": 51.1532914, "lon": 16.3101686, "way_id": 457147617, "landuse": "farmland", "closest_distance_restriction": 2.7876084222851425}, {"id": 4099016732, "lat": 51.1537293, "lon": 16.2828838, "way_id": 457147617, "landuse": "farmland", "closest_distance_restriction": 4.448492984402293}, {"id": 4099016734, "lat": 51.1538006, "lon": 16.2829126, "way_id": 457147617, "landuse": "farmland", "closest_distance_restriction": 4.449890044169432}, {"id": 4099016751, "lat": 51.1545664, "lon": 16.3101113, "way_id": 217299146, "landuse": "farmland", "closest_distance_restriction": 2.882310425884014}, {"id": 4099016752, "lat": 51.1545676, "lon": 16.2982036, "way_id": 457147617, "landuse": "farmland", "closest_distance_restriction": 3.548651341797597}, {"id": 4099016759, "lat": 51.1547576, "lon": 16.2975169, "way_id": 457147617, "landuse": "farmland", "closest_distance_restriction": 3.6004128459066784}, {"id": 4099016764, "lat": 51.1548989, "lon": 16.2976053, "way_id": 457147617, "landuse": "farmland", "closest_distance_restriction": 3.6036383724843684}, {"id": 4099016765, "lat": 51.154902, "lon": 16.3123577, "way_id": 217299146, "landuse": "farmland", "closest_distance_restriction": 2.7924167168773777}, {"id": 4099016806, "lat": 51.1552016, "lon": 16.3088252, "way_id": 217299146, "landuse": "farmland", "closest_distance_restriction": 2.9963158844799285}, {"id": 4099016810, "lat": 51.1552318, "lon": 16.3105771, "way_id": 217299146, "landuse": "farmland", "closest_distance_restriction": 2.907804102696109}, {"id": 4099016811, "lat": 51.1552804, "lon": 16.310407, "way_id": 217299146, "landuse": "farmland", "closest_distance_restriction": 2.9201794094362676}, {"id": 4099016826, "lat": 51.1555417, "lon": 16.2980074, "way_id": 457147617, "landuse": "farmland", "closest_distance_restriction": 3.619272460640159}, {"id": 4099016834, "lat": 51.1556049, "lon": 16.3074909, "way_id": 217299146, "landuse": "farmland", "closest_distance_restriction": 3.095988572467451}, {"id": 4099016839, "lat": 51.155629, "lon": 16.2968241, "way_id": 457147617, "landuse": "farmland", "closest_distance_restriction": 3.693465949548933}, {"id": 4099016845, "lat": 51.1557118, "lon": 16.2971688, "way_id": 457147617, "landuse": "farmland", "closest_distance_restriction": 3.6784432541189918}, {"id": 4099016864, "lat": 51.1558715, "lon": 16.2955828, "way_id": 457147617, "landuse": "farmland", "closest_distance_restriction": 3.780760609582264}, {"id": 4099016898, "lat": 51.1560454, "lon": 16.3057613, "way_id": 217299146, "landuse": "farmland", "closest_distance_restriction": 3.2196455888045894}, {"id": 4099016912, "lat": 51.1561907, "lon": 16.2974255, "way_id": 457147617, "landuse": "farmland", "closest_distance_restriction": 3.693309584840464}, {"id": 4099016914, "lat": 51.1562446, "lon": 16.2971844, "way_id": 457147617, "landuse": "farmland", "closest_distance_restriction": 3.710576608489904}, {"id": 4099016915, "lat": 51.1562814, "lon": 16.2957568, "way_id": 457147617, "landuse": "farmland", "closest_distance_restriction": 3.7955184158286657}, {"id": 4099016917, "lat": 51.1563085, "lon": 16.304294, "way_id": 217299146, "landuse": "farmland", "closest_distance_restriction": 3.3171522112201464}, {"id": 4099016918, "lat": 51.1563105, "lon": 16.2946857, "way_id": 457147617, "landuse": "farmland", "closest_distance_restriction": 3.8598009494634495}, {"id": 4099016922, "lat": 51.1563687, "lon": 16.2940554, "way_id": 457147617, "landuse": "farmland", "closest_distance_restriction": 3.900265130274654}, {"id": 4099016925, "lat": 51.1563803, "lon": 16.303333, "way_id": 217299146, "landuse": "farmland", "closest_distance_restriction": 3.374321469493023}, {"id": 4099016929, "lat": 51.1564661, "lon": 16.3022834, "way_id": 217299146, "landuse": "farmland", "closest_distance_restriction": 3.4376945794753286}, {"id": 4099016940, "lat": 51.1566376, "lon": 16.3019212, "way_id": 217299146, "landuse": "farmland", "closest_distance_restriction": 3.4693408491260582}, {"id": 4099016954, "lat": 51.1568289, "lon": 16.3008235, "way_id": 217299146, "landuse": "farmland", "closest_distance_restriction": 3.5429175644393096}, {"id": 4099016968, "lat": 51.1570792, "lon": 16.2991086, "way_id": 217299146, "landuse": "farmland", "closest_distance_restriction": 3.655129439292639}, {"id": 4099016969, "lat": 51.157114, "lon": 16.2989608, "way_id": 217299146, "landuse": "farmland", "closest_distance_restriction": 3.6657094430515214}, {"id": 4099016972, "lat": 51.1571905, "lon": 16.2988813, "way_id": 217299146, "landuse": "farmland", "closest_distance_restriction": 3.6752350692764235}, {"id": 4099016991, "lat": 51.1575556, "lon": 16.2989109, "way_id": 217299146, "landuse": "farmland", "closest_distance_restriction": 3.6979804995329344}, {"id": 4099016996, "lat": 51.157639, "lon": 16.2982271, "way_id": 217299146, "landuse": "farmland", "closest_distance_restriction": 3.7416347912146266}, {"id": 4099017000, "lat": 51.1576878, "lon": 16.2931935, "way_id": 217299146, "landuse": "farmland", "closest_distance_restriction": 4.0310167781920985}, {"id": 4099017002, "lat": 51.1577493, "lon": 16.2930876, "way_id": 217299146, "landuse": "farmland", "closest_distance_restriction": 4.040961994819223}, {"id": 4099017003, "lat": 51.1577706, "lon": 16.2932409, "way_id": 217299146, "landuse": "farmland", "closest_distance_restriction": 4.033424460442534}, {"id": 4099017004, "lat": 51.1577792, "lon": 16.2975951, "way_id": 217299146, "landuse": "farmland", "closest_distance_restriction": 3.7862749326970633}, {"id": 4099017005, "lat": 51.1578604, "lon": 16.2969964, "way_id": 217299146, "landuse": "farmland", "closest_distance_restriction": 3.825201757025943}, {"id": 4099017006, "lat": 51.1579565, "lon": 16.2948303, "way_id": 217299146, "landuse": "farmland", "closest_distance_restriction": 3.9539757738003636}, {"id": 4099017007, "lat": 51.1581055, "lon": 16.2959001, "way_id": 217299146, "landuse": "farmland", "closest_distance_restriction": 3.9029867733993497}, {"id": 4099017009, "lat": 51.1581571, "lon": 16.2968966, "way_id": 217299146, "landuse": "farmland", "closest_distance_restriction": 3.850443191221472}, {"id": 4099017010, "lat": 51.1582345, "lon": 16.2925253, "way_id": 217299146, "landuse": "farmland", "closest_distance_restriction": 4.103686124775275}, {"id": 4099017011, "lat": 51.1582288, "lon": 16.2949342, "way_id": 217299146, "landuse": "farmland", "closest_distance_restriction": 3.9656212454736357}, {"id": 4099017012, "lat": 51.1582724, "lon": 16.2968629, "way_id": 217299146, "landuse": "farmland", "closest_distance_restriction": 3.8600034813894504}, {"id": 4099017013, "lat": 51.158281, "lon": 16.2935072, "way_id": 217299146, "landuse": "farmland", "closest_distance_restriction": 4.0502373843278985}, {"id": 4099017014, "lat": 51.1584219, "lon": 16.2960683, "way_id": 217299146, "landuse": "farmland", "closest_distance_restriction": 3.9143645423704663}, {"id": 4099017115, "lat": 51.1634606, "lon": 16.3347496, "way_id": 217299146, "landuse": "farmland", "closest_distance_restriction": 2.6166698177473027}, {"id": 4099017162, "lat": 51.1646027, "lon": 16.3341121, "way_id": 217299146, "landuse": "farmland", "closest_distance_restriction": 2.7467996916785027}, {"id": 4099017218, "lat": 51.166475, "lon": 16.3330745, "way_id": 217299146, "landuse": "farmland", "closest_distance_restriction": 2.960699993856137}, {"id": 4099017281, "lat": 51.1677255, "lon": 16.3324516, "way_id": 217299146, "landuse": "farmland", "closest_distance_restriction": 3.101483720969093}, {"id": 4099017396, "lat": 51.1680545, "lon": 16.33231, "way_id": 217299146, "landuse": "farmland", "closest_distance_restriction": 3.1377809040595768}, {"id": 4099017406, "lat": 51.1682203, "lon": 16.3322131, "way_id": 217299146, "landuse": "farmland", "closest_distance_restriction": 3.157020204730783}, {"id": 4099017472, "lat": 51.169345, "lon": 16.2790949, "way_id": 217299146, "landuse": "farmland", "closest_distance_restriction": 5.595059888636582}, {"id": 4099017591, "lat": 51.1695264, "lon": 16.2789693, "way_id": 217299146, "landuse": "farmland", "closest_distance_restriction": 5.614625285180137}, {"id": 4099017596, "lat": 51.1696303, "lon": 16.2789925, "way_id": 217299146, "landuse": "farmland", "closest_distance_restriction": 5.620721812499456}, {"id": 4099017600, "lat": 51.1697693, "lon": 16.2788256, "way_id": 217299146, "landuse": "farmland", "closest_distance_restriction": 5.63953601566268}, {"id": 4099017609, "lat": 51.1700134, "lon": 16.2782978, "way_id": 217299146, "landuse": "farmland", "closest_distance_restriction": 5.685192963455587}, {"id": 4099017615, "lat": 51.1702447, "lon": 16.27756, "way_id": 217299146, "landuse": "farmland", "closest_distance_restriction": 5.741248571762595}, {"id": 4099017616, "lat": 51.1704256, "lon": 16.276969, "way_id": 217299146, "landuse": "farmland", "closest_distance_restriction": 5.785862908045979}, {"id": 4099017619, "lat": 51.1705972, "lon": 16.2764357, "way_id": 217299146, "landuse": "farmland", "closest_distance_restriction": 5.82672586410722}, {"id": 4099017637, "lat": 51.170813, "lon": 16.2758255, "way_id": 217299146, "landuse": "farmland", "closest_distance_restriction": 5.874862535976249}, {"id": 4099017652, "lat": 51.1710135, "lon": 16.2753674, "way_id": 217299146, "landuse": "farmland", "closest_distance_restriction": 5.913707354360419}, {"id": 4099017671, "lat": 51.1712689, "lon": 16.2748987, "way_id": 217299146, "landuse": "farmland", "closest_distance_restriction": 5.95697760913052}, {"id": 4099017827, "lat": 51.1717237, "lon": 16.274124, "way_id": 217299146, "landuse": "farmland", "closest_distance_restriction": 6.030791405551383}, {"id": 4099017837, "lat": 51.1720082, "lon": 16.2738846, "way_id": 217299146, "landuse": "farmland", "closest_distance_restriction": 6.063730273754103}, {"id": 4099017844, "lat": 51.1720161, "lon": 16.2738225, "way_id": 217299146, "landuse": "farmland", "closest_distance_restriction": 6.067636996316767}, {"id": 4099017871, "lat": 51.1721934, "lon": 16.27353, "way_id": 217299146, "landuse": "farmland", "closest_distance_restriction": 6.0959044272918215}, {"id": 4099019050, "lat": 51.1796615, "lon": 16.2830771, "way_id": 217299146, "landuse": "farmland", "closest_distance_restriction": 6.199146342813211}, {"id": 4099019080, "lat": 51.1800999, "lon": 16.2832093, "way_id": 217299146, "landuse": "farmland", "closest_distance_restriction": 6.230150009574264}, {"id": 4099019088, "lat": 51.1801422, "lon": 16.2850486, "way_id": 217299146, "landuse": "farmland", "closest_distance_restriction": 6.151391828918271}, {"id": 4099019201, "lat": 51.1802357, "lon": 16.2832646, "way_id": 217299146, "landuse": "farmland", "closest_distance_restriction": 6.239155299564342}, {"id": 4099019226, "lat": 51.1803712, "lon": 16.274956, "way_id": 217299146, "landuse": "farmland", "closest_distance_restriction": 6.639486010028896}, {"id": 4099019249, "lat": 51.1807205, "lon": 16.2734664, "way_id": 217299146, "landuse": "farmland", "closest_distance_restriction": 6.739770033980153}, {"id": 4099019495, "lat": 51.18129, "lon": 16.2702364, "way_id": 217299146, "landuse": "farmland", "closest_distance_restriction": 6.943645814732081}, {"id": 4099019513, "lat": 51.1816718, "lon": 16.2733208, "way_id": 217299146, "landuse": "farmland", "closest_distance_restriction": 6.822700534951518}, {"id": 4099902833, "lat": 51.1719256, "lon": 16.2738275, "way_id": 217299146, "landuse": "farmland", "closest_distance_restriction": 6.0609995620029835}, {"id": 4187373469, "lat": 51.0855609, "lon": 16.1844911, "way_id": 625468436, "landuse": "farmland", "closest_distance_restriction": 1.5657050105923889}, {"id": 4187373471, "lat": 51.0860475, "lon": 16.1843546, "way_id": 625468436, "landuse": "farmland", "closest_distance_restriction": 1.574372246261877}, {"id": 4187373474, "lat": 51.0865614, "lon": 16.1842331, "way_id": 625468436, "landuse": "farmland", "closest_distance_restriction": 1.5781543165612404}, {"id": 4187373478, "lat": 51.0871198, "lon": 16.1840763, "way_id": 625468436, "landuse": "farmland", "closest_distance_restriction": 1.575546123428156}, {"id": 4187373484, "lat": 51.087404, "lon": 16.1838143, "way_id": 625468436, "landuse": "farmland", "closest_distance_restriction": 1.5877176517563}, {"id": 4412325062, "lat": 51.0922833, "lon": 16.3432639, "way_id": 443676600, "landuse": "farmland", "closest_distance_restriction": 1.6070792551890614}, {"id": 4412325063, "lat": 51.0922523, "lon": 16.3443237, "way_id": 443676600, "landuse": "farmland", "closest_distance_restriction": 1.6087742176292859}, {"id": 4412325064, "lat": 51.0922446, "lon": 16.3450139, "way_id": 443676600, "landuse": "farmland", "closest_distance_restriction": 1.6012266901692194}, {"id": 4412325065, "lat": 51.0921904, "lon": 16.3455931, "way_id": 443676600, "landuse": "farmland", "closest_distance_restriction": 1.5839492660829864}, {"id": 4526537149, "lat": 51.136923, "lon": 16.4649715, "way_id": 457682851, "landuse": "farmland", "closest_distance_restriction": 2.3667208457636}, {"id": 4526537153, "lat": 51.1372021, "lon": 16.4636839, "way_id": 457682851, "landuse": "farmland", "closest_distance_restriction": 2.3115171598450956}, {"id": 4526537154, "lat": 51.137371, "lon": 16.4588849, "way_id": 457682851, "landuse": "farmland", "closest_distance_restriction": 2.0642242495465264}, {"id": 4526537156, "lat": 51.1374922, "lon": 16.4614951, "way_id": 457682851, "landuse": "farmland", "closest_distance_restriction": 2.2107954478490477}, {"id": 4526537157, "lat": 51.1375179, "lon": 16.4596223, "way_id": 457682851, "landuse": "farmland", "closest_distance_restriction": 2.1133767587072363}, {"id": 4526537158, "lat": 51.1375877, "lon": 16.4603831, "way_id": 457682851, "landuse": "farmland", "closest_distance_restriction": 2.158362073575196}, {"id": 4526537161, "lat": 51.1377419, "lon": 16.4576266, "way_id": 457682851, "landuse": "farmland", "closest_distance_restriction": 2.0290847633747977}, {"id": 4526537164, "lat": 51.1379843, "lon": 16.4557772, "way_id": 457682851, "landuse": "farmland", "closest_distance_restriction": 1.9597502502483477}, {"id": 4526537169, "lat": 51.1382854, "lon": 16.4655275, "way_id": 457682851, "landuse": "farmland", "closest_distance_restriction": 2.4866110864540043}, {"id": 4526537176, "lat": 51.1390896, "lon": 16.465785, "way_id": 457682851, "landuse": "farmland", "closest_distance_restriction": 2.5553522956059638}, {"id": 4526537182, "lat": 51.1394274, "lon": 16.465943, "way_id": 457682851, "landuse": "farmland", "closest_distance_restriction": 2.5873529146274863}, {"id": 4526537188, "lat": 51.1398534, "lon": 16.4665458, "way_id": 457682851, "landuse": "farmland", "closest_distance_restriction": 2.6498177092621114}, {"id": 4526538691, "lat": 51.1403124, "lon": 16.467652, "way_id": 457682851, "landuse": "farmland", "closest_distance_restriction": 2.7419342880014956}, {"id": 4526538699, "lat": 51.1411055, "lon": 16.4692087, "way_id": 457682851, "landuse": "farmland", "closest_distance_restriction": 2.88183174164335}, {"id": 4526538706, "lat": 51.1417701, "lon": 16.4702037, "way_id": 457682851, "landuse": "farmland", "closest_distance_restriction": 2.9822653172398446}, {"id": 4526538716, "lat": 51.1427945, "lon": 16.4713683, "way_id": 457682851, "landuse": "farmland", "closest_distance_restriction": 3.117348496942036}, {"id": 4526538728, "lat": 51.1438043, "lon": 16.4720531, "way_id": 457682851, "landuse": "farmland", "closest_distance_restriction": 3.226349738434329}, {"id": 4526538735, "lat": 51.1443734, "lon": 16.4726091, "way_id": 457682851, "landuse": "farmland", "closest_distance_restriction": 3.297110296754273}, {"id": 4526538755, "lat": 51.1458457, "lon": 16.4685181, "way_id": 457682851, "landuse": "farmland", "closest_distance_restriction": 3.204942510583727}, {"id": 4531501200, "lat": 51.1394989, "lon": 16.4564791, "way_id": 457682851, "landuse": "farmland", "closest_distance_restriction": 2.119160969527315}, {"id": 4531514302, "lat": 51.1396181, "lon": 16.4521503, "way_id": 457682851, "landuse": "farmland", "closest_distance_restriction": 1.950677112778717}, {"id": 4531514348, "lat": 51.1473513, "lon": 16.4629768, "way_id": 457682851, "landuse": "farmland", "closest_distance_restriction": 3.0871927959363705}, {"id": 4531514354, "lat": 51.1480033, "lon": 16.4394784, "way_id": 457682851, "landuse": "farmland", "closest_distance_restriction": 2.532684815594665}, {"id": 4531514359, "lat": 51.1487831, "lon": 16.4635523, "way_id": 457682851, "landuse": "farmland", "closest_distance_restriction": 3.240240340104472}, {"id": 4531514360, "lat": 51.1489279, "lon": 16.4407414, "way_id": 457682851, "landuse": "farmland", "closest_distance_restriction": 2.645098312690906}, {"id": 4531514362, "lat": 51.1489936, "lon": 16.4381233, "way_id": 457682851, "landuse": "farmland", "closest_distance_restriction": 2.6346532800867233}, {"id": 4531514370, "lat": 51.149391, "lon": 16.4253924, "way_id": 457682851, "landuse": "farmland", "closest_distance_restriction": 2.769878635929837}, {"id": 4531514372, "lat": 51.149523, "lon": 16.4406106, "way_id": 457682851, "landuse": "farmland", "closest_distance_restriction": 2.709557071375723}, {"id": 4531514373, "lat": 51.1497204, "lon": 16.4613618, "way_id": 457682851, "landuse": "farmland", "closest_distance_restriction": 3.2437373045174884}, {"id": 4531514377, "lat": 51.1504927, "lon": 16.4391168, "way_id": 457682851, "landuse": "farmland", "closest_distance_restriction": 2.805966442042309}, {"id": 4531514378, "lat": 51.1505928, "lon": 16.4324561, "way_id": 457682851, "landuse": "farmland", "closest_distance_restriction": 2.816795431841421}, {"id": 4531514379, "lat": 51.1506066, "lon": 16.4270864, "way_id": 457682851, "landuse": "farmland", "closest_distance_restriction": 2.873362465570415}, {"id": 4531514382, "lat": 51.1509884, "lon": 16.4448917, "way_id": 457682851, "landuse": "farmland", "closest_distance_restriction": 2.9215726696707462}, {"id": 4531514383, "lat": 51.1510631, "lon": 16.4394627, "way_id": 457682851, "landuse": "farmland", "closest_distance_restriction": 2.8712444566171396}, {"id": 4531514384, "lat": 51.1511943, "lon": 16.4506967, "way_id": 457682851, "landuse": "farmland", "closest_distance_restriction": 3.057214472643421}, {"id": 4531514385, "lat": 51.1513454, "lon": 16.4564209, "way_id": 457682851, "landuse": "farmland", "closest_distance_restriction": 3.230338396245157}, {"id": 4531514389, "lat": 51.1517609, "lon": 16.4532941, "way_id": 457682851, "landuse": "farmland", "closest_distance_restriction": 3.1816856573385275}, {"id": 4531514391, "lat": 51.1519912, "lon": 16.4469196, "way_id": 457682851, "landuse": "farmland", "closest_distance_restriction": 3.06335006904621}, {"id": 4531519034, "lat": 51.1481587, "lon": 16.4256893, "way_id": 457682851, "landuse": "farmland", "closest_distance_restriction": 2.6322498874913713}, {"id": 4531519035, "lat": 51.1482855, "lon": 16.422888, "way_id": 457682851, "landuse": "farmland", "closest_distance_restriction": 2.7043348017286077}, {"id": 4531519038, "lat": 51.1483606, "lon": 16.402512, "way_id": 457682851, "landuse": "farmland", "closest_distance_restriction": 2.968630140983024}, {"id": 4531519052, "lat": 51.1488162, "lon": 16.4026654, "way_id": 457682851, "landuse": "farmland", "closest_distance_restriction": 3.0155446868365123}, {"id": 4531519060, "lat": 51.1490338, "lon": 16.4027413, "way_id": 457682851, "landuse": "farmland", "closest_distance_restriction": 3.0379670147594027}, {"id": 4531519061, "lat": 51.1492223, "lon": 16.4028334, "way_id": 457682851, "landuse": "farmland", "closest_distance_restriction": 3.0570219078053116}, {"id": 4531519070, "lat": 51.1514596, "lon": 16.4195122, "way_id": 457682851, "landuse": "farmland", "closest_distance_restriction": 3.117228420760543}, {"id": 4531519071, "lat": 51.1516275, "lon": 16.4174192, "way_id": 457682851, "landuse": "farmland", "closest_distance_restriction": 3.190350625030925}, {"id": 4531519072, "lat": 51.1516686, "lon": 16.4036116, "way_id": 457682851, "landuse": "farmland", "closest_distance_restriction": 3.3120045368347397}, {"id": 4531519073, "lat": 51.1518668, "lon": 16.415551, "way_id": 457682851, "landuse": "farmland", "closest_distance_restriction": 3.2688195650608276}, {"id": 4531519100, "lat": 51.1410864, "lon": 16.4052532, "way_id": 457682851, "landuse": "farmland", "closest_distance_restriction": 2.137479701432715}, {"id": 4531519105, "lat": 51.1413061, "lon": 16.4215252, "way_id": 457682851, "landuse": "farmland", "closest_distance_restriction": 2.0338570504912186}, {"id": 4531519106, "lat": 51.1413774, "lon": 16.4060584, "way_id": 457682851, "landuse": "farmland", "closest_distance_restriction": 2.156919963185698}, {"id": 4531519107, "lat": 51.141601, "lon": 16.4038218, "way_id": 457682851, "landuse": "farmland", "closest_distance_restriction": 2.217759879307354}, {"id": 4531519111, "lat": 51.1416903, "lon": 16.411516, "way_id": 457682851, "landuse": "farmland", "closest_distance_restriction": 2.143298392166325}, {"id": 4531519112, "lat": 51.1417871, "lon": 16.4155597, "way_id": 457682851, "landuse": "farmland", "closest_distance_restriction": 2.161504374732379}, {"id": 4531519113, "lat": 51.1418024, "lon": 16.4069089, "way_id": 457682851, "landuse": "farmland", "closest_distance_restriction": 2.1919610630414446}, {"id": 4531519114, "lat": 51.1418073, "lon": 16.4092189, "way_id": 457682851, "landuse": "farmland", "closest_distance_restriction": 2.168472979893477}, {"id": 4531519115, "lat": 51.1418867, "lon": 16.4031426, "way_id": 457682851, "landuse": "farmland", "closest_distance_restriction": 2.2613358000358335}, {"id": 4531519116, "lat": 51.14201, "lon": 16.4073264, "way_id": 457682851, "landuse": "farmland", "closest_distance_restriction": 2.2095010514687696}, {"id": 4531519118, "lat": 51.142217, "lon": 16.4026399, "way_id": 457682851, "landuse": "farmland", "closest_distance_restriction": 2.306601889046897}, {"id": 4531519122, "lat": 51.142966, "lon": 16.401876, "way_id": 457682851, "landuse": "farmland", "closest_distance_restriction": 2.401981441379616}, {"id": 4531519123, "lat": 51.1432851, "lon": 16.4014503, "way_id": 457682851, "landuse": "farmland", "closest_distance_restriction": 2.4448597710460915}, {"id": 4531519129, "lat": 51.1438301, "lon": 16.4009736, "way_id": 457682851, "landuse": "farmland", "closest_distance_restriction": 2.512817175906853}, {"id": 4531519130, "lat": 51.1440353, "lon": 16.4009885, "way_id": 457682851, "landuse": "farmland", "closest_distance_restriction": 2.5341599052373285}, {"id": 4531519137, "lat": 51.1444969, "lon": 16.4011621, "way_id": 457682851, "landuse": "farmland", "closest_distance_restriction": 2.5793000377552353}, {"id": 4531519147, "lat": 51.145409, "lon": 16.4015473, "way_id": 457682851, "landuse": "farmland", "closest_distance_restriction": 2.6684846503212927}, {"id": 4531519151, "lat": 51.1457917, "lon": 16.4016997, "way_id": 457682851, "landuse": "farmland", "closest_distance_restriction": 2.706417052767835}, {"id": 4531519157, "lat": 51.1463307, "lon": 16.401866, "way_id": 457682851, "landuse": "farmland", "closest_distance_restriction": 2.761028007723975}, {"id": 4531519159, "lat": 51.1467457, "lon": 16.4020217, "way_id": 457682851, "landuse": "farmland", "closest_distance_restriction": 2.8027615313391143}, {"id": 4531519164, "lat": 51.1471558, "lon": 16.402119, "way_id": 457682851, "landuse": "farmland", "closest_distance_restriction": 2.8451607160774866}, {"id": 4531519170, "lat": 51.1474183, "lon": 16.4022187, "way_id": 457682851, "landuse": "farmland", "closest_distance_restriction": 2.871718626302449}, {"id": 4531519181, "lat": 51.1479708, "lon": 16.4024136, "way_id": 457682851, "landuse": "farmland", "closest_distance_restriction": 2.9280801479959067}, {"id": 4531525427, "lat": 51.1415375, "lon": 16.4034069, "way_id": 457047457, "landuse": "farmland", "closest_distance_restriction": 2.2188865371090403}, {"id": 4531525433, "lat": 51.1421117, "lon": 16.4024087, "way_id": 457047457, "landuse": "farmland", "closest_distance_restriction": 2.3002015665336786}, {"id": 4531525441, "lat": 51.1426717, "lon": 16.4017892, "way_id": 457047457, "landuse": "farmland", "closest_distance_restriction": 2.372684252457063}, {"id": 4531525444, "lat": 51.1429937, "lon": 16.3945526, "way_id": 457047457, "landuse": "farmland", "closest_distance_restriction": 2.514266702059576}, {"id": 4531525446, "lat": 51.1433735, "lon": 16.3922871, "way_id": 457047457, "landuse": "farmland", "closest_distance_restriction": 2.3673776333012064}, {"id": 4531525447, "lat": 51.1433874, "lon": 16.4011309, "way_id": 457047457, "landuse": "farmland", "closest_distance_restriction": 2.4626449934852657}, {"id": 4531525451, "lat": 51.1438206, "lon": 16.4007496, "way_id": 457047457, "landuse": "farmland", "closest_distance_restriction": 2.5167800529494415}, {"id": 4531525452, "lat": 51.1441222, "lon": 16.4007356, "way_id": 457047457, "landuse": "farmland", "closest_distance_restriction": 2.548878697961474}, {"id": 4531525456, "lat": 51.1444932, "lon": 16.4008708, "way_id": 457047457, "landuse": "farmland", "closest_distance_restriction": 2.58511064034999}, {"id": 4531525458, "lat": 51.1447128, "lon": 16.4009493, "way_id": 457047457, "landuse": "farmland", "closest_distance_restriction": 2.606675650178087}, {"id": 4531525462, "lat": 51.145305, "lon": 16.401186, "way_id": 457047457, "landuse": "farmland", "closest_distance_restriction": 2.6646233158817556}, {"id": 4531525465, "lat": 51.1466186, "lon": 16.384471, "way_id": 457047457, "landuse": "farmland", "closest_distance_restriction": 1.8804952348861006}, {"id": 4531525466, "lat": 51.1471281, "lon": 16.4018289, "way_id": 457047457, "landuse": "farmland", "closest_distance_restriction": 2.8473095989155794}, {"id": 4531525467, "lat": 51.1479775, "lon": 16.4020792, "way_id": 457047457, "landuse": "farmland", "closest_distance_restriction": 2.934392152260508}, {"id": 4531525468, "lat": 51.1480965, "lon": 16.3854075, "way_id": 457047457, "landuse": "farmland", "closest_distance_restriction": 1.9820142967113843}, {"id": 4531525469, "lat": 51.1486273, "lon": 16.3875379, "way_id": 457047457, "landuse": "farmland", "closest_distance_restriction": 2.1410469621479935}, {"id": 4531525470, "lat": 51.1488788, "lon": 16.3892245, "way_id": 457047457, "landuse": "farmland", "closest_distance_restriction": 2.2618554351303404}, {"id": 4531525471, "lat": 51.149226, "lon": 16.3905167, "way_id": 457047457, "landuse": "farmland", "closest_distance_restriction": 2.3591286976786305}, {"id": 4531525472, "lat": 51.1493698, "lon": 16.4025651, "way_id": 457047457, "landuse": "farmland", "closest_distance_restriction": 3.07711859199447}, {"id": 4531525473, "lat": 51.1496514, "lon": 16.3926652, "way_id": 457047457, "landuse": "farmland", "closest_distance_restriction": 2.516233091968737}, {"id": 4531525474, "lat": 51.1497163, "lon": 16.3866122, "way_id": 457047457, "landuse": "farmland", "closest_distance_restriction": 2.1164630991942435}, {"id": 4531525475, "lat": 51.1499173, "lon": 16.3934184, "way_id": 457047457, "landuse": "farmland", "closest_distance_restriction": 2.5749665209057384}, {"id": 4531525476, "lat": 51.150073, "lon": 16.3883865, "way_id": 457047457, "landuse": "farmland", "closest_distance_restriction": 2.2463621862372585}, {"id": 4531525477, "lat": 51.1502225, "lon": 16.383595, "way_id": 457047457, "landuse": "farmland", "closest_distance_restriction": 1.9409616308331687}, {"id": 4531525478, "lat": 51.1502243, "lon": 16.4027991, "way_id": 457047457, "landuse": "farmland", "closest_distance_restriction": 3.166393171686569}, {"id": 4531525479, "lat": 51.1504439, "lon": 16.3953691, "way_id": 457047457, "landuse": "farmland", "closest_distance_restriction": 2.722110813897499}, {"id": 4531525480, "lat": 51.1505716, "lon": 16.3960676, "way_id": 457047457, "landuse": "farmland", "closest_distance_restriction": 2.7728554077895002}, {"id": 4531525481, "lat": 51.1507859, "lon": 16.3968262, "way_id": 457047457, "landuse": "farmland", "closest_distance_restriction": 2.8304129696381777}, {"id": 4531525482, "lat": 51.1508766, "lon": 16.3971471, "way_id": 457047457, "landuse": "farmland", "closest_distance_restriction": 2.8547679670149075}, {"id": 4531525483, "lat": 51.1509819, "lon": 16.4030688, "way_id": 457047457, "landuse": "farmland", "closest_distance_restriction": 3.245019985603669}, {"id": 4531525519, "lat": 51.151555, "lon": 16.3979254, "way_id": 457047457, "landuse": "farmland", "closest_distance_restriction": 2.9293365973735233}, {"id": 4531525532, "lat": 51.1517005, "lon": 16.4140841, "way_id": 457682851, "landuse": "farmland", "closest_distance_restriction": 3.256119670293615}, {"id": 4531525533, "lat": 51.1518777, "lon": 16.4033184, "way_id": 457047457, "landuse": "farmland", "closest_distance_restriction": 3.2989849718141424}, {"id": 4531525534, "lat": 51.1519333, "lon": 16.4036877, "way_id": 457682851, "landuse": "farmland", "closest_distance_restriction": 3.3254330511623533}, {"id": 4531525535, "lat": 51.1520614, "lon": 16.4037187, "way_id": 457682851, "landuse": "farmland", "closest_distance_restriction": 3.3316197201889493}, {"id": 4531525536, "lat": 51.1521128, "lon": 16.4131982, "way_id": 457682851, "landuse": "farmland", "closest_distance_restriction": 3.300744479450669}, {"id": 4531525537, "lat": 51.1522255, "lon": 16.381345, "way_id": 457047457, "landuse": "farmland", "closest_distance_restriction": 1.9033234888415307}, {"id": 4531525538, "lat": 51.1524505, "lon": 16.3989528, "way_id": 457047457, "landuse": "farmland", "closest_distance_restriction": 3.0293241302211884}, {"id": 4531525539, "lat": 51.152566, "lon": 16.4113239, "way_id": 457682851, "landuse": "farmland", "closest_distance_restriction": 3.3523883286231997}, {"id": 4531525540, "lat": 51.1528182, "lon": 16.4039726, "way_id": 457682851, "landuse": "farmland", "closest_distance_restriction": 3.373883066550127}, {"id": 4531525541, "lat": 51.1528632, "lon": 16.4100946, "way_id": 457682851, "landuse": "farmland", "closest_distance_restriction": 3.388976173059065}, {"id": 4531525542, "lat": 51.1529305, "lon": 16.3999104, "way_id": 457047457, "landuse": "farmland", "closest_distance_restriction": 3.1102382029027944}, {"id": 4531525543, "lat": 51.1529386, "lon": 16.4034989, "way_id": 457047457, "landuse": "farmland", "closest_distance_restriction": 3.3467541465587005}, {"id": 4531525544, "lat": 51.1531022, "lon": 16.3847644, "way_id": 457047457, "landuse": "farmland", "closest_distance_restriction": 2.1581487396148975}, {"id": 4531525545, "lat": 51.153411, "lon": 16.3854071, "way_id": 457047457, "landuse": "farmland", "closest_distance_restriction": 2.214173721682318}, {"id": 4531525546, "lat": 51.1534778, "lon": 16.4007558, "way_id": 457047457, "landuse": "farmland", "closest_distance_restriction": 3.186701233389009}, {"id": 4531525547, "lat": 51.1535103, "lon": 16.4074615, "way_id": 457682851, "landuse": "farmland", "closest_distance_restriction": 3.475400366526662}, {"id": 4531525548, "lat": 51.1538347, "lon": 16.4011919, "way_id": 457047457, "landuse": "farmland", "closest_distance_restriction": 3.229291831999036}, {"id": 4531525549, "lat": 51.1539584, "lon": 16.4044486, "way_id": 457682851, "landuse": "farmland", "closest_distance_restriction": 3.446760490548848}, {"id": 4531525550, "lat": 51.1541244, "lon": 16.4040002, "way_id": 457047457, "landuse": "farmland", "closest_distance_restriction": 3.4238111945921714}, {"id": 4531525551, "lat": 51.1542336, "lon": 16.4018177, "way_id": 457047457, "landuse": "farmland", "closest_distance_restriction": 3.2861121546488063}, {"id": 4531525552, "lat": 51.1543065, "lon": 16.4038659, "way_id": 457047457, "landuse": "farmland", "closest_distance_restriction": 3.422197470667037}, {"id": 4531525553, "lat": 51.1543072, "lon": 16.404611, "way_id": 457682851, "landuse": "farmland", "closest_distance_restriction": 3.4708335194599416}, {"id": 4531525554, "lat": 51.1544252, "lon": 16.4022871, "way_id": 457047457, "landuse": "farmland", "closest_distance_restriction": 3.3244056233690595}, {"id": 4531525555, "lat": 51.1544144, "lon": 16.4024797, "way_id": 457047457, "landuse": "farmland", "closest_distance_restriction": 3.336442345583844}, {"id": 4531525556, "lat": 51.1545324, "lon": 16.4028841, "way_id": 457047457, "landuse": "farmland", "closest_distance_restriction": 3.3674983411226003}, {"id": 4531525607, "lat": 51.1514129, "lon": 16.3791105, "way_id": 457047457, "landuse": "farmland", "closest_distance_restriction": 1.7232146021511112}, {"id": 4531525613, "lat": 51.1514409, "lon": 16.4143901, "way_id": 457682851, "landuse": "farmland", "closest_distance_restriction": 3.227965455655382}, {"id": 4531527533, "lat": 51.1392538, "lon": 16.4022962, "way_id": 457047457, "landuse": "farmland", "closest_distance_restriction": 2.0021013344065617}, {"id": 4531527536, "lat": 51.1408327, "lon": 16.4028555, "way_id": 457047457, "landuse": "farmland", "closest_distance_restriction": 2.1552273752584465}, {"id": 4531527537, "lat": 51.1415487, "lon": 16.4029445, "way_id": 457047457, "landuse": "farmland", "closest_distance_restriction": 2.229325280482588}, {"id": 4531527538, "lat": 51.1418613, "lon": 16.3944634, "way_id": 457047457, "landuse": "farmland", "closest_distance_restriction": 2.474871663817767}, {"id": 4531527539, "lat": 51.142728, "lon": 16.3896623, "way_id": 457047457, "landuse": "farmland", "closest_distance_restriction": 2.173575594882528}, {"id": 4531527540, "lat": 51.142947, "lon": 16.3948291, "way_id": 457047457, "landuse": "farmland", "closest_distance_restriction": 2.5323279023413336}, {"id": 4531527541, "lat": 51.1431333, "lon": 16.3902335, "way_id": 457047457, "landuse": "farmland", "closest_distance_restriction": 2.221697963139846}, {"id": 4531527542, "lat": 51.1431865, "lon": 16.3875483, "way_id": 457047457, "landuse": "farmland", "closest_distance_restriction": 2.040283896305885}, {"id": 4531527543, "lat": 51.1438216, "lon": 16.3864083, "way_id": 457047457, "landuse": "farmland", "closest_distance_restriction": 1.9806885970422659}, {"id": 4531527544, "lat": 51.1438474, "lon": 16.3908927, "way_id": 457047457, "landuse": "farmland", "closest_distance_restriction": 2.284330484836969}, {"id": 4531527546, "lat": 51.1443967, "lon": 16.3857937, "way_id": 457047457, "landuse": "farmland", "closest_distance_restriction": 1.9406492666547335}, {"id": 4531527547, "lat": 51.1445581, "lon": 16.3827183, "way_id": 457047457, "landuse": "farmland", "closest_distance_restriction": 1.7278688542031775}, {"id": 4531527553, "lat": 51.1460255, "lon": 16.3835234, "way_id": 457047457, "landuse": "farmland", "closest_distance_restriction": 1.8036088256566631}, {"id": 4531527558, "lat": 51.1465706, "lon": 16.3844207, "way_id": 457047457, "landuse": "farmland", "closest_distance_restriction": 1.8760238744221156}, {"id": 4531527560, "lat": 51.1466976, "lon": 16.3838694, "way_id": 457047457, "landuse": "farmland", "closest_distance_restriction": 1.8411056064460245}, {"id": 4531548857, "lat": 51.1354702, "lon": 16.4037879, "way_id": 457047457, "landuse": "farmland", "closest_distance_restriction": 1.5722910707646651}, {"id": 4531548859, "lat": 51.1355669, "lon": 16.4046658, "way_id": 457047457, "landuse": "farmland", "closest_distance_restriction": 1.560259740585701}, {"id": 4531548878, "lat": 51.1378216, "lon": 16.3906576, "way_id": 457047457, "landuse": "farmland", "closest_distance_restriction": 2.0085754288351443}, {"id": 4531548882, "lat": 51.1382979, "lon": 16.4030337, "way_id": 457047457, "landuse": "farmland", "closest_distance_restriction": 1.8845683268421962}, {"id": 4531548884, "lat": 51.1384253, "lon": 16.4019452, "way_id": 457047457, "landuse": "farmland", "closest_distance_restriction": 1.9251072310116013}, {"id": 4531548888, "lat": 51.1390244, "lon": 16.3897558, "way_id": 457047457, "landuse": "farmland", "closest_distance_restriction": 2.1285988538337497}, {"id": 4531549055, "lat": 51.1396348, "lon": 16.3919053, "way_id": 457047457, "landuse": "farmland", "closest_distance_restriction": 2.212928961384853}, {"id": 4531549056, "lat": 51.1401037, "lon": 16.3904209, "way_id": 457047457, "landuse": "farmland", "closest_distance_restriction": 2.189149573261365}, {"id": 4531549060, "lat": 51.1404246, "lon": 16.3941997, "way_id": 457047457, "landuse": "farmland", "closest_distance_restriction": 2.3140632505216097}, {"id": 4531549065, "lat": 51.1405893, "lon": 16.3890075, "way_id": 457047457, "landuse": "farmland", "closest_distance_restriction": 2.094753965206282}, {"id": 4531549066, "lat": 51.1405884, "lon": 16.3928596, "way_id": 457047457, "landuse": "farmland", "closest_distance_restriction": 2.3230404150503237}, {"id": 4531549081, "lat": 51.1414253, "lon": 16.3902743, "way_id": 457047457, "landuse": "farmland", "closest_distance_restriction": 2.1925667395138366}, {"id": 4531549390, "lat": 51.1394135, "lon": 16.3899378, "way_id": 457047457, "landuse": "farmland", "closest_distance_restriction": 2.152268635982647}, {"id": 4532556033, "lat": 51.1361625, "lon": 16.3855066, "way_id": 457047457, "landuse": "farmland", "closest_distance_restriction": 1.7827701635983815}, {"id": 4532556036, "lat": 51.1370518, "lon": 16.38915, "way_id": 457047457, "landuse": "farmland", "closest_distance_restriction": 1.9053125440947758}, {"id": 4532556037, "lat": 51.1371112, "lon": 16.3873431, "way_id": 457047457, "landuse": "farmland", "closest_distance_restriction": 1.8959037283622209}, {"id": 4533226064, "lat": 51.1356514, "lon": 16.4047522, "way_id": 457047457, "landuse": "farmland", "closest_distance_restriction": 1.5670535416146634}, {"id": 4533226099, "lat": 51.1363135, "lon": 16.4088306, "way_id": 457047457, "landuse": "farmland", "closest_distance_restriction": 1.5674670914533717}, {"id": 4533226106, "lat": 51.1368412, "lon": 16.4093747, "way_id": 457047457, "landuse": "farmland", "closest_distance_restriction": 1.6193795525109442}, {"id": 4533226117, "lat": 51.1371942, "lon": 16.4090184, "way_id": 457047457, "landuse": "farmland", "closest_distance_restriction": 1.6619143912301744}, {"id": 4533226118, "lat": 51.1372357, "lon": 16.4088141, "way_id": 457047457, "landuse": "farmland", "closest_distance_restriction": 1.6687429280359978}, {"id": 4533226119, "lat": 51.1372942, "lon": 16.4087523, "way_id": 457047457, "landuse": "farmland", "closest_distance_restriction": 1.6758680291133674}, {"id": 4533226121, "lat": 51.1374229, "lon": 16.408786, "way_id": 457047457, "landuse": "farmland", "closest_distance_restriction": 1.6895998234676604}, {"id": 4533226131, "lat": 51.1377938, "lon": 16.4084462, "way_id": 457047457, "landuse": "farmland", "closest_distance_restriction": 1.7342276255065727}, {"id": 4533226139, "lat": 51.1381489, "lon": 16.4034385, "way_id": 457047457, "landuse": "farmland", "closest_distance_restriction": 1.8594238020528793}, {"id": 4533226146, "lat": 51.1383263, "lon": 16.408049, "way_id": 457047457, "landuse": "farmland", "closest_distance_restriction": 1.7974053148977762}, {"id": 4533226149, "lat": 51.1384571, "lon": 16.4045659, "way_id": 457047457, "landuse": "farmland", "closest_distance_restriction": 1.8675118397069794}, {"id": 4533226153, "lat": 51.138546, "lon": 16.4078231, "way_id": 457047457, "landuse": "farmland", "closest_distance_restriction": 1.8243223679092622}, {"id": 4533226171, "lat": 51.138796, "lon": 16.4075559, "way_id": 457047457, "landuse": "farmland", "closest_distance_restriction": 1.8551682576055155}, {"id": 4533226291, "lat": 51.1484252, "lon": 16.4220428, "way_id": 457682851, "landuse": "farmland", "closest_distance_restriction": 2.7390399948768103}, {"id": 4533226292, "lat": 51.1491798, "lon": 16.4221257, "way_id": 457682851, "landuse": "farmland", "closest_distance_restriction": 2.8158462209671082}, {"id": 4533226294, "lat": 51.1499892, "lon": 16.4224578, "way_id": 457682851, "landuse": "farmland", "closest_distance_restriction": 2.893192227339638}, {"id": 4533226297, "lat": 51.1508416, "lon": 16.4221828, "way_id": 457682851, "landuse": "farmland", "closest_distance_restriction": 2.989141682484683}, {"id": 4533226299, "lat": 51.1514795, "lon": 16.4215665, "way_id": 457682851, "landuse": "farmland", "closest_distance_restriction": 3.0700972442445082}, {"id": 4533310690, "lat": 51.1367516, "lon": 16.421678, "way_id": 457682851, "landuse": "farmland", "closest_distance_restriction": 1.6045359458975286}, {"id": 4533310697, "lat": 51.1368983, "lon": 16.4213691, "way_id": 457682851, "landuse": "farmland", "closest_distance_restriction": 1.6306475128570774}, {"id": 4533310705, "lat": 51.1370633, "lon": 16.4189261, "way_id": 457682851, "landuse": "farmland", "closest_distance_restriction": 1.6837708112172483}, {"id": 4533310706, "lat": 51.1370425, "lon": 16.4210566, "way_id": 457682851, "landuse": "farmland", "closest_distance_restriction": 1.6567258546289296}, {"id": 4533310710, "lat": 51.1370979, "lon": 16.4195587, "way_id": 457682851, "landuse": "farmland", "closest_distance_restriction": 1.6993511901308413}, {"id": 4533310711, "lat": 51.1371259, "lon": 16.4203618, "way_id": 457682851, "landuse": "farmland", "closest_distance_restriction": 1.694345733537989}, {"id": 4533310714, "lat": 51.1371828, "lon": 16.4182783, "way_id": 457682851, "landuse": "farmland", "closest_distance_restriction": 1.6856455927636442}, {"id": 4533310721, "lat": 51.1374018, "lon": 16.4175726, "way_id": 457682851, "landuse": "farmland", "closest_distance_restriction": 1.6988589456986023}, {"id": 4533310740, "lat": 51.1376114, "lon": 16.4169983, "way_id": 457682851, "landuse": "farmland", "closest_distance_restriction": 1.714274731462206}, {"id": 4533310750, "lat": 51.1394602, "lon": 16.4203952, "way_id": 457682851, "landuse": "farmland", "closest_distance_restriction": 1.9008174090747814}, {"id": 4533310751, "lat": 51.1396971, "lon": 16.4211973, "way_id": 457682851, "landuse": "farmland", "closest_distance_restriction": 1.891976520217723}, {"id": 4533335159, "lat": 51.1268012, "lon": 16.4594805, "way_id": 457682851, "landuse": "farmland", "closest_distance_restriction": 1.5821166665284812}, {"id": 4533335160, "lat": 51.1268827, "lon": 16.4595513, "way_id": 457682851, "landuse": "farmland", "closest_distance_restriction": 1.588264323836901}, {"id": 4533335209, "lat": 51.1286554, "lon": 16.4592419, "way_id": 457682851, "landuse": "farmland", "closest_distance_restriction": 1.6069516234280832}, {"id": 4533335219, "lat": 51.1297261, "lon": 16.4604942, "way_id": 457682851, "landuse": "farmland", "closest_distance_restriction": 1.7249373623040845}, {"id": 4533335232, "lat": 51.1304914, "lon": 16.4619095, "way_id": 457682851, "landuse": "farmland", "closest_distance_restriction": 1.8460511808604594}, {"id": 4533335233, "lat": 51.1307102, "lon": 16.4619392, "way_id": 457682851, "landuse": "farmland", "closest_distance_restriction": 1.856373001814968}, {"id": 4533335236, "lat": 51.1310302, "lon": 16.4619133, "way_id": 457682851, "landuse": "farmland", "closest_distance_restriction": 1.8674381823738115}, {"id": 4533344874, "lat": 51.1334796, "lon": 16.4611137, "way_id": 457682851, "landuse": "farmland", "closest_distance_restriction": 1.934927916351278}, {"id": 4533344886, "lat": 51.1339273, "lon": 16.4600979, "way_id": 457682851, "landuse": "farmland", "closest_distance_restriction": 1.899585605633623}, {"id": 4533344887, "lat": 51.1339555, "lon": 16.460258, "way_id": 457682851, "landuse": "farmland", "closest_distance_restriction": 1.9107223079376814}, {"id": 4533346055, "lat": 51.1256348, "lon": 16.4610772, "way_id": 457144401, "landuse": "farmland", "closest_distance_restriction": 1.681045085563648}, {"id": 4533346072, "lat": 51.1259118, "lon": 16.4603836, "way_id": 457144401, "landuse": "farmland", "closest_distance_restriction": 1.634600623909666}, {"id": 4533346092, "lat": 51.1315026, "lon": 16.4612833, "way_id": 457682851, "landuse": "farmland", "closest_distance_restriction": 1.8469568825442306}, {"id": 4533353203, "lat": 51.1218923, "lon": 16.4626193, "way_id": 457144401, "landuse": "farmland", "closest_distance_restriction": 1.723229267938758}, {"id": 4533353207, "lat": 51.1239979, "lon": 16.4612719, "way_id": 457144401, "landuse": "farmland", "closest_distance_restriction": 1.6851255165970784}, {"id": 4533353312, "lat": 51.1207465, "lon": 16.4634052, "way_id": 457144401, "landuse": "farmland", "closest_distance_restriction": 1.762556083744213}, {"id": 4533376956, "lat": 51.1432899, "lon": 16.2757679, "way_id": 457147617, "landuse": "farmland", "closest_distance_restriction": 3.908459676789734}, {"id": 4533376962, "lat": 51.1463839, "lon": 16.2731412, "way_id": 457147617, "landuse": "farmland", "closest_distance_restriction": 4.263082617544309}, {"id": 4537387872, "lat": 51.0748877, "lon": 16.4550632, "way_id": 457627448, "landuse": "farmland", "closest_distance_restriction": 1.8588866703588023}, {"id": 4537387873, "lat": 51.0749013, "lon": 16.4551833, "way_id": 457627448, "landuse": "farmland", "closest_distance_restriction": 1.8552716689371607}, {"id": 4537387886, "lat": 51.07508, "lon": 16.4568616, "way_id": 457627448, "landuse": "farmland", "closest_distance_restriction": 1.8094441850983403}, {"id": 4537387927, "lat": 51.0753665, "lon": 16.4580129, "way_id": 457627448, "landuse": "farmland", "closest_distance_restriction": 1.763911998461843}, {"id": 4537387933, "lat": 51.0754244, "lon": 16.4556596, "way_id": 457627448, "landuse": "farmland", "closest_distance_restriction": 1.7906338875913919}, {"id": 4537387934, "lat": 51.0754213, "lon": 16.4591327, "way_id": 457627448, "landuse": "farmland", "closest_distance_restriction": 1.7473726343642775}, {"id": 4537387936, "lat": 51.0754674, "lon": 16.4609432, "way_id": 457627448, "landuse": "farmland", "closest_distance_restriction": 1.732570147891587}, {"id": 4537387939, "lat": 51.0754989, "lon": 16.462314, "way_id": 457627448, "landuse": "farmland", "closest_distance_restriction": 1.7268180360177903}, {"id": 4537387942, "lat": 51.0757553, "lon": 16.4554305, "way_id": 457627448, "landuse": "farmland", "closest_distance_restriction": 1.7590596305601398}, {"id": 4537387944, "lat": 51.0757453, "lon": 16.4520014, "way_id": 457627448, "landuse": "farmland", "closest_distance_restriction": 1.8367145073115747}, {"id": 4537387946, "lat": 51.0759463, "lon": 16.4618033, "way_id": 457627448, "landuse": "farmland", "closest_distance_restriction": 1.6779283174485162}, {"id": 4537387947, "lat": 51.0760723, "lon": 16.455808, "way_id": 457627448, "landuse": "farmland", "closest_distance_restriction": 1.7182650964051165}, {"id": 4537387949, "lat": 51.0761442, "lon": 16.4632805, "way_id": 457627448, "landuse": "farmland", "closest_distance_restriction": 1.6525682315946748}, {"id": 4537387950, "lat": 51.0762303, "lon": 16.4555294, "way_id": 457627448, "landuse": "farmland", "closest_distance_restriction": 1.7062672586377396}, {"id": 4537387951, "lat": 51.0763602, "lon": 16.4654336, "way_id": 457627448, "landuse": "farmland", "closest_distance_restriction": 1.6326925777832526}, {"id": 4537387954, "lat": 51.076582, "lon": 16.4558229, "way_id": 457627448, "landuse": "farmland", "closest_distance_restriction": 1.663174177290374}, {"id": 4537387955, "lat": 51.0766543, "lon": 16.4662019, "way_id": 457627448, "landuse": "farmland", "closest_distance_restriction": 1.6049998896140643}, {"id": 4537387956, "lat": 51.076734, "lon": 16.4557588, "way_id": 457627448, "landuse": "farmland", "closest_distance_restriction": 1.6480156013449723}, {"id": 4537387957, "lat": 51.0767192, "lon": 16.4558087, "way_id": 457627448, "landuse": "farmland", "closest_distance_restriction": 1.6486937675583302}, {"id": 4537387959, "lat": 51.0770332, "lon": 16.4556608, "way_id": 457627448, "landuse": "farmland", "closest_distance_restriction": 1.617778875342983}, {"id": 4537387960, "lat": 51.0771101, "lon": 16.4556683, "way_id": 457627448, "landuse": "farmland", "closest_distance_restriction": 1.609407748721612}, {"id": 4537387961, "lat": 51.0771076, "lon": 16.4557212, "way_id": 457627448, "landuse": "farmland", "closest_distance_restriction": 1.6086723108662513}, {"id": 4537387962, "lat": 51.0771078, "lon": 16.4557818, "way_id": 457627448, "landuse": "farmland", "closest_distance_restriction": 1.6075116647685255}, {"id": 4537387989, "lat": 51.0750993, "lon": 16.4564268, "way_id": 457627448, "landuse": "farmland", "closest_distance_restriction": 1.813554424709579}, {"id": 4537387991, "lat": 51.0751202, "lon": 16.4552881, "way_id": 457627448, "landuse": "farmland", "closest_distance_restriction": 1.829869273053414}, {"id": 4537387995, "lat": 51.0751507, "lon": 16.4557981, "way_id": 457627448, "landuse": "farmland", "closest_distance_restriction": 1.8178435083691906}, {"id": 4537387996, "lat": 51.0751626, "lon": 16.4571592, "way_id": 457627448, "landuse": "farmland", "closest_distance_restriction": 1.7964528541904035}, {"id": 4537388000, "lat": 51.0751622, "lon": 16.4540199, "way_id": 457627448, "landuse": "farmland", "closest_distance_restriction": 1.8499123996679727}, {"id": 4537388001, "lat": 51.0751969, "lon": 16.4556552, "way_id": 457627448, "landuse": "farmland", "closest_distance_restriction": 1.815243185797153}, {"id": 4537388009, "lat": 51.0753166, "lon": 16.457743, "way_id": 457627448, "landuse": "farmland", "closest_distance_restriction": 1.7724193637456094}, {"id": 4537512879, "lat": 51.0758536, "lon": 16.4516055, "way_id": 457627448, "landuse": "farmland", "closest_distance_restriction": 1.8273109525198055}, {"id": 4537513893, "lat": 51.0762198, "lon": 16.4501482, "way_id": 457627448, "landuse": "farmland", "closest_distance_restriction": 1.732688090555622}, {"id": 4537513900, "lat": 51.0767722, "lon": 16.4481163, "way_id": 457627448, "landuse": "farmland", "closest_distance_restriction": 1.6001059743481405}, {"id": 4537556714, "lat": 51.0758327, "lon": 16.4516723, "way_id": 457627448, "landuse": "farmland", "closest_distance_restriction": 1.832044963764145}, {"id": 4537604123, "lat": 51.1138574, "lon": 16.4604195, "way_id": 457144401, "landuse": "farmland", "closest_distance_restriction": 1.6291522574593538}, {"id": 4537604124, "lat": 51.1139548, "lon": 16.4593301, "way_id": 457144401, "landuse": "farmland", "closest_distance_restriction": 1.594572989405501}, {"id": 4537604127, "lat": 51.1150165, "lon": 16.4598335, "way_id": 457144401, "landuse": "farmland", "closest_distance_restriction": 1.5864230276636546}, {"id": 5104476010, "lat": 51.0397703, "lon": 16.1455768, "way_id": 524547360, "landuse": "farmland", "closest_distance_restriction": 1.5840982489458484}, {"id": 5104476019, "lat": 51.0405384, "lon": 16.1515021, "way_id": 524547360, "landuse": "farmland", "closest_distance_restriction": 1.6255665471084788}, {"id": 5104476020, "lat": 51.0400751, "lon": 16.1498906, "way_id": 524547360, "landuse": "farmland", "closest_distance_restriction": 1.7269964843236036}, {"id": 5104476621, "lat": 51.0397105, "lon": 16.1482316, "way_id": 524547360, "landuse": "farmland", "closest_distance_restriction": 1.7241007755815292}, {"id": 5104476622, "lat": 51.0390813, "lon": 16.1462969, "way_id": 524547360, "landuse": "farmland", "closest_distance_restriction": 1.6740652746308327}, {"id": 5905397653, "lat": 50.9650717, "lon": 16.1954723, "way_id": 628061313, "landuse": "farmland", "closest_distance_restriction": 1.6855345464167133}, {"id": 5905397655, "lat": 50.9630638, "lon": 16.1943864, "way_id": 628061313, "landuse": "farmland", "closest_distance_restriction": 1.845183627479446}, {"id": 5905397657, "lat": 50.9610043, "lon": 16.1933011, "way_id": 628061313, "landuse": "farmland", "closest_distance_restriction": 2.022552969576711}, {"id": 5905397659, "lat": 50.9593803, "lon": 16.1923399, "way_id": 628061313, "landuse": "farmland", "closest_distance_restriction": 2.168767100381568}, {"id": 5905397661, "lat": 50.9573576, "lon": 16.1913144, "way_id": 628061313, "landuse": "farmland", "closest_distance_restriction": 2.3621826004292514}, {"id": 5905397663, "lat": 50.9559337, "lon": 16.1905423, "way_id": 628061313, "landuse": "farmland", "closest_distance_restriction": 2.446396345448808}, {"id": 5905397665, "lat": 50.9545087, "lon": 16.1897932, "way_id": 628061313, "landuse": "farmland", "closest_distance_restriction": 2.279625141477624}, {"id": 5905397667, "lat": 50.9529428, "lon": 16.1890149, "way_id": 628061313, "landuse": "farmland", "closest_distance_restriction": 2.0975177673355483}, {"id": 5905397674, "lat": 50.951477, "lon": 16.1878678, "way_id": 628061313, "landuse": "farmland", "closest_distance_restriction": 1.9166061083230377}, {"id": 5905397675, "lat": 50.9519912, "lon": 16.1877746, "way_id": 628061313, "landuse": "farmland", "closest_distance_restriction": 1.9680109648174091}, {"id": 5929200202, "lat": 50.9622715, "lon": 16.1899578, "way_id": 628061313, "landuse": "farmland", "closest_distance_restriction": 1.8117049822173965}, {"id": 5929200210, "lat": 50.961318, "lon": 16.1878146, "way_id": 628061313, "landuse": "farmland", "closest_distance_restriction": 1.8748282216311167}]}