{"nodes": [{"id": 34227803, "lat": 51.6012678, "lon": 19.2215203, "way_id": 148626432, "landuse": "farmland", "closest_distance_restriction": 1.7579238947924658}, {"id": 34227804, "lat": 51.603469, "lon": 19.2218377, "way_id": 148626432, "landuse": "farmland", "closest_distance_restriction": 1.6316572928170887}, {"id": 73818580, "lat": 51.5907468, "lon": 19.3042133, "way_id": 196335544, "landuse": "farmland", "closest_distance_restriction": 3.946840516030097}, {"id": 1454265025, "lat": 51.6344526, "lon": 19.2459313, "way_id": 543143723, "landuse": "meadow", "closest_distance_restriction": 1.5662468322819019}, {"id": 1517721046, "lat": 51.6024844, "lon": 19.2250004, "way_id": 148626432, "landuse": "farmland", "closest_distance_restriction": 1.6162639532763616}, {"id": 1617041131, "lat": 51.6045746, "lon": 19.2186364, "way_id": 148626432, "landuse": "farmland", "closest_distance_restriction": 1.6172270159914277}, {"id": 2066741736, "lat": 51.5935684, "lon": 19.3065638, "way_id": 196335544, "landuse": "farmland", "closest_distance_restriction": 4.102320782400005}, {"id": 2066741737, "lat": 51.5931132, "lon": 19.3100785, "way_id": 196335544, "landuse": "farmland", "closest_distance_restriction": 4.1854744279156915}, {"id": 2066741738, "lat": 51.592944, "lon": 19.3107357, "way_id": 196335544, "landuse": "farmland", "closest_distance_restriction": 4.211671485967512}, {"id": 2066741742, "lat": 51.5907378, "lon": 19.311833, "way_id": 196335544, "landuse": "farmland", "closest_distance_restriction": 4.466533479625951}, {"id": 2066741744, "lat": 51.593888, "lon": 19.3067158, "way_id": 196335544, "landuse": "farmland", "closest_distance_restriction": 4.0681475688485085}, {"id": 2066741745, "lat": 51.5934218, "lon": 19.309769, "way_id": 196335544, "landuse": "farmland", "closest_distance_restriction": 4.148152055109999}, {"id": 2066741746, "lat": 51.5935129, "lon": 19.3109207, "way_id": 196335544, "landuse": "farmland", "closest_distance_restriction": 4.151654189818491}, {"id": 2066755264, "lat": 51.5935936, "lon": 19.3052093, "way_id": 196335544, "landuse": "farmland", "closest_distance_restriction": 4.023046930713965}, {"id": 2066755265, "lat": 51.5892897, "lon": 19.3085896, "way_id": 196335544, "landuse": "farmland", "closest_distance_restriction": 4.254669882923623}, {"id": 2066755266, "lat": 51.5885098, "lon": 19.3093192, "way_id": 196335544, "landuse": "farmland", "closest_distance_restriction": 4.310435315148076}, {"id": 2066755267, "lat": 51.5895203, "lon": 19.3096024, "way_id": 196335544, "landuse": "farmland", "closest_distance_restriction": 4.323274391507107}, {"id": 2066755268, "lat": 51.5897511, "lon": 19.3087042, "way_id": 196335544, "landuse": "farmland", "closest_distance_restriction": 4.260158653525033}, {"id": 2066755269, "lat": 51.5902092, "lon": 19.3041339, "way_id": 196335544, "landuse": "farmland", "closest_distance_restriction": 3.942781966084357}, {"id": 2066755270, "lat": 51.5880365, "lon": 19.3110894, "way_id": 196335544, "landuse": "farmland", "closest_distance_restriction": 4.436447232293123}, {"id": 2066755271, "lat": 51.5933274, "lon": 19.3126072, "way_id": 196335544, "landuse": "farmland", "closest_distance_restriction": 4.194267353188912}, {"id": 2066755272, "lat": 51.5935924, "lon": 19.3098024, "way_id": 196335544, "landuse": "farmland", "closest_distance_restriction": 4.129799099299382}, {"id": 2072583427, "lat": 51.5882133, "lon": 19.3099718, "way_id": 196335544, "landuse": "farmland", "closest_distance_restriction": 4.35789789100073}, {"id": 3217069668, "lat": 51.6423977, "lon": 19.2482624, "way_id": 315578779, "landuse": "meadow", "closest_distance_restriction": 1.813977527129195}, {"id": 3217069678, "lat": 51.6423644, "lon": 19.2478333, "way_id": 315578779, "landuse": "meadow", "closest_distance_restriction": 1.8408562862173998}, {"id": 3217069679, "lat": 51.6423378, "lon": 19.2480157, "way_id": 315578779, "landuse": "meadow", "closest_distance_restriction": 1.8279804054526951}, {"id": 3217069683, "lat": 51.6427306, "lon": 19.248874, "way_id": 315578779, "landuse": "meadow", "closest_distance_restriction": 1.7866340996699825}, {"id": 3217069696, "lat": 51.6433032, "lon": 19.2464814, "way_id": 315578779, "landuse": "meadow", "closest_distance_restriction": 1.963570303099638}, {"id": 3217069708, "lat": 51.6431234, "lon": 19.2462025, "way_id": 315578779, "landuse": "meadow", "closest_distance_restriction": 1.9747848593514297}, {"id": 3217069716, "lat": 51.6433431, "lon": 19.2466638, "way_id": 315578779, "landuse": "meadow", "closest_distance_restriction": 1.9533450512463544}, {"id": 3217069722, "lat": 51.6428571, "lon": 19.2489491, "way_id": 315578779, "landuse": "meadow", "closest_distance_restriction": 1.7867375341745935}, {"id": 3217069724, "lat": 51.6433298, "lon": 19.2468355, "way_id": 315578779, "landuse": "meadow", "closest_distance_restriction": 1.9417410691539392}, {"id": 3217069725, "lat": 51.6429969, "lon": 19.246342, "way_id": 315578779, "landuse": "meadow", "closest_distance_restriction": 1.9610056940787703}, {"id": 3217069728, "lat": 51.6430835, "lon": 19.2462132, "way_id": 315578779, "landuse": "meadow", "closest_distance_restriction": 1.9725978777881283}, {"id": 3217069733, "lat": 51.6432366, "lon": 19.2471895, "way_id": 315578779, "landuse": "meadow", "closest_distance_restriction": 1.9152267510239736}, {"id": 3217069734, "lat": 51.6429237, "lon": 19.2488847, "way_id": 315578779, "landuse": "meadow", "closest_distance_restriction": 1.7935350437604785}, {"id": 3596284861, "lat": 51.6109527, "lon": 19.285395, "way_id": 353828834, "landuse": "meadow", "closest_distance_restriction": 2.0651756053329633}, {"id": 3596284863, "lat": 51.6098381, "lon": 19.2839123, "way_id": 353828834, "landuse": "meadow", "closest_distance_restriction": 2.1985709028610585}, {"id": 3596284866, "lat": 51.6106982, "lon": 19.2839906, "way_id": 353828834, "landuse": "meadow", "closest_distance_restriction": 2.102975757101931}, {"id": 3596284867, "lat": 51.6073715, "lon": 19.2850828, "way_id": 353828834, "landuse": "meadow", "closest_distance_restriction": 2.463882220947307}, {"id": 3596284869, "lat": 51.6079725, "lon": 19.2843607, "way_id": 353828834, "landuse": "meadow", "closest_distance_restriction": 2.4015063627873023}, {"id": 3596284870, "lat": 51.6101292, "lon": 19.2847706, "way_id": 353828834, "landuse": "meadow", "closest_distance_restriction": 2.1600893281294993}, {"id": 3596284876, "lat": 51.6078765, "lon": 19.2839391, "way_id": 353828834, "landuse": "meadow", "closest_distance_restriction": 2.41508533587171}, {"id": 3596284877, "lat": 51.6075167, "lon": 19.2839123, "way_id": 353828834, "landuse": "meadow", "closest_distance_restriction": 2.455061860616681}, {"id": 3596284880, "lat": 51.6098994, "lon": 19.2843682, "way_id": 353828834, "landuse": "meadow", "closest_distance_restriction": 2.188274166032175}, {"id": 3596284883, "lat": 51.6090752, "lon": 19.2853167, "way_id": 353828834, "landuse": "meadow", "closest_distance_restriction": 2.2737663292096006}, {"id": 3596284884, "lat": 51.6109527, "lon": 19.2849261, "way_id": 353828834, "landuse": "meadow", "closest_distance_restriction": 2.0679185509049174}, {"id": 3596284886, "lat": 51.6115171, "lon": 19.2849068, "way_id": 353828834, "landuse": "meadow", "closest_distance_restriction": 2.0055650407277357}, {"id": 3596284887, "lat": 51.6091958, "lon": 19.2839316, "way_id": 353828834, "landuse": "meadow", "closest_distance_restriction": 2.2693483232481917}, {"id": 3596284889, "lat": 51.6088333, "lon": 19.2847191, "way_id": 353828834, "landuse": "meadow", "closest_distance_restriction": 2.303909441124989}, {"id": 3596289393, "lat": 51.6107475, "lon": 19.284954, "way_id": 353828834, "landuse": "meadow", "closest_distance_restriction": 2.0904636624504396}, {"id": 3596289394, "lat": 51.6115171, "lon": 19.2839906, "way_id": 353828834, "landuse": "meadow", "closest_distance_restriction": 2.012624968417179}, {"id": 5250667850, "lat": 51.6344733, "lon": 19.2459432, "way_id": 543143723, "landuse": "meadow", "closest_distance_restriction": 1.5684737279247623}, {"id": 5250667851, "lat": 51.6346385, "lon": 19.2453772, "way_id": 543143723, "landuse": "meadow", "closest_distance_restriction": 1.5904036619866295}, {"id": 5250667852, "lat": 51.6346613, "lon": 19.2452454, "way_id": 543143723, "landuse": "meadow", "closest_distance_restriction": 1.5939030557573772}, {"id": 5250667853, "lat": 51.6346658, "lon": 19.2451527, "way_id": 543143723, "landuse": "meadow", "closest_distance_restriction": 1.5951188264946876}, {"id": 5250667854, "lat": 51.6346567, "lon": 19.2451014, "way_id": 543143723, "landuse": "meadow", "closest_distance_restriction": 1.5945223224576095}, {"id": 5250667855, "lat": 51.6344825, "lon": 19.2450257, "way_id": 543143723, "landuse": "meadow", "closest_distance_restriction": 1.5759106257555218}, {"id": 5250760684, "lat": 51.643343, "lon": 19.2329072, "way_id": 543155684, "landuse": "farmland", "closest_distance_restriction": 1.568597226078441}, {"id": 5250760685, "lat": 51.6433545, "lon": 19.2330736, "way_id": 543155684, "landuse": "farmland", "closest_distance_restriction": 1.5767845358776358}, {"id": 5250760686, "lat": 51.6433162, "lon": 19.2331722, "way_id": 543155684, "landuse": "farmland", "closest_distance_restriction": 1.5847625477314347}, {"id": 5250760687, "lat": 51.6432512, "lon": 19.2332461, "way_id": 543155684, "landuse": "farmland", "closest_distance_restriction": 1.5932475485317892}, {"id": 5250760688, "lat": 51.6431824, "lon": 19.2332646, "way_id": 543155684, "landuse": "farmland", "closest_distance_restriction": 1.5990108982092008}, {"id": 5250760689, "lat": 51.6430983, "lon": 19.2332153, "way_id": 543155684, "landuse": "farmland", "closest_distance_restriction": 1.6022166330670338}, {"id": 5250760690, "lat": 51.643018, "lon": 19.2332153, "way_id": 543155684, "landuse": "farmland", "closest_distance_restriction": 1.6078449476695966}, {"id": 5250760691, "lat": 51.6428421, "lon": 19.2333077, "way_id": 543155684, "landuse": "farmland", "closest_distance_restriction": 1.6251858281910379}, {"id": 5250760692, "lat": 51.6421805, "lon": 19.233431, "way_id": 543155686, "landuse": "farmland", "closest_distance_restriction": 1.6794097804944552}, {"id": 5250760694, "lat": 51.6428005, "lon": 19.2333155, "way_id": 543155686, "landuse": "farmland", "closest_distance_restriction": 1.62855178670254}, {"id": 5250760695, "lat": 51.6421346, "lon": 19.2330613, "way_id": 543155686, "landuse": "farmland", "closest_distance_restriction": 1.6637562093699008}, {"id": 5250760696, "lat": 51.6419664, "lon": 19.230886, "way_id": 543155686, "landuse": "farmland", "closest_distance_restriction": 1.5690032305461186}, {"id": 5375969971, "lat": 51.5498845, "lon": 19.4741249, "way_id": 557423356, "landuse": "farmland", "closest_distance_restriction": 1.5926232108211398}, {"id": 5375969972, "lat": 51.549691, "lon": 19.4757986, "way_id": 557423356, "landuse": "farmland", "closest_distance_restriction": 1.6404923642901716}, {"id": 5375969973, "lat": 51.5490805, "lon": 19.4755465, "way_id": 557423356, "landuse": "farmland", "closest_distance_restriction": 1.7016933255212068}, {"id": 5375969974, "lat": 51.548797, "lon": 19.4777244, "way_id": 557423356, "landuse": "farmland", "closest_distance_restriction": 1.7745502893048928}, {"id": 5375969975, "lat": 51.5493407, "lon": 19.4778854, "way_id": 557423356, "landuse": "farmland", "closest_distance_restriction": 1.7210883319554735}, {"id": 5375969976, "lat": 51.5491306, "lon": 19.4793874, "way_id": 557423356, "landuse": "farmland", "closest_distance_restriction": 1.7802812860455688}, {"id": 5375969977, "lat": 51.5486068, "lon": 19.4791943, "way_id": 557423356, "landuse": "farmland", "closest_distance_restriction": 1.8292853809516914}, {"id": 5375969978, "lat": 51.5482999, "lon": 19.4814581, "way_id": 557423356, "landuse": "farmland", "closest_distance_restriction": 1.922921096586092}, {"id": 5375969979, "lat": 51.5493207, "lon": 19.4818228, "way_id": 557423356, "landuse": "farmland", "closest_distance_restriction": 1.832630425656356}, {"id": 5375969980, "lat": 51.549214, "lon": 19.4830352, "way_id": 557423356, "landuse": "farmland", "closest_distance_restriction": 1.8833129082594076}, {"id": 5375969981, "lat": 51.5488337, "lon": 19.4829279, "way_id": 557423356, "landuse": "farmland", "closest_distance_restriction": 1.9165399936146545}, {"id": 5375969982, "lat": 51.5487536, "lon": 19.4837916, "way_id": 557423356, "landuse": "farmland", "closest_distance_restriction": 1.953816086088463}, {"id": 5375969983, "lat": 51.5485902, "lon": 19.4853258, "way_id": 557423356, "landuse": "farmland", "closest_distance_restriction": 2.0247576960981912}, {"id": 5375969984, "lat": 51.5479063, "lon": 19.4851702, "way_id": 557423356, "landuse": "farmland", "closest_distance_restriction": 2.0835679369621016}, {"id": 5375969985, "lat": 51.5476795, "lon": 19.4867742, "way_id": 557423356, "landuse": "farmland", "closest_distance_restriction": 2.164267218829763}, {"id": 5375969986, "lat": 51.54841, "lon": 19.4869941, "way_id": 557423356, "landuse": "farmland", "closest_distance_restriction": 2.1056622668327893}, {"id": 5375969987, "lat": 51.5483533, "lon": 19.4874394, "way_id": 557423356, "landuse": "farmland", "closest_distance_restriction": 2.128603817769303}, {"id": 5375969988, "lat": 51.5475727, "lon": 19.4872034, "way_id": 557423356, "landuse": "farmland", "closest_distance_restriction": 2.1906115715954684}, {"id": 5375969989, "lat": 51.547526, "lon": 19.4876379, "way_id": 557423356, "landuse": "farmland", "closest_distance_restriction": 2.2118000350224576}, {"id": 5375969990, "lat": 51.5481798, "lon": 19.4878417, "way_id": 557423356, "landuse": "farmland", "closest_distance_restriction": 2.160513450941321}, {"id": 5375969991, "lat": 51.5480331, "lon": 19.4892311, "way_id": 557423356, "landuse": "farmland", "closest_distance_restriction": 2.231105348262102}, {"id": 5375969992, "lat": 51.5473192, "lon": 19.4890326, "way_id": 557423356, "landuse": "farmland", "closest_distance_restriction": 2.286341022970946}, {"id": 5375969993, "lat": 51.5472625, "lon": 19.4894779, "way_id": 557423356, "landuse": "farmland", "closest_distance_restriction": 2.3096980823312303}, {"id": 5375969994, "lat": 51.5478262, "lon": 19.4896495, "way_id": 557423356, "landuse": "farmland", "closest_distance_restriction": 2.2670105745343174}, {"id": 5375969995, "lat": 51.5477929, "lon": 19.4898909, "way_id": 557423356, "landuse": "farmland", "closest_distance_restriction": 2.280207558887129}, {"id": 5375969996, "lat": 51.5480698, "lon": 19.4899821, "way_id": 557423356, "landuse": "farmland", "closest_distance_restriction": 2.260016835580946}, {"id": 5375969997, "lat": 51.5479663, "lon": 19.4908941, "way_id": 557423356, "landuse": "farmland", "closest_distance_restriction": 2.308850921605068}, {"id": 5375969998, "lat": 51.547536, "lon": 19.49076, "way_id": 557423356, "landuse": "farmland", "closest_distance_restriction": 2.3399814845249365}, {"id": 5375969999, "lat": 51.5472758, "lon": 19.4933295, "way_id": 557423356, "landuse": "farmland", "closest_distance_restriction": 2.4735041700902873}, {"id": 5375970000, "lat": 51.5467687, "lon": 19.4931686, "way_id": 557423356, "landuse": "farmland", "closest_distance_restriction": 2.512086720423431}, {"id": 5375970001, "lat": 51.5466586, "lon": 19.4939545, "way_id": 557423356, "landuse": "farmland", "closest_distance_restriction": 2.5545764281302556}, {"id": 5375970002, "lat": 51.5467721, "lon": 19.494212, "way_id": 557423356, "landuse": "farmland", "closest_distance_restriction": 2.554076540971484}, {"id": 5375970003, "lat": 51.5480281, "lon": 19.4945767, "way_id": 557423356, "landuse": "farmland", "closest_distance_restriction": 2.45486150993353}, {"id": 5375970004, "lat": 51.550128, "lon": 19.4952178, "way_id": 557423356, "landuse": "farmland", "closest_distance_restriction": 2.3004286093738338}, {"id": 5375970005, "lat": 51.5519309, "lon": 19.4957462, "way_id": 557423356, "landuse": "farmland", "closest_distance_restriction": 2.178734621144472}, {"id": 5375970006, "lat": 51.5527932, "lon": 19.4959983, "way_id": 557423356, "landuse": "farmland", "closest_distance_restriction": 2.1249466790030467}, {"id": 5375970007, "lat": 51.5532651, "lon": 19.4962317, "way_id": 557423356, "landuse": "farmland", "closest_distance_restriction": 2.101792242484079}, {"id": 5375970008, "lat": 51.5537638, "lon": 19.4965669, "way_id": 557423356, "landuse": "farmland", "closest_distance_restriction": 2.0833181096643205}, {"id": 5375970009, "lat": 51.5536704, "lon": 19.4956845, "way_id": 557423356, "landuse": "farmland", "closest_distance_restriction": 2.043634308592783}, {"id": 5375970010, "lat": 51.5538038, "lon": 19.4947591, "way_id": 557423356, "landuse": "farmland", "closest_distance_restriction": 1.985918537576347}, {"id": 5375970011, "lat": 51.554154, "lon": 19.4928333, "way_id": 557423356, "landuse": "farmland", "closest_distance_restriction": 1.861894272717503}, {"id": 5375970012, "lat": 51.5543925, "lon": 19.4916317, "way_id": 557423356, "landuse": "farmland", "closest_distance_restriction": 1.7840300196184637}, {"id": 5375970013, "lat": 51.5544292, "lon": 19.4913903, "way_id": 557423356, "landuse": "farmland", "closest_distance_restriction": 1.7693797029434433}, {"id": 5375970014, "lat": 51.5545076, "lon": 19.4900465, "way_id": 557423356, "landuse": "farmland", "closest_distance_restriction": 1.6989765407797583}, {"id": 5375970015, "lat": 51.5546018, "lon": 19.4896857, "way_id": 557423356, "landuse": "farmland", "closest_distance_restriction": 1.6744203206986301}, {"id": 5375970016, "lat": 51.5546844, "lon": 19.4894309, "way_id": 557423356, "landuse": "farmland", "closest_distance_restriction": 1.6557960347759586}, {"id": 5375970017, "lat": 51.5548303, "lon": 19.4891185, "way_id": 557423356, "landuse": "farmland", "closest_distance_restriction": 1.6292982882274367}, {"id": 5375970018, "lat": 51.5550363, "lon": 19.4887443, "way_id": 557423356, "landuse": "farmland", "closest_distance_restriction": 1.5949841450253397}, {"id": 5375970121, "lat": 51.5545843, "lon": 19.4878471, "way_id": 557423356, "landuse": "farmland", "closest_distance_restriction": 1.5933180117172194}, {"id": 5415812291, "lat": 51.7536574, "lon": 19.1197765, "way_id": 576924411, "landuse": "farmland", "closest_distance_restriction": 2.1243376898436366}, {"id": 5415812292, "lat": 51.7537858, "lon": 19.1192039, "way_id": 576924411, "landuse": "farmland", "closest_distance_restriction": 2.1299937837067966}, {"id": 5415812293, "lat": 51.7554786, "lon": 19.119737, "way_id": 576924411, "landuse": "farmland", "closest_distance_restriction": 1.947615591941867}, {"id": 5415812294, "lat": 51.7566702, "lon": 19.1205021, "way_id": 576924411, "landuse": "farmland", "closest_distance_restriction": 1.8066131120745612}, {"id": 5415812295, "lat": 51.7567735, "lon": 19.1212326, "way_id": 576924411, "landuse": "farmland", "closest_distance_restriction": 1.7715663776112107}, {"id": 5415812296, "lat": 51.756842, "lon": 19.1219808, "way_id": 576924411, "landuse": "farmland", "closest_distance_restriction": 1.740187186939731}, {"id": 5415812297, "lat": 51.7569636, "lon": 19.1234145, "way_id": 576924411, "landuse": "farmland", "closest_distance_restriction": 1.683895929886284}, {"id": 5415812298, "lat": 51.7570932, "lon": 19.1249786, "way_id": 576924411, "landuse": "farmland", "closest_distance_restriction": 1.627538010193064}, {"id": 5532278908, "lat": 51.7529039, "lon": 19.1131833, "way_id": 576924411, "landuse": "farmland", "closest_distance_restriction": 2.433354363888298}, {"id": 5532278909, "lat": 51.7527538, "lon": 19.1140025, "way_id": 576924411, "landuse": "farmland", "closest_distance_restriction": 2.4145934842386994}, {"id": 5532278910, "lat": 51.7525378, "lon": 19.1138855, "way_id": 576924411, "landuse": "farmland", "closest_distance_restriction": 2.4389673564426935}, {"id": 5532278911, "lat": 51.7524847, "lon": 19.1141384, "way_id": 576924411, "landuse": "farmland", "closest_distance_restriction": 2.4341089378127663}, {"id": 5532278912, "lat": 51.7527797, "lon": 19.1142847, "way_id": 576924411, "landuse": "farmland", "closest_distance_restriction": 2.4012776485892133}, {"id": 5532278913, "lat": 51.7527435, "lon": 19.1144832, "way_id": 576924411, "landuse": "farmland", "closest_distance_restriction": 2.3969914679677764}, {"id": 5532278914, "lat": 51.7529026, "lon": 19.1145522, "way_id": 576924411, "landuse": "farmland", "closest_distance_restriction": 2.379651779841785}, {"id": 5532278915, "lat": 51.7528198, "lon": 19.1149785, "way_id": 576924411, "landuse": "farmland", "closest_distance_restriction": 2.3711071930002268}, {"id": 5532278916, "lat": 51.7529974, "lon": 19.1150761, "way_id": 576924411, "landuse": "farmland", "closest_distance_restriction": 2.3509089918976507}, {"id": 5532278917, "lat": 51.7529075, "lon": 19.1155394, "way_id": 576924411, "landuse": "farmland", "closest_distance_restriction": 2.341964160920732}, {"id": 5532278918, "lat": 51.75266, "lon": 19.1154077, "way_id": 576924411, "landuse": "farmland", "closest_distance_restriction": 2.370052485307064}, {"id": 5532278919, "lat": 51.7523676, "lon": 19.1170929, "way_id": 576924411, "landuse": "farmland", "closest_distance_restriction": 2.338273397432639}, {"id": 5532278920, "lat": 51.7532196, "lon": 19.1175562, "way_id": 576924411, "landuse": "farmland", "closest_distance_restriction": 2.2402046873486365}, {"id": 5532278921, "lat": 51.7531296, "lon": 19.118233, "way_id": 576924411, "landuse": "farmland", "closest_distance_restriction": 2.2260245404744823}, {"id": 5532278922, "lat": 51.7533658, "lon": 19.1183329, "way_id": 576924411, "landuse": "farmland", "closest_distance_restriction": 2.199712247429042}, {"id": 5532278923, "lat": 51.7532421, "lon": 19.1190779, "way_id": 576924411, "landuse": "farmland", "closest_distance_restriction": 2.1874640944969643}, {"id": 5532278924, "lat": 51.7531858, "lon": 19.1194552, "way_id": 576924411, "landuse": "farmland", "closest_distance_restriction": 2.181098717554217}, {"id": 7925340012, "lat": 51.5767617, "lon": 19.2489762, "way_id": 850027271, "landuse": "meadow", "closest_distance_restriction": 1.5722676048057278}, {"id": 7925340013, "lat": 51.5766793, "lon": 19.2490646, "way_id": 850027271, "landuse": "meadow", "closest_distance_restriction": 1.5821656707407925}, {"id": 7925340014, "lat": 51.5766346, "lon": 19.2491585, "way_id": 850027271, "landuse": "meadow", "closest_distance_restriction": 1.5879795837737032}, {"id": 7925340015, "lat": 51.5765094, "lon": 19.2493103, "way_id": 850027271, "landuse": "meadow", "closest_distance_restriction": 1.6032467040733929}, {"id": 7925340016, "lat": 51.5763469, "lon": 19.2493756, "way_id": 850027271, "landuse": "meadow", "closest_distance_restriction": 1.621778892579861}, {"id": 7925340017, "lat": 51.5764038, "lon": 19.2495782, "way_id": 850027271, "landuse": "meadow", "closest_distance_restriction": 1.6176219866644426}, {"id": 7925340018, "lat": 51.5764443, "lon": 19.2496534, "way_id": 850027271, "landuse": "meadow", "closest_distance_restriction": 1.6139855331073159}, {"id": 7925340019, "lat": 51.5764357, "lon": 19.2497241, "way_id": 850027271, "landuse": "meadow", "closest_distance_restriction": 1.6157083733302486}, {"id": 7925340020, "lat": 51.5764109, "lon": 19.2497904, "way_id": 850027271, "landuse": "meadow", "closest_distance_restriction": 1.6191721038652889}, {"id": 7925340021, "lat": 51.5763364, "lon": 19.2497958, "way_id": 850027271, "landuse": "meadow", "closest_distance_restriction": 1.6274061462993472}, {"id": 7925340022, "lat": 51.5762777, "lon": 19.2497135, "way_id": 850027271, "landuse": "meadow", "closest_distance_restriction": 1.632934510794645}, {"id": 7925340023, "lat": 51.5762142, "lon": 19.2496749, "way_id": 850027271, "landuse": "meadow", "closest_distance_restriction": 1.6394869382822783}, {"id": 7925340024, "lat": 51.5761335, "lon": 19.2497798, "way_id": 850027271, "landuse": "meadow", "closest_distance_restriction": 1.649493875856405}, {"id": 7925340025, "lat": 51.576055, "lon": 19.2499113, "way_id": 850027271, "landuse": "meadow", "closest_distance_restriction": 1.6595804604091748}, {"id": 7930454912, "lat": 51.5760784, "lon": 19.2490866, "way_id": 850027271, "landuse": "meadow", "closest_distance_restriction": 1.6485901631966373}, {"id": 7930454913, "lat": 51.5762222, "lon": 19.2490204, "way_id": 850027271, "landuse": "meadow", "closest_distance_restriction": 1.6321408893818514}, {"id": 7930454914, "lat": 51.5762428, "lon": 19.2492188, "way_id": 850027271, "landuse": "meadow", "closest_distance_restriction": 1.6317031233708807}, {"id": 7930454915, "lat": 51.5761058, "lon": 19.2496101, "way_id": 850027271, "landuse": "meadow", "closest_distance_restriction": 1.6507036763546836}, {"id": 7930454916, "lat": 51.5760476, "lon": 19.2498141, "way_id": 850027271, "landuse": "meadow", "closest_distance_restriction": 1.6593018042407852}, {"id": 7930454922, "lat": 51.5760407, "lon": 19.2490921, "way_id": 850027271, "landuse": "meadow", "closest_distance_restriction": 1.6527959013868825}, {"id": 7930454923, "lat": 51.5762694, "lon": 19.2487277, "way_id": 850027271, "landuse": "meadow", "closest_distance_restriction": 1.6244342954509081}, {"id": 7930454924, "lat": 51.5763721, "lon": 19.2486844, "way_id": 850027271, "landuse": "meadow", "closest_distance_restriction": 1.6127427671776071}, {"id": 7930454925, "lat": 51.5764699, "lon": 19.2487552, "way_id": 850027271, "landuse": "meadow", "closest_distance_restriction": 1.6025242020818822}, {"id": 7930454926, "lat": 51.5766117, "lon": 19.2488536, "way_id": 850027271, "landuse": "meadow", "closest_distance_restriction": 1.5877135825737965}, {"id": 7930454927, "lat": 51.5761985, "lon": 19.2488457, "way_id": 850027271, "landuse": "meadow", "closest_distance_restriction": 1.6332379380934223}]}