{"nodes": [{"id": 534229222, "lat": 51.7331535, "lon": 18.8777497, "way_id": 845382101, "landuse": "meadow", "closest_distance_restriction": 2.181076144987212}, {"id": 534229231, "lat": 51.7330295, "lon": 18.8785608, "way_id": 845382101, "landuse": "meadow", "closest_distance_restriction": 2.1237573334831}, {"id": 534229232, "lat": 51.7330736, "lon": 18.8791662, "way_id": 845382101, "landuse": "meadow", "closest_distance_restriction": 2.0833463325696684}, {"id": 534229234, "lat": 51.7331108, "lon": 18.8800781, "way_id": 845382101, "landuse": "meadow", "closest_distance_restriction": 2.0220549616512558}, {"id": 534229235, "lat": 51.7340972, "lon": 18.8809342, "way_id": 845382101, "landuse": "meadow", "closest_distance_restriction": 1.9856321806207866}, {"id": 534229237, "lat": 51.7351728, "lon": 18.8823914, "way_id": 845382101, "landuse": "meadow", "closest_distance_restriction": 1.9170835292001913}, {"id": 534229241, "lat": 51.7353412, "lon": 18.883514, "way_id": 845382101, "landuse": "meadow", "closest_distance_restriction": 1.846222518942535}, {"id": 534229245, "lat": 51.7357986, "lon": 18.8846517, "way_id": 845382101, "landuse": "meadow", "closest_distance_restriction": 1.7837637986101649}, {"id": 1624890990, "lat": 51.5730357, "lon": 18.9999042, "way_id": 149520528, "landuse": "meadow", "closest_distance_restriction": 2.2583868779967458}, {"id": 1624891053, "lat": 51.5727964, "lon": 19.0013735, "way_id": 149520528, "landuse": "meadow", "closest_distance_restriction": 2.2251757191144477}, {"id": 1624891061, "lat": 51.571228, "lon": 18.9980172, "way_id": 149520531, "landuse": "farmland", "closest_distance_restriction": 2.497926685494698}, {"id": 1624891080, "lat": 51.5729231, "lon": 19.0013306, "way_id": 149520528, "landuse": "meadow", "closest_distance_restriction": 2.214795722578024}, {"id": 1624891084, "lat": 51.5728548, "lon": 19.0013322, "way_id": 149520528, "landuse": "meadow", "closest_distance_restriction": 2.2211737205587907}, {"id": 1624891100, "lat": 51.5730493, "lon": 18.9996977, "way_id": 149520528, "landuse": "meadow", "closest_distance_restriction": 2.265236049564266}, {"id": 1624891102, "lat": 51.5730477, "lon": 19.0015254, "way_id": 149520528, "landuse": "meadow", "closest_distance_restriction": 2.195908044154618}, {"id": 1624891116, "lat": 51.5710593, "lon": 18.9983959, "way_id": 149520531, "landuse": "farmland", "closest_distance_restriction": 2.498904879314884}, {"id": 1624891171, "lat": 51.5725533, "lon": 18.9986061, "way_id": 149520531, "landuse": "farmland", "closest_distance_restriction": 2.353732865554246}, {"id": 1624891174, "lat": 51.5731334, "lon": 18.9997046, "way_id": 149520528, "landuse": "meadow", "closest_distance_restriction": 2.2572829949623108}, {"id": 1624891227, "lat": 51.5730045, "lon": 19.0014562, "way_id": 149520528, "landuse": "meadow", "closest_distance_restriction": 2.202516634660015}, {"id": 1624891234, "lat": 51.5725317, "lon": 18.9989989, "way_id": 149520531, "landuse": "farmland", "closest_distance_restriction": 2.340058917270369}, {"id": 1624891246, "lat": 51.5729511, "lon": 19.0013625, "way_id": 149520528, "landuse": "meadow", "closest_distance_restriction": 2.2109867010651216}, {"id": 1660442772, "lat": 51.6054597, "lon": 18.9978162, "way_id": 153340850, "landuse": "farmland", "closest_distance_restriction": 1.94634245325941}, {"id": 1660442798, "lat": 51.6009965, "lon": 18.9847462, "way_id": 153340852, "landuse": "farmland", "closest_distance_restriction": 1.9232429642916815}, {"id": 1660442801, "lat": 51.6012533, "lon": 18.9849652, "way_id": 153340852, "landuse": "farmland", "closest_distance_restriction": 1.949506112809285}, {"id": 1660442807, "lat": 51.6018372, "lon": 18.9795491, "way_id": 153340881, "landuse": "farmland", "closest_distance_restriction": 1.6601296848294458}, {"id": 1660442811, "lat": 51.6040937, "lon": 18.986626, "way_id": 153340852, "landuse": "farmland", "closest_distance_restriction": 2.2060953709048667}, {"id": 1660442835, "lat": 51.5998864, "lon": 18.9836031, "way_id": 153340871, "landuse": "farmland", "closest_distance_restriction": 1.7995383559648181}, {"id": 1660442840, "lat": 51.5993467, "lon": 18.9916305, "way_id": 153340852, "landuse": "farmland", "closest_distance_restriction": 1.9476372367299868}, {"id": 1660442844, "lat": 51.5997876, "lon": 18.9836191, "way_id": 153340871, "landuse": "farmland", "closest_distance_restriction": 1.7961543456443088}, {"id": 1660442879, "lat": 51.6036322, "lon": 18.9917351, "way_id": 153340852, "landuse": "farmland", "closest_distance_restriction": 2.152598312535278}, {"id": 1660442882, "lat": 51.5947354, "lon": 18.9867461, "way_id": 153340849, "landuse": "farmland", "closest_distance_restriction": 1.8703411479171836}, {"id": 1660442888, "lat": 51.6032924, "lon": 18.9869929, "way_id": 153340852, "landuse": "farmland", "closest_distance_restriction": 2.181040377315529}, {"id": 1660442912, "lat": 51.6045851, "lon": 19.0026999, "way_id": 153340850, "landuse": "farmland", "closest_distance_restriction": 1.644274229408033}, {"id": 1660442920, "lat": 51.6045585, "lon": 19.0003289, "way_id": 153340850, "landuse": "farmland", "closest_distance_restriction": 1.75253823386259}, {"id": 1660442946, "lat": 51.600307, "lon": 18.980459, "way_id": 153340888, "landuse": "farmland", "closest_distance_restriction": 1.6248629169737323}, {"id": 1660442953, "lat": 51.5996339, "lon": 18.9897288, "way_id": 153340852, "landuse": "farmland", "closest_distance_restriction": 2.0820019755491326}, {"id": 1660442962, "lat": 51.5954969, "lon": 18.987656, "way_id": 153340849, "landuse": "farmland", "closest_distance_restriction": 1.9414930064415616}, {"id": 1660442964, "lat": 51.6002337, "lon": 18.9799441, "way_id": 153340888, "landuse": "farmland", "closest_distance_restriction": 1.5897263247202913}, {"id": 1660442968, "lat": 51.6021441, "lon": 18.9856444, "way_id": 153340852, "landuse": "farmland", "closest_distance_restriction": 2.037073254007449}, {"id": 1660442983, "lat": 51.6033457, "lon": 18.9857269, "way_id": 153340852, "landuse": "farmland", "closest_distance_restriction": 2.1092036483331387}, {"id": 1660442992, "lat": 51.6098059, "lon": 18.9878743, "way_id": 174278186, "landuse": "farmland", "closest_distance_restriction": 1.8810001805797478}, {"id": 1660442995, "lat": 51.6109851, "lon": 18.9882284, "way_id": 174278186, "landuse": "farmland", "closest_distance_restriction": 1.8083423463847705}, {"id": 1660442997, "lat": 51.6048983, "lon": 18.998741, "way_id": 153340850, "landuse": "farmland", "closest_distance_restriction": 1.8570367631226574}, {"id": 1660443023, "lat": 51.6032724, "lon": 18.9856947, "way_id": 153340852, "landuse": "farmland", "closest_distance_restriction": 2.10303241746529}, {"id": 1660443028, "lat": 51.6002624, "lon": 18.9945736, "way_id": 153340852, "landuse": "farmland", "closest_distance_restriction": 1.799544716541501}, {"id": 1660443084, "lat": 51.6003536, "lon": 18.9806951, "way_id": 153340888, "landuse": "farmland", "closest_distance_restriction": 1.6416771174947875}, {"id": 1660443111, "lat": 51.6031591, "lon": 18.9869285, "way_id": 153340852, "landuse": "farmland", "closest_distance_restriction": 2.1697292849012833}, {"id": 1660443148, "lat": 51.599973, "lon": 18.9925708, "way_id": 153340852, "landuse": "farmland", "closest_distance_restriction": 1.9126843222689696}, {"id": 1660443162, "lat": 51.6028209, "lon": 18.9789763, "way_id": 153340881, "landuse": "farmland", "closest_distance_restriction": 1.6933648418131273}, {"id": 1660443210, "lat": 51.5999538, "lon": 18.9805985, "way_id": 153340888, "landuse": "farmland", "closest_distance_restriction": 1.6151597072631325}, {"id": 1660443222, "lat": 51.6002789, "lon": 18.9859459, "way_id": 153340871, "landuse": "farmland", "closest_distance_restriction": 1.9653841081558752}, {"id": 1660443252, "lat": 51.6108452, "lon": 18.9882498, "way_id": 174278186, "landuse": "farmland", "closest_distance_restriction": 1.8198463831971214}, {"id": 1660443254, "lat": 51.5998665, "lon": 18.9932167, "way_id": 153340852, "landuse": "farmland", "closest_distance_restriction": 1.8669792709947601}, {"id": 1660443263, "lat": 51.5961283, "lon": 18.9882696, "way_id": 153340849, "landuse": "farmland", "closest_distance_restriction": 1.9931689237926122}, {"id": 1660443294, "lat": 51.5997405, "lon": 18.9825083, "way_id": 153340849, "landuse": "farmland", "closest_distance_restriction": 1.72386508322876}, {"id": 1660443304, "lat": 51.6124326, "lon": 18.9887197, "way_id": 174278186, "landuse": "farmland", "closest_distance_restriction": 1.7321901884722555}, {"id": 1660443316, "lat": 51.6028792, "lon": 18.985684, "way_id": 153340852, "landuse": "farmland", "closest_distance_restriction": 2.079830098556439}, {"id": 1660443332, "lat": 51.6055073, "lon": 18.9972797, "way_id": 153340850, "landuse": "farmland", "closest_distance_restriction": 1.976808201260428}, {"id": 1660443334, "lat": 51.6038537, "lon": 18.9860505, "way_id": 153340852, "landuse": "farmland", "closest_distance_restriction": 2.1582315977400226}, {"id": 1660443406, "lat": 51.6040613, "lon": 18.9855291, "way_id": 153340852, "landuse": "farmland", "closest_distance_restriction": 2.1407565357587637}, {"id": 1660443418, "lat": 51.6060309, "lon": 18.9965008, "way_id": 153340850, "landuse": "farmland", "closest_distance_restriction": 2.055894527492502}, {"id": 1660443420, "lat": 51.6054114, "lon": 19.000404, "way_id": 153340850, "landuse": "farmland", "closest_distance_restriction": 1.817950527198689}, {"id": 1660443426, "lat": 51.598181, "lon": 18.9956189, "way_id": 153340850, "landuse": "farmland", "closest_distance_restriction": 1.6445794245037058}, {"id": 1660443468, "lat": 51.602786, "lon": 18.9851154, "way_id": 153340852, "landuse": "farmland", "closest_distance_restriction": 2.040777413983476}, {"id": 1660443474, "lat": 51.6027799, "lon": 18.9954864, "way_id": 153340850, "landuse": "farmland", "closest_distance_restriction": 1.883780606436399}, {"id": 1660443477, "lat": 51.6052448, "lon": 19.0014339, "way_id": 153340850, "landuse": "farmland", "closest_distance_restriction": 1.7568775675094965}, {"id": 1660443538, "lat": 51.6056446, "lon": 18.9989663, "way_id": 153340850, "landuse": "farmland", "closest_distance_restriction": 1.9047259416685562}, {"id": 1660443570, "lat": 51.6043919, "lon": 19.0036333, "way_id": 153340850, "landuse": "farmland", "closest_distance_restriction": 1.586583691228628}, {"id": 1660443600, "lat": 51.6023345, "lon": 18.9856282, "way_id": 153340852, "landuse": "farmland", "closest_distance_restriction": 2.046324260101846}, {"id": 1660443603, "lat": 51.6057529, "lon": 18.9982024, "way_id": 153340850, "landuse": "farmland", "closest_distance_restriction": 1.9502269564398071}, {"id": 1660443606, "lat": 51.598296, "lon": 18.9952198, "way_id": 153340850, "landuse": "farmland", "closest_distance_restriction": 1.6748219799709179}, {"id": 1660443621, "lat": 51.5965216, "lon": 18.9828945, "way_id": 153340849, "landuse": "farmland", "closest_distance_restriction": 1.6361441066400497}, {"id": 1660443623, "lat": 51.6103389, "lon": 18.988046, "way_id": 174278186, "landuse": "farmland", "closest_distance_restriction": 1.8479012444255554}, {"id": 1660443635, "lat": 51.5999658, "lon": 18.9836177, "way_id": 153340871, "landuse": "farmland", "closest_distance_restriction": 1.8040346616296716}, {"id": 1660443652, "lat": 51.6016447, "lon": 18.9851023, "way_id": 153340852, "landuse": "farmland", "closest_distance_restriction": 1.9778436869214548}, {"id": 1660443661, "lat": 51.605478, "lon": 18.9975179, "way_id": 153340850, "landuse": "farmland", "closest_distance_restriction": 1.9626258883591245}, {"id": 1660443703, "lat": 51.6053048, "lon": 18.9977647, "way_id": 153340850, "landuse": "farmland", "closest_distance_restriction": 1.937003521027741}, {"id": 1660443721, "lat": 51.6018962, "lon": 18.9789464, "way_id": 153340881, "landuse": "farmland", "closest_distance_restriction": 1.6298353508321985}, {"id": 1660443724, "lat": 51.6050183, "lon": 18.999771, "way_id": 153340850, "landuse": "farmland", "closest_distance_restriction": 1.8160354464024286}, {"id": 1660443739, "lat": 51.5958362, "lon": 18.9881324, "way_id": 153340849, "landuse": "farmland", "closest_distance_restriction": 1.9790390433597593}, {"id": 1660443767, "lat": 51.5987475, "lon": 18.9957691, "way_id": 153340850, "landuse": "farmland", "closest_distance_restriction": 1.6567251737412008}, {"id": 1660443824, "lat": 51.6040464, "lon": 18.9849069, "way_id": 153340852, "landuse": "farmland", "closest_distance_restriction": 2.1042258014101383}, {"id": 1660443825, "lat": 51.603499, "lon": 18.9866818, "way_id": 153340852, "landuse": "farmland", "closest_distance_restriction": 2.174350088830362}, {"id": 1660443840, "lat": 51.6051582, "lon": 18.9998461, "way_id": 153340850, "landuse": "farmland", "closest_distance_restriction": 1.823631047962623}, {"id": 1660443845, "lat": 51.5987808, "lon": 18.9954043, "way_id": 153340850, "landuse": "farmland", "closest_distance_restriction": 1.6815451965179122}, {"id": 1660443847, "lat": 51.6036651, "lon": 18.9901606, "way_id": 153340852, "landuse": "farmland", "closest_distance_restriction": 2.247213816820094}, {"id": 1660443848, "lat": 51.6038788, "lon": 19.0021635, "way_id": 153340850, "landuse": "farmland", "closest_distance_restriction": 1.6102897575859676}, {"id": 1660443851, "lat": 51.6025594, "lon": 18.9857269, "way_id": 153340852, "landuse": "farmland", "closest_distance_restriction": 2.064546187150406}, {"id": 1660443887, "lat": 51.6044985, "lon": 19.0006936, "way_id": 153340850, "landuse": "farmland", "closest_distance_restriction": 1.7301868894064627}, {"id": 1660443912, "lat": 51.6033954, "lon": 18.9792082, "way_id": 153340881, "landuse": "farmland", "closest_distance_restriction": 1.7460446539784449}, {"id": 1660443922, "lat": 51.6051199, "lon": 19.0002945, "way_id": 153340850, "landuse": "farmland", "closest_distance_restriction": 1.799249443011779}, {"id": 1660443923, "lat": 51.6004368, "lon": 18.9934471, "way_id": 153340852, "landuse": "farmland", "closest_distance_restriction": 1.878202748668227}, {"id": 1660443936, "lat": 51.6054181, "lon": 18.9980865, "way_id": 153340850, "landuse": "farmland", "closest_distance_restriction": 1.9297185256142633}, {"id": 1660443942, "lat": 51.6103389, "lon": 18.9882069, "way_id": 174278186, "landuse": "farmland", "closest_distance_restriction": 1.8559448582615932}, {"id": 1660443987, "lat": 51.6041498, "lon": 18.9849404, "way_id": 153340852, "landuse": "farmland", "closest_distance_restriction": 2.112640403286468}, {"id": 1660443989, "lat": 51.6059178, "lon": 18.9863599, "way_id": 153340852, "landuse": "farmland", "closest_distance_restriction": 2.148280023606574}, {"id": 1660443990, "lat": 51.6038472, "lon": 19.0024403, "way_id": 153340850, "landuse": "farmland", "closest_distance_restriction": 1.5946996739751411}, {"id": 1660444013, "lat": 51.6035295, "lon": 18.9956524, "way_id": 153340852, "landuse": "farmland", "closest_distance_restriction": 1.9223521278456714}, {"id": 1660444031, "lat": 51.6042728, "lon": 18.9856208, "way_id": 153340852, "landuse": "farmland", "closest_distance_restriction": 2.1591462107576853}, {"id": 1660444037, "lat": 51.6045118, "lon": 19.0033115, "way_id": 153340850, "landuse": "farmland", "closest_distance_restriction": 1.6109605103943152}, {"id": 1660444048, "lat": 51.6026677, "lon": 18.9850804, "way_id": 153340852, "landuse": "farmland", "closest_distance_restriction": 2.0319763882058286}, {"id": 1660444053, "lat": 51.6046984, "lon": 19.001273, "way_id": 153340850, "landuse": "farmland", "closest_distance_restriction": 1.7189357479255323}, {"id": 1660444072, "lat": 51.6018938, "lon": 18.984901, "way_id": 153340852, "landuse": "farmland", "closest_distance_restriction": 1.9786718648750798}, {"id": 1660444141, "lat": 51.6028726, "lon": 18.9872933, "way_id": 153340852, "landuse": "farmland", "closest_distance_restriction": 2.1759060937374097}, {"id": 1660444148, "lat": 51.6052065, "lon": 18.9905957, "way_id": 153340852, "landuse": "farmland", "closest_distance_restriction": 2.3149381045056696}, {"id": 1660444160, "lat": 51.6052198, "lon": 18.9860466, "way_id": 153340852, "landuse": "farmland", "closest_distance_restriction": 2.2007893004613917}, {"id": 1660444171, "lat": 51.6033457, "lon": 18.9866389, "way_id": 153340852, "landuse": "farmland", "closest_distance_restriction": 2.163022866605833}, {"id": 1660444176, "lat": 51.6002438, "lon": 18.9795268, "way_id": 153340888, "landuse": "farmland", "closest_distance_restriction": 1.5650577444175195}, {"id": 1660444180, "lat": 51.6053981, "lon": 19.0005756, "way_id": 153340850, "landuse": "farmland", "closest_distance_restriction": 1.808904850645031}, {"id": 1660444198, "lat": 51.6052048, "lon": 18.9861882, "way_id": 153340852, "landuse": "farmland", "closest_distance_restriction": 2.2075202732762564}, {"id": 1660444200, "lat": 51.5970814, "lon": 18.9817572, "way_id": 153340849, "landuse": "farmland", "closest_distance_restriction": 1.5746799356284742}, {"id": 1660444204, "lat": 51.6036273, "lon": 18.9859179, "way_id": 153340852, "landuse": "farmland", "closest_distance_restriction": 2.1369854440216463}, {"id": 1660444213, "lat": 51.6035273, "lon": 18.9784612, "way_id": 153340881, "landuse": "farmland", "closest_distance_restriction": 1.7162890865530638}, {"id": 1660444214, "lat": 51.5999071, "lon": 18.981092, "way_id": 153340888, "landuse": "farmland", "closest_distance_restriction": 1.643305079143264}, {"id": 1660444216, "lat": 51.6005841, "lon": 18.9838338, "way_id": 153340871, "landuse": "farmland", "closest_distance_restriction": 1.8465080228530935}, {"id": 1660444218, "lat": 51.6026277, "lon": 18.9871839, "way_id": 153340852, "landuse": "farmland", "closest_distance_restriction": 2.156167668402617}, {"id": 1660444232, "lat": 51.6023643, "lon": 18.9843478, "way_id": 153340852, "landuse": "farmland", "closest_distance_restriction": 1.9712552702896993}, {"id": 1660444252, "lat": 51.6043253, "lon": 19.0040303, "way_id": 153340850, "landuse": "farmland", "closest_distance_restriction": 1.5636527675040837}, {"id": 1660444254, "lat": 51.6030992, "lon": 18.9866818, "way_id": 153340852, "landuse": "farmland", "closest_distance_restriction": 2.151651312954298}, {"id": 1660444257, "lat": 51.6027077, "lon": 18.9856282, "way_id": 153340852, "landuse": "farmland", "closest_distance_restriction": 2.0668640301034427}, {"id": 1660444280, "lat": 51.5984069, "lon": 18.9855743, "way_id": 153340871, "landuse": "farmland", "closest_distance_restriction": 1.8691946658574936}, {"id": 1660444291, "lat": 51.6050982, "lon": 19.0025068, "way_id": 153340850, "landuse": "farmland", "closest_distance_restriction": 1.6966199718982156}, {"id": 1660444297, "lat": 51.5985543, "lon": 18.9940739, "way_id": 153340850, "landuse": "farmland", "closest_distance_restriction": 1.7590158976951533}, {"id": 1660444300, "lat": 51.5990042, "lon": 18.9875771, "way_id": 153340871, "landuse": "farmland", "closest_distance_restriction": 2.0211966316093637}, {"id": 1660444303, "lat": 51.6000737, "lon": 18.9813388, "way_id": 153340849, "landuse": "farmland", "closest_distance_restriction": 1.6668147355192207}, {"id": 1660444317, "lat": 51.6000804, "lon": 18.9811993, "way_id": 153340849, "landuse": "farmland", "closest_distance_restriction": 1.6585390994819778}, {"id": 1660444332, "lat": 51.605901, "lon": 18.9973918, "way_id": 153340850, "landuse": "farmland", "closest_distance_restriction": 2.001558159855405}, {"id": 1660444334, "lat": 51.6029792, "lon": 18.9866496, "way_id": 153340852, "landuse": "farmland", "closest_distance_restriction": 2.1430433782986715}, {"id": 1660444336, "lat": 51.6025239, "lon": 18.9844125, "way_id": 153340852, "landuse": "farmland", "closest_distance_restriction": 1.9841556013259936}, {"id": 1660444353, "lat": 51.6047534, "lon": 19.0007988, "way_id": 153340850, "landuse": "farmland", "closest_distance_restriction": 1.745699029404388}, {"id": 1660444356, "lat": 51.6047934, "lon": 18.9994899, "way_id": 153340850, "landuse": "farmland", "closest_distance_restriction": 1.811910658708231}, {"id": 1660444359, "lat": 51.599369, "lon": 18.9832571, "way_id": 153340849, "landuse": "farmland", "closest_distance_restriction": 1.755014240456963}, {"id": 1660444365, "lat": 51.5991007, "lon": 18.9840639, "way_id": 153340849, "landuse": "farmland", "closest_distance_restriction": 1.7958682609395296}, {"id": 1660444367, "lat": 51.5991207, "lon": 18.9842571, "way_id": 153340849, "landuse": "farmland", "closest_distance_restriction": 1.8091346699628852}, {"id": 1660444377, "lat": 51.6053581, "lon": 18.9974964, "way_id": 153340850, "landuse": "farmland", "closest_distance_restriction": 1.9545389700356173}, {"id": 1660444386, "lat": 51.5999288, "lon": 18.981798, "way_id": 153340849, "landuse": "farmland", "closest_distance_restriction": 1.6882105149827569}, {"id": 1660444394, "lat": 51.5995458, "lon": 18.9923083, "way_id": 153340852, "landuse": "farmland", "closest_distance_restriction": 1.9116758291119904}, {"id": 1660444397, "lat": 51.6050582, "lon": 18.9995671, "way_id": 153340850, "landuse": "farmland", "closest_distance_restriction": 1.8290462702831616}, {"id": 1660444404, "lat": 51.6046201, "lon": 18.9859715, "way_id": 153340852, "landuse": "farmland", "closest_distance_restriction": 2.2009516766587995}, {"id": 1660444409, "lat": 51.6049117, "lon": 19.0037835, "way_id": 153340850, "landuse": "farmland", "closest_distance_restriction": 1.625556036025525}, {"id": 1660444431, "lat": 51.6044785, "lon": 18.9867676, "way_id": 153340852, "landuse": "farmland", "closest_distance_restriction": 2.237666711240503}, {"id": 1660444432, "lat": 51.6027795, "lon": 18.9792127, "way_id": 153340881, "landuse": "farmland", "closest_distance_restriction": 1.703360464316386}, {"id": 1660444444, "lat": 51.5998021, "lon": 18.9822486, "way_id": 153340849, "landuse": "farmland", "closest_distance_restriction": 1.7103849879471498}, {"id": 1660444488, "lat": 51.5993028, "lon": 18.9858748, "way_id": 153340871, "landuse": "farmland", "closest_distance_restriction": 1.920918896843075}, {"id": 1660444499, "lat": 51.5996555, "lon": 18.9827207, "way_id": 153340849, "landuse": "farmland", "closest_distance_restriction": 1.7334134803604093}, {"id": 1660444501, "lat": 51.6049466, "lon": 19.0034703, "way_id": 153340850, "landuse": "farmland", "closest_distance_restriction": 1.6418603785206276}, {"id": 1660444507, "lat": 51.5999533, "lon": 18.9879006, "way_id": 153340871, "landuse": "farmland", "closest_distance_restriction": 2.0772684524986786}, {"id": 1842983331, "lat": 51.7332645, "lon": 18.8775019, "way_id": 845382101, "landuse": "meadow", "closest_distance_restriction": 2.1998786651787228}, {"id": 1842983338, "lat": 51.7363511, "lon": 18.8840069, "way_id": 845373885, "landuse": "meadow", "closest_distance_restriction": 1.8440916618650933}, {"id": 1842983361, "lat": 51.7364906, "lon": 18.8864632, "way_id": 845373885, "landuse": "meadow", "closest_distance_restriction": 1.688843994832699}, {"id": 1842983370, "lat": 51.7367896, "lon": 18.8878043, "way_id": 845373885, "landuse": "meadow", "closest_distance_restriction": 1.6144739770255168}, {"id": 1842983390, "lat": 51.7369238, "lon": 18.8880339, "way_id": 845373885, "landuse": "meadow", "closest_distance_restriction": 1.6055480706436769}, {"id": 1842983403, "lat": 51.7336136, "lon": 18.8772047, "way_id": 845382101, "landuse": "meadow", "closest_distance_restriction": 2.226579637921489}, {"id": 1842983454, "lat": 51.734928, "lon": 18.8780473, "way_id": 845468470, "landuse": "meadow", "closest_distance_restriction": 2.2005585970399446}, {"id": 1842983460, "lat": 51.7355019, "lon": 18.8787642, "way_id": 845468470, "landuse": "meadow", "closest_distance_restriction": 2.1688345045206527}, {"id": 1842983467, "lat": 51.7380134, "lon": 18.8893965, "way_id": 845373885, "landuse": "meadow", "closest_distance_restriction": 1.5729014648629778}, {"id": 1842983511, "lat": 51.7351631, "lon": 18.8781433, "way_id": 845468470, "landuse": "meadow", "closest_distance_restriction": 2.200700754809745}, {"id": 1842983521, "lat": 51.7348128, "lon": 18.8779428, "way_id": 845468470, "landuse": "meadow", "closest_distance_restriction": 2.2044524453566012}, {"id": 1842983523, "lat": 51.7354341, "lon": 18.8794363, "way_id": 845468470, "landuse": "meadow", "closest_distance_restriction": 2.1220111842771967}, {"id": 1842983597, "lat": 51.7352481, "lon": 18.8800908, "way_id": 845468470, "landuse": "meadow", "closest_distance_restriction": 2.073578515641254}, {"id": 1842983605, "lat": 51.7354208, "lon": 18.881389, "way_id": 845468470, "landuse": "meadow", "closest_distance_restriction": 1.990549744785955}, {"id": 1842983609, "lat": 51.7360268, "lon": 18.8836887, "way_id": 845373885, "landuse": "meadow", "closest_distance_restriction": 1.8545279887525121}, {"id": 1842983630, "lat": 51.7355404, "lon": 18.8820971, "way_id": 845373885, "landuse": "meadow", "closest_distance_restriction": 1.9462564857729052}, {"id": 1842983727, "lat": 51.7353285, "lon": 18.8783279, "way_id": 845468470, "landuse": "meadow", "closest_distance_restriction": 2.1932258365633883}, {"id": 1842983729, "lat": 51.7365504, "lon": 18.8872571, "way_id": 845373885, "landuse": "meadow", "closest_distance_restriction": 1.6398642556927665}, {"id": 1842983735, "lat": 51.7354953, "lon": 18.880867, "way_id": 845468470, "landuse": "meadow", "closest_distance_restriction": 2.0274378160188262}, {"id": 1842983736, "lat": 51.7329903, "lon": 18.8753202, "way_id": 845468470, "landuse": "meadow", "closest_distance_restriction": 2.343918777347332}, {"id": 1842983764, "lat": 51.7365105, "lon": 18.88479, "way_id": 845373885, "landuse": "meadow", "closest_distance_restriction": 1.7983564185681913}, {"id": 1842983803, "lat": 51.7333023, "lon": 18.8757143, "way_id": 845468470, "landuse": "meadow", "closest_distance_restriction": 2.3221167753473337}, {"id": 1842983805, "lat": 51.734677, "lon": 18.8778466, "way_id": 845468470, "landuse": "meadow", "closest_distance_restriction": 2.2073511176899463}, {"id": 1842983810, "lat": 51.7377676, "lon": 18.8890639, "way_id": 845373885, "landuse": "meadow", "closest_distance_restriction": 1.5805742634707955}, {"id": 1849609016, "lat": 51.6106478, "lon": 18.9959843, "way_id": 174278200, "landuse": "farmland", "closest_distance_restriction": 2.256617004599944}, {"id": 1849609027, "lat": 51.6111808, "lon": 18.9951474, "way_id": 174278200, "landuse": "farmland", "closest_distance_restriction": 2.1758071080591144}, {"id": 1849609034, "lat": 51.6071032, "lon": 19.0027864, "way_id": 174278182, "landuse": "farmland", "closest_distance_restriction": 1.8632077973554004}, {"id": 1849609035, "lat": 51.6110909, "lon": 18.9971516, "way_id": 174278200, "landuse": "farmland", "closest_distance_restriction": 2.298326865265195}, {"id": 1849609036, "lat": 51.6105812, "lon": 19.0005977, "way_id": 174278182, "landuse": "farmland", "closest_distance_restriction": 2.269380868806278}, {"id": 1849609038, "lat": 51.6069732, "lon": 19.0030524, "way_id": 174278182, "landuse": "farmland", "closest_distance_restriction": 1.8408925673961225}, {"id": 1849609040, "lat": 51.6127532, "lon": 18.992315, "way_id": 174278188, "landuse": "farmland", "closest_distance_restriction": 1.9170000553681175}, {"id": 1849609047, "lat": 51.6059871, "lon": 19.0066359, "way_id": 174278182, "landuse": "farmland", "closest_distance_restriction": 1.6169560482241534}, {"id": 1849609060, "lat": 51.6203742, "lon": 18.9928515, "way_id": 292088479, "landuse": "farmland", "closest_distance_restriction": 1.6747416740686372}, {"id": 1849609069, "lat": 51.6121535, "lon": 19.0014774, "way_id": 174278200, "landuse": "farmland", "closest_distance_restriction": 2.3893605977561276}, {"id": 1849609076, "lat": 51.6107844, "lon": 19.0170858, "way_id": 174278182, "landuse": "farmland", "closest_distance_restriction": 1.9445882478320804}, {"id": 1849609078, "lat": 51.6109576, "lon": 19.0168712, "way_id": 174278182, "landuse": "farmland", "closest_distance_restriction": 1.9644182771602332}, {"id": 1849609104, "lat": 51.6110342, "lon": 18.9974863, "way_id": 174278200, "landuse": "farmland", "closest_distance_restriction": 2.321359327501469}, {"id": 1849609109, "lat": 51.6121835, "lon": 19.0021298, "way_id": 174278182, "landuse": "farmland", "closest_distance_restriction": 2.370996390084836}, {"id": 1849609111, "lat": 51.6108077, "lon": 18.9976794, "way_id": 174278200, "landuse": "farmland", "closest_distance_restriction": 2.345841895279395}, {"id": 1849609127, "lat": 51.6110076, "lon": 19.0017993, "way_id": 174278182, "landuse": "farmland", "closest_distance_restriction": 2.2673198407983763}, {"id": 1849609132, "lat": 51.6100082, "lon": 18.9979584, "way_id": 174278200, "landuse": "farmland", "closest_distance_restriction": 2.3201903713188403}, {"id": 1849609134, "lat": 51.6095018, "lon": 18.9987309, "way_id": 174278182, "landuse": "farmland", "closest_distance_restriction": 2.2431588720124185}, {"id": 1849609136, "lat": 51.6104213, "lon": 18.9969284, "way_id": 174278200, "landuse": "farmland", "closest_distance_restriction": 2.32494570870037}, {"id": 1849609141, "lat": 51.6095688, "lon": 18.9877494, "way_id": 174278186, "landuse": "farmland", "closest_distance_restriction": 1.8938299001675167}, {"id": 1849609144, "lat": 51.6125859, "lon": 18.9887292, "way_id": 174278186, "landuse": "farmland", "closest_distance_restriction": 1.7224892257061244}, {"id": 1849609147, "lat": 51.6095851, "lon": 18.987281, "way_id": 174278186, "landuse": "farmland", "closest_distance_restriction": 1.8702012719770305}, {"id": 1849609151, "lat": 51.6113973, "lon": 18.9948556, "way_id": 174278200, "landuse": "farmland", "closest_distance_restriction": 2.1458218544046272}, {"id": 1849609154, "lat": 51.6098749, "lon": 18.99813, "way_id": 174278182, "landuse": "farmland", "closest_distance_restriction": 2.3012231760142643}, {"id": 1849609156, "lat": 51.6100648, "lon": 18.9986107, "way_id": 174278182, "landuse": "farmland", "closest_distance_restriction": 2.2985637811591757}, {"id": 1849609159, "lat": 51.6126532, "lon": 18.9887026, "way_id": 174278186, "landuse": "farmland", "closest_distance_restriction": 1.7165574348288926}, {"id": 1849609163, "lat": 51.6077728, "lon": 19.0000484, "way_id": 174278182, "landuse": "farmland", "closest_distance_restriction": 2.035002834904442}, {"id": 1849609168, "lat": 51.6072531, "lon": 19.0016791, "way_id": 174278182, "landuse": "farmland", "closest_distance_restriction": 1.9210837897480109}, {"id": 1849609184, "lat": 51.6102081, "lon": 18.9974649, "way_id": 174278200, "landuse": "farmland", "closest_distance_restriction": 2.3584537674628807}, {"id": 1849609188, "lat": 51.6117938, "lon": 18.9947183, "way_id": 174278200, "landuse": "farmland", "closest_distance_restriction": 2.1142540577040427}, {"id": 1849609190, "lat": 51.6117271, "lon": 18.9937741, "way_id": 174278188, "landuse": "farmland", "closest_distance_restriction": 2.063193017695042}, {"id": 1849609194, "lat": 51.6067067, "lon": 19.0051767, "way_id": 174278182, "landuse": "farmland", "closest_distance_restriction": 1.7367498840504045}, {"id": 1849609203, "lat": 51.6125999, "lon": 18.9877102, "way_id": 174278186, "landuse": "farmland", "closest_distance_restriction": 1.6655920708083374}, {"id": 1849609204, "lat": 51.6110209, "lon": 19.0011127, "way_id": 174278200, "landuse": "farmland", "closest_distance_restriction": 2.2925029162748682}, {"id": 1849609222, "lat": 51.6089421, "lon": 18.9870579, "way_id": 174278186, "landuse": "farmland", "closest_distance_restriction": 1.9126306679593819}, {"id": 1849609243, "lat": 51.6105845, "lon": 19.0000913, "way_id": 174278200, "landuse": "farmland", "closest_distance_restriction": 2.288507735838582}, {"id": 1849609250, "lat": 51.6193517, "lon": 18.9918086, "way_id": 292088479, "landuse": "farmland", "closest_distance_restriction": 1.6185221402907932}, {"id": 1849609251, "lat": 51.6065035, "lon": 19.0061552, "way_id": 174278182, "landuse": "farmland", "closest_distance_restriction": 1.6832775345909168}, {"id": 1849609254, "lat": 51.6201744, "lon": 18.9927871, "way_id": 292088479, "landuse": "farmland", "closest_distance_restriction": 1.6726141108486323}, {"id": 1849609256, "lat": 51.611434, "lon": 19.011069, "way_id": 174278182, "landuse": "farmland", "closest_distance_restriction": 2.0732001585334143}, {"id": 1849609262, "lat": 51.6127265, "lon": 18.9940531, "way_id": 174278188, "landuse": "farmland", "closest_distance_restriction": 2.0215111218535227}, {"id": 1849609266, "lat": 51.6126627, "lon": 18.9885798, "way_id": 174278186, "landuse": "farmland", "closest_distance_restriction": 1.7091155579000288}, {"id": 1849609268, "lat": 51.6104513, "lon": 19.0177939, "way_id": 174278182, "landuse": "farmland", "closest_distance_restriction": 1.9064080853425354}, {"id": 1849609276, "lat": 51.6101581, "lon": 18.998482, "way_id": 174278200, "landuse": "farmland", "closest_distance_restriction": 2.312177990720126}, {"id": 1849609279, "lat": 51.6107278, "lon": 19.017678, "way_id": 174278182, "landuse": "farmland", "closest_distance_restriction": 1.937254941485142}, {"id": 1849609287, "lat": 51.6089022, "lon": 18.9863712, "way_id": 174278186, "landuse": "farmland", "closest_distance_restriction": 1.8849350717236726}, {"id": 1849609288, "lat": 51.6126066, "lon": 18.9875514, "way_id": 174278186, "landuse": "farmland", "closest_distance_restriction": 1.6565074616637268}, {"id": 1849609293, "lat": 51.6215599, "lon": 18.9918859, "way_id": 292088479, "landuse": "farmland", "closest_distance_restriction": 1.6005306526628458}, {"id": 1849609294, "lat": 51.6126466, "lon": 18.9960111, "way_id": 174278200, "landuse": "farmland", "closest_distance_restriction": 2.143829313951479}, {"id": 1849609298, "lat": 51.6117138, "lon": 18.9949329, "way_id": 174278200, "landuse": "farmland", "closest_distance_restriction": 2.131535335435522}, {"id": 1849609341, "lat": 51.610851, "lon": 18.9974305, "way_id": 174278200, "landuse": "farmland", "closest_distance_restriction": 2.3286767355477793}, {"id": 1849609345, "lat": 51.6100348, "lon": 19.0177424, "way_id": 174278182, "landuse": "farmland", "closest_distance_restriction": 1.8601418272952723}, {"id": 1849609364, "lat": 51.6121402, "lon": 18.9922077, "way_id": 174278188, "landuse": "farmland", "closest_distance_restriction": 1.9475656169803914}, {"id": 1849609374, "lat": 51.6062902, "lon": 19.0066487, "way_id": 174278182, "landuse": "farmland", "closest_distance_restriction": 1.6459998600023904}, {"id": 1849609386, "lat": 51.6126725, "lon": 18.9950251, "way_id": 174278200, "landuse": "farmland", "closest_distance_restriction": 2.0828080344487483}, {"id": 2255467430, "lat": 51.5827633, "lon": 18.9873576, "way_id": 222472712, "landuse": "farmland", "closest_distance_restriction": 2.186798990712972}, {"id": 2255467437, "lat": 51.5826551, "lon": 18.9880121, "way_id": 222472712, "landuse": "farmland", "closest_distance_restriction": 2.2321200604244082}, {"id": 2314421499, "lat": 51.5853698, "lon": 18.9884788, "way_id": 222472712, "landuse": "farmland", "closest_distance_restriction": 2.122954328261846}, {"id": 2314421500, "lat": 51.582371, "lon": 18.9890046, "way_id": 222472707, "landuse": "farmland", "closest_distance_restriction": 2.1903665290354906}, {"id": 2314421501, "lat": 51.5812783, "lon": 18.979759, "way_id": 222472709, "landuse": "farmland", "closest_distance_restriction": 1.8550172339390503}, {"id": 2314421502, "lat": 51.5818517, "lon": 18.9804752, "way_id": 222472709, "landuse": "farmland", "closest_distance_restriction": 1.850905041102209}, {"id": 2314421503, "lat": 51.58243, "lon": 18.9807596, "way_id": 222472708, "landuse": "farmland", "closest_distance_restriction": 1.8262325275461504}, {"id": 2314421505, "lat": 51.5838567, "lon": 18.9813712, "way_id": 222472711, "landuse": "farmland", "closest_distance_restriction": 1.7695728792874796}, {"id": 2314421506, "lat": 51.5818333, "lon": 18.9799951, "way_id": 222472709, "landuse": "farmland", "closest_distance_restriction": 1.826746311855624}, {"id": 2314421507, "lat": 51.5803283, "lon": 18.9880756, "way_id": 222472706, "landuse": "farmland", "closest_distance_restriction": 2.3428589614617943}, {"id": 2314421508, "lat": 51.5840237, "lon": 18.9809329, "way_id": 222472711, "landuse": "farmland", "closest_distance_restriction": 1.7340562924298273}, {"id": 2314421509, "lat": 51.5855364, "lon": 18.9820954, "way_id": 222472711, "landuse": "farmland", "closest_distance_restriction": 1.7208965683059383}, {"id": 2314421510, "lat": 51.5856133, "lon": 18.9816222, "way_id": 222472711, "landuse": "farmland", "closest_distance_restriction": 1.6878346894115777}, {"id": 2314421511, "lat": 51.5822833, "lon": 18.9897671, "way_id": 222472707, "landuse": "farmland", "closest_distance_restriction": 2.1454390822450713}, {"id": 2314421513, "lat": 51.5812183, "lon": 18.9880147, "way_id": 222472706, "landuse": "farmland", "closest_distance_restriction": 2.3039135834538267}, {"id": 2314421514, "lat": 51.5800466, "lon": 18.9870733, "way_id": 222472706, "landuse": "farmland", "closest_distance_restriction": 2.334296515341995}, {"id": 2314421515, "lat": 51.5848131, "lon": 18.9906567, "way_id": 222472707, "landuse": "farmland", "closest_distance_restriction": 1.9932057481073873}, {"id": 2314421516, "lat": 51.5824333, "lon": 18.9802446, "way_id": 222472708, "landuse": "farmland", "closest_distance_restriction": 1.7979211371629698}, {"id": 2314421520, "lat": 51.5833633, "lon": 18.9806416, "way_id": 222472708, "landuse": "farmland", "closest_distance_restriction": 1.7582328645548064}, {"id": 2314421522, "lat": 51.581045, "lon": 18.9869955, "way_id": 222472706, "landuse": "farmland", "closest_distance_restriction": 2.2660720876982867}, {"id": 2314421524, "lat": 51.5833785, "lon": 18.9811652, "way_id": 222472708, "landuse": "farmland", "closest_distance_restriction": 1.7870273095355793}, {"id": 2314421526, "lat": 51.5812883, "lon": 18.9802311, "way_id": 222472709, "landuse": "farmland", "closest_distance_restriction": 1.8786583151330192}, {"id": 2314421528, "lat": 51.5852298, "lon": 18.9891279, "way_id": 222472712, "landuse": "farmland", "closest_distance_restriction": 2.0830963005965795}, {"id": 2314421529, "lat": 51.5849433, "lon": 18.9899478, "way_id": 222472707, "landuse": "farmland", "closest_distance_restriction": 2.0364147572391222}, {"id": 2314421899, "lat": 51.58089, "lon": 18.9921695, "way_id": 222472749, "landuse": "farmland", "closest_distance_restriction": 2.063316287692418}, {"id": 2314421901, "lat": 51.5805399, "lon": 18.9900398, "way_id": 222472749, "landuse": "farmland", "closest_distance_restriction": 2.211400824445956}, {"id": 2314421902, "lat": 51.5808966, "lon": 18.9917403, "way_id": 222472749, "landuse": "farmland", "closest_distance_restriction": 2.089034356989496}, {"id": 2314421903, "lat": 51.5791932, "lon": 18.9900935, "way_id": 222472749, "landuse": "farmland", "closest_distance_restriction": 2.281770475563918}, {"id": 2314421904, "lat": 51.58082, "lon": 18.9929036, "way_id": 222472749, "landuse": "farmland", "closest_distance_restriction": 2.02279234144994}, {"id": 2314421905, "lat": 51.5807599, "lon": 18.9909196, "way_id": 222472749, "landuse": "farmland", "closest_distance_restriction": 2.146219137216279}, {"id": 2314421906, "lat": 51.5792565, "lon": 18.9930109, "way_id": 222472749, "landuse": "farmland", "closest_distance_restriction": 2.107823962804966}, {"id": 2422155294, "lat": 51.5728692, "lon": 19.0076779, "way_id": 290409509, "landuse": "meadow", "closest_distance_restriction": 2.0217280024425737}, {"id": 2422155295, "lat": 51.573225, "lon": 19.0079854, "way_id": 290409509, "landuse": "meadow", "closest_distance_restriction": 1.97714261169025}, {"id": 2422155296, "lat": 51.5728452, "lon": 19.0078205, "way_id": 290409509, "landuse": "meadow", "closest_distance_restriction": 2.0206366022985307}, {"id": 2422155297, "lat": 51.5727857, "lon": 19.0078362, "way_id": 290409509, "landuse": "meadow", "closest_distance_restriction": 2.0264187245855734}, {"id": 2422155298, "lat": 51.5732489, "lon": 19.0078428, "way_id": 290409509, "landuse": "meadow", "closest_distance_restriction": 1.9782685401421758}, {"id": 2422155299, "lat": 51.5727614, "lon": 19.0079813, "way_id": 290409509, "landuse": "meadow", "closest_distance_restriction": 2.025365245881249}, {"id": 2422155303, "lat": 51.5724105, "lon": 19.0076733, "way_id": 290409509, "landuse": "meadow", "closest_distance_restriction": 2.0694036207201587}, {"id": 2425421026, "lat": 51.572561, "lon": 18.9986051, "way_id": 234273603, "landuse": "farmland", "closest_distance_restriction": 2.3530756218937166}, {"id": 2425421031, "lat": 51.572801, "lon": 18.9979567, "way_id": 234273603, "landuse": "farmland", "closest_distance_restriction": 2.357919271008392}, {"id": 2425421034, "lat": 51.572052, "lon": 18.9967454, "way_id": 234273603, "landuse": "farmland", "closest_distance_restriction": 2.4747952218480913}, {"id": 2425421036, "lat": 51.5712387, "lon": 18.9980052, "way_id": 234273603, "landuse": "farmland", "closest_distance_restriction": 2.4974105394226385}, {"id": 2425421045, "lat": 51.5728443, "lon": 18.9971042, "way_id": 234273603, "landuse": "farmland", "closest_distance_restriction": 2.389824347678238}, {"id": 2663433809, "lat": 51.7329025, "lon": 18.8796401, "way_id": 845382101, "landuse": "meadow", "closest_distance_restriction": 2.0481442017317595}, {"id": 2663433814, "lat": 51.7335009, "lon": 18.8804932, "way_id": 845382101, "landuse": "meadow", "closest_distance_restriction": 2.0016305839817856}, {"id": 2663433815, "lat": 51.7345577, "lon": 18.8817679, "way_id": 845382101, "landuse": "meadow", "closest_distance_restriction": 1.9421836035384354}, {"id": 2663433816, "lat": 51.7346468, "lon": 18.8821482, "way_id": 845382101, "landuse": "meadow", "closest_distance_restriction": 1.9194676520506453}, {"id": 2843803636, "lat": 51.5858, "lon": 18.991515, "way_id": 280234380, "landuse": "farmland", "closest_distance_restriction": 1.9078084314023096}, {"id": 2843803637, "lat": 51.5858633, "lon": 18.9916974, "way_id": 280234380, "landuse": "farmland", "closest_distance_restriction": 1.8939175998279436}, {"id": 2843803638, "lat": 51.5857667, "lon": 18.9913916, "way_id": 280234380, "landuse": "farmland", "closest_distance_restriction": 1.9169628011704867}, {"id": 2843803639, "lat": 51.5896563, "lon": 18.990013, "way_id": 280234379, "landuse": "farmland", "closest_distance_restriction": 1.9591601826230522}, {"id": 2843803640, "lat": 51.5896063, "lon": 18.9896965, "way_id": 280234379, "landuse": "farmland", "closest_distance_restriction": 1.9810762934278887}, {"id": 2843803641, "lat": 51.5859433, "lon": 18.9918476, "way_id": 280234380, "landuse": "farmland", "closest_distance_restriction": 1.8817770470639947}, {"id": 2843803642, "lat": 51.5855882, "lon": 18.9887236, "way_id": 280234379, "landuse": "farmland", "closest_distance_restriction": 2.1009629352489494}, {"id": 2843803643, "lat": 51.58561, "lon": 18.9884144, "way_id": 280234379, "landuse": "farmland", "closest_distance_restriction": 2.117667731825444}, {"id": 2843803644, "lat": 51.5895763, "lon": 18.9894229, "way_id": 280234379, "landuse": "farmland", "closest_distance_restriction": 2.000014808459382}, {"id": 2843803645, "lat": 51.5883679, "lon": 18.9890509, "way_id": 280234379, "landuse": "farmland", "closest_distance_restriction": 2.031787021601547}, {"id": 2843803646, "lat": 51.5850749, "lon": 18.9922427, "way_id": 280234380, "landuse": "farmland", "closest_distance_restriction": 1.8798551612289744}, {"id": 2843803647, "lat": 51.5883346, "lon": 18.9893083, "way_id": 280234379, "landuse": "farmland", "closest_distance_restriction": 2.0143546954441356}, {"id": 2843803648, "lat": 51.5866333, "lon": 18.9927059, "way_id": 280234380, "landuse": "farmland", "closest_distance_restriction": 1.807603800739338}, {"id": 2843803649, "lat": 51.5852, "lon": 18.9912092, "way_id": 280234380, "landuse": "farmland", "closest_distance_restriction": 1.9448198725165897}, {"id": 2844505704, "lat": 51.5723116, "lon": 19.0076018, "way_id": 290409509, "landuse": "meadow", "closest_distance_restriction": 2.081440425476908}, {"id": 2844505706, "lat": 51.5721169, "lon": 19.0078939, "way_id": 290409509, "landuse": "meadow", "closest_distance_restriction": 2.094612797580162}, {"id": 2844505713, "lat": 51.5721754, "lon": 19.007543, "way_id": 290409509, "landuse": "meadow", "closest_distance_restriction": 2.0970378075959006}, {"id": 2849384619, "lat": 51.5737095, "lon": 19.0078234, "way_id": 290409509, "landuse": "meadow", "closest_distance_restriction": 1.9312367782508417}, {"id": 2849384627, "lat": 51.573733, "lon": 19.0076787, "way_id": 290409509, "landuse": "meadow", "closest_distance_restriction": 1.932617142797937}, {"id": 2849384633, "lat": 51.5733518, "lon": 19.0075182, "way_id": 290409509, "landuse": "meadow", "closest_distance_restriction": 1.9760347705032146}, {"id": 2849384635, "lat": 51.5733283, "lon": 19.007663, "way_id": 290409509, "landuse": "meadow", "closest_distance_restriction": 1.9746820783009682}, {"id": 2874446668, "lat": 51.6006657, "lon": 18.9845356, "way_id": 153340852, "landuse": "farmland", "closest_distance_restriction": 1.8941492610234356}, {"id": 2874446670, "lat": 51.6005043, "lon": 18.9843673, "way_id": 153340871, "landuse": "farmland", "closest_distance_restriction": 1.8759898127773296}, {"id": 2874446677, "lat": 51.5962671, "lon": 18.9881597, "way_id": 153340849, "landuse": "farmland", "closest_distance_restriction": 1.9881133989479443}, {"id": 2874446678, "lat": 51.5959871, "lon": 18.9882588, "way_id": 153340849, "landuse": "farmland", "closest_distance_restriction": 1.990072961385628}, {"id": 2874446683, "lat": 51.6003306, "lon": 18.9857958, "way_id": 153340852, "landuse": "farmland", "closest_distance_restriction": 1.9581130962837376}, {"id": 2874446692, "lat": 51.6016948, "lon": 18.9848086, "way_id": 153340852, "landuse": "farmland", "closest_distance_restriction": 1.9625350665032493}, {"id": 2874446696, "lat": 51.6005152, "lon": 18.9845204, "way_id": 153340871, "landuse": "farmland", "closest_distance_restriction": 1.8860868666466002}, {"id": 2874447703, "lat": 51.5971146, "lon": 18.9870373, "way_id": 153340849, "landuse": "farmland", "closest_distance_restriction": 1.929786472326931}, {"id": 2874447705, "lat": 51.6008366, "lon": 18.9846374, "way_id": 153340852, "landuse": "farmland", "closest_distance_restriction": 1.908697496308911}, {"id": 2874447708, "lat": 51.6005619, "lon": 18.984519, "way_id": 153340852, "landuse": "farmland", "closest_distance_restriction": 1.888193711269499}, {"id": 2874447709, "lat": 51.6017925, "lon": 18.985535, "way_id": 153340852, "landuse": "farmland", "closest_distance_restriction": 2.011943505989622}, {"id": 2874447720, "lat": 51.5998443, "lon": 18.9836061, "way_id": 153340871, "landuse": "farmland", "closest_distance_restriction": 1.7978472678653823}, {"id": 2904893926, "lat": 51.5728109, "lon": 19.0014124, "way_id": 149520528, "landuse": "meadow", "closest_distance_restriction": 2.2223879331877034}, {"id": 2904893949, "lat": 51.5727591, "lon": 19.0015724, "way_id": 149520528, "landuse": "meadow", "closest_distance_restriction": 2.2214879791607136}, {"id": 2904893974, "lat": 51.5728262, "lon": 19.0013642, "way_id": 149520528, "landuse": "meadow", "closest_distance_restriction": 2.2227014393827633}, {"id": 2904896321, "lat": 51.5728882, "lon": 19.0013198, "way_id": 149520528, "landuse": "meadow", "closest_distance_restriction": 2.218480016302677}, {"id": 2904902102, "lat": 51.5712021, "lon": 18.9981203, "way_id": 149520531, "landuse": "farmland", "closest_distance_restriction": 2.4963072065114233}, {"id": 2904902110, "lat": 51.5725981, "lon": 18.9985725, "way_id": 234273603, "landuse": "farmland", "closest_distance_restriction": 2.351027223215044}, {"id": 2906407145, "lat": 51.5676057, "lon": 19.0011122, "way_id": 286974304, "landuse": "farmland", "closest_distance_restriction": 2.7402819580518565}, {"id": 2906407146, "lat": 51.5643663, "lon": 19.0058107, "way_id": 286974303, "landuse": "farmland", "closest_distance_restriction": 2.9499789854018537}, {"id": 2906407147, "lat": 51.5674541, "lon": 19.0021415, "way_id": 286974304, "landuse": "farmland", "closest_distance_restriction": 2.725439468487129}, {"id": 2906407148, "lat": 51.5684292, "lon": 19.0011391, "way_id": 286974304, "landuse": "farmland", "closest_distance_restriction": 2.657300400528609}, {"id": 2906407149, "lat": 51.5681257, "lon": 18.9988597, "way_id": 286974304, "landuse": "farmland", "closest_distance_restriction": 2.7609140126365586}, {"id": 2906407150, "lat": 51.5657068, "lon": 18.9994163, "way_id": 286974303, "landuse": "farmland", "closest_distance_restriction": 2.9814292945658583}, {"id": 2906407151, "lat": 51.569228, "lon": 19.0019161, "way_id": 286974301, "landuse": "farmland", "closest_distance_restriction": 2.5538443485688394}, {"id": 2906407155, "lat": 51.5692947, "lon": 19.0015836, "way_id": 286974301, "landuse": "farmland", "closest_distance_restriction": 2.5575437369953353}, {"id": 2906407157, "lat": 51.5682277, "lon": 19.0025062, "way_id": 286974304, "landuse": "farmland", "closest_distance_restriction": 2.636694635711741}, {"id": 2906407158, "lat": 51.5675208, "lon": 19.0027745, "way_id": 286974304, "landuse": "farmland", "closest_distance_restriction": 2.7009314583643143}, {"id": 2906407160, "lat": 51.5672425, "lon": 18.9995782, "way_id": 286974304, "landuse": "farmland", "closest_distance_restriction": 2.823851600469704}, {"id": 2906407162, "lat": 51.5633392, "lon": 19.0053816, "way_id": 286974303, "landuse": "farmland", "closest_distance_restriction": 3.0644469304773985}, {"id": 2906407163, "lat": 51.5629057, "lon": 19.0062399, "way_id": 286974303, "landuse": "farmland", "closest_distance_restriction": 3.0796288399391534}, {"id": 2906407164, "lat": 51.5658202, "lon": 19.000103, "way_id": 286974304, "landuse": "farmland", "closest_distance_restriction": 2.949487089791579}, {"id": 2906407169, "lat": 51.5665872, "lon": 19.005403, "way_id": 286974303, "landuse": "farmland", "closest_distance_restriction": 2.7315756133173608}, {"id": 2906407170, "lat": 51.5629657, "lon": 19.006315, "way_id": 286974303, "landuse": "farmland", "closest_distance_restriction": 3.0713296299382464}, {"id": 2906407173, "lat": 51.5643263, "lon": 18.9992554, "way_id": 286974303, "landuse": "farmland", "closest_distance_restriction": 3.1247478904706725}, {"id": 2906407174, "lat": 51.5687279, "lon": 18.9990301, "way_id": 286974304, "landuse": "farmland", "closest_distance_restriction": 2.696818432798198}, {"id": 2906407175, "lat": 51.5671893, "lon": 18.9992052, "way_id": 286974304, "landuse": "farmland", "closest_distance_restriction": 2.8410296162831723}, {"id": 2906407177, "lat": 51.5657135, "lon": 19.0029139, "way_id": 286974304, "landuse": "farmland", "closest_distance_restriction": 2.882740914554596}, {"id": 2906407178, "lat": 51.5692947, "lon": 19.0019591, "way_id": 286974301, "landuse": "farmland", "closest_distance_restriction": 2.545880116873304}, {"id": 2906407180, "lat": 51.5657869, "lon": 19.0001995, "way_id": 286974304, "landuse": "farmland", "closest_distance_restriction": 2.9499895691684235}, {"id": 2906407182, "lat": 51.5684811, "lon": 19.0036757, "way_id": 286974301, "landuse": "farmland", "closest_distance_restriction": 2.578207831341139}, {"id": 2906407183, "lat": 51.5641195, "lon": 19.0059502, "way_id": 286974303, "landuse": "farmland", "closest_distance_restriction": 2.9694300391537083}, {"id": 2906407185, "lat": 51.5642529, "lon": 19.0058107, "way_id": 286974303, "landuse": "farmland", "closest_distance_restriction": 2.961026281480687}, {"id": 2906407186, "lat": 51.5657668, "lon": 19.0073128, "way_id": 286974303, "landuse": "farmland", "closest_distance_restriction": 2.763515349507631}, {"id": 2906407187, "lat": 51.5682117, "lon": 19.0036065, "way_id": 286974301, "landuse": "farmland", "closest_distance_restriction": 2.6076374188030673}, {"id": 2906407191, "lat": 51.5685985, "lon": 18.9999909, "way_id": 286974304, "landuse": "farmland", "closest_distance_restriction": 2.677199268050808}, {"id": 2906407193, "lat": 51.5685745, "lon": 19.0012724, "way_id": 286974301, "landuse": "farmland", "closest_distance_restriction": 2.638728509574239}, {"id": 2906407194, "lat": 51.5681789, "lon": 18.9992327, "way_id": 286974304, "landuse": "farmland", "closest_distance_restriction": 2.7432348218107223}, {"id": 2906407197, "lat": 51.5677676, "lon": 19.0010471, "way_id": 286974304, "landuse": "farmland", "closest_distance_restriction": 2.7260566393940033}, {"id": 2906407198, "lat": 51.5675075, "lon": 19.0004141, "way_id": 286974304, "landuse": "farmland", "closest_distance_restriction": 2.7713779330875434}, {"id": 2906407200, "lat": 51.5639861, "lon": 19.0060038, "way_id": 286974303, "landuse": "farmland", "closest_distance_restriction": 2.9807223988217664}, {"id": 2906410002, "lat": 51.5656135, "lon": 19.0043945, "way_id": 286974303, "landuse": "farmland", "closest_distance_restriction": 2.856880619359583}, {"id": 2906410004, "lat": 51.5678343, "lon": 19.0014012, "way_id": 286974304, "landuse": "farmland", "closest_distance_restriction": 2.7087126581655467}, {"id": 2939406216, "lat": 51.5733103, "lon": 19.0077414, "way_id": 290409509, "landuse": "meadow", "closest_distance_restriction": 1.9745164928477423}, {"id": 2939406221, "lat": 51.5734722, "lon": 19.006234, "way_id": 290409509, "landuse": "meadow", "closest_distance_restriction": 1.9992239424608205}, {"id": 2939406222, "lat": 51.5729021, "lon": 19.0079073, "way_id": 290409509, "landuse": "meadow", "closest_distance_restriction": 2.012574444205451}, {"id": 2939406223, "lat": 51.571931, "lon": 19.0075631, "way_id": 290409509, "landuse": "meadow", "closest_distance_restriction": 2.1219589098876406}, {"id": 2939406227, "lat": 51.5736589, "lon": 19.0078818, "way_id": 290409509, "landuse": "meadow", "closest_distance_restriction": 1.9349334161680725}, {"id": 2939406237, "lat": 51.573238, "lon": 19.0061428, "way_id": 290409509, "landuse": "meadow", "closest_distance_restriction": 2.025514790481656}, {"id": 2939406249, "lat": 51.574159, "lon": 19.0074554, "way_id": 290409509, "landuse": "meadow", "closest_distance_restriction": 1.8950194098984257}, {"id": 2939406252, "lat": 51.5727729, "lon": 19.0080508, "way_id": 290409509, "landuse": "meadow", "closest_distance_restriction": 2.0224713288283525}, {"id": 2939406258, "lat": 51.5720368, "lon": 19.0071044, "way_id": 290409509, "landuse": "meadow", "closest_distance_restriction": 2.1223710470110633}, {"id": 2939406260, "lat": 51.574109, "lon": 19.0074393, "way_id": 290409509, "landuse": "meadow", "closest_distance_restriction": 1.9005631186910572}, {"id": 2939406264, "lat": 51.5728229, "lon": 19.0078684, "way_id": 290409509, "landuse": "meadow", "closest_distance_restriction": 2.0217591109294246}, {"id": 2939406271, "lat": 51.5740465, "lon": 19.0076087, "way_id": 290409509, "landuse": "meadow", "closest_distance_restriction": 1.9023365672205457}, {"id": 2939406273, "lat": 51.5719143, "lon": 19.007728, "way_id": 290409509, "landuse": "meadow", "closest_distance_restriction": 2.1197171920141216}, {"id": 2939406276, "lat": 51.5741897, "lon": 19.0066258, "way_id": 290409509, "landuse": "meadow", "closest_distance_restriction": 1.9154621292641871}, {"id": 2939406279, "lat": 51.5728237, "lon": 19.0078832, "way_id": 290409509, "landuse": "meadow", "closest_distance_restriction": 2.0213092167280924}, {"id": 2939406290, "lat": 51.5728904, "lon": 19.007914, "way_id": 290409509, "landuse": "meadow", "closest_distance_restriction": 2.0136224905654987}, {"id": 2939406292, "lat": 51.5720194, "lon": 19.007104, "way_id": 290409509, "landuse": "meadow", "closest_distance_restriction": 2.1241812784934506}, {"id": 2939406293, "lat": 51.5719243, "lon": 19.0077978, "way_id": 290409509, "landuse": "meadow", "closest_distance_restriction": 2.1170050186920775}, {"id": 2939406295, "lat": 51.572707, "lon": 19.0080213, "way_id": 290409509, "landuse": "meadow", "closest_distance_restriction": 2.030047470136302}, {"id": 2939406297, "lat": 51.5721136, "lon": 19.007914, "way_id": 290409509, "landuse": "meadow", "closest_distance_restriction": 2.094477597177105}, {"id": 2939406298, "lat": 51.5737306, "lon": 19.007906, "way_id": 290409509, "landuse": "meadow", "closest_distance_restriction": 1.926915161332987}, {"id": 2939406299, "lat": 51.5719994, "lon": 19.0071228, "way_id": 290409509, "landuse": "meadow", "closest_distance_restriction": 2.1257753402775235}, {"id": 2939406501, "lat": 51.5741819, "lon": 19.0066111, "way_id": 290409509, "landuse": "meadow", "closest_distance_restriction": 1.9166782083252}, {"id": 2939406503, "lat": 51.5719185, "lon": 19.0077669, "way_id": 290409509, "landuse": "meadow", "closest_distance_restriction": 2.1183479382228314}, {"id": 2939406510, "lat": 51.5729094, "lon": 19.0078484, "way_id": 290409509, "landuse": "meadow", "closest_distance_restriction": 2.013283131830189}, {"id": 2939406517, "lat": 51.5730738, "lon": 19.0070892, "way_id": 290409509, "landuse": "meadow", "closest_distance_restriction": 2.015945765682375}, {"id": 2939406532, "lat": 51.5719302, "lon": 19.0078188, "way_id": 290409509, "landuse": "meadow", "closest_distance_restriction": 2.1158887934018136}, {"id": 2939406533, "lat": 51.5731803, "lon": 19.007966, "way_id": 290409509, "landuse": "meadow", "closest_distance_restriction": 1.9822608106390798}, {"id": 2939406535, "lat": 51.5732555, "lon": 19.0080669, "way_id": 290409509, "landuse": "meadow", "closest_distance_restriction": 1.9719424883040004}, {"id": 2939406537, "lat": 51.5735114, "lon": 19.0063172, "way_id": 290409509, "landuse": "meadow", "closest_distance_restriction": 1.9928583539768274}, {"id": 2939406538, "lat": 51.5731947, "lon": 19.0071416, "way_id": 290409509, "landuse": "meadow", "closest_distance_restriction": 2.00214846008524}, {"id": 2939406543, "lat": 51.5731704, "lon": 19.0080311, "way_id": 290409509, "landuse": "meadow", "closest_distance_restriction": 1.981660537378963}, {"id": 2939406545, "lat": 51.571921, "lon": 19.0076659, "way_id": 290409509, "landuse": "meadow", "closest_distance_restriction": 2.12051148288619}, {"id": 2939406547, "lat": 51.5733833, "lon": 19.0077721, "way_id": 290409509, "landuse": "meadow", "closest_distance_restriction": 1.9661927444160578}, {"id": 2939406548, "lat": 51.5728071, "lon": 19.0078604, "way_id": 290409509, "landuse": "meadow", "closest_distance_restriction": 2.023597373852922}, {"id": 2939406551, "lat": 51.5720385, "lon": 19.006977, "way_id": 290409509, "landuse": "meadow", "closest_distance_restriction": 2.1254402717987686}, {"id": 2939406552, "lat": 51.5731254, "lon": 19.0075778, "way_id": 290409509, "landuse": "meadow", "closest_distance_restriction": 1.9978085972192678}, {"id": 2939406556, "lat": 51.5739523, "lon": 19.0076646, "way_id": 290409509, "landuse": "meadow", "closest_distance_restriction": 1.9104833794846026}, {"id": 2939406557, "lat": 51.5727163, "lon": 19.0079617, "way_id": 290409509, "landuse": "meadow", "closest_distance_restriction": 2.030534762266583}, {"id": 2939406558, "lat": 51.5733964, "lon": 19.0076916, "way_id": 290409509, "landuse": "meadow", "closest_distance_restriction": 1.9669209551196174}, {"id": 2939406559, "lat": 51.5723063, "lon": 19.0076335, "way_id": 290409509, "landuse": "meadow", "closest_distance_restriction": 2.0812089626497885}, {"id": 2939406560, "lat": 51.5719452, "lon": 19.0078362, "way_id": 290409509, "landuse": "meadow", "closest_distance_restriction": 2.113908746997575}, {"id": 2939406564, "lat": 51.5736698, "lon": 19.0078067, "way_id": 290409509, "landuse": "meadow", "closest_distance_restriction": 1.9357604794017882}, {"id": 2939406567, "lat": 51.5740073, "lon": 19.0076995, "way_id": 290409509, "landuse": "meadow", "closest_distance_restriction": 1.9039108329076582}, {"id": 2939406569, "lat": 51.5739631, "lon": 19.0075738, "way_id": 290409509, "landuse": "meadow", "closest_distance_restriction": 1.9118157502078204}, {"id": 2939406570, "lat": 51.5720552, "lon": 19.0069766, "way_id": 290409509, "landuse": "meadow", "closest_distance_restriction": 2.123725718353106}, {"id": 2982600214, "lat": 51.603562, "lon": 18.9774387, "way_id": 294669243, "landuse": "farmland", "closest_distance_restriction": 1.666409421719677}, {"id": 2982600224, "lat": 51.6045782, "lon": 18.9777445, "way_id": 294669243, "landuse": "farmland", "closest_distance_restriction": 1.7601009006066768}, {"id": 2982600228, "lat": 51.6046781, "lon": 18.9765718, "way_id": 294669243, "landuse": "farmland", "closest_distance_restriction": 1.69267443968648}, {"id": 2982600229, "lat": 51.6036653, "lon": 18.9764409, "way_id": 294669243, "landuse": "farmland", "closest_distance_restriction": 1.6246666436524844}, {"id": 2982600237, "lat": 51.602719, "lon": 18.9772188, "way_id": 294669251, "landuse": "farmland", "closest_distance_restriction": 1.5925696562626428}, {"id": 2982600257, "lat": 51.6037252, "lon": 18.9764034, "way_id": 294669243, "landuse": "farmland", "closest_distance_restriction": 1.627538518196307}, {"id": 3040776066, "lat": 51.6053382, "lon": 18.9898115, "way_id": 153340852, "landuse": "farmland", "closest_distance_restriction": 2.342033705613728}, {"id": 3040776069, "lat": 51.599469, "lon": 18.9908209, "way_id": 153340852, "landuse": "farmland", "closest_distance_restriction": 2.004827515573259}, {"id": 3040776090, "lat": 51.5958618, "lon": 18.9827867, "way_id": 299970426, "landuse": "farmland", "closest_distance_restriction": 1.6146581117624355}, {"id": 3040776094, "lat": 51.590481, "lon": 18.9947112, "way_id": 299970424, "landuse": "farmland", "closest_distance_restriction": 1.6363029354328693}, {"id": 3040776096, "lat": 51.5899031, "lon": 18.9945991, "way_id": 299970424, "landuse": "farmland", "closest_distance_restriction": 1.6423152526664972}, {"id": 3040776100, "lat": 51.5940223, "lon": 18.9826365, "way_id": 299970426, "landuse": "farmland", "closest_distance_restriction": 1.5819393138171665}, {"id": 3040776102, "lat": 51.5938337, "lon": 18.9854737, "way_id": 299970426, "landuse": "farmland", "closest_distance_restriction": 1.777004167828825}, {"id": 3040777561, "lat": 51.5940356, "lon": 18.9860482, "way_id": 299970426, "landuse": "farmland", "closest_distance_restriction": 1.817453042007521}, {"id": 3040777576, "lat": 51.5938423, "lon": 18.9852329, "way_id": 299970426, "landuse": "farmland", "closest_distance_restriction": 1.7604058702116412}, {"id": 3040777581, "lat": 51.5939423, "lon": 18.985898, "way_id": 299970426, "landuse": "farmland", "closest_distance_restriction": 1.8066890669481686}, {"id": 3040777583, "lat": 51.5942602, "lon": 18.9862462, "way_id": 299970426, "landuse": "farmland", "closest_distance_restriction": 1.8323032684315248}, {"id": 3040777606, "lat": 51.5938623, "lon": 18.9857371, "way_id": 299970426, "landuse": "farmland", "closest_distance_restriction": 1.7952863936029086}, {"id": 3185288821, "lat": 51.5823516, "lon": 18.9761915, "way_id": 312662359, "landuse": "farmland", "closest_distance_restriction": 1.593770140861831}, {"id": 3185288823, "lat": 51.5809182, "lon": 18.9762934, "way_id": 312662359, "landuse": "farmland", "closest_distance_restriction": 1.7143471523164324}, {"id": 3185288824, "lat": 51.5809315, "lon": 18.9761137, "way_id": 312662359, "landuse": "farmland", "closest_distance_restriction": 1.705009028249051}, {"id": 3185288826, "lat": 51.5809799, "lon": 18.9759984, "way_id": 312662359, "landuse": "farmland", "closest_distance_restriction": 1.6957059841303106}, {"id": 3185288827, "lat": 51.5824566, "lon": 18.9759179, "way_id": 312662359, "landuse": "farmland", "closest_distance_restriction": 1.5721300299991414}, {"id": 7887074667, "lat": 51.7359149, "lon": 18.8840833, "way_id": 845373885, "landuse": "meadow", "closest_distance_restriction": 1.8249578337333614}, {"id": 7887074668, "lat": 51.7353463, "lon": 18.8837367, "way_id": 845382101, "landuse": "meadow", "closest_distance_restriction": 1.8314812367423936}, {"id": 7887074669, "lat": 51.7353704, "lon": 18.8829612, "way_id": 845382101, "landuse": "meadow", "closest_distance_restriction": 1.8839587336388646}, {"id": 7887214088, "lat": 51.7335123, "lon": 18.8774006, "way_id": 845382101, "landuse": "meadow", "closest_distance_restriction": 2.211335758594778}, {"id": 7887214089, "lat": 51.7329253, "lon": 18.8795113, "way_id": 845382101, "landuse": "meadow", "closest_distance_restriction": 2.057297446798126}, {"id": 7887214090, "lat": 51.7358514, "lon": 18.8848689, "way_id": 845382101, "landuse": "meadow", "closest_distance_restriction": 1.7710574061439832}, {"id": 7887214091, "lat": 51.735846, "lon": 18.8841312, "way_id": 845382101, "landuse": "meadow", "closest_distance_restriction": 1.8196645656080512}, {"id": 7887214092, "lat": 51.7353604, "lon": 18.8814953, "way_id": 845382101, "landuse": "meadow", "closest_distance_restriction": 1.981896634214036}, {"id": 7887903134, "lat": 51.7345118, "lon": 18.8777767, "way_id": 845468470, "landuse": "meadow", "closest_distance_restriction": 2.2078740207224516}, {"id": 7887903135, "lat": 51.7343289, "lon": 18.8773246, "way_id": 845468470, "landuse": "meadow", "closest_distance_restriction": 2.233860475107055}, {"id": 7887903136, "lat": 51.7344045, "lon": 18.8775847, "way_id": 845468470, "landuse": "meadow", "closest_distance_restriction": 2.2181567204290715}, {"id": 7887903137, "lat": 51.7342428, "lon": 18.8771751, "way_id": 845468470, "landuse": "meadow", "closest_distance_restriction": 2.241935060905484}, {"id": 7887903138, "lat": 51.7341153, "lon": 18.877143, "way_id": 845468470, "landuse": "meadow", "closest_distance_restriction": 2.241225947748202}, {"id": 7887903139, "lat": 51.7339725, "lon": 18.8770418, "way_id": 845468470, "landuse": "meadow", "closest_distance_restriction": 2.2449499484333333}, {"id": 7887903140, "lat": 51.7335161, "lon": 18.8760119, "way_id": 845468470, "landuse": "meadow", "closest_distance_restriction": 2.305673037789942}, {"id": 7887903141, "lat": 51.7337496, "lon": 18.8764672, "way_id": 845468470, "landuse": "meadow", "closest_distance_restriction": 2.2792430427685866}, {"id": 7887903159, "lat": 51.7330175, "lon": 18.8754929, "way_id": 845468470, "landuse": "meadow", "closest_distance_restriction": 2.3325587338948957}]}