{"nodes": [{"id": 1923339289, "lat": 49.8779471, "lon": 21.7142201, "way_id": 181982910, "landuse": "farmland", "closest_distance_restriction": 3.3652051159979037}, {"id": 1923339290, "lat": 49.8612528, "lon": 21.6584259, "way_id": 181982910, "landuse": "farmland", "closest_distance_restriction": 2.2808106750754087}, {"id": 1923339291, "lat": 49.8709069, "lon": 21.6752701, "way_id": 181982910, "landuse": "farmland", "closest_distance_restriction": 3.8904753861312957}, {"id": 1923339292, "lat": 49.8699817, "lon": 21.6821623, "way_id": 181982910, "landuse": "farmland", "closest_distance_restriction": 4.232533365780069}, {"id": 1923339293, "lat": 49.8615156, "lon": 21.6882735, "way_id": 181982910, "landuse": "farmland", "closest_distance_restriction": 3.5012511723643276}, {"id": 1923339294, "lat": 49.8619721, "lon": 21.6895609, "way_id": 181982910, "landuse": "farmland", "closest_distance_restriction": 3.448396614865128}, {"id": 1923339296, "lat": 49.8741015, "lon": 21.7182069, "way_id": 181982910, "landuse": "farmland", "closest_distance_restriction": 3.0873146518096077}, {"id": 1923339298, "lat": 49.877365, "lon": 21.718164, "way_id": 181983256, "landuse": "farmland", "closest_distance_restriction": 3.080265366879486}, {"id": 1923339300, "lat": 49.8690966, "lon": 21.7087055, "way_id": 181982910, "landuse": "farmland", "closest_distance_restriction": 3.0401192755465485}, {"id": 1923339302, "lat": 49.8615447, "lon": 21.6602326, "way_id": 181982910, "landuse": "farmland", "closest_distance_restriction": 2.404925373340185}, {"id": 1923339303, "lat": 49.8728984, "lon": 21.7126923, "way_id": 181982910, "landuse": "farmland", "closest_distance_restriction": 3.2849578414805722}, {"id": 1923339306, "lat": 49.8699126, "lon": 21.6736007, "way_id": 181982910, "landuse": "farmland", "closest_distance_restriction": 3.7294348358604648}, {"id": 1923339307, "lat": 49.8619458, "lon": 21.6621852, "way_id": 181982910, "landuse": "farmland", "closest_distance_restriction": 2.5454620773988994}, {"id": 1923339308, "lat": 49.872554, "lon": 21.6890502, "way_id": 181982910, "landuse": "farmland", "closest_distance_restriction": 4.215487621433426}, {"id": 1923339309, "lat": 49.8625946, "lon": 21.6645842, "way_id": 181982910, "landuse": "farmland", "closest_distance_restriction": 2.728542736199123}, {"id": 1923339310, "lat": 49.8685572, "lon": 21.6578508, "way_id": 181982910, "landuse": "farmland", "closest_distance_restriction": 2.7548903296268112}, {"id": 1923339314, "lat": 49.8733838, "lon": 21.6896296, "way_id": 181982910, "landuse": "farmland", "closest_distance_restriction": 4.252863732707912}, {"id": 1923339316, "lat": 49.8745731, "lon": 21.699543, "way_id": 181982910, "landuse": "farmland", "closest_distance_restriction": 3.9076307653421534}, {"id": 1923339317, "lat": 49.8737018, "lon": 21.6901875, "way_id": 181982910, "landuse": "farmland", "closest_distance_restriction": 4.2513655500841026}, {"id": 1923339319, "lat": 49.8720838, "lon": 21.6937924, "way_id": 181982910, "landuse": "farmland", "closest_distance_restriction": 3.9444841802516537}, {"id": 1923339321, "lat": 49.8744209, "lon": 21.6974831, "way_id": 181982910, "landuse": "farmland", "closest_distance_restriction": 3.9795042723577487}, {"id": 1923339322, "lat": 49.8713509, "lon": 21.6673565, "way_id": 181982910, "landuse": "farmland", "closest_distance_restriction": 3.468215964447354}, {"id": 1923339323, "lat": 49.870286, "lon": 21.6739655, "way_id": 181982910, "landuse": "farmland", "closest_distance_restriction": 3.774338136408461}, {"id": 1923339324, "lat": 49.8614755, "lon": 21.6937709, "way_id": 181982910, "landuse": "farmland", "closest_distance_restriction": 3.1648524218775482}, {"id": 1923339325, "lat": 49.8729827, "lon": 21.6919256, "way_id": 181982910, "landuse": "farmland", "closest_distance_restriction": 4.10827536945168}, {"id": 1923339326, "lat": 49.8688615, "lon": 21.6625929, "way_id": 181982910, "landuse": "farmland", "closest_distance_restriction": 3.0288065381894254}, {"id": 1923339327, "lat": 49.8646015, "lon": 21.7075253, "way_id": 181982910, "landuse": "farmland", "closest_distance_restriction": 2.6744713022369297}, {"id": 1923339328, "lat": 49.8703275, "lon": 21.6772056, "way_id": 181982910, "landuse": "farmland", "closest_distance_restriction": 3.9630145299800863}, {"id": 1923339329, "lat": 49.8703828, "lon": 21.6764117, "way_id": 181982910, "landuse": "farmland", "closest_distance_restriction": 3.9211465630260927}, {"id": 1923339330, "lat": 49.8738401, "lon": 21.6942645, "way_id": 181982910, "landuse": "farmland", "closest_distance_restriction": 4.070607698146311}, {"id": 1923339331, "lat": 49.8654453, "lon": 21.6770983, "way_id": 181982910, "landuse": "farmland", "closest_distance_restriction": 3.659255867980312}, {"id": 1923339332, "lat": 49.8670912, "lon": 21.6550828, "way_id": 181982910, "landuse": "farmland", "closest_distance_restriction": 2.4992128678490917}, {"id": 1923339333, "lat": 49.8731335, "lon": 21.7173486, "way_id": 181982910, "landuse": "farmland", "closest_distance_restriction": 3.1519046363403884}, {"id": 1923339334, "lat": 49.8654577, "lon": 21.7079287, "way_id": 181982910, "landuse": "farmland", "closest_distance_restriction": 2.733075802814906}, {"id": 1923339335, "lat": 49.8705764, "lon": 21.6870118, "way_id": 181982910, "landuse": "farmland", "closest_distance_restriction": 4.1701051346257385}, {"id": 1923339336, "lat": 49.870687, "lon": 21.6754246, "way_id": 181982910, "landuse": "farmland", "closest_distance_restriction": 3.8857466853582987}, {"id": 1923339337, "lat": 49.8752645, "lon": 21.7171813, "way_id": 181983256, "landuse": "farmland", "closest_distance_restriction": 3.152232261601031}, {"id": 1923339338, "lat": 49.8759974, "lon": 21.7174602, "way_id": 181983256, "landuse": "farmland", "closest_distance_restriction": 3.129730994236901}, {"id": 1923339339, "lat": 49.8628172, "lon": 21.7054224, "way_id": 181982910, "landuse": "farmland", "closest_distance_restriction": 2.6214947805802264}, {"id": 1923339340, "lat": 49.8780024, "lon": 21.7159367, "way_id": 181982910, "landuse": "farmland", "closest_distance_restriction": 3.242654348412339}, {"id": 1923339341, "lat": 49.8782237, "lon": 21.7161298, "way_id": 181982910, "landuse": "farmland", "closest_distance_restriction": 3.230196421669001}, {"id": 1923339342, "lat": 49.8712541, "lon": 21.6864539, "way_id": 181982910, "landuse": "farmland", "closest_distance_restriction": 4.250197140301299}, {"id": 1923339343, "lat": 49.8642281, "lon": 21.6469503, "way_id": 181982910, "landuse": "farmland", "closest_distance_restriction": 1.8711275767070799}, {"id": 1923339344, "lat": 49.8726785, "lon": 21.6952515, "way_id": 181982910, "landuse": "farmland", "closest_distance_restriction": 3.926081238130651}, {"id": 1923339345, "lat": 49.8615032, "lon": 21.7020751, "way_id": 181982910, "landuse": "farmland", "closest_distance_restriction": 2.6930674773896888}, {"id": 1923339346, "lat": 49.8618061, "lon": 21.7035728, "way_id": 181982910, "landuse": "farmland", "closest_distance_restriction": 2.635865562568865}, {"id": 1923339347, "lat": 49.8702998, "lon": 21.6718197, "way_id": 181982910, "landuse": "farmland", "closest_distance_restriction": 3.6490357907541404}, {"id": 1923339348, "lat": 49.8734377, "lon": 21.6913634, "way_id": 181982910, "landuse": "farmland", "closest_distance_restriction": 4.17281902235406}, {"id": 1923339349, "lat": 49.8611712, "lon": 21.6553832, "way_id": 181982910, "landuse": "farmland", "closest_distance_restriction": 2.1032067462608137}, {"id": 1923339350, "lat": 49.8772834, "lon": 21.7106581, "way_id": 181982910, "landuse": "farmland", "closest_distance_restriction": 3.617668220294179}, {"id": 1923339351, "lat": 49.8654992, "lon": 21.6782313, "way_id": 181982910, "landuse": "farmland", "closest_distance_restriction": 3.732897060837932}, {"id": 1923339352, "lat": 49.8673263, "lon": 21.7080617, "way_id": 181982910, "landuse": "farmland", "closest_distance_restriction": 2.8981086569275503}, {"id": 1923339353, "lat": 49.8654176, "lon": 21.6793943, "way_id": 181982910, "landuse": "farmland", "closest_distance_restriction": 3.8015343710497644}, {"id": 1923339354, "lat": 49.8614741, "lon": 21.7003541, "way_id": 181982910, "landuse": "farmland", "closest_distance_restriction": 2.7853132723151566}, {"id": 1923339355, "lat": 49.87471, "lon": 21.7192369, "way_id": 181983256, "landuse": "farmland", "closest_distance_restriction": 3.00853943291302}, {"id": 1923339356, "lat": 49.8763141, "lon": 21.7080789, "way_id": 181982910, "landuse": "farmland", "closest_distance_restriction": 3.7681467589909587}, {"id": 1923339357, "lat": 49.8733146, "lon": 21.6952301, "way_id": 181982910, "landuse": "farmland", "closest_distance_restriction": 3.9815182753012386}, {"id": 1923339358, "lat": 49.8738401, "lon": 21.6988564, "way_id": 181982910, "landuse": "farmland", "closest_distance_restriction": 3.869330909771403}, {"id": 1923339359, "lat": 49.8739784, "lon": 21.697526, "way_id": 181982910, "landuse": "farmland", "closest_distance_restriction": 3.938171947101274}, {"id": 1923339360, "lat": 49.8701477, "lon": 21.6796732, "way_id": 181982910, "landuse": "farmland", "closest_distance_restriction": 4.095022146045397}, {"id": 1923339361, "lat": 49.8713509, "lon": 21.6664339, "way_id": 181982910, "landuse": "farmland", "closest_distance_restriction": 3.4179908654106783}, {"id": 1923339362, "lat": 49.8637841, "lon": 21.70677, "way_id": 181982910, "landuse": "farmland", "closest_distance_restriction": 2.6378093339261977}, {"id": 1923339363, "lat": 49.8711434, "lon": 21.6654683, "way_id": 181982910, "landuse": "farmland", "closest_distance_restriction": 3.3507089483195207}, {"id": 1923339364, "lat": 49.8729827, "lon": 21.6914106, "way_id": 181982910, "landuse": "farmland", "closest_distance_restriction": 4.133165811854274}, {"id": 1923339365, "lat": 49.8695378, "lon": 21.6625672, "way_id": 181982910, "landuse": "farmland", "closest_distance_restriction": 3.0766859375317277}, {"id": 1923339366, "lat": 49.8706041, "lon": 21.6783429, "way_id": 181982910, "landuse": "farmland", "closest_distance_restriction": 4.046887724895106}, {"id": 1923339367, "lat": 49.8707424, "lon": 21.6794587, "way_id": 181982910, "landuse": "farmland", "closest_distance_restriction": 4.120652691783991}, {"id": 1923339368, "lat": 49.8723466, "lon": 21.6884923, "way_id": 181982910, "landuse": "farmland", "closest_distance_restriction": 4.227478306676399}, {"id": 1923339369, "lat": 49.8726923, "lon": 21.6944147, "way_id": 181982910, "landuse": "farmland", "closest_distance_restriction": 3.966036421217266}, {"id": 1923339370, "lat": 49.8738125, "lon": 21.6937709, "way_id": 181982910, "landuse": "farmland", "closest_distance_restriction": 4.0908780074071665}, {"id": 1923339371, "lat": 49.872637, "lon": 21.6895438, "way_id": 181982910, "landuse": "farmland", "closest_distance_restriction": 4.197268199381181}, {"id": 1923339372, "lat": 49.8728721, "lon": 21.6887284, "way_id": 181982910, "landuse": "farmland", "closest_distance_restriction": 4.256854480435011}, {"id": 1923339373, "lat": 49.8707147, "lon": 21.6800595, "way_id": 181982910, "landuse": "farmland", "closest_distance_restriction": 4.153910931694859}, {"id": 1923339374, "lat": 49.8711434, "lon": 21.671412, "way_id": 181982910, "landuse": "farmland", "closest_distance_restriction": 3.681001731577134}, {"id": 1923339375, "lat": 49.8701892, "lon": 21.6855741, "way_id": 181982910, "landuse": "farmland", "closest_distance_restriction": 4.2195752839325245}, {"id": 1923339376, "lat": 49.8698711, "lon": 21.6854454, "way_id": 181982910, "landuse": "farmland", "closest_distance_restriction": 4.203835975824131}, {"id": 1923339377, "lat": 49.8705073, "lon": 21.67727, "way_id": 181982910, "landuse": "farmland", "closest_distance_restriction": 3.978645615046214}, {"id": 1923339378, "lat": 49.8698987, "lon": 21.6848231, "way_id": 181982910, "landuse": "farmland", "closest_distance_restriction": 4.240103032847345}, {"id": 1923339380, "lat": 49.8694423, "lon": 21.6847158, "way_id": 181982910, "landuse": "farmland", "closest_distance_restriction": 4.213955791568084}, {"id": 1923339382, "lat": 49.870936, "lon": 21.6741157, "way_id": 181982910, "landuse": "farmland", "closest_distance_restriction": 3.8242272443829983}, {"id": 1923339383, "lat": 49.8709913, "lon": 21.6864324, "way_id": 181982910, "landuse": "farmland", "closest_distance_restriction": 4.231805466502507}, {"id": 1923339385, "lat": 49.8751539, "lon": 21.6994358, "way_id": 181982910, "landuse": "farmland", "closest_distance_restriction": 3.965310678597597}, {"id": 1923339387, "lat": 49.8621256, "lon": 21.6482807, "way_id": 181982910, "landuse": "farmland", "closest_distance_restriction": 1.7646747517664083}, {"id": 1923339389, "lat": 49.8684051, "lon": 21.6565848, "way_id": 181982910, "landuse": "farmland", "closest_distance_restriction": 2.6787590461832367}, {"id": 1923339390, "lat": 49.8751815, "lon": 21.7004228, "way_id": 181982910, "landuse": "farmland", "closest_distance_restriction": 3.9286803597704303}, {"id": 1923339392, "lat": 49.8711573, "lon": 21.708963, "way_id": 181982910, "landuse": "farmland", "closest_distance_restriction": 3.2300971975343225}, {"id": 1923339394, "lat": 49.8610868, "lon": 21.6984659, "way_id": 181982910, "landuse": "farmland", "closest_distance_restriction": 2.865306787508136}, {"id": 1923339395, "lat": 49.8703814, "lon": 21.7086154, "way_id": 181982910, "landuse": "farmland", "closest_distance_restriction": 3.16684223404063}, {"id": 1923339396, "lat": 49.8767856, "lon": 21.7104435, "way_id": 181982910, "landuse": "farmland", "closest_distance_restriction": 3.6321520165324093}, {"id": 1923339397, "lat": 49.8694285, "lon": 21.6829563, "way_id": 181982910, "landuse": "farmland", "closest_distance_restriction": 4.247210813752365}, {"id": 1923339398, "lat": 49.8699126, "lon": 21.6830206, "way_id": 181982910, "landuse": "farmland", "closest_distance_restriction": 4.279956755994715}, {"id": 1923339399, "lat": 49.862264, "lon": 21.7045641, "way_id": 181982910, "landuse": "farmland", "closest_distance_restriction": 2.620135132563889}, {"id": 1923339400, "lat": 49.8701338, "lon": 21.6723562, "way_id": 181982910, "landuse": "farmland", "closest_distance_restriction": 3.6697706235632674}, {"id": 1923339401, "lat": 49.861683, "lon": 21.6494394, "way_id": 181982910, "landuse": "farmland", "closest_distance_restriction": 1.793511959763262}, {"id": 1923339406, "lat": 49.8769087, "lon": 21.7077141, "way_id": 181982910, "landuse": "farmland", "closest_distance_restriction": 3.8278617960593433}, {"id": 1923339408, "lat": 49.8709083, "lon": 21.6648889, "way_id": 181982910, "landuse": "farmland", "closest_distance_restriction": 3.302284091964216}, {"id": 1923339410, "lat": 49.8722083, "lon": 21.7111946, "way_id": 181982910, "landuse": "farmland", "closest_distance_restriction": 3.259935450479956}, {"id": 1923339412, "lat": 49.873121, "lon": 21.713748, "way_id": 181982910, "landuse": "farmland", "closest_distance_restriction": 3.2784512590821175}, {"id": 1923339414, "lat": 49.8640607, "lon": 21.6700988, "way_id": 181982910, "landuse": "farmland", "closest_distance_restriction": 3.149413507028064}, {"id": 1923339416, "lat": 49.8614188, "lon": 21.69941, "way_id": 181982910, "landuse": "farmland", "closest_distance_restriction": 2.8342106525982858}, {"id": 1923339418, "lat": 49.8706027, "lon": 21.6822868, "way_id": 181982910, "landuse": "farmland", "closest_distance_restriction": 4.2781751043986}, {"id": 1923339420, "lat": 49.8678104, "lon": 21.6551471, "way_id": 181982910, "landuse": "farmland", "closest_distance_restriction": 2.559535283702669}, {"id": 1923339421, "lat": 49.8715168, "lon": 21.6878701, "way_id": 181982910, "landuse": "farmland", "closest_distance_restriction": 4.195454386864517}, {"id": 1923339422, "lat": 49.8681285, "lon": 21.65622, "way_id": 181982910, "landuse": "farmland", "closest_distance_restriction": 2.6384959717166945}, {"id": 1923339423, "lat": 49.8734391, "lon": 21.690166, "way_id": 181982910, "landuse": "farmland", "closest_distance_restriction": 4.231009163209737}, {"id": 1923339424, "lat": 49.8699264, "lon": 21.6812397, "way_id": 181982910, "landuse": "farmland", "closest_distance_restriction": 4.173977688683882}, {"id": 1923339425, "lat": 49.863134, "lon": 21.6660004, "way_id": 181982910, "landuse": "farmland", "closest_distance_restriction": 2.8463181247194034}, {"id": 1923339426, "lat": 49.870658, "lon": 21.6805273, "way_id": 181982910, "landuse": "farmland", "closest_distance_restriction": 4.17769119226334}, {"id": 1923339427, "lat": 49.86882, "lon": 21.6600609, "way_id": 181982910, "landuse": "farmland", "closest_distance_restriction": 2.8898502563924966}, {"id": 1923339428, "lat": 49.8730519, "lon": 21.6890502, "way_id": 181982910, "landuse": "farmland", "closest_distance_restriction": 4.254997325310989}, {"id": 1923339429, "lat": 49.8744763, "lon": 21.6987277, "way_id": 181982910, "landuse": "farmland", "closest_distance_restriction": 3.9322457135591287}, {"id": 1923339430, "lat": 49.8683083, "lon": 21.65622, "way_id": 181982910, "landuse": "farmland", "closest_distance_restriction": 2.6527874664217546}, {"id": 1923339431, "lat": 49.8652655, "lon": 21.6756607, "way_id": 181982910, "landuse": "farmland", "closest_distance_restriction": 3.560038898752371}, {"id": 1923339432, "lat": 49.8712955, "lon": 21.6872693, "way_id": 181982910, "landuse": "farmland", "closest_distance_restriction": 4.210149535585167}, {"id": 1923339433, "lat": 49.8706179, "lon": 21.6814971, "way_id": 181982910, "landuse": "farmland", "closest_distance_restriction": 4.232300539163352}, {"id": 1923339434, "lat": 49.8720009, "lon": 21.6880417, "way_id": 181982910, "landuse": "farmland", "closest_distance_restriction": 4.223721657146679}, {"id": 1923339435, "lat": 49.8700924, "lon": 21.6804672, "way_id": 181982910, "landuse": "farmland", "closest_distance_restriction": 4.138391518688211}, {"id": 1923339436, "lat": 49.8610882, "lon": 21.694243, "way_id": 181982910, "landuse": "farmland", "closest_distance_restriction": 3.112804316500486}, {"id": 1923339437, "lat": 49.8620012, "lon": 21.6915179, "way_id": 181982910, "landuse": "farmland", "closest_distance_restriction": 3.3317903113962717}, {"id": 1923339438, "lat": 49.8700232, "lon": 21.6864539, "way_id": 181982910, "landuse": "farmland", "closest_distance_restriction": 4.159654575253493}, {"id": 1923339439, "lat": 49.8730782, "lon": 21.7153316, "way_id": 181982910, "landuse": "farmland", "closest_distance_restriction": 3.2329777987944275}, {"id": 1923339440, "lat": 49.8651258, "lon": 21.6806131, "way_id": 181982910, "landuse": "farmland", "closest_distance_restriction": 3.863485144493801}, {"id": 1923339441, "lat": 49.8647523, "lon": 21.6733175, "way_id": 181982910, "landuse": "farmland", "closest_distance_restriction": 3.386426319738088}, {"id": 1923339442, "lat": 49.8774078, "lon": 21.7112375, "way_id": 181982910, "landuse": "farmland", "closest_distance_restriction": 3.576521764453133}, {"id": 1923339443, "lat": 49.8709623, "lon": 21.6870718, "way_id": 181982910, "landuse": "farmland", "closest_distance_restriction": 4.195592406150283}, {"id": 1923339444, "lat": 49.871987, "lon": 21.710229, "way_id": 181982910, "landuse": "farmland", "closest_distance_restriction": 3.2686729469278877}, {"id": 1923339445, "lat": 49.8618075, "lon": 21.6487527, "way_id": 181982910, "landuse": "farmland", "closest_distance_restriction": 1.765579948835416}, {"id": 1923339446, "lat": 49.8752507, "lon": 21.7011095, "way_id": 181982910, "landuse": "farmland", "closest_distance_restriction": 3.908435902598128}, {"id": 1923339447, "lat": 49.8705073, "lon": 21.6641164, "way_id": 181982910, "landuse": "farmland", "closest_distance_restriction": 3.2312785715217727}, {"id": 1923339448, "lat": 49.8748635, "lon": 21.7012382, "way_id": 181982910, "landuse": "farmland", "closest_distance_restriction": 3.86720895601789}, {"id": 1923339449, "lat": 49.8705764, "lon": 21.6866255, "way_id": 181982910, "landuse": "farmland", "closest_distance_restriction": 4.190812300434174}, {"id": 1923339450, "lat": 49.8734253, "lon": 21.6918827, "way_id": 181982910, "landuse": "farmland", "closest_distance_restriction": 4.146903238867003}, {"id": 1923339451, "lat": 49.8747238, "lon": 21.7006331, "way_id": 181982910, "landuse": "farmland", "closest_distance_restriction": 3.8778728840506274}, {"id": 1923339452, "lat": 49.8607009, "lon": 21.6563488, "way_id": 181982910, "landuse": "farmland", "closest_distance_restriction": 2.124841908453985}, {"id": 1923339453, "lat": 49.8720838, "lon": 21.6924835, "way_id": 181982910, "landuse": "farmland", "closest_distance_restriction": 4.007561550499871}, {"id": 1923339454, "lat": 49.876592, "lon": 21.7087484, "way_id": 181982910, "landuse": "farmland", "closest_distance_restriction": 3.753501023579732}, {"id": 1923339455, "lat": 49.8685849, "lon": 21.6604472, "way_id": 181982910, "landuse": "farmland", "closest_distance_restriction": 2.8927504354097224}, {"id": 1923339456, "lat": 49.8741582, "lon": 21.6967106, "way_id": 181982910, "landuse": "farmland", "closest_distance_restriction": 3.9893355621301145}, {"id": 1923339457, "lat": 49.8635227, "lon": 21.6830421, "way_id": 181982910, "landuse": "farmland", "closest_distance_restriction": 3.937610539059432}, {"id": 1923339458, "lat": 49.8698572, "lon": 21.6632152, "way_id": 181982910, "landuse": "farmland", "closest_distance_restriction": 3.135006085120667}, {"id": 1923339459, "lat": 49.864614, "lon": 21.6815787, "way_id": 181982910, "landuse": "farmland", "closest_distance_restriction": 3.8995563834880023}, {"id": 1923339460, "lat": 49.8628726, "lon": 21.683836, "way_id": 181982910, "landuse": "farmland", "closest_distance_restriction": 3.8521183916833546}, {"id": 1923339461, "lat": 49.873493, "lon": 21.6924363, "way_id": 181982910, "landuse": "farmland", "closest_distance_restriction": 4.126221217969881}, {"id": 1923339462, "lat": 49.8617937, "lon": 21.6850377, "way_id": 181982910, "landuse": "farmland", "closest_distance_restriction": 3.718187258053312}, {"id": 1923339463, "lat": 49.8614894, "lon": 21.6855956, "way_id": 181982910, "landuse": "farmland", "closest_distance_restriction": 3.6668351912853723}, {"id": 1923339464, "lat": 49.8612819, "lon": 21.6870976, "way_id": 181982910, "landuse": "farmland", "closest_distance_restriction": 3.5614910638106467}, {"id": 1923339465, "lat": 49.8700647, "lon": 21.6801024, "way_id": 181982910, "landuse": "farmland", "closest_distance_restriction": 4.115077743943596}, {"id": 1923339467, "lat": 49.8707838, "lon": 21.6783858, "way_id": 181982910, "landuse": "farmland", "closest_distance_restriction": 4.061192802954809}, {"id": 1923339469, "lat": 49.8732303, "lon": 21.6973501, "way_id": 181982910, "landuse": "farmland", "closest_distance_restriction": 3.879576781213105}, {"id": 1923339471, "lat": 49.8743656, "lon": 21.6966033, "way_id": 181982910, "landuse": "farmland", "closest_distance_restriction": 4.012347880675842}, {"id": 1923345096, "lat": 49.8715583, "lon": 21.7297125, "way_id": 181983256, "landuse": "farmland", "closest_distance_restriction": 2.2719684058545515}, {"id": 1923345099, "lat": 49.8716413, "lon": 21.7307854, "way_id": 181983256, "landuse": "farmland", "closest_distance_restriction": 2.1946118300741952}, {"id": 1923345100, "lat": 49.8708392, "lon": 21.7252923, "way_id": 181983256, "landuse": "farmland", "closest_distance_restriction": 2.594372846926516}, {"id": 1923345104, "lat": 49.8766044, "lon": 21.7341929, "way_id": 181983256, "landuse": "farmland", "closest_distance_restriction": 1.9302180340960817}, {"id": 1923345109, "lat": 49.8776001, "lon": 21.7240649, "way_id": 181983256, "landuse": "farmland", "closest_distance_restriction": 2.6587309954677747}, {"id": 1923345114, "lat": 49.8731072, "lon": 21.7234469, "way_id": 181983256, "landuse": "farmland", "closest_distance_restriction": 2.714875492923298}, {"id": 1923345120, "lat": 49.8716828, "lon": 21.7243696, "way_id": 181983256, "landuse": "farmland", "closest_distance_restriction": 2.6531538480795183}, {"id": 1923345124, "lat": 49.8703136, "lon": 21.7334676, "way_id": 181983256, "landuse": "farmland", "closest_distance_restriction": 2.0198885232220873}, {"id": 1923345129, "lat": 49.8719442, "lon": 21.7326694, "way_id": 181983256, "landuse": "farmland", "closest_distance_restriction": 2.057667469581472}, {"id": 1923345131, "lat": 49.8724157, "lon": 21.7322016, "way_id": 181983256, "landuse": "farmland", "closest_distance_restriction": 2.088690893178035}, {"id": 1923345141, "lat": 49.8685987, "lon": 21.7382527, "way_id": 181983256, "landuse": "farmland", "closest_distance_restriction": 1.7264433353480393}, {"id": 1923345147, "lat": 49.8716136, "lon": 21.7278886, "way_id": 181983256, "landuse": "farmland", "closest_distance_restriction": 2.4019278869436658}, {"id": 1923345157, "lat": 49.871958, "lon": 21.7279487, "way_id": 181983256, "landuse": "farmland", "closest_distance_restriction": 2.3953725796042655}, {"id": 1923345158, "lat": 49.8683774, "lon": 21.7337251, "way_id": 181983256, "landuse": "farmland", "closest_distance_restriction": 2.0455319043993083}, {"id": 1923345161, "lat": 49.8675199, "lon": 21.7351842, "way_id": 181983256, "landuse": "farmland", "closest_distance_restriction": 1.9722193768688516}, {"id": 1923345162, "lat": 49.8743241, "lon": 21.7211295, "way_id": 181983256, "landuse": "farmland", "closest_distance_restriction": 2.876527305034746}, {"id": 1923345163, "lat": 49.8788736, "lon": 21.7196274, "way_id": 181983256, "landuse": "farmland", "closest_distance_restriction": 2.9855519331551013}, {"id": 1923345173, "lat": 49.8721239, "lon": 21.7335492, "way_id": 181983256, "landuse": "farmland", "closest_distance_restriction": 1.993596438150096}, {"id": 1923345177, "lat": 49.8705626, "lon": 21.7343045, "way_id": 181983256, "landuse": "farmland", "closest_distance_restriction": 1.9565046058964493}, {"id": 1923345181, "lat": 49.8716261, "lon": 21.7334848, "way_id": 181983256, "landuse": "farmland", "closest_distance_restriction": 2.0018369184404423}, {"id": 1923345182, "lat": 49.8695931, "lon": 21.7330556, "way_id": 181983256, "landuse": "farmland", "closest_distance_restriction": 2.0625232085350085}, {"id": 1923345184, "lat": 49.8693732, "lon": 21.7329956, "way_id": 181983256, "landuse": "farmland", "closest_distance_restriction": 2.0714417252537873}, {"id": 1923345188, "lat": 49.8702016, "lon": 21.7328625, "way_id": 181983256, "landuse": "farmland", "closest_distance_restriction": 2.0646453524393977}, {"id": 1923345189, "lat": 49.8740752, "lon": 21.7223096, "way_id": 181983256, "landuse": "farmland", "closest_distance_restriction": 2.7948095578235153}, {"id": 1923345190, "lat": 49.8712955, "lon": 21.7314077, "way_id": 181983256, "landuse": "farmland", "closest_distance_restriction": 2.1532852680642347}, {"id": 1923345192, "lat": 49.874255, "lon": 21.721623, "way_id": 181983256, "landuse": "farmland", "closest_distance_restriction": 2.8419560769534224}, {"id": 1923345194, "lat": 49.8686402, "lon": 21.7405057, "way_id": 181983256, "landuse": "farmland", "closest_distance_restriction": 1.570996233065543}, {"id": 1923345195, "lat": 49.8721945, "lon": 21.7320943, "way_id": 181983256, "landuse": "farmland", "closest_distance_restriction": 2.097354621016616}, {"id": 1923345196, "lat": 49.8711019, "lon": 21.7245842, "way_id": 181983256, "landuse": "farmland", "closest_distance_restriction": 2.6423303112458463}, {"id": 1923345197, "lat": 49.8676444, "lon": 21.7372013, "way_id": 181983256, "landuse": "farmland", "closest_distance_restriction": 1.8308285733159806}, {"id": 1923345198, "lat": 49.8699803, "lon": 21.7338281, "way_id": 181983256, "landuse": "farmland", "closest_distance_restriction": 2.000352081012902}, {"id": 1923345200, "lat": 49.8675061, "lon": 21.7360211, "way_id": 181983256, "landuse": "farmland", "closest_distance_restriction": 1.9158176558805997}, {"id": 1923345214, "lat": 49.8717796, "lon": 21.7298627, "way_id": 181983256, "landuse": "farmland", "closest_distance_restriction": 2.2595543594570495}, {"id": 1923345219, "lat": 49.8678366, "lon": 21.7349654, "way_id": 181983256, "landuse": "farmland", "closest_distance_restriction": 1.9765009765664285}, {"id": 1923345222, "lat": 49.8711296, "lon": 21.7323304, "way_id": 181983256, "landuse": "farmland", "closest_distance_restriction": 2.089251485690449}, {"id": 1923345231, "lat": 49.8686264, "lon": 21.7390037, "way_id": 181983256, "landuse": "farmland", "closest_distance_restriction": 1.6740455572287836}, {"id": 1923345232, "lat": 49.8748759, "lon": 21.7208248, "way_id": 181983256, "landuse": "farmland", "closest_distance_restriction": 2.8937963203462997}, {"id": 1923345234, "lat": 49.8715016, "lon": 21.7311888, "way_id": 181983256, "landuse": "farmland", "closest_distance_restriction": 2.1669606895944575}, {"id": 1923345240, "lat": 49.8710604, "lon": 21.7264295, "way_id": 181983256, "landuse": "farmland", "closest_distance_restriction": 2.510960552356994}, {"id": 1923345242, "lat": 49.8712541, "lon": 21.7327381, "way_id": 181983256, "landuse": "farmland", "closest_distance_restriction": 2.058796476745637}, {"id": 1923345250, "lat": 49.8762186, "lon": 21.7385746, "way_id": 181983256, "landuse": "farmland", "closest_distance_restriction": 1.6165039993437114}, {"id": 1923345251, "lat": 49.8714062, "lon": 21.7264081, "way_id": 181983256, "landuse": "farmland", "closest_distance_restriction": 2.5093829358839677}, {"id": 1923345252, "lat": 49.8679072, "lon": 21.7338539, "way_id": 181983256, "landuse": "farmland", "closest_distance_restriction": 2.050581235667783}, {"id": 1923345254, "lat": 49.8685157, "lon": 21.7328454, "way_id": 181983256, "landuse": "farmland", "closest_distance_restriction": 2.1028245261341385}, {"id": 1923345257, "lat": 49.8679902, "lon": 21.7380381, "way_id": 181983256, "landuse": "farmland", "closest_distance_restriction": 1.7616286648629143}, {"id": 1933980860, "lat": 49.9204418, "lon": 21.610247, "way_id": 829327035, "landuse": "farmland", "closest_distance_restriction": 4.747445547287958}, {"id": 1933980888, "lat": 49.9205977, "lon": 21.6101216, "way_id": 829327035, "landuse": "farmland", "closest_distance_restriction": 4.750097635915778}, {"id": 1933980891, "lat": 49.9203274, "lon": 21.6102167, "way_id": 829327036, "landuse": "farmland", "closest_distance_restriction": 4.738369924079163}, {"id": 3512119714, "lat": 49.9542468, "lon": 21.7233331, "way_id": 344473067, "landuse": "farmland", "closest_distance_restriction": 3.026766806341549}, {"id": 3512119719, "lat": 49.9543369, "lon": 21.723074, "way_id": 344473067, "landuse": "farmland", "closest_distance_restriction": 3.0454839831109943}, {"id": 3512119725, "lat": 49.9544045, "lon": 21.7234592, "way_id": 344473067, "landuse": "farmland", "closest_distance_restriction": 3.01809174582318}, {"id": 3512119727, "lat": 49.9544901, "lon": 21.7232211, "way_id": 344473067, "landuse": "farmland", "closest_distance_restriction": 3.0353503900908154}, {"id": 3512119995, "lat": 49.9568607, "lon": 21.7199148, "way_id": 344472921, "landuse": "meadow", "closest_distance_restriction": 3.2886423180824313}, {"id": 3512120007, "lat": 49.9571626, "lon": 21.7195646, "way_id": 344472921, "landuse": "meadow", "closest_distance_restriction": 3.317185166276187}, {"id": 3512120008, "lat": 49.9571716, "lon": 21.7200759, "way_id": 344472921, "landuse": "meadow", "closest_distance_restriction": 3.2809587624049383}, {"id": 3512120017, "lat": 49.9572798, "lon": 21.7200619, "way_id": 344472921, "landuse": "meadow", "closest_distance_restriction": 3.283352833711368}, {"id": 3512120025, "lat": 49.9575952, "lon": 21.7195155, "way_id": 344472921, "landuse": "meadow", "closest_distance_restriction": 3.326446496662757}, {"id": 3512120027, "lat": 49.9576043, "lon": 21.7199989, "way_id": 344472921, "landuse": "meadow", "closest_distance_restriction": 3.292278685158567}, {"id": 3512120034, "lat": 49.9578566, "lon": 21.7191933, "way_id": 344472921, "landuse": "meadow", "closest_distance_restriction": 3.3531033682483127}, {"id": 3512120036, "lat": 49.9578701, "lon": 21.7197537, "way_id": 344472921, "landuse": "meadow", "closest_distance_restriction": 3.313588988128047}, {"id": 3512120047, "lat": 49.958109, "lon": 21.7196556, "way_id": 344472921, "landuse": "meadow", "closest_distance_restriction": 3.324272133135969}, {"id": 3512120048, "lat": 49.958127, "lon": 21.7197537, "way_id": 344472921, "landuse": "meadow", "closest_distance_restriction": 3.3176182013869084}, {"id": 3512120057, "lat": 49.9582487, "lon": 21.7189271, "way_id": 344472921, "landuse": "meadow", "closest_distance_restriction": 3.378092531451666}, {"id": 3512120073, "lat": 49.9585416, "lon": 21.71871, "way_id": 344472921, "landuse": "meadow", "closest_distance_restriction": 3.3983636958326544}, {"id": 3512120078, "lat": 49.9586317, "lon": 21.7195226, "way_id": 344472921, "landuse": "meadow", "closest_distance_restriction": 3.3425495276431945}, {"id": 3512120083, "lat": 49.958785, "lon": 21.7190602, "way_id": 344472921, "landuse": "meadow", "closest_distance_restriction": 3.377959935887554}, {"id": 3512340162, "lat": 49.9512917, "lon": 21.7140485, "way_id": 344500591, "landuse": "meadow", "closest_distance_restriction": 3.7010783164558414}, {"id": 3512340163, "lat": 49.9513052, "lon": 21.7142516, "way_id": 344500591, "landuse": "meadow", "closest_distance_restriction": 3.6864753785504942}, {"id": 3512340178, "lat": 49.9513999, "lon": 21.7140064, "way_id": 344500591, "landuse": "meadow", "closest_distance_restriction": 3.703197174918507}, {"id": 3512340180, "lat": 49.9514044, "lon": 21.7145318, "way_id": 344500591, "landuse": "meadow", "closest_distance_restriction": 3.6656684268767847}, {"id": 3512340181, "lat": 49.951445, "lon": 21.7091451, "way_id": 344500589, "landuse": "meadow", "closest_distance_restriction": 4.049857128628894}, {"id": 3512340183, "lat": 49.9514495, "lon": 21.7090541, "way_id": 344500589, "landuse": "meadow", "closest_distance_restriction": 4.056322084474731}, {"id": 3512340184, "lat": 49.9514495, "lon": 21.7145808, "way_id": 344500591, "landuse": "meadow", "closest_distance_restriction": 3.661811284556327}, {"id": 3512340185, "lat": 49.9514945, "lon": 21.7140975, "way_id": 344500591, "landuse": "meadow", "closest_distance_restriction": 3.695953183192896}, {"id": 3512340186, "lat": 49.9515081, "lon": 21.7096985, "way_id": 344500589, "landuse": "meadow", "closest_distance_restriction": 4.009895081771949}, {"id": 3512340187, "lat": 49.9515171, "lon": 21.7145528, "way_id": 344500591, "landuse": "meadow", "closest_distance_restriction": 3.663282124182922}, {"id": 3512340188, "lat": 49.9515576, "lon": 21.708935, "way_id": 344500589, "landuse": "meadow", "closest_distance_restriction": 4.0640713203053425}, {"id": 3512340189, "lat": 49.9515576, "lon": 21.7142096, "way_id": 344500591, "landuse": "meadow", "closest_distance_restriction": 3.6874720196908686}, {"id": 3512340192, "lat": 49.9515847, "lon": 21.7061891, "way_id": 344500572, "landuse": "farmland", "closest_distance_restriction": 4.2600037371525845}, {"id": 3512340193, "lat": 49.9515847, "lon": 21.7143427, "way_id": 344500591, "landuse": "meadow", "closest_distance_restriction": 3.677768302709322}, {"id": 3512340194, "lat": 49.9515892, "lon": 21.7067355, "way_id": 344500572, "landuse": "farmland", "closest_distance_restriction": 4.2209474227395045}, {"id": 3512340195, "lat": 49.9516252, "lon": 21.707513, "way_id": 344500572, "landuse": "farmland", "closest_distance_restriction": 4.165181296460488}, {"id": 3512340201, "lat": 49.9516523, "lon": 21.7056217, "way_id": 344500572, "landuse": "farmland", "closest_distance_restriction": 4.3001082487865085}, {"id": 3512340203, "lat": 49.9516703, "lon": 21.708921, "way_id": 344500589, "landuse": "meadow", "closest_distance_restriction": 4.064322519732713}, {"id": 3512340204, "lat": 49.9516748, "lon": 21.7098036, "way_id": 344500589, "landuse": "meadow", "closest_distance_restriction": 4.0012546922863015}, {"id": 3512340205, "lat": 49.9517019, "lon": 21.7082275, "way_id": 344500572, "landuse": "farmland", "closest_distance_restriction": 4.113656381237052}, {"id": 3512340207, "lat": 49.9517379, "lon": 21.7050613, "way_id": 344500572, "landuse": "farmland", "closest_distance_restriction": 4.339628476938339}, {"id": 3512340208, "lat": 49.9517379, "lon": 21.7093062, "way_id": 344500589, "landuse": "meadow", "closest_distance_restriction": 4.036376385972442}, {"id": 3512340212, "lat": 49.9517695, "lon": 21.70462, "way_id": 344500572, "landuse": "farmland", "closest_distance_restriction": 4.370975271431471}, {"id": 3512340217, "lat": 49.9518055, "lon": 21.7044099, "way_id": 344500572, "landuse": "farmland", "closest_distance_restriction": 4.385782950219709}, {"id": 3512340219, "lat": 49.9518281, "lon": 21.7087809, "way_id": 344500572, "landuse": "farmland", "closest_distance_restriction": 4.073348203217527}, {"id": 3512340223, "lat": 49.9518731, "lon": 21.7094113, "way_id": 344500589, "landuse": "meadow", "closest_distance_restriction": 4.028042473070048}, {"id": 3512340224, "lat": 49.9518957, "lon": 21.7095794, "way_id": 344500589, "landuse": "meadow", "closest_distance_restriction": 4.015899483996609}, {"id": 3512340225, "lat": 49.9519002, "lon": 21.7086198, "way_id": 344500572, "landuse": "farmland", "closest_distance_restriction": 4.0844357024600155}, {"id": 3512340226, "lat": 49.9519092, "lon": 21.7076881, "way_id": 344500572, "landuse": "farmland", "closest_distance_restriction": 4.15095695197962}, {"id": 3512340230, "lat": 49.9519588, "lon": 21.7043539, "way_id": 344500572, "landuse": "farmland", "closest_distance_restriction": 4.388956314513346}, {"id": 3512340231, "lat": 49.9519588, "lon": 21.7082975, "way_id": 344500572, "landuse": "farmland", "closest_distance_restriction": 4.107134844716204}, {"id": 3512340233, "lat": 49.9519723, "lon": 21.7046551, "way_id": 344500572, "landuse": "farmland", "closest_distance_restriction": 4.367360092744782}, {"id": 3512340236, "lat": 49.9520399, "lon": 21.7077442, "way_id": 344500572, "landuse": "farmland", "closest_distance_restriction": 4.146237679360506}, {"id": 3512340242, "lat": 49.9521075, "lon": 21.704515, "way_id": 344500572, "landuse": "farmland", "closest_distance_restriction": 4.376700755723507}, {"id": 3512340249, "lat": 49.9521976, "lon": 21.704508, "way_id": 344500572, "landuse": "farmland", "closest_distance_restriction": 4.376781868953582}, {"id": 3512340250, "lat": 49.9522202, "lon": 21.7070157, "way_id": 344500572, "landuse": "farmland", "closest_distance_restriction": 4.197415653831014}, {"id": 3512340258, "lat": 49.9523689, "lon": 21.7066654, "way_id": 344500572, "landuse": "farmland", "closest_distance_restriction": 4.221801359469885}, {"id": 3512340260, "lat": 49.9524095, "lon": 21.7050613, "way_id": 344500572, "landuse": "farmland", "closest_distance_restriction": 4.3363249612082155}, {"id": 3512340267, "lat": 49.9525537, "lon": 21.7055657, "way_id": 344500572, "landuse": "farmland", "closest_distance_restriction": 4.299714225814994}, {"id": 3512340269, "lat": 49.9525717, "lon": 21.7062522, "way_id": 344500572, "landuse": "farmland", "closest_distance_restriction": 4.250559470885546}, {"id": 3512340272, "lat": 49.9526078, "lon": 21.7059159, "way_id": 344500572, "landuse": "farmland", "closest_distance_restriction": 4.2744815169130135}, {"id": 3517086166, "lat": 49.8830714, "lon": 21.8324434, "way_id": 345004518, "landuse": "meadow", "closest_distance_restriction": 1.591766749841009}, {"id": 3517086178, "lat": 49.8833354, "lon": 21.8317629, "way_id": 345004518, "landuse": "meadow", "closest_distance_restriction": 1.5699545153485608}, {"id": 3517086192, "lat": 49.8835681, "lon": 21.8325545, "way_id": 345004518, "landuse": "meadow", "closest_distance_restriction": 1.6307932833772167}, {"id": 3517086196, "lat": 49.883662, "lon": 21.8319434, "way_id": 345004518, "landuse": "meadow", "closest_distance_restriction": 1.6024121639429034}, {"id": 3517086690, "lat": 49.891992, "lon": 21.8431574, "way_id": 345004547, "landuse": "farmland", "closest_distance_restriction": 2.050970649789229}, {"id": 3517086700, "lat": 49.8921843, "lon": 21.8425325, "way_id": 345004547, "landuse": "farmland", "closest_distance_restriction": 2.075175665306568}, {"id": 3517086710, "lat": 49.892332, "lon": 21.8433796, "way_id": 345004547, "landuse": "farmland", "closest_distance_restriction": 2.018044975180607}, {"id": 3517086716, "lat": 49.8924527, "lon": 21.8427824, "way_id": 345004547, "landuse": "farmland", "closest_distance_restriction": 2.0485311293270283}, {"id": 3517086721, "lat": 49.8924885, "lon": 21.8419214, "way_id": 345004547, "landuse": "farmland", "closest_distance_restriction": 2.0301738467125787}, {"id": 3517086731, "lat": 49.8926183, "lon": 21.8418936, "way_id": 345004547, "landuse": "farmland", "closest_distance_restriction": 2.015762730155885}, {"id": 3517086743, "lat": 49.8927256, "lon": 21.8419978, "way_id": 345004547, "landuse": "farmland", "closest_distance_restriction": 2.0064430559734423}, {"id": 4086225346, "lat": 49.7822913, "lon": 21.9111716, "way_id": 406568036, "landuse": "meadow", "closest_distance_restriction": 1.578959935190459}, {"id": 4086225363, "lat": 49.7823775, "lon": 21.9110858, "way_id": 406568036, "landuse": "meadow", "closest_distance_restriction": 1.5714523385268366}, {"id": 4086225371, "lat": 49.7824512, "lon": 21.9111859, "way_id": 406568036, "landuse": "meadow", "closest_distance_restriction": 1.5615835620965293}, {"id": 4473706294, "lat": 49.7851296, "lon": 21.887471, "way_id": 450446026, "landuse": "meadow", "closest_distance_restriction": 1.6226020080813148}, {"id": 4473706295, "lat": 49.7852889, "lon": 21.8877553, "way_id": 450446026, "landuse": "meadow", "closest_distance_restriction": 1.6293104483610368}, {"id": 4473706296, "lat": 49.785353, "lon": 21.8880101, "way_id": 450446026, "landuse": "meadow", "closest_distance_restriction": 1.6405097123821561}, {"id": 4473706297, "lat": 49.7854742, "lon": 21.888096, "way_id": 450446026, "landuse": "meadow", "closest_distance_restriction": 1.6382412486853732}, {"id": 4473706298, "lat": 49.7856526, "lon": 21.8881764, "way_id": 450446026, "landuse": "meadow", "closest_distance_restriction": 1.632350395587443}, {"id": 4473706299, "lat": 49.7858067, "lon": 21.8885412, "way_id": 450446026, "landuse": "meadow", "closest_distance_restriction": 1.6455071916440087}, {"id": 4473706300, "lat": 49.7858448, "lon": 21.8890562, "way_id": 450446026, "landuse": "meadow", "closest_distance_restriction": 1.67499460685901}, {"id": 4473706301, "lat": 49.7857201, "lon": 21.8890803, "way_id": 450446026, "landuse": "meadow", "closest_distance_restriction": 1.68359154391666}, {"id": 4473706302, "lat": 49.7854586, "lon": 21.8888255, "way_id": 450446026, "landuse": "meadow", "closest_distance_restriction": 1.6832641000321789}, {"id": 4473706303, "lat": 49.785308, "lon": 21.8886136, "way_id": 450446026, "landuse": "meadow", "closest_distance_restriction": 1.6794671498908684}, {"id": 4473706304, "lat": 49.7849928, "lon": 21.8881898, "way_id": 450446026, "landuse": "meadow", "closest_distance_restriction": 1.67364759535617}, {"id": 4473706305, "lat": 49.785159, "lon": 21.8881201, "way_id": 450446026, "landuse": "meadow", "closest_distance_restriction": 1.6590924220427317}, {"id": 4473706306, "lat": 49.7851279, "lon": 21.8878063, "way_id": 450446026, "landuse": "meadow", "closest_distance_restriction": 1.6424539761870631}, {"id": 4473711766, "lat": 49.7865144, "lon": 21.8909165, "way_id": 450446217, "landuse": "meadow", "closest_distance_restriction": 1.7568698420503062}, {"id": 4473711767, "lat": 49.7866806, "lon": 21.8902916, "way_id": 450446217, "landuse": "meadow", "closest_distance_restriction": 1.708469479611429}, {"id": 4473711768, "lat": 49.7869421, "lon": 21.8904981, "way_id": 450446217, "landuse": "meadow", "closest_distance_restriction": 1.7090928511099441}, {"id": 4473711769, "lat": 49.7870512, "lon": 21.8903452, "way_id": 450446217, "landuse": "meadow", "closest_distance_restriction": 1.6939880377160534}, {"id": 4473711770, "lat": 49.7872036, "lon": 21.8904713, "way_id": 450446217, "landuse": "meadow", "closest_distance_restriction": 1.6950855247685506}, {"id": 4473711771, "lat": 49.7873006, "lon": 21.8907663, "way_id": 450446217, "landuse": "meadow", "closest_distance_restriction": 1.7099810130009205}, {"id": 4473711772, "lat": 49.7874547, "lon": 21.891174, "way_id": 450446217, "landuse": "meadow", "closest_distance_restriction": 1.730021840342846}, {"id": 4473711773, "lat": 49.7871135, "lon": 21.8911687, "way_id": 450446217, "landuse": "meadow", "closest_distance_restriction": 1.7448353375650854}, {"id": 4473711774, "lat": 49.7867551, "lon": 21.891107, "way_id": 450446217, "landuse": "meadow", "closest_distance_restriction": 1.7574999184442452}, {"id": 4473711775, "lat": 49.7875049, "lon": 21.891512, "way_id": 450446218, "landuse": "meadow", "closest_distance_restriction": 1.7502433364896965}, {"id": 4473711776, "lat": 49.7874166, "lon": 21.8913349, "way_id": 450446218, "landuse": "meadow", "closest_distance_restriction": 1.7423103152682808}, {"id": 4473711777, "lat": 49.7871863, "lon": 21.8913671, "way_id": 450446218, "landuse": "meadow", "closest_distance_restriction": 1.7545743313325386}, {"id": 4473711778, "lat": 49.7869508, "lon": 21.8914503, "way_id": 450446218, "landuse": "meadow", "closest_distance_restriction": 1.770700352270041}, {"id": 4473711779, "lat": 49.7870443, "lon": 21.8918848, "way_id": 450446218, "landuse": "meadow", "closest_distance_restriction": 1.7949525925832288}, {"id": 4473711780, "lat": 49.7870304, "lon": 21.8922952, "way_id": 450446218, "landuse": "meadow", "closest_distance_restriction": 1.8225845844272164}, {"id": 4473711781, "lat": 49.7868399, "lon": 21.8924534, "way_id": 450446218, "landuse": "meadow", "closest_distance_restriction": 1.8414699308244453}, {"id": 4473711782, "lat": 49.7871101, "lon": 21.8925151, "way_id": 450446218, "landuse": "meadow", "closest_distance_restriction": 1.833620640422159}, {"id": 4473711783, "lat": 49.7873092, "lon": 21.8921477, "way_id": 450446218, "landuse": "meadow", "closest_distance_restriction": 1.8007359881431513}, {"id": 4473711784, "lat": 49.7874599, "lon": 21.8917266, "way_id": 450446218, "landuse": "meadow", "closest_distance_restriction": 1.7663920892391884}, {"id": 4649015385, "lat": 49.8766535, "lon": 21.6754438, "way_id": 511462456, "landuse": "farmland", "closest_distance_restriction": 4.292138928263988}, {"id": 4649015386, "lat": 49.8764199, "lon": 21.6757206, "way_id": 511462456, "landuse": "farmland", "closest_distance_restriction": 4.2900644905113365}, {"id": 4649015387, "lat": 49.8763485, "lon": 21.6758475, "way_id": 511462456, "landuse": "farmland", "closest_distance_restriction": 4.291779803580151}, {"id": 4649015388, "lat": 49.8763082, "lon": 21.6759727, "way_id": 511462456, "landuse": "farmland", "closest_distance_restriction": 4.295681006202669}, {"id": 4649015389, "lat": 49.876271, "lon": 21.6762626, "way_id": 511462456, "landuse": "farmland", "closest_distance_restriction": 4.308822074023216}, {"id": 4649015390, "lat": 49.8762934, "lon": 21.6769431, "way_id": 511462456, "landuse": "farmland", "closest_distance_restriction": 4.347733594638862}, {"id": 4649015391, "lat": 49.8762273, "lon": 21.6769988, "way_id": 511462456, "landuse": "farmland", "closest_distance_restriction": 4.346089926338318}, {"id": 4649015392, "lat": 49.8758961, "lon": 21.6770792, "way_id": 511462456, "landuse": "farmland", "closest_distance_restriction": 4.327069928912626}, {"id": 4649015393, "lat": 49.8756832, "lon": 21.6770894, "way_id": 511462456, "landuse": "farmland", "closest_distance_restriction": 4.312662472360564}, {"id": 4649015394, "lat": 49.8752394, "lon": 21.6769876, "way_id": 511462456, "landuse": "farmland", "closest_distance_restriction": 4.276004936634186}, {"id": 4649015395, "lat": 49.8749988, "lon": 21.676945, "way_id": 511462456, "landuse": "farmland", "closest_distance_restriction": 4.256950896296935}, {"id": 4649015396, "lat": 49.8746337, "lon": 21.676894, "way_id": 511462456, "landuse": "farmland", "closest_distance_restriction": 4.228971088889577}, {"id": 4649015397, "lat": 49.8746293, "lon": 21.6781355, "way_id": 511462456, "landuse": "farmland", "closest_distance_restriction": 4.299127851358468}, {"id": 4649015399, "lat": 49.8743218, "lon": 21.6794964, "way_id": 511462456, "landuse": "farmland", "closest_distance_restriction": 4.356889126995955}, {"id": 5002906390, "lat": 49.8714238, "lon": 21.6715859, "way_id": 511462456, "landuse": "farmland", "closest_distance_restriction": 3.709763590970157}, {"id": 5002906391, "lat": 49.870995, "lon": 21.6796755, "way_id": 511462456, "landuse": "farmland", "closest_distance_restriction": 4.149684699379228}, {"id": 5002906392, "lat": 49.8709674, "lon": 21.6802136, "way_id": 511462456, "landuse": "farmland", "closest_distance_restriction": 4.179200983279447}, {"id": 5002906393, "lat": 49.8742393, "lon": 21.6799991, "way_id": 511462456, "landuse": "farmland", "closest_distance_restriction": 4.380669161448758}, {"id": 5002906394, "lat": 49.8768121, "lon": 21.6745059, "way_id": 511462456, "landuse": "farmland", "closest_distance_restriction": 4.253599751145128}, {"id": 5002906395, "lat": 49.8769089, "lon": 21.6742484, "way_id": 511462456, "landuse": "farmland", "closest_distance_restriction": 4.247138016277499}, {"id": 5002906396, "lat": 49.8769919, "lon": 21.6740767, "way_id": 511462456, "landuse": "farmland", "closest_distance_restriction": 4.244269161721644}, {"id": 5002906397, "lat": 49.8771025, "lon": 21.6739373, "way_id": 511462456, "landuse": "farmland", "closest_distance_restriction": 4.2452362684649945}, {"id": 5002906398, "lat": 49.8772201, "lon": 21.6738192, "way_id": 511462456, "landuse": "farmland", "closest_distance_restriction": 4.247910233119809}, {"id": 5002906399, "lat": 49.8774136, "lon": 21.6736798, "way_id": 511462456, "landuse": "farmland", "closest_distance_restriction": 4.255298556498413}, {"id": 5002906400, "lat": 49.8775934, "lon": 21.6736261, "way_id": 511462456, "landuse": "farmland", "closest_distance_restriction": 4.266214908850925}, {"id": 5002906401, "lat": 49.877704, "lon": 21.6736476, "way_id": 511462456, "landuse": "farmland", "closest_distance_restriction": 4.275796008736162}, {"id": 5002906402, "lat": 49.8776866, "lon": 21.6710896, "way_id": 511462456, "landuse": "farmland", "closest_distance_restriction": 4.143473525547492}, {"id": 5002906403, "lat": 49.8753602, "lon": 21.6723279, "way_id": 511462456, "landuse": "farmland", "closest_distance_restriction": 4.029618058946135}, {"id": 5002906404, "lat": 49.8744002, "lon": 21.672167, "way_id": 511462456, "landuse": "farmland", "closest_distance_restriction": 3.950552552349276}, {"id": 7212694198, "lat": 49.8473975, "lon": 21.6730527, "way_id": 181983593, "landuse": "farmland", "closest_distance_restriction": 2.8930782534053145}, {"id": 7212903421, "lat": 49.8475303, "lon": 21.673764, "way_id": 181983593, "landuse": "farmland", "closest_distance_restriction": 2.9430507104170367}, {"id": 7234291205, "lat": 49.8479735, "lon": 21.6727974, "way_id": 181983593, "landuse": "farmland", "closest_distance_restriction": 2.8712761755810385}, {"id": 7234291206, "lat": 49.8481452, "lon": 21.6733085, "way_id": 181983593, "landuse": "farmland", "closest_distance_restriction": 2.9071181387414784}, {"id": 7234291207, "lat": 49.8482908, "lon": 21.6738551, "way_id": 181983593, "landuse": "farmland", "closest_distance_restriction": 2.9457363007590067}, {"id": 7234291208, "lat": 49.8483582, "lon": 21.6742164, "way_id": 181983593, "landuse": "farmland", "closest_distance_restriction": 2.971408081739377}, {"id": 7234291209, "lat": 49.8480502, "lon": 21.6742924, "way_id": 181983593, "landuse": "farmland", "closest_distance_restriction": 2.9780172363618895}, {"id": 7234291210, "lat": 49.848185, "lon": 21.675419, "way_id": 181983593, "landuse": "farmland", "closest_distance_restriction": 3.0581903619994115}, {"id": 7234291211, "lat": 49.8482831, "lon": 21.6766146, "way_id": 181983593, "landuse": "farmland", "closest_distance_restriction": 3.1435281760374867}, {"id": 7234291212, "lat": 49.8480364, "lon": 21.6766288, "way_id": 181983593, "landuse": "farmland", "closest_distance_restriction": 3.1454710592304793}, {"id": 7234291213, "lat": 49.8477191, "lon": 21.6765837, "way_id": 181983593, "landuse": "farmland", "closest_distance_restriction": 3.1437824036933475}, {"id": 7234291214, "lat": 49.847621, "lon": 21.6754357, "way_id": 181983593, "landuse": "farmland", "closest_distance_restriction": 3.0621443725877566}, {"id": 7234291215, "lat": 49.8475659, "lon": 21.6740975, "way_id": 181983593, "landuse": "farmland", "closest_distance_restriction": 2.9666884742916606}, {"id": 7741094276, "lat": 49.9204857, "lon": 21.6116099, "way_id": 829327028, "landuse": "farmland", "closest_distance_restriction": 4.830390749766969}, {"id": 7741094277, "lat": 49.9207533, "lon": 21.611599, "way_id": 829327028, "landuse": "farmland", "closest_distance_restriction": 4.846644716397559}, {"id": 7741094278, "lat": 49.9208449, "lon": 21.6121186, "way_id": 829327028, "landuse": "farmland", "closest_distance_restriction": 4.883032797364803}, {"id": 7741094279, "lat": 49.9206142, "lon": 21.6123592, "way_id": 829327028, "landuse": "farmland", "closest_distance_restriction": 4.882744794210437}, {"id": 7741094280, "lat": 49.9209224, "lon": 21.6115935, "way_id": 829327029, "landuse": "farmland", "closest_distance_restriction": 4.857063288739789}, {"id": 7741094281, "lat": 49.9210245, "lon": 21.6119271, "way_id": 829327029, "landuse": "farmland", "closest_distance_restriction": 4.883146212211648}, {"id": 7741094282, "lat": 49.9209083, "lon": 21.6120475, "way_id": 829327029, "landuse": "farmland", "closest_distance_restriction": 4.882853130867948}, {"id": 7741094283, "lat": 49.9208871, "lon": 21.6120201, "way_id": 829327029, "landuse": "farmland", "closest_distance_restriction": 4.879898508413633}, {"id": 7741094284, "lat": 49.9208731, "lon": 21.6119846, "way_id": 829327029, "landuse": "farmland", "closest_distance_restriction": 4.876922762876214}, {"id": 7741097685, "lat": 49.920866, "lon": 21.6119271, "way_id": 829327029, "landuse": "farmland", "closest_distance_restriction": 4.873088929863367}, {"id": 7741097686, "lat": 49.9208572, "lon": 21.6118451, "way_id": 829327029, "landuse": "farmland", "closest_distance_restriction": 4.867706543300378}, {"id": 7741097687, "lat": 49.9208537, "lon": 21.6118123, "way_id": 829327029, "landuse": "farmland", "closest_distance_restriction": 4.865555228129649}, {"id": 7741097688, "lat": 49.9208995, "lon": 21.6117822, "way_id": 829327029, "landuse": "farmland", "closest_distance_restriction": 4.866690692650362}, {"id": 7741097689, "lat": 49.9208607, "lon": 21.6116318, "way_id": 829327029, "landuse": "farmland", "closest_distance_restriction": 4.855388145556413}, {"id": 7741097700, "lat": 49.9198907, "lon": 21.6109499, "way_id": 829327032, "landuse": "farmland", "closest_distance_restriction": 4.754080325405438}, {"id": 7741097701, "lat": 49.9199734, "lon": 21.6109963, "way_id": 829327032, "landuse": "farmland", "closest_distance_restriction": 4.761991775082561}, {"id": 7741097702, "lat": 49.9201195, "lon": 21.6108569, "way_id": 829327032, "landuse": "farmland", "closest_distance_restriction": 4.762902148816552}, {"id": 7741097703, "lat": 49.9200914, "lon": 21.610783, "way_id": 829327032, "landuse": "farmland", "closest_distance_restriction": 4.756771518911983}, {"id": 7741097704, "lat": 49.9201882, "lon": 21.6108432, "way_id": 829327036, "landuse": "farmland", "closest_distance_restriction": 4.766415418828619}, {"id": 7741097705, "lat": 49.9202851, "lon": 21.6112261, "way_id": 829327033, "landuse": "farmland", "closest_distance_restriction": 4.795115055190397}, {"id": 7741097706, "lat": 49.9205703, "lon": 21.6110401, "way_id": 829327033, "landuse": "farmland", "closest_distance_restriction": 4.802172932715919}, {"id": 7741097707, "lat": 49.9204576, "lon": 21.6106709, "way_id": 829327036, "landuse": "farmland", "closest_distance_restriction": 4.773320358267499}, {"id": 7741097708, "lat": 49.9205914, "lon": 21.6109526, "way_id": 829327034, "landuse": "farmland", "closest_distance_restriction": 4.798373035353422}, {"id": 7741097709, "lat": 49.9208643, "lon": 21.6107666, "way_id": 829327034, "landuse": "farmland", "closest_distance_restriction": 4.8049153933788915}, {"id": 7741097710, "lat": 49.9205756, "lon": 21.6106819, "way_id": 829327035, "landuse": "farmland", "closest_distance_restriction": 4.781480498158577}, {"id": 7741097716, "lat": 49.9208027, "lon": 21.6104959, "way_id": 829327035, "landuse": "farmland", "closest_distance_restriction": 4.785141193958149}, {"id": 7741097717, "lat": 49.92069, "lon": 21.6100474, "way_id": 829327035, "landuse": "farmland", "closest_distance_restriction": 4.751707407388597}, {"id": 7741097719, "lat": 49.9202621, "lon": 21.6102406, "way_id": 829327036, "landuse": "farmland", "closest_distance_restriction": 4.735616788780081}, {"id": 7741097720, "lat": 49.9200271, "lon": 21.6103941, "way_id": 829327036, "landuse": "farmland", "closest_distance_restriction": 4.729772406794646}, {"id": 7741097721, "lat": 49.9201583, "lon": 21.6108514, "way_id": 829327036, "landuse": "farmland", "closest_distance_restriction": 4.765017214936276}, {"id": 8068868643, "lat": 49.8921952, "lon": 21.8425106, "way_id": 345004547, "landuse": "farmland", "closest_distance_restriction": 2.0735544835207143}]}