{"nodes": [{"id": 1193420836, "lat": 49.5088549, "lon": 18.9044534, "way_id": 103339394, "landuse": "meadow", "closest_distance_restriction": 1.8442620547541335}, {"id": 1193421008, "lat": 49.5274944, "lon": 18.940413, "way_id": 365277496, "landuse": "meadow", "closest_distance_restriction": 1.569281655929586}, {"id": 1193422214, "lat": 49.5108699, "lon": 18.9059294, "way_id": 103339394, "landuse": "meadow", "closest_distance_restriction": 1.6390308957028532}, {"id": 1193422493, "lat": 49.5093562, "lon": 18.9038096, "way_id": 103339394, "landuse": "meadow", "closest_distance_restriction": 1.7818095760770882}, {"id": 1193423618, "lat": 49.5075965, "lon": 18.9062614, "way_id": 103339394, "landuse": "meadow", "closest_distance_restriction": 1.9987676948981983}, {"id": 1193423998, "lat": 49.5106945, "lon": 18.9032168, "way_id": 103339394, "landuse": "meadow", "closest_distance_restriction": 1.6283924122621918}, {"id": 1193425432, "lat": 49.527561, "lon": 18.9398436, "way_id": 365277496, "landuse": "meadow", "closest_distance_restriction": 1.5877743449453963}, {"id": 1193427231, "lat": 49.509061, "lon": 18.904241, "way_id": 103339394, "landuse": "meadow", "closest_distance_restriction": 1.8191089081061906}, {"id": 1193429269, "lat": 49.5100844, "lon": 18.9060825, "way_id": 103339394, "landuse": "meadow", "closest_distance_restriction": 1.7245941945144532}, {"id": 1193429861, "lat": 49.5102504, "lon": 18.9029567, "way_id": 103339394, "landuse": "meadow", "closest_distance_restriction": 1.6749172065161673}, {"id": 1193431545, "lat": 49.5074143, "lon": 18.9049098, "way_id": 103339394, "landuse": "meadow", "closest_distance_restriction": 2.007725429895925}, {"id": 1193431670, "lat": 49.5282527, "lon": 18.9379902, "way_id": 365277496, "landuse": "meadow", "closest_distance_restriction": 1.6145977461828347}, {"id": 2016240135, "lat": 49.5286194, "lon": 18.93784, "way_id": 365277496, "landuse": "meadow", "closest_distance_restriction": 1.5923288777646865}, {"id": 2021216158, "lat": 49.5887771, "lon": 18.9207941, "way_id": 191535971, "landuse": "farmland", "closest_distance_restriction": 1.5881535130437776}, {"id": 2021216167, "lat": 49.5893739, "lon": 18.9201654, "way_id": 191535971, "landuse": "farmland", "closest_distance_restriction": 1.6651660331322833}, {"id": 2021216176, "lat": 49.5896359, "lon": 18.9206819, "way_id": 191535971, "landuse": "farmland", "closest_distance_restriction": 1.6818508046901157}, {"id": 2021216180, "lat": 49.5897232, "lon": 18.9196939, "way_id": 191535971, "landuse": "farmland", "closest_distance_restriction": 1.7127752617978635}, {"id": 2021216192, "lat": 49.5899998, "lon": 18.9202103, "way_id": 191535971, "landuse": "farmland", "closest_distance_restriction": 1.7304750163398726}, {"id": 2021216201, "lat": 49.5902181, "lon": 18.918908, "way_id": 191535971, "landuse": "farmland", "closest_distance_restriction": 1.7423311991879917}, {"id": 2021216214, "lat": 49.5907567, "lon": 18.9194469, "way_id": 191535971, "landuse": "farmland", "closest_distance_restriction": 1.7958209722733711}, {"id": 2021216222, "lat": 49.5910333, "lon": 18.9182568, "way_id": 191535971, "landuse": "farmland", "closest_distance_restriction": 1.722975034235296}, {"id": 2021216228, "lat": 49.5913244, "lon": 18.9188855, "way_id": 191535971, "landuse": "farmland", "closest_distance_restriction": 1.7548643267519628}, {"id": 2021216237, "lat": 49.5915573, "lon": 18.9178975, "way_id": 191535971, "landuse": "farmland", "closest_distance_restriction": 1.712736666685509}, {"id": 2021216241, "lat": 49.5917901, "lon": 18.9160114, "way_id": 191535971, "landuse": "farmland", "closest_distance_restriction": 1.5764676244570568}, {"id": 2021216266, "lat": 49.592023, "lon": 18.9167299, "way_id": 191535971, "landuse": "farmland", "closest_distance_restriction": 1.6159119105603394}, {"id": 2021216269, "lat": 49.592023, "lon": 18.9185038, "way_id": 191535971, "landuse": "farmland", "closest_distance_restriction": 1.692407204521495}, {"id": 2021216281, "lat": 49.5923433, "lon": 18.9164829, "way_id": 191535971, "landuse": "farmland", "closest_distance_restriction": 1.5873644976279806}, {"id": 2021216282, "lat": 49.5924597, "lon": 18.9191325, "way_id": 191535971, "landuse": "farmland", "closest_distance_restriction": 1.630530850460636}, {"id": 2021216294, "lat": 49.5927654, "lon": 18.9176281, "way_id": 191535971, "landuse": "farmland", "closest_distance_restriction": 1.6421429760691706}, {"id": 3207926724, "lat": 49.9123528, "lon": 18.843786, "way_id": 314748489, "landuse": "farmland", "closest_distance_restriction": 2.4800500094572087}, {"id": 3207926725, "lat": 49.9120581, "lon": 18.8443183, "way_id": 314748489, "landuse": "farmland", "closest_distance_restriction": 2.4954815075811}, {"id": 3207926726, "lat": 49.9104762, "lon": 18.8420207, "way_id": 314748489, "landuse": "farmland", "closest_distance_restriction": 2.2649719976743237}, {"id": 3207926727, "lat": 49.9094597, "lon": 18.8400593, "way_id": 314748489, "landuse": "farmland", "closest_distance_restriction": 2.087440156589212}, {"id": 3207926728, "lat": 49.9096762, "lon": 18.839583, "way_id": 314748489, "landuse": "farmland", "closest_distance_restriction": 2.0692113296868713}, {"id": 3207926729, "lat": 49.9097484, "lon": 18.8395456, "way_id": 314748489, "landuse": "farmland", "closest_distance_restriction": 2.070837856436402}, {"id": 3207926730, "lat": 49.9101033, "lon": 18.8403302, "way_id": 314748489, "landuse": "farmland", "closest_distance_restriction": 2.1391969419517043}, {"id": 3207926731, "lat": 49.9102837, "lon": 18.840106, "way_id": 314748489, "landuse": "farmland", "closest_distance_restriction": 2.1353931467019738}, {"id": 3207926732, "lat": 49.909983, "lon": 18.8395176, "way_id": 314748489, "landuse": "farmland", "closest_distance_restriction": 2.082132166189486}, {"id": 3207926733, "lat": 49.9101995, "lon": 18.8392, "way_id": 314748489, "landuse": "farmland", "closest_distance_restriction": 2.0748900007072417}, {"id": 3207926734, "lat": 49.9100672, "lon": 18.8389572, "way_id": 314748489, "landuse": "farmland", "closest_distance_restriction": 2.052401478804831}, {"id": 3207926735, "lat": 49.9101514, "lon": 18.8386957, "way_id": 314748489, "landuse": "farmland", "closest_distance_restriction": 2.0412758977193883}, {"id": 3207926736, "lat": 49.910398, "lon": 18.8391347, "way_id": 314748489, "landuse": "farmland", "closest_distance_restriction": 2.0824280997787175}, {"id": 3207926737, "lat": 49.9102777, "lon": 18.8394429, "way_id": 314748489, "landuse": "farmland", "closest_distance_restriction": 2.094273313273815}, {"id": 3207926738, "lat": 49.9106386, "lon": 18.840162, "way_id": 314748489, "landuse": "farmland", "closest_distance_restriction": 2.1591133543764585}, {"id": 3207926739, "lat": 49.9105063, "lon": 18.8404142, "way_id": 314748489, "landuse": "farmland", "closest_distance_restriction": 2.1669949276011753}, {"id": 3207926740, "lat": 49.9113664, "lon": 18.8418713, "way_id": 314748489, "landuse": "farmland", "closest_distance_restriction": 2.3057515529094808}, {"id": 3207926741, "lat": 49.9117333, "lon": 18.8423663, "way_id": 314748489, "landuse": "farmland", "closest_distance_restriction": 2.357340817263615}, {"id": 3207926742, "lat": 49.9115649, "lon": 18.8426465, "way_id": 314748489, "landuse": "farmland", "closest_distance_restriction": 2.3646388453408185}, {"id": 3207926743, "lat": 49.9103679, "lon": 18.8378831, "way_id": 314748490, "landuse": "farmland", "closest_distance_restriction": 2.004962645343264}, {"id": 3207926744, "lat": 49.9106205, "lon": 18.8383594, "way_id": 314748490, "landuse": "farmland", "closest_distance_restriction": 2.0488741844746716}, {"id": 3207926745, "lat": 49.910392, "lon": 18.8389852, "way_id": 314748490, "landuse": "farmland", "closest_distance_restriction": 2.0729818599387104}, {"id": 3207926746, "lat": 49.9108371, "lon": 18.8399939, "way_id": 314748490, "landuse": "farmland", "closest_distance_restriction": 2.16046164647852}, {"id": 3207926747, "lat": 49.9114446, "lon": 18.8410774, "way_id": 314748490, "landuse": "farmland", "closest_distance_restriction": 2.2621160337228132}, {"id": 3207926748, "lat": 49.9122626, "lon": 18.8422262, "way_id": 314748490, "landuse": "farmland", "closest_distance_restriction": 2.380544704337302}, {"id": 3207926749, "lat": 49.9133091, "lon": 18.8437393, "way_id": 314748490, "landuse": "farmland", "closest_distance_restriction": 2.535210511082472}, {"id": 3207926750, "lat": 49.9135076, "lon": 18.8434217, "way_id": 314748490, "landuse": "farmland", "closest_distance_restriction": 2.5289255629932774}, {"id": 3207926751, "lat": 49.9139646, "lon": 18.8441035, "way_id": 314748490, "landuse": "farmland", "closest_distance_restriction": 2.598044068563498}, {"id": 3207926752, "lat": 49.9140574, "lon": 18.8440609, "way_id": 314748490, "landuse": "farmland", "closest_distance_restriction": 2.6014973906383063}, {"id": 3207926753, "lat": 49.9141633, "lon": 18.843863, "way_id": 314748490, "landuse": "farmland", "closest_distance_restriction": 2.5967980262270993}, {"id": 3207926754, "lat": 49.9140364, "lon": 18.8436182, "way_id": 314748490, "landuse": "farmland", "closest_distance_restriction": 2.5743299440740524}, {"id": 3207926755, "lat": 49.9138849, "lon": 18.8433228, "way_id": 314748490, "landuse": "farmland", "closest_distance_restriction": 2.547324073840718}, {"id": 3207926756, "lat": 49.9140131, "lon": 18.8430614, "way_id": 314748490, "landuse": "farmland", "closest_distance_restriction": 2.5405168072237214}, {"id": 3207926757, "lat": 49.9141505, "lon": 18.842673, "way_id": 314748490, "landuse": "farmland", "closest_distance_restriction": 2.5272327748562216}, {"id": 3207926758, "lat": 49.9142652, "lon": 18.8421839, "way_id": 314748490, "landuse": "farmland", "closest_distance_restriction": 2.5070214747190582}, {"id": 3207926759, "lat": 49.9142594, "lon": 18.8418899, "way_id": 314748490, "landuse": "farmland", "closest_distance_restriction": 2.4899599398134367}, {"id": 3207926760, "lat": 49.9144157, "lon": 18.8415817, "way_id": 314748490, "landuse": "farmland", "closest_distance_restriction": 2.483320342795248}, {"id": 3207927561, "lat": 49.9134715, "lon": 18.8402835, "way_id": 314748490, "landuse": "farmland", "closest_distance_restriction": 2.345377336658685}, {"id": 3207927562, "lat": 49.9129482, "lon": 18.8394802, "way_id": 314748490, "landuse": "farmland", "closest_distance_restriction": 2.2642852244736873}, {"id": 3207927563, "lat": 49.9124249, "lon": 18.8385929, "way_id": 314748490, "landuse": "farmland", "closest_distance_restriction": 2.1784627642832843}, {"id": 3207927564, "lat": 49.9118235, "lon": 18.8375095, "way_id": 314748490, "landuse": "farmland", "closest_distance_restriction": 2.0762307781511677}, {"id": 3207927565, "lat": 49.9115323, "lon": 18.8379212, "way_id": 314748490, "landuse": "farmland", "closest_distance_restriction": 2.080599659687926}, {"id": 3207927566, "lat": 49.9107664, "lon": 18.8366765, "way_id": 314748490, "landuse": "farmland", "closest_distance_restriction": 1.9585071826440563}, {"id": 3207927567, "lat": 49.9107029, "lon": 18.8368429, "way_id": 314748490, "landuse": "farmland", "closest_distance_restriction": 1.9641467630145046}, {"id": 3207927568, "lat": 49.9110045, "lon": 18.8372804, "way_id": 314748490, "landuse": "farmland", "closest_distance_restriction": 2.0090895582733044}, {"id": 3207927569, "lat": 49.9111712, "lon": 18.8375515, "way_id": 314748490, "landuse": "farmland", "closest_distance_restriction": 2.0356549796938768}, {"id": 3207927570, "lat": 49.9111831, "lon": 18.8376378, "way_id": 314748490, "landuse": "farmland", "closest_distance_restriction": 2.0414552863262805}, {"id": 3207927571, "lat": 49.9110482, "lon": 18.8378103, "way_id": 314748490, "landuse": "farmland", "closest_distance_restriction": 2.0429120042466473}, {"id": 3207927572, "lat": 49.9109132, "lon": 18.8376501, "way_id": 314748490, "landuse": "farmland", "closest_distance_restriction": 2.0249232571799447}, {"id": 3207927573, "lat": 49.9107426, "lon": 18.8379151, "way_id": 314748490, "landuse": "farmland", "closest_distance_restriction": 2.0298799042613185}, {"id": 3207927574, "lat": 49.9106077, "lon": 18.8378103, "way_id": 314748490, "landuse": "farmland", "closest_distance_restriction": 2.0152885344530187}, {"id": 3207927575, "lat": 49.9104847, "lon": 18.8376624, "way_id": 314748490, "landuse": "farmland", "closest_distance_restriction": 1.9988909678552007}, {"id": 3207942371, "lat": 49.9061192, "lon": 18.8440675, "way_id": 314749105, "landuse": "farmland", "closest_distance_restriction": 2.0332708692399963}, {"id": 3207942372, "lat": 49.906596, "lon": 18.8449097, "way_id": 314749105, "landuse": "farmland", "closest_distance_restriction": 2.1046036105919166}, {"id": 3207942373, "lat": 49.9059691, "lon": 18.8458727, "way_id": 314749105, "landuse": "farmland", "closest_distance_restriction": 2.0675281690711644}, {"id": 3207942374, "lat": 49.9051345, "lon": 18.844561, "way_id": 314749105, "landuse": "farmland", "closest_distance_restriction": 1.9448303350034544}, {"id": 3207942375, "lat": 49.9052935, "lon": 18.8443035, "way_id": 314749105, "landuse": "farmland", "closest_distance_restriction": 1.9540667270441852}, {"id": 3207942376, "lat": 49.9055629, "lon": 18.8447219, "way_id": 314749105, "landuse": "farmland", "closest_distance_restriction": 1.9932048438283148}, {"id": 3207942377, "lat": 49.9058808, "lon": 18.8441748, "way_id": 314749105, "landuse": "farmland", "closest_distance_restriction": 2.011294987345152}, {"id": 3207942378, "lat": 49.9059879, "lon": 18.8442123, "way_id": 314749105, "landuse": "farmland", "closest_distance_restriction": 2.023366800367486}, {"id": 3207943238, "lat": 49.9071179, "lon": 18.8442395, "way_id": 314749865, "landuse": "farmland", "closest_distance_restriction": 2.1416268432929866}, {"id": 3207943239, "lat": 49.9076467, "lon": 18.8452446, "way_id": 314749865, "landuse": "farmland", "closest_distance_restriction": 2.222070405357607}, {"id": 3207943240, "lat": 49.9078884, "lon": 18.8457684, "way_id": 314749865, "landuse": "farmland", "closest_distance_restriction": 2.2608775753003796}, {"id": 3207943241, "lat": 49.9084014, "lon": 18.8467933, "way_id": 314749865, "landuse": "farmland", "closest_distance_restriction": 2.341680418271506}, {"id": 3207943242, "lat": 49.909207, "lon": 18.8487528, "way_id": 314749865, "landuse": "farmland", "closest_distance_restriction": 2.4808883609558605}, {"id": 3207943243, "lat": 49.9097506, "lon": 18.8500346, "way_id": 314749865, "landuse": "farmland", "closest_distance_restriction": 2.575357417417702}, {"id": 3207943244, "lat": 49.9097506, "lon": 18.850164, "way_id": 314749865, "landuse": "farmland", "closest_distance_restriction": 2.5795099914973125}, {"id": 3207943245, "lat": 49.9093498, "lon": 18.8506138, "way_id": 314749865, "landuse": "farmland", "closest_distance_restriction": 2.554648287704445}, {"id": 3207943246, "lat": 49.9092863, "lon": 18.8505583, "way_id": 314749865, "landuse": "farmland", "closest_distance_restriction": 2.546548761914354}, {"id": 3207943247, "lat": 49.909076, "lon": 18.8507001, "way_id": 314749865, "landuse": "farmland", "closest_distance_restriction": 2.5306797948542235}, {"id": 3207943248, "lat": 49.908822, "lon": 18.8501455, "way_id": 314749865, "landuse": "farmland", "closest_distance_restriction": 2.487093765007453}, {"id": 3207943249, "lat": 49.9083577, "lon": 18.8506693, "way_id": 314749865, "landuse": "farmland", "closest_distance_restriction": 2.459544019117371}, {"id": 3207943250, "lat": 49.9087546, "lon": 18.8516244, "way_id": 314749865, "landuse": "farmland", "closest_distance_restriction": 2.516302150495107}, {"id": 3207943251, "lat": 49.9085405, "lon": 18.8518763, "way_id": 314749865, "landuse": "farmland", "closest_distance_restriction": 2.486527893064394}, {"id": 3207948574, "lat": 49.9052624, "lon": 18.8469007, "way_id": 314749865, "landuse": "farmland", "closest_distance_restriction": 2.028721612584374}, {"id": 3207948575, "lat": 49.9057147, "lon": 18.8463065, "way_id": 314749865, "landuse": "farmland", "closest_distance_restriction": 2.0549502031624916}, {"id": 3207948576, "lat": 49.9059647, "lon": 18.8467871, "way_id": 314749865, "landuse": "farmland", "closest_distance_restriction": 2.0949318760733755}, {"id": 3207948577, "lat": 49.906306, "lon": 18.8464051, "way_id": 314749865, "landuse": "farmland", "closest_distance_restriction": 2.117463576009773}, {"id": 3207948578, "lat": 49.906056, "lon": 18.8459737, "way_id": 314749865, "landuse": "farmland", "closest_distance_restriction": 2.079315061254595}, {"id": 5873266677, "lat": 49.6867395, "lon": 18.9644907, "way_id": 621724960, "landuse": "meadow", "closest_distance_restriction": 1.5838184045785904}, {"id": 5873266678, "lat": 49.6867542, "lon": 18.9647044, "way_id": 621724960, "landuse": "meadow", "closest_distance_restriction": 1.5969228098548656}, {"id": 5873266679, "lat": 49.6868946, "lon": 18.9648793, "way_id": 621724960, "landuse": "meadow", "closest_distance_restriction": 1.61645307980842}, {"id": 5873266680, "lat": 49.6871543, "lon": 18.964617, "way_id": 621724960, "landuse": "meadow", "closest_distance_restriction": 1.6198041851203469}, {"id": 5873266681, "lat": 49.6872674, "lon": 18.9644, "way_id": 621724960, "landuse": "meadow", "closest_distance_restriction": 1.6158239606051885}, {"id": 5873266682, "lat": 49.6872046, "lon": 18.9640342, "way_id": 621724960, "landuse": "meadow", "closest_distance_restriction": 1.5912271658666612}, {"id": 5873266683, "lat": 49.6874497, "lon": 18.9637913, "way_id": 621724960, "landuse": "meadow", "closest_distance_restriction": 1.5957933205353108}, {"id": 5873266684, "lat": 49.687787, "lon": 18.964073, "way_id": 621724960, "landuse": "meadow", "closest_distance_restriction": 1.6358280795284108}, {"id": 5873266685, "lat": 49.6880614, "lon": 18.9639467, "way_id": 621724960, "landuse": "meadow", "closest_distance_restriction": 1.649632246262975}, {"id": 5873266686, "lat": 49.6879566, "lon": 18.9633121, "way_id": 621724960, "landuse": "meadow", "closest_distance_restriction": 1.608366872815271}, {"id": 5873266687, "lat": 49.6887202, "lon": 18.9635064, "way_id": 621724960, "landuse": "meadow", "closest_distance_restriction": 1.677825893378297}, {"id": 5873266688, "lat": 49.6887998, "lon": 18.963406, "way_id": 621724960, "landuse": "meadow", "closest_distance_restriction": 1.6790853903026632}, {"id": 5873266689, "lat": 49.6890386, "lon": 18.96361, "way_id": 621724960, "landuse": "meadow", "closest_distance_restriction": 1.708362762222255}, {"id": 5873266690, "lat": 49.6890145, "lon": 18.9636667, "way_id": 621724960, "landuse": "meadow", "closest_distance_restriction": 1.7092746074743186}, {"id": 5873266691, "lat": 49.6885494, "lon": 18.9643644, "way_id": 621724960, "landuse": "meadow", "closest_distance_restriction": 1.7086509369916125}, {"id": 5873266692, "lat": 49.6891402, "lon": 18.9648954, "way_id": 621724960, "landuse": "meadow", "closest_distance_restriction": 1.6872737459066678}, {"id": 5873266693, "lat": 49.6894628, "lon": 18.9650185, "way_id": 621724960, "landuse": "meadow", "closest_distance_restriction": 1.6505509676231134}, {"id": 5873266694, "lat": 49.6896638, "lon": 18.9653229, "way_id": 621724960, "landuse": "meadow", "closest_distance_restriction": 1.6256549564185006}, {"id": 5873266695, "lat": 49.6897728, "lon": 18.9657632, "way_id": 621724960, "landuse": "meadow", "closest_distance_restriction": 1.6101495966715638}, {"id": 5873266696, "lat": 49.6897518, "lon": 18.9660805, "way_id": 621724960, "landuse": "meadow", "closest_distance_restriction": 1.6103567929773759}, {"id": 5873266697, "lat": 49.6896555, "lon": 18.9662359, "way_id": 621724960, "landuse": "meadow", "closest_distance_restriction": 1.6201123893400462}, {"id": 5873266698, "lat": 49.6887715, "lon": 18.9657762, "way_id": 621724960, "landuse": "meadow", "closest_distance_restriction": 1.7208811748434463}, {"id": 5873266699, "lat": 49.6883316, "lon": 18.9665792, "way_id": 621724960, "landuse": "meadow", "closest_distance_restriction": 1.7653084773346392}, {"id": 5873266700, "lat": 49.6874979, "lon": 18.9673304, "way_id": 621724960, "landuse": "meadow", "closest_distance_restriction": 1.7974540775539334}, {"id": 5873266701, "lat": 49.6874183, "lon": 18.9676606, "way_id": 621724960, "landuse": "meadow", "closest_distance_restriction": 1.8114681054113504}, {"id": 5873266702, "lat": 49.6870663, "lon": 18.9679585, "way_id": 621724960, "landuse": "meadow", "closest_distance_restriction": 1.8065996776483106}, {"id": 5873266703, "lat": 49.686794, "lon": 18.9688846, "way_id": 621724960, "landuse": "meadow", "closest_distance_restriction": 1.8456751519227073}, {"id": 5873266704, "lat": 49.6864965, "lon": 18.9692796, "way_id": 621724960, "landuse": "meadow", "closest_distance_restriction": 1.8525051722597499}, {"id": 5873266705, "lat": 49.6867354, "lon": 18.9696422, "way_id": 621724960, "landuse": "meadow", "closest_distance_restriction": 1.8885669976661639}, {"id": 5873266706, "lat": 49.6873806, "lon": 18.9687097, "way_id": 621724960, "landuse": "meadow", "closest_distance_restriction": 1.868795471651158}, {"id": 5873266707, "lat": 49.6877199, "lon": 18.9685414, "way_id": 621724960, "landuse": "meadow", "closest_distance_restriction": 1.8307836648161657}, {"id": 5873266708, "lat": 49.6880677, "lon": 18.968632, "way_id": 621724960, "landuse": "meadow", "closest_distance_restriction": 1.7922726159051894}, {"id": 5873266709, "lat": 49.6881473, "lon": 18.96904, "way_id": 621724960, "landuse": "meadow", "closest_distance_restriction": 1.7844142115961623}, {"id": 5873266710, "lat": 49.6880341, "lon": 18.9691371, "way_id": 621724960, "landuse": "meadow", "closest_distance_restriction": 1.7972949130943798}, {"id": 5873266711, "lat": 49.6879671, "lon": 18.9700114, "way_id": 621724960, "landuse": "meadow", "closest_distance_restriction": 1.8086798388589376}, {"id": 5873266712, "lat": 49.6878121, "lon": 18.9704582, "way_id": 621724960, "landuse": "meadow", "closest_distance_restriction": 1.8286880296241488}, {"id": 5873266713, "lat": 49.6876277, "lon": 18.9706201, "way_id": 621724960, "landuse": "meadow", "closest_distance_restriction": 1.8502473978146472}, {"id": 5873266714, "lat": 49.6874057, "lon": 18.9712871, "way_id": 621724960, "landuse": "meadow", "closest_distance_restriction": 1.8802353736848865}, {"id": 5873266715, "lat": 49.6871795, "lon": 18.9716174, "way_id": 621724960, "landuse": "meadow", "closest_distance_restriction": 1.9082849925219911}, {"id": 5873266716, "lat": 49.6868778, "lon": 18.9716692, "way_id": 621724960, "landuse": "meadow", "closest_distance_restriction": 1.942027498341518}, {"id": 5873266717, "lat": 49.6866432, "lon": 18.9713778, "way_id": 621724960, "landuse": "meadow", "closest_distance_restriction": 1.9651734580568108}, {"id": 5873266718, "lat": 49.6864337, "lon": 18.9709309, "way_id": 621724960, "landuse": "meadow", "closest_distance_restriction": 1.951908473068989}, {"id": 5873266719, "lat": 49.6863206, "lon": 18.9705942, "way_id": 621724960, "landuse": "meadow", "closest_distance_restriction": 1.9246265642878018}, {"id": 5873266720, "lat": 49.6862242, "lon": 18.9701344, "way_id": 621724960, "landuse": "meadow", "closest_distance_restriction": 1.8905150127131105}, {"id": 5873266721, "lat": 49.6856418, "lon": 18.9692796, "way_id": 621724960, "landuse": "meadow", "closest_distance_restriction": 1.8054174639992564}, {"id": 5873266722, "lat": 49.6856251, "lon": 18.9688069, "way_id": 621724960, "landuse": "meadow", "closest_distance_restriction": 1.7746797007052952}, {"id": 5873266723, "lat": 49.6856607, "lon": 18.9686094, "way_id": 621724960, "landuse": "meadow", "closest_distance_restriction": 1.7641784104461116}, {"id": 5873266724, "lat": 49.6856544, "lon": 18.9683374, "way_id": 621724960, "landuse": "meadow", "closest_distance_restriction": 1.7467788307221883}, {"id": 5873266725, "lat": 49.6857403, "lon": 18.9680039, "way_id": 621724960, "landuse": "meadow", "closest_distance_restriction": 1.7307165304844319}, {"id": 5873266726, "lat": 49.6858471, "lon": 18.9678776, "way_id": 621724960, "landuse": "meadow", "closest_distance_restriction": 1.7288915500802637}, {"id": 5873266727, "lat": 49.6861006, "lon": 18.9673627, "way_id": 621724960, "landuse": "meadow", "closest_distance_restriction": 1.711941983995117}, {"id": 5873266728, "lat": 49.6863248, "lon": 18.9667702, "way_id": 621724960, "landuse": "meadow", "closest_distance_restriction": 1.6896483928159387}, {"id": 5873266729, "lat": 49.6866674, "lon": 18.9641883, "way_id": 621724960, "landuse": "meadow", "closest_distance_restriction": 1.5617889628132575}, {"id": 5873266731, "lat": 49.686044, "lon": 18.9653201, "way_id": 621724960, "landuse": "meadow", "closest_distance_restriction": 1.5857873045940414}, {"id": 5873266732, "lat": 49.6861418, "lon": 18.9660647, "way_id": 621724960, "landuse": "meadow", "closest_distance_restriction": 1.6361485729017522}, {"id": 5873266733, "lat": 49.6863111, "lon": 18.9664909, "way_id": 621724960, "landuse": "meadow", "closest_distance_restriction": 1.6720959491034142}, {"id": 6327889536, "lat": 49.5274124, "lon": 18.9402673, "way_id": 365277496, "landuse": "meadow", "closest_distance_restriction": 1.5828325784572812}, {"id": 6327889537, "lat": 49.5274834, "lon": 18.9399488, "way_id": 365277496, "landuse": "meadow", "closest_distance_restriction": 1.5901009306884522}, {"id": 6327889538, "lat": 49.5277904, "lon": 18.938884, "way_id": 365277496, "landuse": "meadow", "closest_distance_restriction": 1.6108507456435115}, {"id": 6516958486, "lat": 49.9081461, "lon": 18.852303, "way_id": 314749865, "landuse": "farmland", "closest_distance_restriction": 2.433121525923642}, {"id": 6516958487, "lat": 49.9078024, "lon": 18.8525525, "way_id": 314749865, "landuse": "farmland", "closest_distance_restriction": 2.391296068886112}, {"id": 6516958488, "lat": 49.9076348, "lon": 18.8521582, "way_id": 314749865, "landuse": "farmland", "closest_distance_restriction": 2.3910711063034538}, {"id": 6516958489, "lat": 49.9074794, "lon": 18.8523218, "way_id": 314749865, "landuse": "farmland", "closest_distance_restriction": 2.3701956962985613}, {"id": 6516958490, "lat": 49.9073723, "lon": 18.8521072, "way_id": 314749865, "landuse": "farmland", "closest_distance_restriction": 2.3688073213260092}, {"id": 6516958491, "lat": 49.9069525, "lon": 18.8525149, "way_id": 314749865, "landuse": "farmland", "closest_distance_restriction": 2.3137795612033956}, {"id": 6516958492, "lat": 49.9047534, "lon": 18.8460025, "way_id": 314749865, "landuse": "farmland", "closest_distance_restriction": 1.949256960597663}, {"id": 6516958493, "lat": 49.9048398, "lon": 18.8461259, "way_id": 314749865, "landuse": "farmland", "closest_distance_restriction": 1.961784391588189}, {"id": 6516958545, "lat": 49.904655, "lon": 18.8459435, "way_id": 314749865, "landuse": "farmland", "closest_distance_restriction": 1.937574866799787}, {"id": 6516958546, "lat": 49.9045341, "lon": 18.8458765, "way_id": 314749865, "landuse": "farmland", "closest_distance_restriction": 1.9233966079352902}, {"id": 6516958547, "lat": 49.9044218, "lon": 18.8461688, "way_id": 314749865, "landuse": "farmland", "closest_distance_restriction": 1.9216355149157558}, {"id": 6516958548, "lat": 49.9044183, "lon": 18.8463727, "way_id": 314749865, "landuse": "farmland", "closest_distance_restriction": 1.9279715934297141}, {"id": 6516958549, "lat": 49.9045133, "lon": 18.8468394, "way_id": 314749865, "landuse": "farmland", "closest_distance_restriction": 1.9529011893368908}, {"id": 6516958550, "lat": 49.9044339, "lon": 18.8479927, "way_id": 314749865, "landuse": "farmland", "closest_distance_restriction": 1.9855853122771658}, {"id": 6516958551, "lat": 49.9057243, "lon": 18.8507286, "way_id": 314749865, "landuse": "farmland", "closest_distance_restriction": 2.2105649086078856}, {"id": 6516958552, "lat": 49.9065276, "lon": 18.8526034, "way_id": 314749865, "landuse": "farmland", "closest_distance_restriction": 2.2711486688115317}, {"id": 6516958553, "lat": 49.9066329, "lon": 18.8526759, "way_id": 314749865, "landuse": "farmland", "closest_distance_restriction": 2.2778854602081338}, {"id": 6516958554, "lat": 49.9067314, "lon": 18.8526544, "way_id": 314749865, "landuse": "farmland", "closest_distance_restriction": 2.2878135395789894}, {"id": 6516958794, "lat": 49.9082584, "lon": 18.851206, "way_id": 314749865, "landuse": "farmland", "closest_distance_restriction": 2.468890309941265}, {"id": 6516958797, "lat": 49.9079216, "lon": 18.8517666, "way_id": 314749865, "landuse": "farmland", "closest_distance_restriction": 2.4331442324549597}, {"id": 6516958798, "lat": 49.9077989, "lon": 18.8514554, "way_id": 314749865, "landuse": "farmland", "closest_distance_restriction": 2.43391514925196}, {"id": 6516958799, "lat": 49.9081824, "lon": 18.851029, "way_id": 314749865, "landuse": "farmland", "closest_distance_restriction": 2.4552437265401847}]}