{"nodes": [{"id": 477223010, "lat": 53.0053973, "lon": 16.1755662, "way_id": 39812977, "landuse": "farmland", "closest_distance_restriction": 2.3546131985360645}, {"id": 477223011, "lat": 53.0053664, "lon": 16.178802, "way_id": 39812977, "landuse": "farmland", "closest_distance_restriction": 2.1920873017032934}, {"id": 477223012, "lat": 53.0033882, "lon": 16.1792827, "way_id": 39812977, "landuse": "farmland", "closest_distance_restriction": 2.0204467290950907}, {"id": 477223013, "lat": 53.0034089, "lon": 16.1764932, "way_id": 39812977, "landuse": "farmland", "closest_distance_restriction": 2.167637083849531}, {"id": 477223014, "lat": 53.0040751, "lon": 16.1760726, "way_id": 39812977, "landuse": "farmland", "closest_distance_restriction": 2.235175605189805}, {"id": 477223015, "lat": 53.0041061, "lon": 16.1770167, "way_id": 39812977, "landuse": "farmland", "closest_distance_restriction": 2.1880574205347485}, {"id": 477223016, "lat": 53.0048705, "lon": 16.1769395, "way_id": 39812977, "landuse": "farmland", "closest_distance_restriction": 2.2467474265102974}, {"id": 477223017, "lat": 53.0048344, "lon": 16.1761155, "way_id": 39812977, "landuse": "farmland", "closest_distance_restriction": 2.286139999007687}, {"id": 2576690577, "lat": 52.7906793, "lon": 16.57794, "way_id": 522926619, "landuse": "farmland", "closest_distance_restriction": 1.754716955694598}, {"id": 2576690677, "lat": 52.791528, "lon": 16.5841543, "way_id": 251453953, "landuse": "farmland", "closest_distance_restriction": 1.6116303568042554}, {"id": 2576690707, "lat": 52.7917018, "lon": 16.5841633, "way_id": 251453953, "landuse": "farmland", "closest_distance_restriction": 1.6285927020357158}, {"id": 2576690814, "lat": 52.7927158, "lon": 16.5835127, "way_id": 251453953, "landuse": "farmland", "closest_distance_restriction": 1.7490112256335704}, {"id": 2576696340, "lat": 52.8714143, "lon": 16.4824188, "way_id": 857938707, "landuse": "farmland", "closest_distance_restriction": 2.244257043189124}, {"id": 2576730377, "lat": 52.9216081, "lon": 15.9779015, "way_id": 704134244, "landuse": "meadow", "closest_distance_restriction": 2.1961472207412736}, {"id": 2576731251, "lat": 52.9272797, "lon": 15.9743956, "way_id": 704134227, "landuse": "meadow", "closest_distance_restriction": 2.0412447961741904}, {"id": 2576731322, "lat": 52.9274636, "lon": 15.9743153, "way_id": 704134227, "landuse": "meadow", "closest_distance_restriction": 2.020487671447615}, {"id": 2576731354, "lat": 52.9278945, "lon": 15.9742283, "way_id": 704134227, "landuse": "meadow", "closest_distance_restriction": 1.9722994593301324}, {"id": 2576731379, "lat": 52.9283404, "lon": 15.9739534, "way_id": 704134227, "landuse": "meadow", "closest_distance_restriction": 1.921714944209702}, {"id": 2576731391, "lat": 52.928615, "lon": 15.9754561, "way_id": 704134228, "landuse": "meadow", "closest_distance_restriction": 1.8995338810542424}, {"id": 2576731398, "lat": 52.9285088, "lon": 15.9752506, "way_id": 704134228, "landuse": "meadow", "closest_distance_restriction": 1.9098329697948955}, {"id": 2576731400, "lat": 52.928828, "lon": 15.9759519, "way_id": 704134228, "landuse": "meadow", "closest_distance_restriction": 1.8799423336540688}, {"id": 2576731408, "lat": 52.9284733, "lon": 15.9738438, "way_id": 704134227, "landuse": "meadow", "closest_distance_restriction": 1.9065657214382732}, {"id": 2576731415, "lat": 52.9284392, "lon": 15.9748499, "way_id": 704134228, "landuse": "meadow", "closest_distance_restriction": 1.9150176157811558}, {"id": 2576731418, "lat": 52.9284488, "lon": 15.9745563, "way_id": 704134228, "landuse": "meadow", "closest_distance_restriction": 1.9123475552861577}, {"id": 2576731440, "lat": 52.9289743, "lon": 15.9762848, "way_id": 704134228, "landuse": "meadow", "closest_distance_restriction": 1.8668113500667634}, {"id": 2576731452, "lat": 52.92863, "lon": 15.9743665, "way_id": 704134228, "landuse": "meadow", "closest_distance_restriction": 1.891317327979718}, {"id": 2576731479, "lat": 52.9291304, "lon": 15.9764975, "way_id": 704134228, "landuse": "meadow", "closest_distance_restriction": 1.8517019602907467}, {"id": 2576731493, "lat": 52.9287177, "lon": 15.9737932, "way_id": 704134227, "landuse": "meadow", "closest_distance_restriction": 1.879251678188706}, {"id": 2576731514, "lat": 52.9289066, "lon": 15.974375, "way_id": 704134228, "landuse": "meadow", "closest_distance_restriction": 1.8606799523048538}, {"id": 2576731548, "lat": 52.9292719, "lon": 15.9764996, "way_id": 704134228, "landuse": "meadow", "closest_distance_restriction": 1.8361668668498647}, {"id": 2576731567, "lat": 52.929102, "lon": 15.9738562, "way_id": 704134227, "landuse": "meadow", "closest_distance_restriction": 1.836799403864303}, {"id": 2576731578, "lat": 52.9294485, "lon": 15.9763817, "way_id": 704134228, "landuse": "meadow", "closest_distance_restriction": 1.8155700826903822}, {"id": 2576731637, "lat": 52.9294677, "lon": 15.9745624, "way_id": 704134228, "landuse": "meadow", "closest_distance_restriction": 1.7994374832293125}, {"id": 2576731694, "lat": 52.9295201, "lon": 15.9739878, "way_id": 704134227, "landuse": "meadow", "closest_distance_restriction": 1.7908903203566633}, {"id": 2576731727, "lat": 52.9297161, "lon": 15.9746619, "way_id": 704134228, "landuse": "meadow", "closest_distance_restriction": 1.772474940509358}, {"id": 2576731762, "lat": 52.929807, "lon": 15.9740821, "way_id": 704134227, "landuse": "meadow", "closest_distance_restriction": 1.7594481914703952}, {"id": 2576731776, "lat": 52.9298725, "lon": 15.9751667, "way_id": 704134228, "landuse": "meadow", "closest_distance_restriction": 1.7584305953546235}, {"id": 2576731799, "lat": 52.9299063, "lon": 15.9751313, "way_id": 704134228, "landuse": "meadow", "closest_distance_restriction": 1.754442004449149}, {"id": 2576731864, "lat": 52.9300839, "lon": 15.9759115, "way_id": 704134228, "landuse": "meadow", "closest_distance_restriction": 1.74115420145612}, {"id": 2576743303, "lat": 53.0036539, "lon": 16.0799274, "way_id": 617638622, "landuse": "farmland", "closest_distance_restriction": 2.9407665928123414}, {"id": 2576743593, "lat": 53.0055846, "lon": 16.0803411, "way_id": 617638615, "landuse": "farmland", "closest_distance_restriction": 2.830691751842047}, {"id": 2576744210, "lat": 53.0104002, "lon": 16.0628578, "way_id": 617638615, "landuse": "farmland", "closest_distance_restriction": 1.589272682510903}, {"id": 2576744217, "lat": 53.0106396, "lon": 16.0674162, "way_id": 617638624, "landuse": "farmland", "closest_distance_restriction": 1.801970525532673}, {"id": 2576744256, "lat": 53.0109397, "lon": 16.0640455, "way_id": 617638615, "landuse": "farmland", "closest_distance_restriction": 1.606332850574943}, {"id": 2576744306, "lat": 53.0115107, "lon": 16.0648683, "way_id": 617638615, "landuse": "farmland", "closest_distance_restriction": 1.6079377912086443}, {"id": 2576744481, "lat": 53.0131829, "lon": 16.076129, "way_id": 617638628, "landuse": "farmland", "closest_distance_restriction": 2.1543523800128277}, {"id": 2576744504, "lat": 53.0133718, "lon": 16.0758405, "way_id": 617638628, "landuse": "farmland", "closest_distance_restriction": 2.1282551927506743}, {"id": 2576744527, "lat": 53.0136349, "lon": 16.0756518, "way_id": 617638628, "landuse": "farmland", "closest_distance_restriction": 2.1051429865098457}, {"id": 2576744623, "lat": 53.0140975, "lon": 16.0753541, "way_id": 617638628, "landuse": "farmland", "closest_distance_restriction": 2.0671883335616092}, {"id": 2576744676, "lat": 53.0143122, "lon": 16.0696894, "way_id": 617638628, "landuse": "farmland", "closest_distance_restriction": 1.7104862061755952}, {"id": 2576744741, "lat": 53.0144298, "lon": 16.0751676, "way_id": 617638628, "landuse": "farmland", "closest_distance_restriction": 2.042117798477806}, {"id": 2576744813, "lat": 53.0150872, "lon": 16.0742423, "way_id": 617638628, "landuse": "farmland", "closest_distance_restriction": 1.958735465500395}, {"id": 2576744849, "lat": 53.0154309, "lon": 16.0737043, "way_id": 617638628, "landuse": "farmland", "closest_distance_restriction": 1.9121704739612961}, {"id": 2576744856, "lat": 53.0155258, "lon": 16.0709499, "way_id": 617638628, "landuse": "farmland", "closest_distance_restriction": 1.735103641991837}, {"id": 2576745006, "lat": 53.0159358, "lon": 16.0729009, "way_id": 617638628, "landuse": "farmland", "closest_distance_restriction": 1.8435117596714319}, {"id": 2576786405, "lat": 53.039686, "lon": 16.3610532, "way_id": 830169053, "landuse": "farmland", "closest_distance_restriction": 1.5805549944285404}, {"id": 2576786410, "lat": 53.0397468, "lon": 16.3608818, "way_id": 830169053, "landuse": "farmland", "closest_distance_restriction": 1.5879111683120526}, {"id": 2576786418, "lat": 53.0398161, "lon": 16.3612419, "way_id": 830169053, "landuse": "farmland", "closest_distance_restriction": 1.5944376164036012}, {"id": 2576786519, "lat": 53.041284, "lon": 16.3616878, "way_id": 830169053, "landuse": "farmland", "closest_distance_restriction": 1.7566817882881167}, {"id": 2576786565, "lat": 53.0409484, "lon": 16.3615248, "way_id": 830169053, "landuse": "farmland", "closest_distance_restriction": 1.7196318534717998}, {"id": 2576813430, "lat": 52.9446094, "lon": 16.7373068, "way_id": 857490409, "landuse": "farmland", "closest_distance_restriction": 1.640572463854064}, {"id": 3615217697, "lat": 52.847269, "lon": 16.5779204, "way_id": 356042006, "landuse": "farmland", "closest_distance_restriction": 2.0734898248753146}, {"id": 3615217698, "lat": 52.8473636, "lon": 16.5806921, "way_id": 356042006, "landuse": "farmland", "closest_distance_restriction": 1.888615208986084}, {"id": 3615217699, "lat": 52.8473866, "lon": 16.5817881, "way_id": 356042006, "landuse": "farmland", "closest_distance_restriction": 1.8154646859688766}, {"id": 3615217700, "lat": 52.8473891, "lon": 16.5779204, "way_id": 356042006, "landuse": "farmland", "closest_distance_restriction": 2.0744253960050676}, {"id": 3615217701, "lat": 52.8474326, "lon": 16.5775819, "way_id": 356042006, "landuse": "farmland", "closest_distance_restriction": 2.0974530208381705}, {"id": 3615217703, "lat": 52.8476294, "lon": 16.5814834, "way_id": 356042006, "landuse": "farmland", "closest_distance_restriction": 1.8382851256003603}, {"id": 3615217719, "lat": 52.848672, "lon": 16.5835781, "way_id": 356042006, "landuse": "farmland", "closest_distance_restriction": 1.7144269701976997}, {"id": 3615217720, "lat": 52.8486874, "lon": 16.5824694, "way_id": 356042006, "landuse": "farmland", "closest_distance_restriction": 1.7880998981877634}, {"id": 3615217726, "lat": 52.8491653, "lon": 16.5836966, "way_id": 356042006, "landuse": "farmland", "closest_distance_restriction": 1.7169131834799767}, {"id": 3615217729, "lat": 52.8492547, "lon": 16.5795961, "way_id": 356042006, "landuse": "farmland", "closest_distance_restriction": 1.9890666540134339}, {"id": 3654077340, "lat": 52.8564278, "lon": 16.4794708, "way_id": 360851196, "landuse": "farmland", "closest_distance_restriction": 1.905404588817432}, {"id": 3654077346, "lat": 52.8591204, "lon": 16.4835466, "way_id": 360851196, "landuse": "farmland", "closest_distance_restriction": 1.629048818245239}, {"id": 3654077356, "lat": 52.8598158, "lon": 16.4750934, "way_id": 360851196, "landuse": "farmland", "closest_distance_restriction": 2.2005678054216813}, {"id": 3654077362, "lat": 52.8601591, "lon": 16.4782691, "way_id": 360851196, "landuse": "farmland", "closest_distance_restriction": 1.9917822796718025}, {"id": 3654077363, "lat": 52.8602277, "lon": 16.4746145, "way_id": 360851195, "landuse": "farmland", "closest_distance_restriction": 2.236636184401867}, {"id": 3654077367, "lat": 52.8604929, "lon": 16.4759255, "way_id": 360851195, "landuse": "farmland", "closest_distance_restriction": 2.1522641353250447}, {"id": 3654077368, "lat": 52.8605638, "lon": 16.4759858, "way_id": 360851195, "landuse": "farmland", "closest_distance_restriction": 2.149168581169382}, {"id": 3654077370, "lat": 52.860755, "lon": 16.4789021, "way_id": 360851196, "landuse": "farmland", "closest_distance_restriction": 1.9578204866750266}, {"id": 3654077372, "lat": 52.8608897, "lon": 16.4736891, "way_id": 360851195, "landuse": "farmland", "closest_distance_restriction": 2.3066436776161865}, {"id": 3654077373, "lat": 52.8609727, "lon": 16.4754259, "way_id": 360851195, "landuse": "farmland", "closest_distance_restriction": 2.192286404458041}, {"id": 3654077374, "lat": 52.8611387, "lon": 16.4742691, "way_id": 360851195, "landuse": "farmland", "closest_distance_restriction": 2.271760744764533}, {"id": 3654077377, "lat": 52.8612035, "lon": 16.4733002, "way_id": 360851195, "landuse": "farmland", "closest_distance_restriction": 2.337173878933343}, {"id": 3654077379, "lat": 52.8612925, "lon": 16.4756874, "way_id": 360851195, "landuse": "farmland", "closest_distance_restriction": 2.18011600580788}, {"id": 3654077380, "lat": 52.861416, "lon": 16.4739104, "way_id": 360851195, "landuse": "farmland", "closest_distance_restriction": 2.3001057914395773}, {"id": 3654077382, "lat": 52.8615759, "lon": 16.4763748, "way_id": 360851195, "landuse": "farmland", "closest_distance_restriction": 2.13974096029013}, {"id": 3654077386, "lat": 52.8617703, "lon": 16.4765424, "way_id": 360851195, "landuse": "farmland", "closest_distance_restriction": 2.132509746909546}, {"id": 3654077387, "lat": 52.8617785, "lon": 16.4832581, "way_id": 360851196, "landuse": "farmland", "closest_distance_restriction": 1.6915151291440043}, {"id": 3654077394, "lat": 52.8619079, "lon": 16.474876, "way_id": 360851195, "landuse": "farmland", "closest_distance_restriction": 2.245296829256236}, {"id": 3654077398, "lat": 52.8620111, "lon": 16.4762541, "way_id": 360851195, "landuse": "farmland", "closest_distance_restriction": 2.156558943375487}, {"id": 3654077399, "lat": 52.862082, "lon": 16.4758484, "way_id": 360851195, "landuse": "farmland", "closest_distance_restriction": 2.184806531154695}, {"id": 3654077402, "lat": 52.862206, "lon": 16.4843095, "way_id": 360851196, "landuse": "farmland", "closest_distance_restriction": 1.635048110552635}, {"id": 3654077405, "lat": 52.8622379, "lon": 16.4719959, "way_id": 360851195, "landuse": "farmland", "closest_distance_restriction": 2.442092767801345}, {"id": 3654077406, "lat": 52.8623006, "lon": 16.4718785, "way_id": 360851193, "landuse": "farmland", "closest_distance_restriction": 2.451112314587499}, {"id": 3654077408, "lat": 52.8624018, "lon": 16.474581, "way_id": 360851195, "landuse": "farmland", "closest_distance_restriction": 2.2752556632881955}, {"id": 3654077410, "lat": 52.8624504, "lon": 16.4733236, "way_id": 360851195, "landuse": "farmland", "closest_distance_restriction": 2.3590433282889824}, {"id": 3654077411, "lat": 52.8624706, "lon": 16.4741619, "way_id": 360851195, "landuse": "farmland", "closest_distance_restriction": 2.304357413574138}, {"id": 3654077415, "lat": 52.8625314, "lon": 16.474467, "way_id": 360851193, "landuse": "farmland", "closest_distance_restriction": 2.2857017477639165}, {"id": 3654077416, "lat": 52.8625334, "lon": 16.4731828, "way_id": 360851193, "landuse": "farmland", "closest_distance_restriction": 2.3701429186937863}, {"id": 3654077417, "lat": 52.8625334, "lon": 16.4852163, "way_id": 360851196, "landuse": "farmland", "closest_distance_restriction": 1.5870170615196926}, {"id": 3654077418, "lat": 52.8626346, "lon": 16.4715332, "way_id": 360851193, "landuse": "farmland", "closest_distance_restriction": 2.4809163217954175}, {"id": 3654077419, "lat": 52.862669, "lon": 16.4744737, "way_id": 360851193, "landuse": "farmland", "closest_distance_restriction": 2.2884906496103046}, {"id": 3654077420, "lat": 52.8626832, "lon": 16.4759691, "way_id": 360851193, "landuse": "farmland", "closest_distance_restriction": 2.1908926378269977}, {"id": 3654077423, "lat": 52.8627662, "lon": 16.4731795, "way_id": 360851193, "landuse": "farmland", "closest_distance_restriction": 2.3756841496635253}, {"id": 3654077425, "lat": 52.8629484, "lon": 16.4742826, "way_id": 360851193, "landuse": "farmland", "closest_distance_restriction": 2.307842100762557}, {"id": 3654077430, "lat": 52.8630921, "lon": 16.4766899, "way_id": 360851193, "landuse": "farmland", "closest_distance_restriction": 2.1546544417427396}, {"id": 3654077432, "lat": 52.8631629, "lon": 16.4773002, "way_id": 360851193, "landuse": "farmland", "closest_distance_restriction": 2.117017824224426}, {"id": 3654077433, "lat": 52.8631771, "lon": 16.4752147, "way_id": 360851193, "landuse": "farmland", "closest_distance_restriction": 2.2529673895636715}, {"id": 3654077434, "lat": 52.8632641, "lon": 16.4773035, "way_id": 360851193, "landuse": "farmland", "closest_distance_restriction": 2.119730233246447}, {"id": 3654077438, "lat": 52.8633532, "lon": 16.4793957, "way_id": 360851193, "landuse": "farmland", "closest_distance_restriction": 1.9873509752114784}, {"id": 3654077439, "lat": 52.8633957, "lon": 16.4769079, "way_id": 360851193, "landuse": "farmland", "closest_distance_restriction": 2.1492091044351165}, {"id": 3654077440, "lat": 52.8634726, "lon": 16.4793722, "way_id": 360851193, "landuse": "farmland", "closest_distance_restriction": 1.992685282583873}, {"id": 3765016711, "lat": 53.1205718, "lon": 16.7085237, "way_id": 372946737, "landuse": "brownfield", "closest_distance_restriction": 13.527298234782295}, {"id": 3765016712, "lat": 53.1206837, "lon": 16.7081624, "way_id": 372946737, "landuse": "brownfield", "closest_distance_restriction": 13.515243141629238}, {"id": 3765016713, "lat": 53.1208685, "lon": 16.7076565, "way_id": 372946737, "landuse": "brownfield", "closest_distance_restriction": 13.500297845886642}, {"id": 3765016715, "lat": 53.1209142, "lon": 16.707242, "way_id": 372946737, "landuse": "brownfield", "closest_distance_restriction": 13.48111226135639}, {"id": 3765016718, "lat": 53.1212246, "lon": 16.7061505, "way_id": 372946737, "landuse": "brownfield", "closest_distance_restriction": 13.443427117694643}, {"id": 3765016719, "lat": 53.1214519, "lon": 16.7101763, "way_id": 372946737, "landuse": "brownfield", "closest_distance_restriction": 13.674111628913145}, {"id": 3765016723, "lat": 53.1218933, "lon": 16.7034123, "way_id": 372946737, "landuse": "brownfield", "closest_distance_restriction": 13.343093962453127}, {"id": 3765016725, "lat": 53.1225195, "lon": 16.7011211, "way_id": 372946737, "landuse": "brownfield", "closest_distance_restriction": 13.265410677188669}, {"id": 3765016729, "lat": 53.1232102, "lon": 16.7016912, "way_id": 372946737, "landuse": "brownfield", "closest_distance_restriction": 13.342911947048725}, {"id": 3765016730, "lat": 53.1237137, "lon": 16.7008737, "way_id": 372946737, "landuse": "brownfield", "closest_distance_restriction": 13.335234520495227}, {"id": 3765016731, "lat": 53.1237992, "lon": 16.7046484, "way_id": 372946737, "landuse": "brownfield", "closest_distance_restriction": 13.538362180304787}, {"id": 3765016733, "lat": 53.1244173, "lon": 16.7021752, "way_id": 372946737, "landuse": "brownfield", "closest_distance_restriction": 13.451938985926015}, {"id": 3765016734, "lat": 53.1248239, "lon": 16.7023473, "way_id": 372946737, "landuse": "brownfield", "closest_distance_restriction": 13.489253855324108}, {"id": 3765016736, "lat": 53.1251144, "lon": 16.7024442, "way_id": 372946737, "landuse": "brownfield", "closest_distance_restriction": 13.514598387732237}, {"id": 3765016737, "lat": 53.1253484, "lon": 16.7029918, "way_id": 372946737, "landuse": "brownfield", "closest_distance_restriction": 13.559367959174239}, {"id": 4985170702, "lat": 52.7965181, "lon": 16.1413148, "way_id": 509266840, "landuse": "meadow", "closest_distance_restriction": 1.5721635081017982}, {"id": 4985170703, "lat": 52.7966979, "lon": 16.1423907, "way_id": 509266840, "landuse": "meadow", "closest_distance_restriction": 1.6468323229854207}, {"id": 4985170704, "lat": 52.7970488, "lon": 16.1430561, "way_id": 509266840, "landuse": "meadow", "closest_distance_restriction": 1.6978456194876397}, {"id": 4985170705, "lat": 52.7974169, "lon": 16.1433958, "way_id": 509266840, "landuse": "meadow", "closest_distance_restriction": 1.7283568424961355}, {"id": 4985170706, "lat": 52.7975967, "lon": 16.1439763, "way_id": 509266840, "landuse": "meadow", "closest_distance_restriction": 1.6969674675832584}, {"id": 4985170707, "lat": 52.797862, "lon": 16.1440046, "way_id": 509266840, "landuse": "meadow", "closest_distance_restriction": 1.6820691351855843}, {"id": 4985170708, "lat": 52.7978706, "lon": 16.1435374, "way_id": 509266840, "landuse": "meadow", "closest_distance_restriction": 1.709909025563586}, {"id": 4985170709, "lat": 52.7983242, "lon": 16.1434949, "way_id": 509266840, "landuse": "meadow", "closest_distance_restriction": 1.6912986411357995}, {"id": 4985170710, "lat": 52.7983585, "lon": 16.1429145, "way_id": 509266840, "landuse": "meadow", "closest_distance_restriction": 1.7220221791566648}, {"id": 4985170711, "lat": 52.7980161, "lon": 16.1413714, "way_id": 509266840, "landuse": "meadow", "closest_distance_restriction": 1.6118717647889627}, {"id": 4985170712, "lat": 52.7980503, "lon": 16.1410175, "way_id": 509266840, "landuse": "meadow", "closest_distance_restriction": 1.5899695325236287}, {"id": 5091946814, "lat": 52.7901849, "lon": 16.578898, "way_id": 522926619, "landuse": "farmland", "closest_distance_restriction": 1.6719397204600424}, {"id": 5091946815, "lat": 52.7912684, "lon": 16.5808936, "way_id": 522926619, "landuse": "farmland", "closest_distance_restriction": 1.6968627125653957}, {"id": 5091946816, "lat": 52.7914695, "lon": 16.5831895, "way_id": 522926619, "landuse": "farmland", "closest_distance_restriction": 1.636472947969135}, {"id": 5091946817, "lat": 52.7920599, "lon": 16.5830286, "way_id": 522926619, "landuse": "farmland", "closest_distance_restriction": 1.6992146867259232}, {"id": 5091946818, "lat": 52.7922545, "lon": 16.5835329, "way_id": 522926619, "landuse": "farmland", "closest_distance_restriction": 1.7025785013193937}, {"id": 5091946819, "lat": 52.7928064, "lon": 16.5832365, "way_id": 522926619, "landuse": "farmland", "closest_distance_restriction": 1.7663229373942948}, {"id": 5091946820, "lat": 52.79286, "lon": 16.5822278, "way_id": 522926619, "landuse": "farmland", "closest_distance_restriction": 1.803093708741965}, {"id": 5091946821, "lat": 52.793758, "lon": 16.5822138, "way_id": 522926619, "landuse": "farmland", "closest_distance_restriction": 1.8918111209450035}, {"id": 5091946822, "lat": 52.793758, "lon": 16.5826108, "way_id": 522926619, "landuse": "farmland", "closest_distance_restriction": 1.8797763495220763}, {"id": 5091946823, "lat": 52.7946391, "lon": 16.5820784, "way_id": 522926619, "landuse": "farmland", "closest_distance_restriction": 1.9834758583898626}, {"id": 5091946824, "lat": 52.7950485, "lon": 16.5819897, "way_id": 522926619, "landuse": "farmland", "closest_distance_restriction": 2.027033284922686}, {"id": 5091946825, "lat": 52.7951135, "lon": 16.5810276, "way_id": 522926619, "landuse": "farmland", "closest_distance_restriction": 2.0623243518856267}, {"id": 5091946826, "lat": 52.7952731, "lon": 16.5783718, "way_id": 522926619, "landuse": "farmland", "closest_distance_restriction": 2.165036536329885}, {"id": 5091946827, "lat": 52.7914672, "lon": 16.5840166, "way_id": 522926620, "landuse": "farmland", "closest_distance_restriction": 1.6098608136902415}, {"id": 5091946834, "lat": 52.7896597, "lon": 16.5798136, "way_id": 522926620, "landuse": "farmland", "closest_distance_restriction": 1.5883021816347196}, {"id": 5091946835, "lat": 52.7901285, "lon": 16.5789263, "way_id": 522926620, "landuse": "farmland", "closest_distance_restriction": 1.665788467829956}, {"id": 5091946836, "lat": 52.7912384, "lon": 16.5809671, "way_id": 522926620, "landuse": "farmland", "closest_distance_restriction": 1.6914621313031588}, {"id": 5091946839, "lat": 52.7900991, "lon": 16.5788902, "way_id": 522926622, "landuse": "farmland", "closest_distance_restriction": 1.6646501857049163}, {"id": 5091946901, "lat": 52.7895193, "lon": 16.5778841, "way_id": 522926622, "landuse": "farmland", "closest_distance_restriction": 1.656868645526813}, {"id": 5256793148, "lat": 52.758321, "lon": 16.0574819, "way_id": 543794628, "landuse": "meadow", "closest_distance_restriction": 1.6731586321277778}, {"id": 5256793149, "lat": 52.7585188, "lon": 16.0575099, "way_id": 543794628, "landuse": "meadow", "closest_distance_restriction": 1.6538165480117397}, {"id": 5256793150, "lat": 52.7586912, "lon": 16.0575893, "way_id": 543794628, "landuse": "meadow", "closest_distance_restriction": 1.6385484278932585}, {"id": 5256793151, "lat": 52.7585499, "lon": 16.0579022, "way_id": 543794628, "landuse": "meadow", "closest_distance_restriction": 1.6616349270592679}, {"id": 5256793152, "lat": 52.7583775, "lon": 16.0584346, "way_id": 543794628, "landuse": "meadow", "closest_distance_restriction": 1.6943162562160774}, {"id": 5256793153, "lat": 52.7582249, "lon": 16.0590697, "way_id": 543794628, "landuse": "meadow", "closest_distance_restriction": 1.728475166655214}, {"id": 5256793154, "lat": 52.7580666, "lon": 16.0591024, "way_id": 543794628, "landuse": "meadow", "closest_distance_restriction": 1.745185526497983}, {"id": 5256793155, "lat": 52.7580836, "lon": 16.0584159, "way_id": 543794628, "landuse": "meadow", "closest_distance_restriction": 1.7232587402869712}, {"id": 5256793156, "lat": 52.7581656, "lon": 16.0583645, "way_id": 543794628, "landuse": "meadow", "closest_distance_restriction": 1.7135372302025518}, {"id": 5256793157, "lat": 52.7582023, "lon": 16.058131, "way_id": 543794628, "landuse": "meadow", "closest_distance_restriction": 1.703174333057918}, {"id": 5256793158, "lat": 52.7580921, "lon": 16.0581123, "way_id": 543794628, "landuse": "meadow", "closest_distance_restriction": 1.71377078834215}, {"id": 5256793159, "lat": 52.7580779, "lon": 16.0578134, "way_id": 543794628, "landuse": "meadow", "closest_distance_restriction": 1.706909057289202}, {"id": 5256793166, "lat": 52.8056985, "lon": 16.1390413, "way_id": 543794630, "landuse": "meadow", "closest_distance_restriction": 1.8482660713335834}, {"id": 5256793167, "lat": 52.8061488, "lon": 16.1392411, "way_id": 543794630, "landuse": "meadow", "closest_distance_restriction": 1.8391010191679902}, {"id": 5256793168, "lat": 52.806654, "lon": 16.1392411, "way_id": 543794630, "landuse": "meadow", "closest_distance_restriction": 1.8454549743874489}, {"id": 5256793169, "lat": 52.8067748, "lon": 16.1393592, "way_id": 543794630, "landuse": "meadow", "closest_distance_restriction": 1.8393590108859827}, {"id": 5256793170, "lat": 52.8068682, "lon": 16.1396863, "way_id": 543794630, "landuse": "meadow", "closest_distance_restriction": 1.81903543731723}, {"id": 5256793171, "lat": 52.8075931, "lon": 16.13955, "way_id": 543794630, "landuse": "meadow", "closest_distance_restriction": 1.8319524451846392}, {"id": 5256793172, "lat": 52.8073515, "lon": 16.1385961, "way_id": 543794630, "landuse": "meadow", "closest_distance_restriction": 1.896216869281948}, {"id": 5256793173, "lat": 52.8072856, "lon": 16.1387415, "way_id": 543794630, "landuse": "meadow", "closest_distance_restriction": 1.886550870615905}, {"id": 5256793174, "lat": 52.8070439, "lon": 16.1386234, "way_id": 543794630, "landuse": "meadow", "closest_distance_restriction": 1.89256328675197}, {"id": 5256793175, "lat": 52.806978, "lon": 16.1381873, "way_id": 543794630, "landuse": "meadow", "closest_distance_restriction": 1.9205062976929994}, {"id": 5256793176, "lat": 52.8067144, "lon": 16.1369972, "way_id": 543794630, "landuse": "meadow", "closest_distance_restriction": 1.8614480467220536}, {"id": 5256793177, "lat": 52.8063739, "lon": 16.1370336, "way_id": 543794630, "landuse": "meadow", "closest_distance_restriction": 1.8365365277838819}, {"id": 5256793178, "lat": 52.8061433, "lon": 16.1366066, "way_id": 543794630, "landuse": "meadow", "closest_distance_restriction": 1.7980865809894588}, {"id": 5256793179, "lat": 52.805984, "lon": 16.1365975, "way_id": 543794630, "landuse": "meadow", "closest_distance_restriction": 1.785309440687189}, {"id": 5256793180, "lat": 52.8059566, "lon": 16.1372062, "way_id": 543794630, "landuse": "meadow", "closest_distance_restriction": 1.812908459985184}, {"id": 5256793181, "lat": 52.8058852, "lon": 16.1377876, "way_id": 543794630, "landuse": "meadow", "closest_distance_restriction": 1.8363705009911633}, {"id": 5256793182, "lat": 52.8058517, "lon": 16.1380121, "way_id": 543794630, "landuse": "meadow", "closest_distance_restriction": 1.8451433279253566}, {"id": 5256793183, "lat": 52.8057019, "lon": 16.1380525, "way_id": 543794630, "landuse": "meadow", "closest_distance_restriction": 1.8361769284002432}, {"id": 5256793184, "lat": 52.832097, "lon": 16.1227044, "way_id": 543794632, "landuse": "meadow", "closest_distance_restriction": 1.993057341304199}, {"id": 5256793185, "lat": 52.8320707, "lon": 16.1237799, "way_id": 543794632, "landuse": "meadow", "closest_distance_restriction": 2.063538458923527}, {"id": 5256793187, "lat": 52.8319942, "lon": 16.1227439, "way_id": 543794632, "landuse": "meadow", "closest_distance_restriction": 1.9986887393478239}, {"id": 5256793188, "lat": 52.8322284, "lon": 16.1222536, "way_id": 543794632, "landuse": "meadow", "closest_distance_restriction": 1.9599833217130085}, {"id": 5256793189, "lat": 52.832355, "lon": 16.122649, "way_id": 543794632, "landuse": "meadow", "closest_distance_restriction": 1.9820018096976204}, {"id": 5256793190, "lat": 52.8323765, "lon": 16.12395, "way_id": 543794632, "landuse": "meadow", "closest_distance_restriction": 2.0660822714120037}, {"id": 5256793191, "lat": 52.8320731, "lon": 16.124037, "way_id": 543794632, "landuse": "meadow", "closest_distance_restriction": 2.0801574581014166}, {"id": 5256793192, "lat": 52.8319918, "lon": 16.1228666, "way_id": 543794632, "landuse": "meadow", "closest_distance_restriction": 2.006695299281297}, {"id": 5256793193, "lat": 52.8318031, "lon": 16.1229377, "way_id": 543794632, "landuse": "meadow", "closest_distance_restriction": 2.017060071471389}, {"id": 5256793194, "lat": 52.8317983, "lon": 16.122819, "way_id": 543794632, "landuse": "meadow", "closest_distance_restriction": 2.00955508581233}, {"id": 5256793195, "lat": 52.8320062, "lon": 16.1224117, "way_id": 543794632, "landuse": "meadow", "closest_distance_restriction": 1.9768539130978375}, {"id": 5256793202, "lat": 52.8372704, "lon": 16.117511, "way_id": 543794633, "landuse": "farmland", "closest_distance_restriction": 1.5706422591468499}, {"id": 5256793203, "lat": 52.8366886, "lon": 16.1177653, "way_id": 543794633, "landuse": "farmland", "closest_distance_restriction": 1.5887728113347506}, {"id": 5256793204, "lat": 52.8367271, "lon": 16.1208541, "way_id": 543794633, "landuse": "farmland", "closest_distance_restriction": 1.7959960468754426}, {"id": 5256793205, "lat": 52.8364856, "lon": 16.1208814, "way_id": 543794633, "landuse": "farmland", "closest_distance_restriction": 1.7988343165808842}, {"id": 5256793206, "lat": 52.8364472, "lon": 16.1181651, "way_id": 543794633, "landuse": "farmland", "closest_distance_restriction": 1.6167190196463914}, {"id": 5256793207, "lat": 52.8363539, "lon": 16.1174565, "way_id": 543794633, "landuse": "farmland", "closest_distance_restriction": 1.5694901860875945}, {"id": 5256793208, "lat": 52.8361124, "lon": 16.1175473, "way_id": 543794633, "landuse": "farmland", "closest_distance_restriction": 1.5767995376670452}, {"id": 5386889417, "lat": 52.8614521, "lon": 16.5472117, "way_id": 558521823, "landuse": "farmland", "closest_distance_restriction": 1.5897331229684373}, {"id": 5386889418, "lat": 52.8615108, "lon": 16.5472145, "way_id": 558521823, "landuse": "farmland", "closest_distance_restriction": 1.5936410471914249}, {"id": 5386889419, "lat": 52.861559, "lon": 16.5467643, "way_id": 558521823, "landuse": "farmland", "closest_distance_restriction": 1.5721867763503892}, {"id": 5386889420, "lat": 52.8617473, "lon": 16.546781, "way_id": 558521823, "landuse": "farmland", "closest_distance_restriction": 1.5854844012799822}, {"id": 5386889521, "lat": 52.8619363, "lon": 16.546664, "way_id": 558521823, "landuse": "farmland", "closest_distance_restriction": 1.5918503793995675}, {"id": 5386889522, "lat": 52.8622862, "lon": 16.5460149, "way_id": 558521823, "landuse": "farmland", "closest_distance_restriction": 1.581869618982762}, {"id": 5386889524, "lat": 52.8625209, "lon": 16.5460032, "way_id": 558521823, "landuse": "farmland", "closest_distance_restriction": 1.5979765507484494}, {"id": 5386889538, "lat": 52.8625904, "lon": 16.5458053, "way_id": 558521823, "landuse": "farmland", "closest_distance_restriction": 1.5928790616349888}, {"id": 5386889539, "lat": 52.8626083, "lon": 16.5455436, "way_id": 558521823, "landuse": "farmland", "closest_distance_restriction": 1.5809120681315323}, {"id": 5386889540, "lat": 52.8625755, "lon": 16.5452771, "way_id": 558521823, "landuse": "farmland", "closest_distance_restriction": 1.565070669891225}, {"id": 5582785492, "lat": 53.0621283, "lon": 16.5525724, "way_id": 583984608, "landuse": "farmland", "closest_distance_restriction": 1.5837161682143264}, {"id": 5582785493, "lat": 53.0621997, "lon": 16.5529907, "way_id": 583984608, "landuse": "farmland", "closest_distance_restriction": 1.6016117290925354}, {"id": 5582785494, "lat": 53.0632595, "lon": 16.5535944, "way_id": 583984608, "landuse": "farmland", "closest_distance_restriction": 1.7259320890220093}, {"id": 5582785495, "lat": 53.0631138, "lon": 16.5530905, "way_id": 583984608, "landuse": "farmland", "closest_distance_restriction": 1.6983479721485295}, {"id": 5582785496, "lat": 53.062971, "lon": 16.5525676, "way_id": 583984608, "landuse": "farmland", "closest_distance_restriction": 1.6710001108901147}, {"id": 5582785497, "lat": 53.0628424, "lon": 16.5515836, "way_id": 583984608, "landuse": "farmland", "closest_distance_restriction": 1.6355133157179647}, {"id": 5582785498, "lat": 53.0626025, "lon": 16.5503049, "way_id": 583984608, "landuse": "farmland", "closest_distance_restriction": 1.5846854244191995}, {"id": 5582785507, "lat": 53.0630624, "lon": 16.5450166, "way_id": 583984608, "landuse": "farmland", "closest_distance_restriction": 1.5770368827146288}, {"id": 5582785508, "lat": 53.0632909, "lon": 16.5441514, "way_id": 583984608, "landuse": "farmland", "closest_distance_restriction": 1.6005062482625938}, {"id": 5582785509, "lat": 53.0634509, "lon": 16.5430605, "way_id": 583984608, "landuse": "farmland", "closest_distance_restriction": 1.6133996552515033}, {"id": 5582785510, "lat": 53.0635308, "lon": 16.5420503, "way_id": 583984608, "landuse": "farmland", "closest_distance_restriction": 1.6104886389423059}, {"id": 5582785511, "lat": 53.0636637, "lon": 16.5410093, "way_id": 583984608, "landuse": "farmland", "closest_distance_restriction": 1.6160876688620494}, {"id": 5582785512, "lat": 53.0638408, "lon": 16.5391982, "way_id": 583984608, "landuse": "farmland", "closest_distance_restriction": 1.6271674356229975}, {"id": 5582785513, "lat": 53.0638679, "lon": 16.5386848, "way_id": 583984608, "landuse": "farmland", "closest_distance_restriction": 1.6294029402236105}, {"id": 5582785514, "lat": 53.0638494, "lon": 16.538661, "way_id": 583984608, "landuse": "farmland", "closest_distance_restriction": 1.6273274923549836}, {"id": 5838401693, "lat": 53.0089389, "lon": 16.0598538, "way_id": 617638615, "landuse": "farmland", "closest_distance_restriction": 1.5823556131858443}, {"id": 5838401694, "lat": 53.008749, "lon": 16.0598896, "way_id": 617638615, "landuse": "farmland", "closest_distance_restriction": 1.6009146639269933}, {"id": 5838401695, "lat": 53.0086368, "lon": 16.059531, "way_id": 617638615, "landuse": "farmland", "closest_distance_restriction": 1.5973918691374887}, {"id": 5838401696, "lat": 53.0082657, "lon": 16.0592369, "way_id": 617638615, "landuse": "farmland", "closest_distance_restriction": 1.6207513443867587}, {"id": 5838401697, "lat": 53.0078772, "lon": 16.0590934, "way_id": 617638622, "landuse": "farmland", "closest_distance_restriction": 1.6520105600839452}, {"id": 5838401698, "lat": 53.007191, "lon": 16.0591652, "way_id": 617638622, "landuse": "farmland", "closest_distance_restriction": 1.7196584755677007}, {"id": 5838401699, "lat": 53.0063364, "lon": 16.0594019, "way_id": 617638622, "landuse": "farmland", "closest_distance_restriction": 1.8097478536426732}, {"id": 5838401700, "lat": 53.0061421, "lon": 16.0594306, "way_id": 617638622, "landuse": "farmland", "closest_distance_restriction": 1.8294941633658695}, {"id": 5838401701, "lat": 53.0066687, "lon": 16.0603057, "way_id": 617638615, "landuse": "farmland", "closest_distance_restriction": 1.808955539123062}, {"id": 5838401702, "lat": 53.0068111, "lon": 16.0610158, "way_id": 617638615, "landuse": "farmland", "closest_distance_restriction": 1.8212769676174068}, {"id": 5838401703, "lat": 53.0067464, "lon": 16.0625006, "way_id": 617638615, "landuse": "farmland", "closest_distance_restriction": 1.8836785040287463}, {"id": 5838401704, "lat": 53.006522, "lon": 16.0625652, "way_id": 617638615, "landuse": "farmland", "closest_distance_restriction": 1.9064693285129009}, {"id": 5838401705, "lat": 53.0065263, "lon": 16.0612453, "way_id": 617638615, "landuse": "farmland", "closest_distance_restriction": 1.85617074221685}, {"id": 5838401706, "lat": 53.0064917, "lon": 16.0609441, "way_id": 617638615, "landuse": "farmland", "closest_distance_restriction": 1.848420572230154}, {"id": 5838401707, "lat": 53.0063795, "lon": 16.0607934, "way_id": 617638615, "landuse": "farmland", "closest_distance_restriction": 1.8535323015833254}, {"id": 5838401708, "lat": 53.00625, "lon": 16.0608508, "way_id": 617638615, "landuse": "farmland", "closest_distance_restriction": 1.8677661593411023}, {"id": 5838401709, "lat": 53.0059004, "lon": 16.0609154, "way_id": 617638615, "landuse": "farmland", "closest_distance_restriction": 1.903069240470651}, {"id": 5838401710, "lat": 53.005594, "lon": 16.0607504, "way_id": 617638622, "landuse": "farmland", "closest_distance_restriction": 1.926500303944505}, {"id": 5838401711, "lat": 53.0053393, "lon": 16.0624145, "way_id": 617638622, "landuse": "farmland", "closest_distance_restriction": 2.0094510417772273}, {"id": 5838401712, "lat": 53.0051537, "lon": 16.0634833, "way_id": 617638622, "landuse": "farmland", "closest_distance_restriction": 2.066360301162071}, {"id": 5838401713, "lat": 53.0050199, "lon": 16.0641863, "way_id": 617638622, "landuse": "farmland", "closest_distance_restriction": 2.105452342186357}, {"id": 5838401714, "lat": 53.0047393, "lon": 16.0651044, "way_id": 617638622, "landuse": "farmland", "closest_distance_restriction": 2.1666353928190913}, {"id": 5838401715, "lat": 53.0040099, "lon": 16.0670196, "way_id": 617638622, "landuse": "farmland", "closest_distance_restriction": 2.3083614496226996}, {"id": 5838401716, "lat": 53.003453, "lon": 16.068361, "way_id": 617638622, "landuse": "farmland", "closest_distance_restriction": 2.412361648820432}, {"id": 5838401717, "lat": 53.0030343, "lon": 16.0690998, "way_id": 617638622, "landuse": "farmland", "closest_distance_restriction": 2.4795568073317975}, {"id": 5838401718, "lat": 53.0028099, "lon": 16.06948, "way_id": 617638622, "landuse": "farmland", "closest_distance_restriction": 2.514927327620093}, {"id": 5838401719, "lat": 53.002771, "lon": 16.0697023, "way_id": 617638622, "landuse": "farmland", "closest_distance_restriction": 2.5276071638494524}, {"id": 5838401720, "lat": 53.0027581, "lon": 16.0699749, "way_id": 617638622, "landuse": "farmland", "closest_distance_restriction": 2.5401952615447776}, {"id": 5838401721, "lat": 53.0028574, "lon": 16.0715027, "way_id": 617638622, "landuse": "farmland", "closest_distance_restriction": 2.5975698548146666}, {"id": 5838401722, "lat": 53.0060213, "lon": 16.0794863, "way_id": 617638615, "landuse": "farmland", "closest_distance_restriction": 2.7557758963681547}, {"id": 5838401723, "lat": 53.0062457, "lon": 16.0783243, "way_id": 617638615, "landuse": "farmland", "closest_distance_restriction": 2.6788780038260063}, {"id": 5838401724, "lat": 53.0064443, "lon": 16.0771838, "way_id": 617638615, "landuse": "farmland", "closest_distance_restriction": 2.6045993974041295}, {"id": 5838401725, "lat": 53.006837, "lon": 16.0753833, "way_id": 617638615, "landuse": "farmland", "closest_distance_restriction": 2.4822710055188617}, {"id": 5838401726, "lat": 53.0072859, "lon": 16.0732458, "way_id": 617638615, "landuse": "farmland", "closest_distance_restriction": 2.3390607258726472}, {"id": 5838401727, "lat": 53.0076873, "lon": 16.0724352, "way_id": 617638615, "landuse": "farmland", "closest_distance_restriction": 2.2688252096181944}, {"id": 5838401728, "lat": 53.0081621, "lon": 16.071596, "way_id": 617638615, "landuse": "farmland", "closest_distance_restriction": 2.1919900931336995}, {"id": 5838401729, "lat": 53.0091288, "lon": 16.0697669, "way_id": 617638615, "landuse": "farmland", "closest_distance_restriction": 2.029291969599782}, {"id": 5838401730, "lat": 53.0094353, "lon": 16.0689205, "way_id": 617638615, "landuse": "farmland", "closest_distance_restriction": 1.9637714895516243}, {"id": 5838401731, "lat": 53.0096511, "lon": 16.0683394, "way_id": 617638615, "landuse": "farmland", "closest_distance_restriction": 1.918436018885897}, {"id": 5838401732, "lat": 53.0100654, "lon": 16.0677728, "way_id": 617638615, "landuse": "farmland", "closest_distance_restriction": 1.8600495005706017}, {"id": 5838401733, "lat": 53.0106308, "lon": 16.0671272, "way_id": 617638615, "landuse": "farmland", "closest_distance_restriction": 1.7872465003904487}, {"id": 5838401734, "lat": 53.0109588, "lon": 16.0666394, "way_id": 617638615, "landuse": "farmland", "closest_distance_restriction": 1.739129936268948}, {"id": 5838401735, "lat": 53.0113319, "lon": 16.0656938, "way_id": 617638615, "landuse": "farmland", "closest_distance_restriction": 1.6636944879683655}, {"id": 5838401736, "lat": 53.0113656, "lon": 16.0643494, "way_id": 617638615, "landuse": "farmland", "closest_distance_restriction": 1.591081031217751}, {"id": 5838401989, "lat": 53.0085686, "lon": 16.0583986, "way_id": 617638622, "landuse": "farmland", "closest_distance_restriction": 1.5621786504762505}, {"id": 5838401990, "lat": 53.0083901, "lon": 16.0585057, "way_id": 617638622, "landuse": "farmland", "closest_distance_restriction": 1.582811967077941}, {"id": 5838401991, "lat": 53.0081521, "lon": 16.0584563, "way_id": 617638622, "landuse": "farmland", "closest_distance_restriction": 1.6036294281555465}, {"id": 5838401992, "lat": 53.0080811, "lon": 16.0591687, "way_id": 617638622, "landuse": "farmland", "closest_distance_restriction": 1.6355291899935442}, {"id": 5838402003, "lat": 53.0058424, "lon": 16.0800413, "way_id": 617638615, "landuse": "farmland", "closest_distance_restriction": 2.7973944668603252}, {"id": 5838402004, "lat": 53.0001842, "lon": 16.0800194, "way_id": 617638622, "landuse": "farmland", "closest_distance_restriction": 3.2045086742418416}, {"id": 5838402005, "lat": 52.9992272, "lon": 16.071442, "way_id": 617638622, "landuse": "farmland", "closest_distance_restriction": 2.9117910414702446}, {"id": 5838402006, "lat": 53.0009131, "lon": 16.0672974, "way_id": 617638622, "landuse": "farmland", "closest_distance_restriction": 2.6001860885547114}, {"id": 5838402007, "lat": 53.0015131, "lon": 16.066251, "way_id": 617638622, "landuse": "farmland", "closest_distance_restriction": 2.506115214661046}, {"id": 5838402008, "lat": 53.0018057, "lon": 16.0656248, "way_id": 617638622, "landuse": "farmland", "closest_distance_restriction": 2.456163127203018}, {"id": 5838402009, "lat": 53.0025495, "lon": 16.0637297, "way_id": 617638622, "landuse": "farmland", "closest_distance_restriction": 2.319365057970159}, {"id": 5838402010, "lat": 53.002842, "lon": 16.0627162, "way_id": 617638622, "landuse": "farmland", "closest_distance_restriction": 2.2571383448922573}, {"id": 5838402011, "lat": 53.0029709, "lon": 16.0620982, "way_id": 617638622, "landuse": "farmland", "closest_distance_restriction": 2.2244005688703954}, {"id": 5838402012, "lat": 53.0031792, "lon": 16.0607304, "way_id": 617638622, "landuse": "farmland", "closest_distance_restriction": 2.160953415317083}, {"id": 5838402013, "lat": 53.0032692, "lon": 16.0600496, "way_id": 617638622, "landuse": "farmland", "closest_distance_restriction": 2.1315938944256283}, {"id": 5838402014, "lat": 53.0032777, "lon": 16.0589328, "way_id": 617638622, "landuse": "farmland", "closest_distance_restriction": 2.097729620824458}, {"id": 5838402015, "lat": 53.0035169, "lon": 16.0576645, "way_id": 617638622, "landuse": "farmland", "closest_distance_restriction": 2.0379488182845056}, {"id": 5838402016, "lat": 53.0045165, "lon": 16.0563867, "way_id": 617638622, "landuse": "farmland", "closest_distance_restriction": 1.9019682158689828}, {"id": 5838402017, "lat": 53.0057032, "lon": 16.0560443, "way_id": 617638622, "landuse": "farmland", "closest_distance_restriction": 1.7717671166961948}, {"id": 5838402018, "lat": 53.0076325, "lon": 16.055449, "way_id": 617638622, "landuse": "farmland", "closest_distance_restriction": 1.5603128452096433}, {"id": 5838402024, "lat": 53.0060355, "lon": 16.0593941, "way_id": 617638622, "landuse": "farmland", "closest_distance_restriction": 1.8386418680465713}, {"id": 5838402025, "lat": 53.0054097, "lon": 16.0589781, "way_id": 617638622, "landuse": "farmland", "closest_distance_restriction": 1.8867702199995353}, {"id": 5838402026, "lat": 53.0051723, "lon": 16.0589207, "way_id": 617638622, "landuse": "farmland", "closest_distance_restriction": 1.9085113534558114}, {"id": 5838402027, "lat": 53.0046629, "lon": 16.0589924, "way_id": 617638622, "landuse": "farmland", "closest_distance_restriction": 1.9613119246883501}, {"id": 5838402028, "lat": 53.0044989, "lon": 16.0591215, "way_id": 617638622, "landuse": "farmland", "closest_distance_restriction": 1.9814877676594669}, {"id": 5838402029, "lat": 53.004486, "lon": 16.059308, "way_id": 617638622, "landuse": "farmland", "closest_distance_restriction": 1.9883246908738483}, {"id": 5838402030, "lat": 53.0044644, "lon": 16.0597958, "way_id": 617638622, "landuse": "farmland", "closest_distance_restriction": 2.0052696660989744}, {"id": 5838402031, "lat": 53.0047838, "lon": 16.0601186, "way_id": 617638622, "landuse": "farmland", "closest_distance_restriction": 1.9839797112942275}, {"id": 5838402074, "lat": 53.0061003, "lon": 16.0796938, "way_id": 617638624, "landuse": "farmland", "closest_distance_restriction": 2.7615774961034094}, {"id": 5838402075, "lat": 53.0066786, "lon": 16.079041, "way_id": 617638624, "landuse": "farmland", "closest_distance_restriction": 2.688184747551287}, {"id": 5838402076, "lat": 53.0068254, "lon": 16.0788473, "way_id": 617638624, "landuse": "farmland", "closest_distance_restriction": 2.668081703811585}, {"id": 5838402077, "lat": 53.0076282, "lon": 16.0784313, "way_id": 617638624, "landuse": "farmland", "closest_distance_restriction": 2.5935127059241347}, {"id": 5838402078, "lat": 53.0081461, "lon": 16.0782663, "way_id": 617638624, "landuse": "farmland", "closest_distance_restriction": 2.551799098389364}, {"id": 5838402079, "lat": 53.0083792, "lon": 16.0783237, "way_id": 617638624, "landuse": "farmland", "closest_distance_restriction": 2.540584078031486}, {"id": 5838402080, "lat": 53.0086165, "lon": 16.0784815, "way_id": 617638624, "landuse": "farmland", "closest_distance_restriction": 2.5349756531003464}, {"id": 5838402081, "lat": 53.0088928, "lon": 16.0786178, "way_id": 617638624, "landuse": "farmland", "closest_distance_restriction": 2.5261454362592404}, {"id": 5838402082, "lat": 53.0090654, "lon": 16.0784887, "way_id": 617638624, "landuse": "farmland", "closest_distance_restriction": 2.5086412361031067}, {"id": 5838402083, "lat": 53.0092726, "lon": 16.0780296, "way_id": 617638624, "landuse": "farmland", "closest_distance_restriction": 2.4703909556584893}, {"id": 5838402084, "lat": 53.0095531, "lon": 16.0777714, "way_id": 617638624, "landuse": "farmland", "closest_distance_restriction": 2.4393254792894306}, {"id": 5838402185, "lat": 53.0098293, "lon": 16.0777427, "way_id": 617638624, "landuse": "farmland", "closest_distance_restriction": 2.4218057223888705}, {"id": 5838402186, "lat": 53.009976, "lon": 16.0778144, "way_id": 617638624, "landuse": "farmland", "closest_distance_restriction": 2.417621546258628}, {"id": 5838402187, "lat": 53.0102868, "lon": 16.0779579, "way_id": 617638624, "landuse": "farmland", "closest_distance_restriction": 2.4086404245725777}, {"id": 5838402188, "lat": 53.0110507, "lon": 16.0781516, "way_id": 617638624, "landuse": "farmland", "closest_distance_restriction": 2.379286648525546}, {"id": 5838402189, "lat": 53.0111456, "lon": 16.0778862, "way_id": 617638624, "landuse": "farmland", "closest_distance_restriction": 2.3586613101360236}, {"id": 5838402190, "lat": 53.0110118, "lon": 16.0778144, "way_id": 617638624, "landuse": "farmland", "closest_distance_restriction": 2.3613620185866866}, {"id": 5838402191, "lat": 53.0108953, "lon": 16.0776781, "way_id": 617638624, "landuse": "farmland", "closest_distance_restriction": 2.359452253831699}, {"id": 5838402192, "lat": 53.0107054, "lon": 16.0773123, "way_id": 617638624, "landuse": "farmland", "closest_distance_restriction": 2.348167320082423}, {"id": 5838402193, "lat": 53.0105759, "lon": 16.0770111, "way_id": 617638624, "landuse": "farmland", "closest_distance_restriction": 2.337688357867481}, {"id": 5838402194, "lat": 53.0104335, "lon": 16.0768389, "way_id": 617638624, "landuse": "farmland", "closest_distance_restriction": 2.335605690124697}, {"id": 5838402195, "lat": 53.0102479, "lon": 16.0769608, "way_id": 617638624, "landuse": "farmland", "closest_distance_restriction": 2.3530689235214868}, {"id": 5838402196, "lat": 53.0100839, "lon": 16.0774127, "way_id": 617638624, "landuse": "farmland", "closest_distance_restriction": 2.388374493228615}, {"id": 5838402197, "lat": 53.009976, "lon": 16.0776351, "way_id": 617638624, "landuse": "farmland", "closest_distance_restriction": 2.4072867118234758}, {"id": 5838402198, "lat": 53.009907, "lon": 16.0776136, "way_id": 617638624, "landuse": "farmland", "closest_distance_restriction": 2.409963104178041}, {"id": 5838402199, "lat": 53.0099631, "lon": 16.0774056, "way_id": 617638624, "landuse": "farmland", "closest_distance_restriction": 2.3948150725311366}, {"id": 5838402200, "lat": 53.0100192, "lon": 16.0770397, "way_id": 617638624, "landuse": "farmland", "closest_distance_restriction": 2.370604335717525}, {"id": 5838402201, "lat": 53.0100796, "lon": 16.0767026, "way_id": 617638624, "landuse": "farmland", "closest_distance_restriction": 2.3478178807416517}, {"id": 5838402202, "lat": 53.0101055, "lon": 16.0764157, "way_id": 617638624, "landuse": "farmland", "closest_distance_restriction": 2.3299084162638324}, {"id": 5838402203, "lat": 53.0100926, "lon": 16.075971, "way_id": 617638624, "landuse": "farmland", "closest_distance_restriction": 2.3052914158975555}, {"id": 5838402204, "lat": 53.0101703, "lon": 16.0757558, "way_id": 617638624, "landuse": "farmland", "closest_distance_restriction": 2.2885018871123104}, {"id": 5838402205, "lat": 53.0103602, "lon": 16.0756554, "way_id": 617638624, "landuse": "farmland", "closest_distance_restriction": 2.271732755904686}, {"id": 5838402206, "lat": 53.0105846, "lon": 16.0756912, "way_id": 617638624, "landuse": "farmland", "closest_distance_restriction": 2.260907909697243}, {"id": 5838402207, "lat": 53.0107486, "lon": 16.0757845, "way_id": 617638624, "landuse": "farmland", "closest_distance_restriction": 2.2570169266240057}, {"id": 5838402208, "lat": 53.0108521, "lon": 16.0757199, "way_id": 617638624, "landuse": "farmland", "closest_distance_restriction": 2.247492056241201}, {"id": 5838402209, "lat": 53.0109341, "lon": 16.0755191, "way_id": 617638624, "landuse": "farmland", "closest_distance_restriction": 2.2312971363376986}, {"id": 5838402210, "lat": 53.0108996, "lon": 16.0754115, "way_id": 617638624, "landuse": "farmland", "closest_distance_restriction": 2.227000871233692}, {"id": 5838402211, "lat": 53.0107917, "lon": 16.0752608, "way_id": 617638624, "landuse": "farmland", "closest_distance_restriction": 2.2243902471016885}, {"id": 5838402212, "lat": 53.010563, "lon": 16.0750098, "way_id": 617638624, "landuse": "farmland", "closest_distance_restriction": 2.223116639950605}, {"id": 5838402213, "lat": 53.0101659, "lon": 16.0748448, "way_id": 617638624, "landuse": "farmland", "closest_distance_restriction": 2.2371479528472875}, {"id": 5838402214, "lat": 53.0099286, "lon": 16.0746798, "way_id": 617638624, "landuse": "farmland", "closest_distance_restriction": 2.2422155824148}, {"id": 5838402215, "lat": 53.0097948, "lon": 16.0744001, "way_id": 617638624, "landuse": "farmland", "closest_distance_restriction": 2.2348458497156214}, {"id": 5838402216, "lat": 53.0096869, "lon": 16.0740127, "way_id": 617638624, "landuse": "farmland", "closest_distance_restriction": 2.220137384646324}, {"id": 5838402217, "lat": 53.00973, "lon": 16.0739482, "way_id": 617638624, "landuse": "farmland", "closest_distance_restriction": 2.2138676130847217}, {"id": 5838402218, "lat": 53.0098811, "lon": 16.0740701, "way_id": 617638624, "landuse": "farmland", "closest_distance_restriction": 2.2111688937888294}, {"id": 5838402219, "lat": 53.0102609, "lon": 16.0742853, "way_id": 617638624, "landuse": "farmland", "closest_distance_restriction": 2.1999400921713343}, {"id": 5838402220, "lat": 53.0104465, "lon": 16.0742925, "way_id": 617638624, "landuse": "farmland", "closest_distance_restriction": 2.1892239629987107}, {"id": 5838402221, "lat": 53.010632, "lon": 16.074149, "way_id": 617638624, "landuse": "farmland", "closest_distance_restriction": 2.1701049597822704}, {"id": 5838402222, "lat": 53.0108176, "lon": 16.073941, "way_id": 617638624, "landuse": "farmland", "closest_distance_restriction": 2.147381630965674}, {"id": 5838402223, "lat": 53.0108867, "lon": 16.0738334, "way_id": 617638624, "landuse": "farmland", "closest_distance_restriction": 2.1372171371934057}, {"id": 5838402224, "lat": 53.0110161, "lon": 16.0738047, "way_id": 617638624, "landuse": "farmland", "closest_distance_restriction": 2.128050142974697}, {"id": 5838402225, "lat": 53.0111845, "lon": 16.0738764, "way_id": 617638624, "landuse": "farmland", "closest_distance_restriction": 2.122466092992192}, {"id": 5838402226, "lat": 53.0114218, "lon": 16.0737975, "way_id": 617638624, "landuse": "farmland", "closest_distance_restriction": 2.1044771129077326}, {"id": 5838402227, "lat": 53.0116506, "lon": 16.0735321, "way_id": 617638624, "landuse": "farmland", "closest_distance_restriction": 2.076336506883119}, {"id": 5838402228, "lat": 53.0117282, "lon": 16.0733959, "way_id": 617638624, "landuse": "farmland", "closest_distance_restriction": 2.0641326326358396}, {"id": 5838402229, "lat": 53.0116894, "lon": 16.0731304, "way_id": 617638624, "landuse": "farmland", "closest_distance_restriction": 2.050930221281459}, {"id": 5838402230, "lat": 53.0116721, "lon": 16.0728937, "way_id": 617638624, "landuse": "farmland", "closest_distance_restriction": 2.0382479790666306}, {"id": 5838402231, "lat": 53.0117239, "lon": 16.0726714, "way_id": 617638624, "landuse": "farmland", "closest_distance_restriction": 2.022514415013018}, {"id": 5838402232, "lat": 53.011944, "lon": 16.0724777, "way_id": 617638624, "landuse": "farmland", "closest_distance_restriction": 1.9989482988640246}, {"id": 5838402233, "lat": 53.012026, "lon": 16.072449, "way_id": 617638624, "landuse": "farmland", "closest_distance_restriction": 1.9927131608533095}, {"id": 5838402234, "lat": 53.0121253, "lon": 16.072198, "way_id": 617638624, "landuse": "farmland", "closest_distance_restriction": 1.9726502318194803}, {"id": 5838402235, "lat": 53.0121166, "lon": 16.0719756, "way_id": 617638624, "landuse": "farmland", "closest_distance_restriction": 1.9602628237690545}, {"id": 5838402236, "lat": 53.0120692, "lon": 16.0717819, "way_id": 617638624, "landuse": "farmland", "closest_distance_restriction": 1.9517493138400783}, {"id": 5838402237, "lat": 53.012121, "lon": 16.0717532, "way_id": 617638624, "landuse": "farmland", "closest_distance_restriction": 1.9471726422008788}, {"id": 5838402238, "lat": 53.012285, "lon": 16.0718465, "way_id": 617638624, "landuse": "farmland", "closest_distance_restriction": 1.9434113370719992}, {"id": 5838402239, "lat": 53.0123842, "lon": 16.071868, "way_id": 617638624, "landuse": "farmland", "closest_distance_restriction": 1.9391923719929545}, {"id": 5838402240, "lat": 53.012505, "lon": 16.0716672, "way_id": 617638624, "landuse": "farmland", "closest_distance_restriction": 1.9208869636884167}, {"id": 5838402241, "lat": 53.0126129, "lon": 16.0711364, "way_id": 617638624, "landuse": "farmland", "closest_distance_restriction": 1.8840749361592555}, {"id": 5838402242, "lat": 53.0126734, "lon": 16.0706845, "way_id": 617638624, "landuse": "farmland", "closest_distance_restriction": 1.8544922527021728}, {"id": 5838402243, "lat": 53.0128891, "lon": 16.070376, "way_id": 617638624, "landuse": "farmland", "closest_distance_restriction": 1.8246736916575188}, {"id": 5838402244, "lat": 53.0131265, "lon": 16.0700317, "way_id": 617638624, "landuse": "farmland", "closest_distance_restriction": 1.7916495571840945}, {"id": 5838402245, "lat": 53.0134967, "lon": 16.0691846, "way_id": 617638624, "landuse": "farmland", "closest_distance_restriction": 1.7221181108043946}, {"id": 5838402246, "lat": 53.0100322, "lon": 16.0680735, "way_id": 617638624, "landuse": "farmland", "closest_distance_restriction": 1.878115663167104}, {"id": 5838402247, "lat": 53.0096437, "lon": 16.0686043, "way_id": 617638624, "landuse": "farmland", "closest_distance_restriction": 1.9327777933893762}, {"id": 5838402248, "lat": 53.0094193, "lon": 16.069422, "way_id": 617638624, "landuse": "farmland", "closest_distance_restriction": 1.99116155223405}, {"id": 5838402249, "lat": 53.0092726, "lon": 16.0698739, "way_id": 617638624, "landuse": "farmland", "closest_distance_restriction": 2.025022564974064}, {"id": 5838402250, "lat": 53.0090395, "lon": 16.0702254, "way_id": 617638624, "landuse": "farmland", "closest_distance_restriction": 2.0595187266031525}, {"id": 5838402251, "lat": 53.0084698, "lon": 16.0712726, "way_id": 617638624, "landuse": "farmland", "closest_distance_restriction": 2.1537573108970705}, {"id": 5838402252, "lat": 53.0082022, "lon": 16.0719326, "way_id": 617638624, "landuse": "farmland", "closest_distance_restriction": 2.2068553526520307}, {"id": 5838402253, "lat": 53.0079691, "lon": 16.072449, "way_id": 617638624, "landuse": "farmland", "closest_distance_restriction": 2.2500357504822666}, {"id": 5838402254, "lat": 53.007585, "lon": 16.0730444, "way_id": 617638624, "landuse": "farmland", "closest_distance_restriction": 2.307769990739549}, {"id": 5838402255, "lat": 53.0073778, "lon": 16.0733887, "way_id": 617638624, "landuse": "farmland", "closest_distance_restriction": 2.340138328180634}, {"id": 5838402256, "lat": 53.0067693, "lon": 16.0761933, "way_id": 617638624, "landuse": "farmland", "closest_distance_restriction": 2.529911541849842}, {"id": 5838402260, "lat": 53.0119527, "lon": 16.0737402, "way_id": 617638628, "landuse": "farmland", "closest_distance_restriction": 2.07190523354004}, {"id": 5838402261, "lat": 53.0120908, "lon": 16.0734317, "way_id": 617638628, "landuse": "farmland", "closest_distance_restriction": 2.0464116134710446}, {"id": 5838402264, "lat": 53.0138843, "lon": 16.0694246, "way_id": 617638628, "landuse": "farmland", "closest_distance_restriction": 1.715923606305015}, {"id": 5838402265, "lat": 53.0138126, "lon": 16.069795, "way_id": 617638628, "landuse": "farmland", "closest_distance_restriction": 1.741596078708521}, {"id": 5838402266, "lat": 53.0141104, "lon": 16.0701106, "way_id": 617638628, "landuse": "farmland", "closest_distance_restriction": 1.7456283112252309}, {"id": 5838402267, "lat": 53.0139896, "lon": 16.0708279, "way_id": 617638628, "landuse": "farmland", "closest_distance_restriction": 1.794669925949797}, {"id": 5838402268, "lat": 53.0137307, "lon": 16.071287, "way_id": 617638628, "landuse": "farmland", "closest_distance_restriction": 1.8348723024921738}, {"id": 5838402269, "lat": 53.0136185, "lon": 16.0712655, "way_id": 617638628, "landuse": "farmland", "closest_distance_restriction": 1.839106541482476}, {"id": 5838402270, "lat": 53.0133207, "lon": 16.0712655, "way_id": 617638628, "landuse": "farmland", "closest_distance_restriction": 1.8541003618236571}, {"id": 5838402271, "lat": 53.0132603, "lon": 16.0715309, "way_id": 617638628, "landuse": "farmland", "closest_distance_restriction": 1.8729561531586336}, {"id": 5838402272, "lat": 53.0132171, "lon": 16.0720617, "way_id": 617638628, "landuse": "farmland", "closest_distance_restriction": 1.9067488782183513}, {"id": 5838402273, "lat": 53.0131826, "lon": 16.0724562, "way_id": 617638628, "landuse": "farmland", "closest_distance_restriction": 1.932031372458137}, {"id": 5838402274, "lat": 53.0134329, "lon": 16.0726857, "way_id": 617638628, "landuse": "farmland", "closest_distance_restriction": 1.9335032066922015}, {"id": 5838402275, "lat": 53.0137307, "lon": 16.0729296, "way_id": 617638628, "landuse": "farmland", "closest_distance_restriction": 1.9341601404281141}, {"id": 5838402276, "lat": 53.0136875, "lon": 16.0731735, "way_id": 617638628, "landuse": "farmland", "closest_distance_restriction": 1.9509939454393253}, {"id": 5838402277, "lat": 53.0135192, "lon": 16.0737258, "way_id": 617638628, "landuse": "farmland", "closest_distance_restriction": 1.9923788426206703}, {"id": 5838402278, "lat": 53.0134156, "lon": 16.0737258, "way_id": 617638628, "landuse": "farmland", "closest_distance_restriction": 1.9972092168595958}, {"id": 5838402279, "lat": 53.0130359, "lon": 16.0734676, "way_id": 617638628, "landuse": "farmland", "closest_distance_restriction": 1.9998700209499838}, {"id": 5838402280, "lat": 53.0128978, "lon": 16.073525, "way_id": 617638628, "landuse": "farmland", "closest_distance_restriction": 2.0101413412520417}, {"id": 5838402281, "lat": 53.0127683, "lon": 16.0736899, "way_id": 617638628, "landuse": "farmland", "closest_distance_restriction": 2.0264672161508064}, {"id": 5838402282, "lat": 53.0126216, "lon": 16.0736971, "way_id": 617638628, "landuse": "farmland", "closest_distance_restriction": 2.034306398765525}, {"id": 5838402283, "lat": 53.0123842, "lon": 16.0735106, "way_id": 617638628, "landuse": "farmland", "closest_distance_restriction": 2.0354946834995014}, {"id": 5838402284, "lat": 53.0121296, "lon": 16.0741203, "way_id": 617638628, "landuse": "farmland", "closest_distance_restriction": 2.084812154618663}, {"id": 5838402385, "lat": 53.0124403, "lon": 16.074479, "way_id": 617638628, "landuse": "farmland", "closest_distance_restriction": 2.0900520170515873}, {"id": 5838402386, "lat": 53.0127856, "lon": 16.0752537, "way_id": 617638628, "landuse": "farmland", "closest_distance_restriction": 2.11952996464512}, {"id": 5838402387, "lat": 53.0129409, "lon": 16.0757845, "way_id": 617638628, "landuse": "farmland", "closest_distance_restriction": 2.1443715543188326}, {"id": 5838402388, "lat": 53.0128719, "lon": 16.0762937, "way_id": 617638628, "landuse": "farmland", "closest_distance_restriction": 2.178541661487064}, {"id": 5838402389, "lat": 53.0130372, "lon": 16.0767942, "way_id": 617638628, "landuse": "farmland", "closest_distance_restriction": 2.201610884241237}, {"id": 5838402391, "lat": 53.0111715, "lon": 16.0780224, "way_id": 617638624, "landuse": "farmland", "closest_distance_restriction": 2.3654054481082465}, {"id": 5838402392, "lat": 53.0119657, "lon": 16.0738874, "way_id": 617638628, "landuse": "farmland", "closest_distance_restriction": 2.079824907647022}, {"id": 5838402393, "lat": 53.0122073, "lon": 16.0733564, "way_id": 617638628, "landuse": "farmland", "closest_distance_restriction": 2.0357578134304974}, {"id": 5838402394, "lat": 53.0156373, "lon": 16.0735929, "way_id": 617638628, "landuse": "farmland", "closest_distance_restriction": 1.897797963729737}, {"id": 5838402395, "lat": 53.0154226, "lon": 16.0704434, "way_id": 617638628, "landuse": "farmland", "closest_distance_restriction": 1.7075333065771428}, {"id": 5838402396, "lat": 53.0146123, "lon": 16.0749364, "way_id": 617638628, "landuse": "farmland", "closest_distance_restriction": 2.0204675764012427}, {"id": 5838402397, "lat": 53.016035, "lon": 16.0715093, "way_id": 617638628, "landuse": "farmland", "closest_distance_restriction": 1.751580917602442}, {"id": 5838402398, "lat": 53.0162681, "lon": 16.0716815, "way_id": 617638628, "landuse": "farmland", "closest_distance_restriction": 1.7545907021025344}, {"id": 5838402399, "lat": 53.0155302, "lon": 16.0712511, "way_id": 617638628, "landuse": "farmland", "closest_distance_restriction": 1.7538218175753582}, {"id": 5838402400, "lat": 53.0158063, "lon": 16.0717461, "way_id": 617638628, "landuse": "farmland", "closest_distance_restriction": 1.7747190137833482}, {"id": 5838402401, "lat": 53.015638, "lon": 16.0715739, "way_id": 617638628, "landuse": "farmland", "closest_distance_restriction": 1.7700310836061819}, {"id": 5838402402, "lat": 53.0163414, "lon": 16.0718823, "way_id": 617638628, "landuse": "farmland", "closest_distance_restriction": 1.7650083972677915}, {"id": 5838402403, "lat": 53.0158624, "lon": 16.0733887, "way_id": 617638628, "landuse": "farmland", "closest_distance_restriction": 1.8770789054910944}, {"id": 5838402404, "lat": 53.0160772, "lon": 16.0722657, "way_id": 617638628, "landuse": "farmland", "closest_distance_restriction": 1.7982513292201745}, {"id": 6611602661, "lat": 52.9299544, "lon": 15.974213, "way_id": 704134227, "landuse": "meadow", "closest_distance_restriction": 1.7436918613399557}, {"id": 6611606059, "lat": 52.9202274, "lon": 15.9781445, "way_id": 704134244, "landuse": "meadow", "closest_distance_restriction": 2.045091629612762}, {"id": 6611606060, "lat": 52.9204269, "lon": 15.9780747, "way_id": 704134244, "landuse": "meadow", "closest_distance_restriction": 2.0666385545789874}, {"id": 6611606061, "lat": 52.9207482, "lon": 15.9787989, "way_id": 704134244, "landuse": "meadow", "closest_distance_restriction": 2.1078017745269206}, {"id": 6611606079, "lat": 52.9274828, "lon": 15.9741315, "way_id": 704134227, "landuse": "meadow", "closest_distance_restriction": 2.0175998551790935}, {"id": 6611606080, "lat": 52.927932, "lon": 15.973285, "way_id": 704134227, "landuse": "meadow", "closest_distance_restriction": 1.9651553398057588}, {"id": 6611606081, "lat": 52.9283237, "lon": 15.9727961, "way_id": 704134227, "landuse": "meadow", "closest_distance_restriction": 1.920857909715455}, {"id": 6611606082, "lat": 52.9287801, "lon": 15.9725279, "way_id": 704134227, "landuse": "meadow", "closest_distance_restriction": 1.8699275146356573}, {"id": 6611606083, "lat": 52.9291503, "lon": 15.9725994, "way_id": 704134227, "landuse": "meadow", "closest_distance_restriction": 1.828797442884355}, {"id": 6611606084, "lat": 52.9297108, "lon": 15.9727186, "way_id": 704134227, "landuse": "meadow", "closest_distance_restriction": 1.766561867519826}, {"id": 6611606085, "lat": 52.9299875, "lon": 15.9730108, "way_id": 704134227, "landuse": "meadow", "closest_distance_restriction": 1.736169306007689}, {"id": 6611606086, "lat": 52.930045, "lon": 15.9733088, "way_id": 704134227, "landuse": "meadow", "closest_distance_restriction": 1.7303868821203658}, {"id": 6611606087, "lat": 52.9300271, "lon": 15.9736784, "way_id": 704134227, "landuse": "meadow", "closest_distance_restriction": 1.7334502001655452}, {"id": 6611606175, "lat": 52.9211041, "lon": 15.9774726, "way_id": 704134244, "landuse": "meadow", "closest_distance_restriction": 2.137755913483301}, {"id": 6611606176, "lat": 52.9207861, "lon": 15.9771646, "way_id": 704134244, "landuse": "meadow", "closest_distance_restriction": 2.1008592828247075}, {"id": 6611606177, "lat": 52.9205685, "lon": 15.9771151, "way_id": 704134244, "landuse": "meadow", "closest_distance_restriction": 2.0764820123640364}, {"id": 6611606178, "lat": 52.9204255, "lon": 15.9771115, "way_id": 704134244, "landuse": "meadow", "closest_distance_restriction": 2.0606080259980772}, {"id": 6611606179, "lat": 52.9202889, "lon": 15.9773593, "way_id": 704134244, "landuse": "meadow", "closest_distance_restriction": 2.0467921293334763}, {"id": 6611606180, "lat": 52.9202242, "lon": 15.9775961, "way_id": 704134244, "landuse": "meadow", "closest_distance_restriction": 2.041024137077786}, {"id": 7088226297, "lat": 52.8716825, "lon": 16.1100122, "way_id": 758925759, "landuse": "farmland", "closest_distance_restriction": 1.7558190557683826}, {"id": 7088226298, "lat": 52.8721906, "lon": 16.1147208, "way_id": 758925759, "landuse": "farmland", "closest_distance_restriction": 2.0465074363302365}, {"id": 7088226299, "lat": 52.8709349, "lon": 16.1149988, "way_id": 758925759, "landuse": "farmland", "closest_distance_restriction": 1.9895723345359706}, {"id": 7088226300, "lat": 52.8704124, "lon": 16.1102902, "way_id": 758925759, "landuse": "farmland", "closest_distance_restriction": 1.6894065864625587}, {"id": 7088226301, "lat": 52.8730894, "lon": 16.1041918, "way_id": 758925760, "landuse": "farmland", "closest_distance_restriction": 1.5823115285717175}, {"id": 7088226302, "lat": 52.8736424, "lon": 16.1049757, "way_id": 758925760, "landuse": "farmland", "closest_distance_restriction": 1.6632222974427036}, {"id": 7088226303, "lat": 52.8736916, "lon": 16.10522, "way_id": 758925760, "landuse": "farmland", "closest_distance_restriction": 1.6778906629816335}, {"id": 7088226304, "lat": 52.874048, "lon": 16.1084473, "way_id": 758925760, "landuse": "farmland", "closest_distance_restriction": 1.852292279579476}, {"id": 7088226305, "lat": 52.8740848, "lon": 16.1091701, "way_id": 758925760, "landuse": "farmland", "closest_distance_restriction": 1.8892824713118042}, {"id": 7088226306, "lat": 52.8741401, "lon": 16.1096588, "way_id": 758925760, "landuse": "farmland", "closest_distance_restriction": 1.9169509082469405}, {"id": 7088226307, "lat": 52.8742569, "lon": 16.1099744, "way_id": 758925760, "landuse": "farmland", "closest_distance_restriction": 1.9411859121191577}, {"id": 7088226308, "lat": 52.8744166, "lon": 16.1108703, "way_id": 758925760, "landuse": "farmland", "closest_distance_restriction": 1.9969025228181512}, {"id": 7088226309, "lat": 52.8745641, "lon": 16.1115218, "way_id": 758925760, "landuse": "farmland", "closest_distance_restriction": 2.040043492252188}, {"id": 7088226310, "lat": 52.874687, "lon": 16.1120003, "way_id": 758925760, "landuse": "farmland", "closest_distance_restriction": 2.0729209086449316}, {"id": 7088226311, "lat": 52.8744842, "lon": 16.1123872, "way_id": 758925760, "landuse": "farmland", "closest_distance_restriction": 2.077115600260641}, {"id": 7088226312, "lat": 52.8743368, "lon": 16.112601, "way_id": 758925760, "landuse": "farmland", "closest_distance_restriction": 2.077096994684688}, {"id": 7088226313, "lat": 52.874091, "lon": 16.1126519, "way_id": 758925760, "landuse": "farmland", "closest_distance_restriction": 2.061891238853081}, {"id": 7088226314, "lat": 52.8741709, "lon": 16.1132423, "way_id": 758925760, "landuse": "farmland", "closest_distance_restriction": 2.0979380651027544}, {"id": 7088226315, "lat": 52.8741033, "lon": 16.113334, "way_id": 758925760, "landuse": "farmland", "closest_distance_restriction": 2.0978776745865604}, {"id": 7088226316, "lat": 52.8734827, "lon": 16.1133849, "way_id": 758925760, "landuse": "farmland", "closest_distance_restriction": 2.0573342620914663}, {"id": 7088226317, "lat": 52.8733966, "lon": 16.1125602, "way_id": 758925760, "landuse": "farmland", "closest_distance_restriction": 2.0079942730531406}, {"id": 7088226318, "lat": 52.8728129, "lon": 16.1075514, "way_id": 758925760, "landuse": "farmland", "closest_distance_restriction": 1.7126642716865603}, {"id": 7088226319, "lat": 52.8725302, "lon": 16.1050062, "way_id": 758925760, "landuse": "farmland", "closest_distance_restriction": 1.5710792999838414}, {"id": 7747889008, "lat": 53.0410219, "lon": 16.3627514, "way_id": 830169053, "landuse": "farmland", "closest_distance_restriction": 1.7275477676965942}, {"id": 7747889009, "lat": 53.0398299, "lon": 16.3606477, "way_id": 830169053, "landuse": "farmland", "closest_distance_restriction": 1.5980891275674696}, {"id": 7749932958, "lat": 52.9121109, "lon": 16.6530551, "way_id": 830267759, "landuse": "farmland", "closest_distance_restriction": 2.023242449593481}, {"id": 7749932959, "lat": 52.9124084, "lon": 16.6513017, "way_id": 830267759, "landuse": "farmland", "closest_distance_restriction": 1.91828927899402}, {"id": 7749932960, "lat": 52.9133569, "lon": 16.6517754, "way_id": 830267759, "landuse": "farmland", "closest_distance_restriction": 1.9800127162634724}, {"id": 7749932961, "lat": 52.913094, "lon": 16.6533767, "way_id": 830267759, "landuse": "farmland", "closest_distance_restriction": 2.0733260530366318}, {"id": 7749932962, "lat": 52.9123855, "lon": 16.6531872, "way_id": 830267759, "landuse": "farmland", "closest_distance_restriction": 2.039481136190054}, {"id": 7750272592, "lat": 53.0151375, "lon": 16.3813985, "way_id": 830305181, "landuse": "farmland", "closest_distance_restriction": 1.6642123351441291}, {"id": 7750272593, "lat": 53.0145917, "lon": 16.382171, "way_id": 830305181, "landuse": "farmland", "closest_distance_restriction": 1.7429575006477955}, {"id": 7750272594, "lat": 53.0139433, "lon": 16.3811739, "way_id": 830305181, "landuse": "farmland", "closest_distance_restriction": 1.7424524324302944}, {"id": 7750272595, "lat": 53.0141871, "lon": 16.3803053, "way_id": 830305181, "landuse": "farmland", "closest_distance_restriction": 1.6819869018532547}, {"id": 7750272596, "lat": 53.0144999, "lon": 16.3805901, "way_id": 830305181, "landuse": "farmland", "closest_distance_restriction": 1.671426982230521}, {"id": 7762302412, "lat": 53.0328529, "lon": 16.4033853, "way_id": 831358689, "landuse": "farmland", "closest_distance_restriction": 2.4810325188176705}, {"id": 7762302413, "lat": 53.0330005, "lon": 16.4041847, "way_id": 831358689, "landuse": "farmland", "closest_distance_restriction": 2.426432478210982}, {"id": 7762302414, "lat": 53.031786, "lon": 16.4048018, "way_id": 831358689, "landuse": "farmland", "closest_distance_restriction": 2.3997733968497403}, {"id": 7762302415, "lat": 53.0316173, "lon": 16.4040094, "way_id": 831358689, "landuse": "farmland", "closest_distance_restriction": 2.4548351174533583}, {"id": 7778758411, "lat": 53.0781691, "lon": 16.4190366, "way_id": 833277021, "landuse": "farmland", "closest_distance_restriction": 2.911474819381825}, {"id": 7778758412, "lat": 53.0770893, "lon": 16.4195043, "way_id": 833277021, "landuse": "farmland", "closest_distance_restriction": 2.8434372656884626}, {"id": 7778758413, "lat": 53.0774499, "lon": 16.4216484, "way_id": 833277021, "landuse": "farmland", "closest_distance_restriction": 2.9717042725398257}, {"id": 7778758414, "lat": 53.0785294, "lon": 16.4211649, "way_id": 833277021, "landuse": "farmland", "closest_distance_restriction": 3.0362388185536635}, {"id": 7778758736, "lat": 53.1136804, "lon": 16.4038521, "way_id": 833277085, "landuse": "farmland", "closest_distance_restriction": 6.060475656670156}, {"id": 7778758737, "lat": 53.1131142, "lon": 16.4032672, "way_id": 833277085, "landuse": "farmland", "closest_distance_restriction": 5.986804379398359}, {"id": 7778758738, "lat": 53.1132242, "lon": 16.4026205, "way_id": 833277085, "landuse": "farmland", "closest_distance_restriction": 5.97923450637155}, {"id": 7778758739, "lat": 53.1133904, "lon": 16.4027154, "way_id": 833277085, "landuse": "farmland", "closest_distance_restriction": 5.9986488285252575}, {"id": 7778758740, "lat": 53.11357, "lon": 16.4022639, "way_id": 833277085, "landuse": "farmland", "closest_distance_restriction": 6.003930540162956}, {"id": 7778758741, "lat": 53.1140184, "lon": 16.4026566, "way_id": 833277085, "landuse": "farmland", "closest_distance_restriction": 6.060194356774243}, {"id": 7994672223, "lat": 52.9464757, "lon": 16.7671428, "way_id": 857490407, "landuse": "farmland", "closest_distance_restriction": 3.2301497865588455}, {"id": 7994672230, "lat": 52.9464657, "lon": 16.767597, "way_id": 857490407, "landuse": "farmland", "closest_distance_restriction": 3.2593076418417453}, {"id": 7994672232, "lat": 52.9460775, "lon": 16.7679037, "way_id": 857490407, "landuse": "farmland", "closest_distance_restriction": 3.292839258666401}, {"id": 7994672233, "lat": 52.9459413, "lon": 16.7679165, "way_id": 857490407, "landuse": "farmland", "closest_distance_restriction": 3.2987031307979535}, {"id": 7994672234, "lat": 52.9455608, "lon": 16.7677842, "way_id": 857490407, "landuse": "farmland", "closest_distance_restriction": 3.304838782658586}, {"id": 7994672235, "lat": 52.9454812, "lon": 16.7676904, "way_id": 857490407, "landuse": "farmland", "closest_distance_restriction": 3.3020433728802288}, {"id": 7994672236, "lat": 52.9453449, "lon": 16.7668799, "way_id": 857490407, "landuse": "farmland", "closest_distance_restriction": 3.256680137359449}, {"id": 7994672237, "lat": 52.9452318, "lon": 16.7665983, "way_id": 857490407, "landuse": "farmland", "closest_distance_restriction": 3.243667049815643}, {"id": 7994672238, "lat": 52.9450159, "lon": 16.7665045, "way_id": 857490408, "landuse": "farmland", "closest_distance_restriction": 3.246693183168235}, {"id": 7994672239, "lat": 52.945183, "lon": 16.766705, "way_id": 857490408, "landuse": "farmland", "closest_distance_restriction": 3.2523067316345835}, {"id": 7994672240, "lat": 52.9453115, "lon": 16.7669865, "way_id": 857490408, "landuse": "farmland", "closest_distance_restriction": 3.2646814132425495}, {"id": 7994672241, "lat": 52.9454426, "lon": 16.7676818, "way_id": 857490408, "landuse": "farmland", "closest_distance_restriction": 3.3030128495721414}, {"id": 7994672242, "lat": 52.9450699, "lon": 16.7679506, "way_id": 857490408, "landuse": "farmland", "closest_distance_restriction": 3.3346216964031163}, {"id": 7994672243, "lat": 52.9449645, "lon": 16.7677842, "way_id": 857490408, "landuse": "farmland", "closest_distance_restriction": 3.3284925449717084}, {"id": 7994672244, "lat": 52.944764, "lon": 16.7664533, "way_id": 857490408, "landuse": "farmland", "closest_distance_restriction": 3.254068060685161}, {"id": 7994672245, "lat": 52.9447229, "lon": 16.7663253, "way_id": 857490408, "landuse": "farmland", "closest_distance_restriction": 3.2478851775273068}, {"id": 7994672256, "lat": 52.9455436, "lon": 16.737578, "way_id": 857490409, "landuse": "farmland", "closest_distance_restriction": 1.5748903968026802}, {"id": 7994672257, "lat": 52.9451543, "lon": 16.7374089, "way_id": 857490409, "landuse": "farmland", "closest_distance_restriction": 1.599243555988376}, {"id": 7994672269, "lat": 52.9445688, "lon": 16.7373442, "way_id": 857490409, "landuse": "farmland", "closest_distance_restriction": 1.6456401961437757}, {"id": 7994672270, "lat": 52.9444921, "lon": 16.7376799, "way_id": 857490409, "landuse": "farmland", "closest_distance_restriction": 1.6666863445958195}, {"id": 7994672271, "lat": 52.9447156, "lon": 16.7376339, "way_id": 857490409, "landuse": "farmland", "closest_distance_restriction": 1.6458366454492972}, {"id": 7994672272, "lat": 52.9450925, "lon": 16.7375173, "way_id": 857490409, "landuse": "farmland", "closest_distance_restriction": 1.6092060378351094}, {"id": 7994672273, "lat": 52.9453266, "lon": 16.7376516, "way_id": 857490409, "landuse": "farmland", "closest_distance_restriction": 1.5959437248438622}, {"id": 7994672274, "lat": 52.9455821, "lon": 16.737853, "way_id": 857490409, "landuse": "farmland", "closest_distance_restriction": 1.5844218424836674}, {"id": 7994672275, "lat": 52.9458716, "lon": 16.7379872, "way_id": 857490409, "landuse": "farmland", "closest_distance_restriction": 1.5675899812922212}, {"id": 7998190337, "lat": 52.8723835, "lon": 16.4829303, "way_id": 857938707, "landuse": "farmland", "closest_distance_restriction": 2.290838705971897}, {"id": 7998286668, "lat": 52.8747148, "lon": 16.4719565, "way_id": 857938695, "landuse": "farmland", "closest_distance_restriction": 3.021324840420763}, {"id": 7998286669, "lat": 52.8749391, "lon": 16.4722314, "way_id": 857938695, "landuse": "farmland", "closest_distance_restriction": 3.0219056057093767}, {"id": 7998286670, "lat": 52.8745581, "lon": 16.4730204, "way_id": 857938695, "landuse": "farmland", "closest_distance_restriction": 2.9540985337359387}, {"id": 7998286671, "lat": 52.874343, "lon": 16.4727506, "way_id": 857938695, "landuse": "farmland", "closest_distance_restriction": 2.9538779268370607}, {"id": 7998347919, "lat": 52.872074, "lon": 16.4850842, "way_id": 857938707, "landuse": "farmland", "closest_distance_restriction": 2.1632787515321428}, {"id": 7998347920, "lat": 52.8717527, "lon": 16.4850578, "way_id": 857938707, "landuse": "farmland", "closest_distance_restriction": 2.1393166767685083}, {"id": 7998347921, "lat": 52.8713928, "lon": 16.4850632, "way_id": 857938707, "landuse": "farmland", "closest_distance_restriction": 2.111176881363853}, {"id": 7998347922, "lat": 52.871, "lon": 16.4850988, "way_id": 857938707, "landuse": "farmland", "closest_distance_restriction": 2.0794490973854427}, {"id": 7998347923, "lat": 52.870929, "lon": 16.4849785, "way_id": 857938707, "landuse": "farmland", "closest_distance_restriction": 2.0800101805297104}, {"id": 7998347924, "lat": 52.8708811, "lon": 16.4845737, "way_id": 857938707, "landuse": "farmland", "closest_distance_restriction": 2.0965075136724685}, {"id": 7998347925, "lat": 52.870485, "lon": 16.4847269, "way_id": 857938707, "landuse": "farmland", "closest_distance_restriction": 2.0595429087240555}, {"id": 7998347926, "lat": 52.8704601, "lon": 16.482388, "way_id": 857938707, "landuse": "farmland", "closest_distance_restriction": 2.178199714702286}, {"id": 7998347927, "lat": 52.8703265, "lon": 16.4824407, "way_id": 857938707, "landuse": "farmland", "closest_distance_restriction": 2.1661994562261264}, {"id": 8095293450, "lat": 52.8783997, "lon": 16.4765794, "way_id": 868486129, "landuse": "farmland", "closest_distance_restriction": 3.0659586605728584}, {"id": 8095293451, "lat": 52.8784271, "lon": 16.4794484, "way_id": 868486129, "landuse": "farmland", "closest_distance_restriction": 2.940158372587311}, {"id": 8095293452, "lat": 52.8779063, "lon": 16.4801069, "way_id": 868486129, "landuse": "farmland", "closest_distance_restriction": 2.8674121305336886}, {"id": 8095293453, "lat": 52.8778104, "lon": 16.4767006, "way_id": 868486129, "landuse": "farmland", "closest_distance_restriction": 3.0127902013675563}]}