{"nodes": [{"id": 698881931, "lat": 53.5089424, "lon": 14.4067663, "way_id": 564105115, "landuse": "meadow", "closest_distance_restriction": 4.709611966252487}, {"id": 698881959, "lat": 53.5100886, "lon": 14.4106078, "way_id": 564105115, "landuse": "meadow", "closest_distance_restriction": 4.475503765880423}, {"id": 698881961, "lat": 53.51018, "lon": 14.4095207, "way_id": 564105115, "landuse": "meadow", "closest_distance_restriction": 4.548095451902312}, {"id": 766202422, "lat": 53.4072119, "lon": 14.6033317, "way_id": 61351396, "landuse": "brownfield", "closest_distance_restriction": 1.574802538690853}, {"id": 766206220, "lat": 53.4070187, "lon": 14.6034996, "way_id": 61351396, "landuse": "brownfield", "closest_distance_restriction": 1.5914626099667533}, {"id": 1601728780, "lat": 53.48302, "lon": 14.4240299, "way_id": 564105115, "landuse": "meadow", "closest_distance_restriction": 2.8915305788726067}, {"id": 1608942287, "lat": 53.4840379, "lon": 14.4184352, "way_id": 564105115, "landuse": "meadow", "closest_distance_restriction": 3.2465117319506307}, {"id": 1608942293, "lat": 53.4843714, "lon": 14.4181473, "way_id": 564105115, "landuse": "meadow", "closest_distance_restriction": 3.284725829599359}, {"id": 1608942298, "lat": 53.4849618, "lon": 14.4150947, "way_id": 564105115, "landuse": "meadow", "closest_distance_restriction": 3.4833394164812472}, {"id": 1608942301, "lat": 53.4850385, "lon": 14.4162158, "way_id": 564105115, "landuse": "meadow", "closest_distance_restriction": 3.4306478073311544}, {"id": 1608942305, "lat": 53.4855162, "lon": 14.4178747, "way_id": 564105115, "landuse": "meadow", "closest_distance_restriction": 3.3805709833644806}, {"id": 1608942469, "lat": 53.4874363, "lon": 14.4147084, "way_id": 564105115, "landuse": "meadow", "closest_distance_restriction": 3.6787719416566014}, {"id": 1716381887, "lat": 53.4839687, "lon": 14.4185782, "way_id": 564105115, "landuse": "meadow", "closest_distance_restriction": 3.2343161044163113}, {"id": 1716381891, "lat": 53.4840242, "lon": 14.422493, "way_id": 564105115, "landuse": "meadow", "closest_distance_restriction": 3.041853971202895}, {"id": 1716381898, "lat": 53.4841708, "lon": 14.4195972, "way_id": 564105115, "landuse": "meadow", "closest_distance_restriction": 3.1967306079219235}, {"id": 1716381900, "lat": 53.4842062, "lon": 14.4222977, "way_id": 564105115, "landuse": "meadow", "closest_distance_restriction": 3.0650353699322697}, {"id": 1716381902, "lat": 53.4842213, "lon": 14.4184338, "way_id": 564105115, "landuse": "meadow", "closest_distance_restriction": 3.2594838291609793}, {"id": 1716381907, "lat": 53.484383, "lon": 14.4190962, "way_id": 564105115, "landuse": "meadow", "closest_distance_restriction": 3.237282724389888}, {"id": 1716381909, "lat": 53.4843931, "lon": 14.418765, "way_id": 564105115, "landuse": "meadow", "closest_distance_restriction": 3.2547915223453736}, {"id": 1841776184, "lat": 53.4053814, "lon": 14.7250646, "way_id": 312559360, "landuse": "meadow", "closest_distance_restriction": 1.9347213620226256}, {"id": 1841776188, "lat": 53.4049337, "lon": 14.725086, "way_id": 312559360, "landuse": "meadow", "closest_distance_restriction": 1.9395333354501374}, {"id": 1841776191, "lat": 53.405059, "lon": 14.724982, "way_id": 312559360, "landuse": "meadow", "closest_distance_restriction": 1.9315795689340012}, {"id": 1841776342, "lat": 53.3991467, "lon": 14.7181144, "way_id": 312559371, "landuse": "meadow", "closest_distance_restriction": 1.6558328705635212}, {"id": 1841776566, "lat": 53.4045608, "lon": 14.7268081, "way_id": 312559360, "landuse": "meadow", "closest_distance_restriction": 2.05692453591954}, {"id": 1841776589, "lat": 53.4052663, "lon": 14.7251289, "way_id": 312559360, "landuse": "meadow", "closest_distance_restriction": 1.939727452692917}, {"id": 1841776655, "lat": 53.3967, "lon": 14.7187717, "way_id": 312559368, "landuse": "meadow", "closest_distance_restriction": 1.7356152480813483}, {"id": 1841776664, "lat": 53.403061, "lon": 14.7267745, "way_id": 312559360, "landuse": "meadow", "closest_distance_restriction": 2.0441822959235587}, {"id": 1841776672, "lat": 53.3990802, "lon": 14.718418, "way_id": 312559371, "landuse": "meadow", "closest_distance_restriction": 1.6771020706981223}, {"id": 1864144614, "lat": 53.4814909, "lon": 14.4321832, "way_id": 564105115, "landuse": "meadow", "closest_distance_restriction": 2.3883769324511275}, {"id": 1864144615, "lat": 53.4815435, "lon": 14.4313322, "way_id": 564105115, "landuse": "meadow", "closest_distance_restriction": 2.430933600631018}, {"id": 1864144617, "lat": 53.4822406, "lon": 14.4316969, "way_id": 564105115, "landuse": "meadow", "closest_distance_restriction": 2.4718682300799664}, {"id": 1864144625, "lat": 53.4837958, "lon": 14.4399638, "way_id": 564105115, "landuse": "meadow", "closest_distance_restriction": 2.2984293630906714}, {"id": 1864144628, "lat": 53.4843743, "lon": 14.4380452, "way_id": 564105115, "landuse": "meadow", "closest_distance_restriction": 2.416795517120637}, {"id": 1864144629, "lat": 53.4843594, "lon": 14.4388724, "way_id": 564105115, "landuse": "meadow", "closest_distance_restriction": 2.3776223667718974}, {"id": 1864144630, "lat": 53.4844354, "lon": 14.4384251, "way_id": 564105115, "landuse": "meadow", "closest_distance_restriction": 2.4074623624058646}, {"id": 1864144631, "lat": 53.4845394, "lon": 14.4373614, "way_id": 564105115, "landuse": "meadow", "closest_distance_restriction": 2.455681089267427}, {"id": 1864144634, "lat": 53.485859, "lon": 14.4174908, "way_id": 564105115, "landuse": "meadow", "closest_distance_restriction": 3.4247418063354833}, {"id": 1864144635, "lat": 53.4860234, "lon": 14.4163193, "way_id": 564105115, "landuse": "meadow", "closest_distance_restriction": 3.495383891538027}, {"id": 1895901752, "lat": 53.5024807, "lon": 14.4172657, "way_id": 564105115, "landuse": "meadow", "closest_distance_restriction": 3.900180506663201}, {"id": 1895901756, "lat": 53.5031408, "lon": 14.4180232, "way_id": 564105115, "landuse": "meadow", "closest_distance_restriction": 3.8618282966656636}, {"id": 1895901763, "lat": 53.5044626, "lon": 14.4179751, "way_id": 564105115, "landuse": "meadow", "closest_distance_restriction": 3.8915092806272904}, {"id": 1895901766, "lat": 53.5045959, "lon": 14.4186477, "way_id": 564105115, "landuse": "meadow", "closest_distance_restriction": 3.8509342556521067}, {"id": 1895901767, "lat": 53.5048515, "lon": 14.4187038, "way_id": 564105115, "landuse": "meadow", "closest_distance_restriction": 3.8532297028556863}, {"id": 1895901769, "lat": 53.504896, "lon": 14.4183986, "way_id": 564105115, "landuse": "meadow", "closest_distance_restriction": 3.874003997675191}, {"id": 1895901773, "lat": 53.5053701, "lon": 14.4184983, "way_id": 564105115, "landuse": "meadow", "closest_distance_restriction": 3.879108199195045}, {"id": 1895901774, "lat": 53.5054998, "lon": 14.4182242, "way_id": 564105115, "landuse": "meadow", "closest_distance_restriction": 3.900033273509258}, {"id": 1895901779, "lat": 53.5058998, "lon": 14.417153, "way_id": 564105115, "landuse": "meadow", "closest_distance_restriction": 3.979241694955317}, {"id": 1895901780, "lat": 53.5059146, "lon": 14.4183176, "way_id": 564105115, "landuse": "meadow", "closest_distance_restriction": 3.904809872178527}, {"id": 1895901781, "lat": 53.5059554, "lon": 14.4173959, "way_id": 564105115, "landuse": "meadow", "closest_distance_restriction": 3.965089193528518}, {"id": 1895901782, "lat": 53.5060331, "lon": 14.4166797, "way_id": 564105115, "landuse": "meadow", "closest_distance_restriction": 4.013152070790016}, {"id": 1895901783, "lat": 53.5060924, "lon": 14.4181682, "way_id": 564105115, "landuse": "meadow", "closest_distance_restriction": 3.919174071380815}, {"id": 1895901784, "lat": 53.5061369, "lon": 14.4176948, "way_id": 564105115, "landuse": "meadow", "closest_distance_restriction": 3.950743869143691}, {"id": 1895901785, "lat": 53.5062406, "lon": 14.4171655, "way_id": 564105115, "landuse": "meadow", "closest_distance_restriction": 3.987501033752947}, {"id": 1895901786, "lat": 53.506248, "lon": 14.4165489, "way_id": 564105115, "landuse": "meadow", "closest_distance_restriction": 4.027259870857046}, {"id": 1895901787, "lat": 53.5064112, "lon": 14.4146425, "way_id": 564105115, "landuse": "meadow", "closest_distance_restriction": 4.1540045504189465}, {"id": 1895901788, "lat": 53.5068827, "lon": 14.4147306, "way_id": 564105115, "landuse": "meadow", "closest_distance_restriction": 4.1611743537677395}, {"id": 1895901789, "lat": 53.5070922, "lon": 14.4151534, "way_id": 564105115, "landuse": "meadow", "closest_distance_restriction": 4.136560536433987}, {"id": 1895901790, "lat": 53.5071027, "lon": 14.4174082, "way_id": 564105115, "landuse": "meadow", "closest_distance_restriction": 3.988145331679574}, {"id": 1895901791, "lat": 53.5073227, "lon": 14.4103796, "way_id": 564105115, "landuse": "meadow", "closest_distance_restriction": 4.452055884133004}, {"id": 1895901792, "lat": 53.5073855, "lon": 14.4169854, "way_id": 564105115, "landuse": "meadow", "closest_distance_restriction": 4.018946939523212}, {"id": 1895901793, "lat": 53.5075217, "lon": 14.4152062, "way_id": 564105115, "landuse": "meadow", "closest_distance_restriction": 4.1375237363833275}, {"id": 1895901794, "lat": 53.5078465, "lon": 14.4094283, "way_id": 564105115, "landuse": "meadow", "closest_distance_restriction": 4.521311537338829}, {"id": 1895901795, "lat": 53.5078989, "lon": 14.41045, "way_id": 564105115, "landuse": "meadow", "closest_distance_restriction": 4.45466439137234}, {"id": 1895901796, "lat": 53.5080665, "lon": 14.4097102, "way_id": 564105115, "landuse": "meadow", "closest_distance_restriction": 4.505239662846529}, {"id": 2009752174, "lat": 53.5095749, "lon": 14.41469, "way_id": 564105115, "landuse": "meadow", "closest_distance_restriction": 4.199998293615711}, {"id": 2009752176, "lat": 53.5095773, "lon": 14.414867, "way_id": 564105115, "landuse": "meadow", "closest_distance_restriction": 4.188470178582325}, {"id": 2009752178, "lat": 53.5096287, "lon": 14.4150991, "way_id": 564105115, "landuse": "meadow", "closest_distance_restriction": 4.1741777083440414}, {"id": 2009752180, "lat": 53.5096732, "lon": 14.4144147, "way_id": 564105115, "landuse": "meadow", "closest_distance_restriction": 4.2196571968001635}, {"id": 2009752182, "lat": 53.5097246, "lon": 14.4152328, "way_id": 564105115, "landuse": "meadow", "closest_distance_restriction": 4.16710107699769}, {"id": 2009752185, "lat": 53.5097901, "lon": 14.414104, "way_id": 564105115, "landuse": "meadow", "closest_distance_restriction": 4.241965289461215}, {"id": 2009752188, "lat": 53.5098626, "lon": 14.4140214, "way_id": 564105115, "landuse": "meadow", "closest_distance_restriction": 4.248622102131906}, {"id": 2009752190, "lat": 53.509865, "lon": 14.4152682, "way_id": 564105115, "landuse": "meadow", "closest_distance_restriction": 4.167267068444861}, {"id": 2009752192, "lat": 53.5099445, "lon": 14.4139978, "way_id": 564105115, "landuse": "meadow", "closest_distance_restriction": 4.251605554929688}, {"id": 2009752194, "lat": 53.5100217, "lon": 14.4140096, "way_id": 564105115, "landuse": "meadow", "closest_distance_restriction": 4.252212463360569}, {"id": 2009752195, "lat": 53.5100848, "lon": 14.414104, "way_id": 564105115, "landuse": "meadow", "closest_distance_restriction": 4.247192053741491}, {"id": 2009752196, "lat": 53.5100965, "lon": 14.4153665, "way_id": 564105115, "landuse": "meadow", "closest_distance_restriction": 4.165067924562046}, {"id": 2009752198, "lat": 53.5101854, "lon": 14.4155002, "way_id": 564105115, "landuse": "meadow", "closest_distance_restriction": 4.158014944241797}, {"id": 2009752199, "lat": 53.5101877, "lon": 14.4156811, "way_id": 564105115, "landuse": "meadow", "closest_distance_restriction": 4.146269868907935}, {"id": 2009752207, "lat": 53.5102228, "lon": 14.4161138, "way_id": 564105115, "landuse": "meadow", "closest_distance_restriction": 4.1187468038783805}, {"id": 2009752221, "lat": 53.5102813, "lon": 14.4163615, "way_id": 564105115, "landuse": "meadow", "closest_distance_restriction": 4.103741911124936}, {"id": 2009752228, "lat": 53.5103421, "lon": 14.4166093, "way_id": 564105115, "landuse": "meadow", "closest_distance_restriction": 4.088796624555024}, {"id": 2009752237, "lat": 53.510424, "lon": 14.4169711, "way_id": 564105115, "landuse": "meadow", "closest_distance_restriction": 4.066878545723915}, {"id": 2009752254, "lat": 53.5104871, "lon": 14.4169161, "way_id": 564105115, "landuse": "meadow", "closest_distance_restriction": 4.071722588239103}, {"id": 2009752351, "lat": 53.511044, "lon": 14.4190834, "way_id": 564105115, "landuse": "meadow", "closest_distance_restriction": 3.94297374348505}, {"id": 2009752357, "lat": 53.5110639, "lon": 14.4196341, "way_id": 564105115, "landuse": "meadow", "closest_distance_restriction": 3.907778162899792}, {"id": 2009752372, "lat": 53.5111366, "lon": 14.4201903, "way_id": 564105115, "landuse": "meadow", "closest_distance_restriction": 3.8734752758859106}, {"id": 2009752376, "lat": 53.5112524, "lon": 14.4205351, "way_id": 564105115, "landuse": "meadow", "closest_distance_restriction": 3.853914863235207}, {"id": 2009752481, "lat": 53.5117915, "lon": 14.4218199, "way_id": 564105115, "landuse": "meadow", "closest_distance_restriction": 3.784511083355781}, {"id": 2009752521, "lat": 53.5121157, "lon": 14.4227099, "way_id": 564105115, "landuse": "meadow", "closest_distance_restriction": 3.7360242097171636}, {"id": 2009752527, "lat": 53.5122116, "lon": 14.4229323, "way_id": 564105115, "landuse": "meadow", "closest_distance_restriction": 3.7244223995796544}, {"id": 2009752530, "lat": 53.5123273, "lon": 14.4229991, "way_id": 564105115, "landuse": "meadow", "closest_distance_restriction": 3.72338397675763}, {"id": 2009752535, "lat": 53.5124232, "lon": 14.4229546, "way_id": 564105115, "landuse": "meadow", "closest_distance_restriction": 3.7289441136742356}, {"id": 2025692113, "lat": 53.4826284, "lon": 14.4402944, "way_id": 564105115, "landuse": "meadow", "closest_distance_restriction": 2.1742784046560204}, {"id": 2025692114, "lat": 53.4826322, "lon": 14.4401724, "way_id": 564105115, "landuse": "meadow", "closest_distance_restriction": 2.1786381735029234}, {"id": 2025692139, "lat": 53.4827622, "lon": 14.4404101, "way_id": 564105115, "landuse": "meadow", "closest_distance_restriction": 2.1834896961445533}, {"id": 2025692141, "lat": 53.4827775, "lon": 14.440243, "way_id": 564105115, "landuse": "meadow", "closest_distance_restriction": 2.1903843765761004}, {"id": 2025692154, "lat": 53.4829342, "lon": 14.4405579, "way_id": 564105115, "landuse": "meadow", "closest_distance_restriction": 2.19549106970938}, {"id": 2025692159, "lat": 53.4829572, "lon": 14.4407699, "way_id": 564105115, "landuse": "meadow", "closest_distance_restriction": 2.1910353633342905}, {"id": 2025692164, "lat": 53.4830145, "lon": 14.4403394, "way_id": 564105115, "landuse": "meadow", "closest_distance_restriction": 2.2102846502660523}, {"id": 2025692167, "lat": 53.483026, "lon": 14.4408984, "way_id": 564105115, "landuse": "meadow", "closest_distance_restriction": 2.1937558611834027}, {"id": 2025692194, "lat": 53.4831866, "lon": 14.4409177, "way_id": 564105115, "landuse": "meadow", "closest_distance_restriction": 2.2089321477711588}, {"id": 2025692197, "lat": 53.4832439, "lon": 14.4403266, "way_id": 564105115, "landuse": "meadow", "closest_distance_restriction": 2.233048195020498}, {"id": 2025692212, "lat": 53.4833815, "lon": 14.4410012, "way_id": 564105115, "landuse": "meadow", "closest_distance_restriction": 2.225569418329891}, {"id": 2025692219, "lat": 53.4834198, "lon": 14.4402559, "way_id": 564105115, "landuse": "meadow", "closest_distance_restriction": 2.2524627679038343}, {"id": 2025692225, "lat": 53.4834733, "lon": 14.4401145, "way_id": 564105115, "landuse": "meadow", "closest_distance_restriction": 2.2621619524514585}, {"id": 2025692229, "lat": 53.4834924, "lon": 14.4411425, "way_id": 564105115, "landuse": "meadow", "closest_distance_restriction": 2.226591709720033}, {"id": 2025692237, "lat": 53.4835383, "lon": 14.4416694, "way_id": 564105115, "landuse": "meadow", "closest_distance_restriction": 2.1916728942833537}, {"id": 2025692252, "lat": 53.4835765, "lon": 14.4418043, "way_id": 564105115, "landuse": "meadow", "closest_distance_restriction": 2.182707983770152}, {"id": 2025692258, "lat": 53.4836339, "lon": 14.4414252, "way_id": 564105115, "landuse": "meadow", "closest_distance_restriction": 2.2077477121261424}, {"id": 2025692260, "lat": 53.4836339, "lon": 14.4416116, "way_id": 564105115, "landuse": "meadow", "closest_distance_restriction": 2.1954143960667047}, {"id": 2025692309, "lat": 53.4845476, "lon": 14.442556, "way_id": 564105115, "landuse": "meadow", "closest_distance_restriction": 2.1347868154453464}, {"id": 2025692345, "lat": 53.4852014, "lon": 14.4431214, "way_id": 564105115, "landuse": "meadow", "closest_distance_restriction": 2.1017810329840363}, {"id": 2025692357, "lat": 53.4854537, "lon": 14.4433784, "way_id": 564105115, "landuse": "meadow", "closest_distance_restriction": 2.087203260405914}, {"id": 2025692361, "lat": 53.4854613, "lon": 14.4437639, "way_id": 564105115, "landuse": "meadow", "closest_distance_restriction": 2.0618832900049275}, {"id": 2025692369, "lat": 53.4855645, "lon": 14.4440466, "way_id": 564105115, "landuse": "meadow", "closest_distance_restriction": 2.0443677114149024}, {"id": 2025692379, "lat": 53.4857519, "lon": 14.4442073, "way_id": 564105115, "landuse": "meadow", "closest_distance_restriction": 2.0359732282252865}, {"id": 2025692387, "lat": 53.4859163, "lon": 14.4441944, "way_id": 564105115, "landuse": "meadow", "closest_distance_restriction": 2.0389112411823667}, {"id": 2025692393, "lat": 53.4859965, "lon": 14.443976, "way_id": 564105115, "landuse": "meadow", "closest_distance_restriction": 2.054330322403929}, {"id": 2025692407, "lat": 53.4861074, "lon": 14.4439695, "way_id": 564105115, "landuse": "meadow", "closest_distance_restriction": 2.0562999741764623}, {"id": 2025692541, "lat": 53.4876825, "lon": 14.4452031, "way_id": 564105115, "landuse": "meadow", "closest_distance_restriction": 2.0062554235159973}, {"id": 2025692579, "lat": 53.4888981, "lon": 14.4460384, "way_id": 564105115, "landuse": "meadow", "closest_distance_restriction": 1.987096674236465}, {"id": 2025692589, "lat": 53.4895603, "lon": 14.4464458, "way_id": 564105115, "landuse": "meadow", "closest_distance_restriction": 1.9840957056884152}, {"id": 2028420986, "lat": 53.5068991, "lon": 14.4420853, "way_id": 564105115, "landuse": "meadow", "closest_distance_restriction": 2.3642958886284213}, {"id": 2028420989, "lat": 53.5043006, "lon": 14.4434873, "way_id": 564105115, "landuse": "meadow", "closest_distance_restriction": 2.2475249017021355}, {"id": 2028420996, "lat": 53.4966153, "lon": 14.4444817, "way_id": 564105115, "landuse": "meadow", "closest_distance_restriction": 2.062821054223836}, {"id": 2028420997, "lat": 53.4947303, "lon": 14.4494329, "way_id": 564105115, "landuse": "meadow", "closest_distance_restriction": 1.7551530315954673}, {"id": 2028420998, "lat": 53.4924328, "lon": 14.448403, "way_id": 564105115, "landuse": "meadow", "closest_distance_restriction": 1.8613266769208767}, {"id": 2028420999, "lat": 53.490088, "lon": 14.4468978, "way_id": 564105115, "landuse": "meadow", "closest_distance_restriction": 1.9760506202056605}, {"id": 2028421000, "lat": 53.490491, "lon": 14.4468187, "way_id": 564105115, "landuse": "meadow", "closest_distance_restriction": 1.99734945257221}, {"id": 2028421004, "lat": 53.49539, "lon": 14.4440856, "way_id": 564105115, "landuse": "meadow", "closest_distance_restriction": 2.099777328469413}, {"id": 2028421005, "lat": 53.4957788, "lon": 14.4445411, "way_id": 564105115, "landuse": "meadow", "closest_distance_restriction": 2.0653984037816557}, {"id": 2028421006, "lat": 53.4967331, "lon": 14.4437093, "way_id": 564105115, "landuse": "meadow", "closest_distance_restriction": 2.113292047680655}, {"id": 2028421008, "lat": 53.4978523, "lon": 14.4414515, "way_id": 564105115, "landuse": "meadow", "closest_distance_restriction": 2.2612922831003104}, {"id": 2028421009, "lat": 53.4984767, "lon": 14.4387581, "way_id": 564105115, "landuse": "meadow", "closest_distance_restriction": 2.441538360283111}, {"id": 2028421010, "lat": 53.4988773, "lon": 14.4385204, "way_id": 564105115, "landuse": "meadow", "closest_distance_restriction": 2.4596262309786967}, {"id": 2028421011, "lat": 53.499638, "lon": 14.4349718, "way_id": 564105115, "landuse": "meadow", "closest_distance_restriction": 2.7000655437284595}, {"id": 2028421013, "lat": 53.5030356, "lon": 14.4388571, "way_id": 564105115, "landuse": "meadow", "closest_distance_restriction": 2.5093526680096097}, {"id": 2028421014, "lat": 53.5038955, "lon": 14.4409762, "way_id": 564105115, "landuse": "meadow", "closest_distance_restriction": 2.4003381724193082}, {"id": 2028421015, "lat": 53.5052501, "lon": 14.4439271, "way_id": 564105115, "landuse": "meadow", "closest_distance_restriction": 2.223407930543206}, {"id": 2028421017, "lat": 53.5063337, "lon": 14.4432934, "way_id": 564105115, "landuse": "meadow", "closest_distance_restriction": 2.2767469783002428}, {"id": 2028421019, "lat": 53.5065929, "lon": 14.4413525, "way_id": 564105115, "landuse": "meadow", "closest_distance_restriction": 2.407692357139507}, {"id": 2028421020, "lat": 53.5067224, "lon": 14.439075, "way_id": 564105115, "landuse": "meadow", "closest_distance_restriction": 2.558918168237587}, {"id": 2028421021, "lat": 53.5062793, "lon": 14.4410596, "way_id": 564105115, "landuse": "meadow", "closest_distance_restriction": 2.4227508017064388}, {"id": 2028421022, "lat": 53.5061217, "lon": 14.4404613, "way_id": 564105115, "landuse": "meadow", "closest_distance_restriction": 2.4602013826381817}, {"id": 2028421023, "lat": 53.5061523, "lon": 14.4391937, "way_id": 564105115, "landuse": "meadow", "closest_distance_restriction": 2.543938844443164}, {"id": 2028421027, "lat": 53.5092312, "lon": 14.4390354, "way_id": 564105115, "landuse": "meadow", "closest_distance_restriction": 2.6111524972380895}, {"id": 2028421028, "lat": 53.5084654, "lon": 14.4389999, "way_id": 564105115, "landuse": "meadow", "closest_distance_restriction": 2.5952223027098116}, {"id": 2028421029, "lat": 53.5085598, "lon": 14.4372727, "way_id": 564105115, "landuse": "meadow", "closest_distance_restriction": 2.7092808101859354}, {"id": 2028421030, "lat": 53.5080769, "lon": 14.4374906, "way_id": 564105115, "landuse": "meadow", "closest_distance_restriction": 2.685203813605338}, {"id": 2028421031, "lat": 53.5084538, "lon": 14.4385997, "way_id": 564105115, "landuse": "meadow", "closest_distance_restriction": 2.6209138436186303}, {"id": 2028421032, "lat": 53.5095845, "lon": 14.4386393, "way_id": 564105115, "landuse": "meadow", "closest_distance_restriction": 2.6458633375005443}, {"id": 2028421033, "lat": 53.511092, "lon": 14.437649, "way_id": 564105115, "landuse": "meadow", "closest_distance_restriction": 2.753805803931558}, {"id": 2028421034, "lat": 53.5111638, "lon": 14.4381899, "way_id": 564105115, "landuse": "meadow", "closest_distance_restriction": 2.72200632443139}, {"id": 2028421040, "lat": 53.5134474, "lon": 14.4380847, "way_id": 564105115, "landuse": "meadow", "closest_distance_restriction": 2.814895546682829}, {"id": 2028421042, "lat": 53.5117633, "lon": 14.4379263, "way_id": 564105115, "landuse": "meadow", "closest_distance_restriction": 2.7592032946037706}, {"id": 2028421043, "lat": 53.5126112, "lon": 14.4363221, "way_id": 564105115, "landuse": "meadow", "closest_distance_restriction": 2.8903637008258674}, {"id": 2028421044, "lat": 53.5116455, "lon": 14.4372529, "way_id": 564105115, "landuse": "meadow", "closest_distance_restriction": 2.7973424386506647}, {"id": 2028421045, "lat": 53.5123522, "lon": 14.4362825, "way_id": 564105115, "landuse": "meadow", "closest_distance_restriction": 2.8832455136108437}, {"id": 2028421046, "lat": 53.5150961, "lon": 14.4382036, "way_id": 564105115, "landuse": "meadow", "closest_distance_restriction": 2.8823800015070082}, {"id": 2028421047, "lat": 53.5147594, "lon": 14.4380741, "way_id": 564105115, "landuse": "meadow", "closest_distance_restriction": 2.8740771502257934}, {"id": 2028421058, "lat": 53.5154258, "lon": 14.4374906, "way_id": 564105115, "landuse": "meadow", "closest_distance_restriction": 2.9407922138214437}, {"id": 2028421059, "lat": 53.5154023, "lon": 14.4389958, "way_id": 564105115, "landuse": "meadow", "closest_distance_restriction": 2.8504864776488312}, {"id": 2028421060, "lat": 53.5156496, "lon": 14.4375302, "way_id": 564105115, "landuse": "meadow", "closest_distance_restriction": 2.949435199619457}, {"id": 2028421061, "lat": 53.5158026, "lon": 14.4391344, "way_id": 564105115, "landuse": "meadow", "closest_distance_restriction": 2.862723233750218}, {"id": 2028425004, "lat": 53.5011789, "lon": 14.4329102, "way_id": 564105115, "landuse": "meadow", "closest_distance_restriction": 2.855410316723067}, {"id": 2028425005, "lat": 53.5026516, "lon": 14.4348225, "way_id": 564105115, "landuse": "meadow", "closest_distance_restriction": 2.7596123376187114}, {"id": 2028425006, "lat": 53.4968926, "lon": 14.439411, "way_id": 564105115, "landuse": "meadow", "closest_distance_restriction": 2.396846849240718}, {"id": 2028425007, "lat": 53.4980247, "lon": 14.4380439, "way_id": 564105115, "landuse": "meadow", "closest_distance_restriction": 2.487034926459893}, {"id": 2332759318, "lat": 53.5046543, "lon": 14.4433335, "way_id": 564105115, "landuse": "meadow", "closest_distance_restriction": 2.2589340516132053}, {"id": 2332759323, "lat": 53.5048262, "lon": 14.4436402, "way_id": 564105115, "landuse": "meadow", "closest_distance_restriction": 2.239524838498548}, {"id": 2890941510, "lat": 53.3990765, "lon": 14.7202109, "way_id": 312559371, "landuse": "meadow", "closest_distance_restriction": 1.7932473924090464}, {"id": 2890941516, "lat": 53.3959276, "lon": 14.7202471, "way_id": 312559368, "landuse": "meadow", "closest_distance_restriction": 1.6056049122027478}, {"id": 2890941517, "lat": 53.3956073, "lon": 14.7205418, "way_id": 312559368, "landuse": "meadow", "closest_distance_restriction": 1.5667916444739296}, {"id": 2890941518, "lat": 53.3964407, "lon": 14.7197765, "way_id": 312559368, "landuse": "meadow", "closest_distance_restriction": 1.6678907135130052}, {"id": 2890941521, "lat": 53.3960785, "lon": 14.7165572, "way_id": 312559368, "landuse": "meadow", "closest_distance_restriction": 1.669135396000232}, {"id": 2890941522, "lat": 53.395497, "lon": 14.7161601, "way_id": 312559368, "landuse": "meadow", "closest_distance_restriction": 1.6741885529265867}, {"id": 2890941523, "lat": 53.396296, "lon": 14.7169719, "way_id": 312559368, "landuse": "meadow", "closest_distance_restriction": 1.6841027862176154}, {"id": 2890941524, "lat": 53.3964332, "lon": 14.7176788, "way_id": 312559368, "landuse": "meadow", "closest_distance_restriction": 1.7210478120341464}, {"id": 2890941525, "lat": 53.396533, "lon": 14.7182725, "way_id": 312559368, "landuse": "meadow", "closest_distance_restriction": 1.746859925278972}, {"id": 2890941526, "lat": 53.3950045, "lon": 14.7159933, "way_id": 312559368, "landuse": "meadow", "closest_distance_restriction": 1.6905170489167398}, {"id": 2989640122, "lat": 53.3939774, "lon": 14.716344, "way_id": 312559368, "landuse": "meadow", "closest_distance_restriction": 1.673473096431254}, {"id": 3184314472, "lat": 53.3988217, "lon": 14.7247492, "way_id": 701703107, "landuse": "meadow", "closest_distance_restriction": 1.6751962007857337}, {"id": 3184314474, "lat": 53.3994561, "lon": 14.7209555, "way_id": 701703107, "landuse": "meadow", "closest_distance_restriction": 1.827652319904355}, {"id": 3184314475, "lat": 53.3998718, "lon": 14.7252833, "way_id": 701703107, "landuse": "meadow", "closest_distance_restriction": 1.7601000347912663}, {"id": 3184314476, "lat": 53.399889, "lon": 14.7250131, "way_id": 701703107, "landuse": "meadow", "closest_distance_restriction": 1.7701555005234813}, {"id": 3184314477, "lat": 53.4000214, "lon": 14.7249262, "way_id": 701703107, "landuse": "meadow", "closest_distance_restriction": 1.7858576616941322}, {"id": 3184314478, "lat": 53.4001135, "lon": 14.725071, "way_id": 701703107, "landuse": "meadow", "closest_distance_restriction": 1.7904383164063065}, {"id": 3184314479, "lat": 53.4003149, "lon": 14.7251193, "way_id": 701703107, "landuse": "meadow", "closest_distance_restriction": 1.808850978505593}, {"id": 3184314480, "lat": 53.4004012, "lon": 14.7253219, "way_id": 701703107, "landuse": "meadow", "closest_distance_restriction": 1.81132738422602}, {"id": 3184314482, "lat": 53.4005796, "lon": 14.7254185, "way_id": 701703107, "landuse": "meadow", "closest_distance_restriction": 1.8262412804117625}, {"id": 3184314485, "lat": 53.4009364, "lon": 14.7256308, "way_id": 701703107, "landuse": "meadow", "closest_distance_restriction": 1.8558711147369558}, {"id": 3184314486, "lat": 53.4011205, "lon": 14.7255053, "way_id": 701703107, "landuse": "meadow", "closest_distance_restriction": 1.877935316829286}, {"id": 3184314487, "lat": 53.4012759, "lon": 14.7252158, "way_id": 701703107, "landuse": "meadow", "closest_distance_restriction": 1.9017738454926432}, {"id": 3184314488, "lat": 53.4013162, "lon": 14.7245498, "way_id": 701703107, "landuse": "meadow", "closest_distance_restriction": 1.9252212509923627}, {"id": 3184314489, "lat": 53.4013219, "lon": 14.7249359, "way_id": 701703107, "landuse": "meadow", "closest_distance_restriction": 1.914442463618929}, {"id": 3184314492, "lat": 53.4013852, "lon": 14.7226967, "way_id": 701703107, "landuse": "meadow", "closest_distance_restriction": 1.8585198849697389}, {"id": 3184314493, "lat": 53.401391, "lon": 14.7243664, "way_id": 701703107, "landuse": "meadow", "closest_distance_restriction": 1.9381230715642155}, {"id": 3184314496, "lat": 53.4014715, "lon": 14.7232179, "way_id": 701703107, "landuse": "meadow", "closest_distance_restriction": 1.888767769611363}, {"id": 3184314497, "lat": 53.4014715, "lon": 14.7243954, "way_id": 701703107, "landuse": "meadow", "closest_distance_restriction": 1.945247257563419}, {"id": 3184314500, "lat": 53.4015636, "lon": 14.7240383, "way_id": 701703107, "landuse": "meadow", "closest_distance_restriction": 1.9380963992062603}, {"id": 3184314501, "lat": 53.4015924, "lon": 14.723575, "way_id": 701703107, "landuse": "meadow", "closest_distance_restriction": 1.90768964080402}, {"id": 3184314503, "lat": 53.401581, "lon": 14.7220835, "way_id": 701703107, "landuse": "meadow", "closest_distance_restriction": 1.8132589117239575}, {"id": 3184314511, "lat": 53.4021108, "lon": 14.722341, "way_id": 312559360, "landuse": "meadow", "closest_distance_restriction": 1.8134094830988736}, {"id": 3184314525, "lat": 53.4031414, "lon": 14.7229462, "way_id": 312559360, "landuse": "meadow", "closest_distance_restriction": 1.826413803877679}, {"id": 3184314542, "lat": 53.4055256, "lon": 14.7247099, "way_id": 312559360, "landuse": "meadow", "closest_distance_restriction": 1.910412432353718}, {"id": 3689370815, "lat": 53.3945913, "lon": 14.7184758, "way_id": 312559368, "landuse": "meadow", "closest_distance_restriction": 1.5970484203375204}, {"id": 4796991264, "lat": 53.5169217, "lon": 14.4355444, "way_id": 564105115, "landuse": "meadow", "closest_distance_restriction": 3.1307204607379417}, {"id": 4796991265, "lat": 53.5162455, "lon": 14.4348578, "way_id": 564105115, "landuse": "meadow", "closest_distance_restriction": 3.1372062576244364}, {"id": 4796991266, "lat": 53.5166028, "lon": 14.43386, "way_id": 564105115, "landuse": "meadow", "closest_distance_restriction": 3.213933267922669}, {"id": 4796991267, "lat": 53.5161817, "lon": 14.4333021, "way_id": 564105115, "landuse": "meadow", "closest_distance_restriction": 3.2268795274212687}, {"id": 4796991268, "lat": 53.5163922, "lon": 14.4328193, "way_id": 564105115, "landuse": "meadow", "closest_distance_restriction": 3.2657328897624986}, {"id": 4796991269, "lat": 53.5158947, "lon": 14.4322936, "way_id": 564105115, "landuse": "meadow", "closest_distance_restriction": 3.2741566797984603}, {"id": 4796991270, "lat": 53.5156076, "lon": 14.4329051, "way_id": 564105115, "landuse": "meadow", "closest_distance_restriction": 3.2242249578342568}, {"id": 4796991271, "lat": 53.5145996, "lon": 14.4314567, "way_id": 564105115, "landuse": "meadow", "closest_distance_restriction": 3.2693199389068432}, {"id": 4796991272, "lat": 53.5146251, "lon": 14.433345, "way_id": 564105115, "landuse": "meadow", "closest_distance_restriction": 3.154535710336425}, {"id": 4796991273, "lat": 53.5140191, "lon": 14.4333128, "way_id": 564105115, "landuse": "meadow", "closest_distance_restriction": 3.131524745521936}, {"id": 4796991274, "lat": 53.5140956, "lon": 14.4302336, "way_id": 564105115, "landuse": "meadow", "closest_distance_restriction": 3.3250800762168713}, {"id": 5435738146, "lat": 53.5018465, "lon": 14.4170718, "way_id": 564105115, "landuse": "meadow", "closest_distance_restriction": 3.9035255717049426}, {"id": 5435738147, "lat": 53.5016685, "lon": 14.4184904, "way_id": 564105115, "landuse": "meadow", "closest_distance_restriction": 3.8079820219489027}, {"id": 5435738148, "lat": 53.50141, "lon": 14.4201212, "way_id": 564105115, "landuse": "meadow", "closest_distance_restriction": 3.697459301345323}, {"id": 5435738149, "lat": 53.5010112, "lon": 14.4231628, "way_id": 564105115, "landuse": "meadow", "closest_distance_restriction": 3.492531491673112}, {"id": 5435738150, "lat": 53.5008357, "lon": 14.4242303, "way_id": 564105115, "landuse": "meadow", "closest_distance_restriction": 3.42020781268746}, {"id": 5435738151, "lat": 53.4961966, "lon": 14.4217648, "way_id": 564105115, "landuse": "meadow", "closest_distance_restriction": 3.566075309786422}, {"id": 5435738152, "lat": 53.4965604, "lon": 14.4173874, "way_id": 564105115, "landuse": "meadow", "closest_distance_restriction": 3.8540931471325712}, {"id": 5435738153, "lat": 53.4920706, "lon": 14.4160883, "way_id": 564105115, "landuse": "meadow", "closest_distance_restriction": 3.9751543186519265}, {"id": 5435738154, "lat": 53.4892819, "lon": 14.4153124, "way_id": 564105115, "landuse": "meadow", "closest_distance_restriction": 3.7883346450530024}, {"id": 5435738156, "lat": 53.4837632, "lon": 14.4243778, "way_id": 564105115, "landuse": "meadow", "closest_distance_restriction": 2.9307200176412995}, {"id": 5435738157, "lat": 53.4829092, "lon": 14.4251013, "way_id": 564105115, "landuse": "meadow", "closest_distance_restriction": 2.830858551394078}, {"id": 5435738158, "lat": 53.4841591, "lon": 14.4259209, "way_id": 564105115, "landuse": "meadow", "closest_distance_restriction": 2.8887647788290978}, {"id": 5435738159, "lat": 53.4840201, "lon": 14.4266146, "way_id": 564105115, "landuse": "meadow", "closest_distance_restriction": 2.8456636473864174}, {"id": 5435738160, "lat": 53.4833757, "lon": 14.4261686, "way_id": 564105115, "landuse": "meadow", "closest_distance_restriction": 2.81555623558364}, {"id": 5435738161, "lat": 53.4831398, "lon": 14.4273224, "way_id": 564105115, "landuse": "meadow", "closest_distance_restriction": 2.7429529498032563}, {"id": 5435738162, "lat": 53.482574, "lon": 14.4284077, "way_id": 564105115, "landuse": "meadow", "closest_distance_restriction": 2.64772402861276}, {"id": 5435738163, "lat": 53.4832199, "lon": 14.4289253, "way_id": 564105115, "landuse": "meadow", "closest_distance_restriction": 2.6758559090892438}, {"id": 5435738164, "lat": 53.4828702, "lon": 14.4299344, "way_id": 564105115, "landuse": "meadow", "closest_distance_restriction": 2.6019757064974947}, {"id": 5435738165, "lat": 53.4824431, "lon": 14.4296991, "way_id": 564105115, "landuse": "meadow", "closest_distance_restriction": 2.577855180979595}, {"id": 5435738166, "lat": 53.5134054, "lon": 14.4294467, "way_id": 564105115, "landuse": "meadow", "closest_distance_restriction": 3.348845912168171}, {"id": 5435738167, "lat": 53.5133764, "lon": 14.4302029, "way_id": 564105115, "landuse": "meadow", "closest_distance_restriction": 3.3004346193302565}, {"id": 5435738168, "lat": 53.5133087, "lon": 14.4308533, "way_id": 564105115, "landuse": "meadow", "closest_distance_restriction": 3.2572978707054507}, {"id": 5435738169, "lat": 53.5131491, "lon": 14.4309834, "way_id": 564105115, "landuse": "meadow", "closest_distance_restriction": 3.243451857628758}, {"id": 5435738170, "lat": 53.5129267, "lon": 14.431016, "way_id": 564105115, "landuse": "meadow", "closest_distance_restriction": 3.233597645571365}, {"id": 5435738171, "lat": 53.5129364, "lon": 14.4293003, "way_id": 564105115, "landuse": "meadow", "closest_distance_restriction": 3.3418773391925307}, {"id": 5435738172, "lat": 53.5128832, "lon": 14.4284954, "way_id": 564105115, "landuse": "meadow", "closest_distance_restriction": 3.3908827396579113}, {"id": 5435738173, "lat": 53.512859, "lon": 14.4279262, "way_id": 564105115, "landuse": "meadow", "closest_distance_restriction": 3.426056542893526}, {"id": 5435738174, "lat": 53.5129267, "lon": 14.4275115, "way_id": 564105115, "landuse": "meadow", "closest_distance_restriction": 3.4544796582623625}, {"id": 5435738175, "lat": 53.5128929, "lon": 14.4260317, "way_id": 564105115, "landuse": "meadow", "closest_distance_restriction": 3.5470967823979165}, {"id": 5435738176, "lat": 53.5128881, "lon": 14.4249665, "way_id": 564105115, "landuse": "meadow", "closest_distance_restriction": 3.6145421685573016}, {"id": 5435738177, "lat": 53.5127092, "lon": 14.4243405, "way_id": 564105115, "landuse": "meadow", "closest_distance_restriction": 3.648893352205437}, {"id": 5435738178, "lat": 53.5109347, "lon": 14.418909, "way_id": 564105115, "landuse": "meadow", "closest_distance_restriction": 3.9518244656024435}, {"id": 5435738179, "lat": 53.5107122, "lon": 14.4186163, "way_id": 564105115, "landuse": "meadow", "closest_distance_restriction": 3.9659553366241145}, {"id": 5435738180, "lat": 53.5105527, "lon": 14.4180796, "way_id": 564105115, "landuse": "meadow", "closest_distance_restriction": 3.9974402888477645}, {"id": 5435738181, "lat": 53.5104656, "lon": 14.4175837, "way_id": 564105115, "landuse": "meadow", "closest_distance_restriction": 4.027879862819128}, {"id": 5435738182, "lat": 53.5100914, "lon": 14.4138788, "way_id": 564105115, "landuse": "meadow", "closest_distance_restriction": 4.262003882092459}, {"id": 5435738183, "lat": 53.509972, "lon": 14.4130429, "way_id": 564105115, "landuse": "meadow", "closest_distance_restriction": 4.314434745789722}, {"id": 5435738184, "lat": 53.5090668, "lon": 14.4127088, "way_id": 564105115, "landuse": "meadow", "closest_distance_restriction": 4.321593030791515}, {"id": 5435738185, "lat": 53.5091437, "lon": 14.4113161, "way_id": 564105115, "landuse": "meadow", "closest_distance_restriction": 4.414004260512078}, {"id": 5435738186, "lat": 53.5100782, "lon": 14.4118276, "way_id": 564105115, "landuse": "meadow", "closest_distance_restriction": 4.395653952053277}, {"id": 5435738187, "lat": 53.5101077, "lon": 14.4112967, "way_id": 564105115, "landuse": "meadow", "closest_distance_restriction": 4.430838960947377}, {"id": 5435738188, "lat": 53.5088818, "lon": 14.4065849, "way_id": 564105115, "landuse": "meadow", "closest_distance_restriction": 4.720717860146779}, {"id": 5435738189, "lat": 53.5093777, "lon": 14.4080084, "way_id": 564105115, "landuse": "meadow", "closest_distance_restriction": 4.634249547444226}, {"id": 5443125839, "lat": 53.5165524, "lon": 14.4367292, "way_id": 564105115, "landuse": "meadow", "closest_distance_restriction": 3.0422762890806765}, {"id": 5592826354, "lat": 53.5082052, "lon": 14.4374327, "way_id": 564105115, "landuse": "meadow", "closest_distance_restriction": 2.691510214870012}, {"id": 5691822437, "lat": 53.3964367, "lon": 14.6082484, "way_id": 597926639, "landuse": "meadow", "closest_distance_restriction": 1.7259500071252212}, {"id": 5691822438, "lat": 53.3964808, "lon": 14.6079528, "way_id": 597926639, "landuse": "meadow", "closest_distance_restriction": 1.7431354455464967}, {"id": 5691822439, "lat": 53.3965903, "lon": 14.6076373, "way_id": 597926639, "landuse": "meadow", "closest_distance_restriction": 1.7664832470131522}, {"id": 5691822440, "lat": 53.3966296, "lon": 14.6076053, "way_id": 597926639, "landuse": "meadow", "closest_distance_restriction": 1.7710847453590448}, {"id": 5691822441, "lat": 53.3962723, "lon": 14.607098, "way_id": 597926639, "landuse": "meadow", "closest_distance_restriction": 1.767143548770176}, {"id": 5691822442, "lat": 53.3962164, "lon": 14.6068783, "way_id": 597926639, "landuse": "meadow", "closest_distance_restriction": 1.7734270508436756}, {"id": 5691822443, "lat": 53.3961413, "lon": 14.6064769, "way_id": 597926639, "landuse": "meadow", "closest_distance_restriction": 1.7872424833142306}, {"id": 5691822444, "lat": 53.3961747, "lon": 14.6064369, "way_id": 597926639, "landuse": "meadow", "closest_distance_restriction": 1.7917071874476944}, {"id": 5691822445, "lat": 53.3963319, "lon": 14.6069282, "way_id": 597926639, "landuse": "meadow", "closest_distance_restriction": 1.779861323226714}, {"id": 5691822446, "lat": 53.3965212, "lon": 14.6074236, "way_id": 597926639, "landuse": "meadow", "closest_distance_restriction": 1.7710332830646274}, {"id": 5803121833, "lat": 53.4976992, "lon": 14.4225633, "way_id": 564105115, "landuse": "meadow", "closest_distance_restriction": 3.5103742884997486}, {"id": 5803121834, "lat": 53.5007521, "lon": 14.4241859, "way_id": 564105115, "landuse": "meadow", "closest_distance_restriction": 3.4221324823040757}, {"id": 5803122285, "lat": 53.5016375, "lon": 14.4186859, "way_id": 564105115, "landuse": "meadow", "closest_distance_restriction": 3.7947290828919398}, {"id": 5976585040, "lat": 53.4839541, "lon": 14.4230217, "way_id": 564105115, "landuse": "meadow", "closest_distance_restriction": 3.0107787292754566}, {"id": 5976585042, "lat": 53.4827122, "lon": 14.4270449, "way_id": 564105115, "landuse": "meadow", "closest_distance_restriction": 2.7225100527247346}, {"id": 6589925653, "lat": 53.3998958, "lon": 14.7212272, "way_id": 701703107, "landuse": "meadow", "closest_distance_restriction": 1.8242533820585827}, {"id": 6589925654, "lat": 53.4009574, "lon": 14.7217707, "way_id": 701703107, "landuse": "meadow", "closest_distance_restriction": 1.8151299331948079}, {"id": 6589925655, "lat": 53.4003568, "lon": 14.7207979, "way_id": 312559371, "landuse": "meadow", "closest_distance_restriction": 1.7782951376166245}, {"id": 7041884387, "lat": 53.3967212, "lon": 14.7196696, "way_id": 312559368, "landuse": "meadow", "closest_distance_restriction": 1.6950280675978342}, {"id": 7041884390, "lat": 53.397257, "lon": 14.7198383, "way_id": 312559368, "landuse": "meadow", "closest_distance_restriction": 1.7304196124946747}, {"id": 7041884514, "lat": 53.3957816, "lon": 14.7163515, "way_id": 312559368, "landuse": "meadow", "closest_distance_restriction": 1.6711777715826228}, {"id": 7041884515, "lat": 53.3963833, "lon": 14.717389, "way_id": 312559368, "landuse": "meadow", "closest_distance_restriction": 1.7055472419683493}, {"id": 7044628049, "lat": 53.3970515, "lon": 14.7191371, "way_id": 312559368, "landuse": "meadow", "closest_distance_restriction": 1.7459706198704164}, {"id": 7044628050, "lat": 53.3972017, "lon": 14.7192346, "way_id": 312559368, "landuse": "meadow", "closest_distance_restriction": 1.7534401780275544}, {"id": 7747333422, "lat": 53.4845332, "lon": 14.4370859, "way_id": 564105115, "landuse": "meadow", "closest_distance_restriction": 2.4645438417615906}, {"id": 7747333423, "lat": 53.4835072, "lon": 14.4355935, "way_id": 564105115, "landuse": "meadow", "closest_distance_restriction": 2.4229325698105613}, {"id": 7747333424, "lat": 53.4834314, "lon": 14.4354654, "way_id": 564105115, "landuse": "meadow", "closest_distance_restriction": 2.4208820184182467}, {"id": 7747333425, "lat": 53.4835274, "lon": 14.4353892, "way_id": 564105115, "landuse": "meadow", "closest_distance_restriction": 2.432515466412273}, {"id": 7747333440, "lat": 53.4840167, "lon": 14.4397297, "way_id": 564105115, "landuse": "meadow", "closest_distance_restriction": 2.3201053502460445}, {"id": 7747333443, "lat": 53.4829727, "lon": 14.4344874, "way_id": 564105115, "landuse": "meadow", "closest_distance_restriction": 2.417763929476609}, {"id": 7747333444, "lat": 53.4827834, "lon": 14.4345268, "way_id": 564105115, "landuse": "meadow", "closest_distance_restriction": 2.3994173428179817}, {"id": 7747333445, "lat": 53.4818291, "lon": 14.4329731, "way_id": 564105115, "landuse": "meadow", "closest_distance_restriction": 2.3818049577280846}, {"id": 7747426562, "lat": 53.5019987, "lon": 14.4340201, "way_id": 564105115, "landuse": "meadow", "closest_distance_restriction": 2.79764662414221}, {"id": 7747426563, "lat": 53.5008422, "lon": 14.4330059, "way_id": 564105115, "landuse": "meadow", "closest_distance_restriction": 2.84400779139471}, {"id": 7747426564, "lat": 53.5004234, "lon": 14.4333511, "way_id": 564105115, "landuse": "meadow", "closest_distance_restriction": 2.8156125973262522}, {"id": 7747426565, "lat": 53.5000249, "lon": 14.4337555, "way_id": 564105115, "landuse": "meadow", "closest_distance_restriction": 2.784223798093691}, {"id": 8092255698, "lat": 53.3941658, "lon": 14.7164561, "way_id": 312559368, "landuse": "meadow", "closest_distance_restriction": 1.67867966002525}, {"id": 8092255700, "lat": 53.3948759, "lon": 14.7167404, "way_id": 312559368, "landuse": "meadow", "closest_distance_restriction": 1.708178744186413}, {"id": 8092255701, "lat": 53.3947592, "lon": 14.7172111, "way_id": 312559368, "landuse": "meadow", "closest_distance_restriction": 1.6753218181655978}, {"id": 8092255702, "lat": 53.3947128, "lon": 14.7170073, "way_id": 312559368, "landuse": "meadow", "closest_distance_restriction": 1.6832063262797003}, {"id": 8092255703, "lat": 53.3946088, "lon": 14.7167256, "way_id": 312559368, "landuse": "meadow", "closest_distance_restriction": 1.6916900401635584}, {"id": 8092255704, "lat": 53.3944825, "lon": 14.716507, "way_id": 312559368, "landuse": "meadow", "closest_distance_restriction": 1.6955628402758725}, {"id": 8092255705, "lat": 53.3942994, "lon": 14.716845, "way_id": 312559368, "landuse": "meadow", "closest_distance_restriction": 1.665565653695332}, {"id": 8092255706, "lat": 53.3945065, "lon": 14.7178441, "way_id": 312559368, "landuse": "meadow", "closest_distance_restriction": 1.624861580263334}, {"id": 8092255707, "lat": 53.3932557, "lon": 14.7171494, "way_id": 312559368, "landuse": "meadow", "closest_distance_restriction": 1.585642697113146}]}