[{"type": "node", "id": 277431281, "lat": 52.0315814, "lon": 23.1112, "way_id": 331920619, "landuse": "residential"}, {"type": "node", "id": 369624035, "lat": 52.0055221, "lon": 23.087496, "way_id": 332746851, "landuse": "residential"}, {"type": "node", "id": 369624038, "lat": 52.0051877, "lon": 23.0865769, "way_id": 332746851, "landuse": "residential"}, {"type": "node", "id": 369624040, "lat": 52.0083154, "lon": 23.0731591, "way_id": 332726499, "landuse": "residential"}, {"type": "node", "id": 369624047, "lat": 52.0056181, "lon": 23.088642, "way_id": 332746851, "landuse": "residential"}, {"type": "node", "id": 369624048, "lat": 52.0058947, "lon": 23.0885002, "way_id": 332746851, "landuse": "residential"}, {"type": "node", "id": 369624049, "lat": 52.0051846, "lon": 23.0935493, "way_id": 332746851, "landuse": "residential"}, {"type": "node", "id": 369624050, "lat": 52.0041999, "lon": 23.0910586, "way_id": 332746851, "landuse": "residential"}, {"type": "node", "id": 369624051, "lat": 52.0046487, "lon": 23.0861978, "way_id": 332746851, "landuse": "residential"}, {"type": "node", "id": 369624271, "lat": 52.0063005, "lon": 23.0960791, "way_id": 332746851, "landuse": "residential"}, {"type": "node", "id": 369624272, "lat": 52.006029, "lon": 23.0969417, "way_id": 332746851, "landuse": "residential"}, {"type": "node", "id": 369624291, "lat": 52.0115126, "lon": 23.1067337, "way_id": 332746851, "landuse": "residential"}, {"type": "node", "id": 369624294, "lat": 52.0109629, "lon": 23.1067146, "way_id": 332746851, "landuse": "residential"}, {"type": "node", "id": 369624295, "lat": 52.0053095, "lon": 23.0986143, "way_id": 332746851, "landuse": "residential"}, {"type": "node", "id": 369624297, "lat": 52.0117735, "lon": 23.1074184, "way_id": 332746851, "landuse": "residential"}, {"type": "node", "id": 369624298, "lat": 52.0121777, "lon": 23.1050586, "way_id": 332746851, "landuse": "residential"}, {"type": "node", "id": 369624301, "lat": 52.0119426, "lon": 23.1058719, "way_id": 332746851, "landuse": "residential"}, {"type": "node", "id": 369624302, "lat": 52.006029, "lon": 23.0993332, "way_id": 332746851, "landuse": "residential"}, {"type": "node", "id": 369624304, "lat": 52.005924, "lon": 23.0952868, "way_id": 332746851, "landuse": "residential"}, {"type": "node", "id": 369624305, "lat": 52.0079334, "lon": 23.1011828, "way_id": 332746851, "landuse": "residential"}, {"type": "node", "id": 696370957, "lat": 52.0255811, "lon": 23.130079, "way_id": 55414473, "landuse": "residential"}, {"type": "node", "id": 696370959, "lat": 52.0256537, "lon": 23.1317634, "way_id": 55414473, "landuse": "residential"}, {"type": "node", "id": 696370961, "lat": 52.0244373, "lon": 23.1318064, "way_id": 55414473, "landuse": "residential"}, {"type": "node", "id": 696370963, "lat": 52.0241217, "lon": 23.130242, "way_id": 55414473, "landuse": "residential"}, {"type": "node", "id": 696370965, "lat": 52.0241663, "lon": 23.1343869, "way_id": 55414474, "landuse": "residential"}, {"type": "node", "id": 696370967, "lat": 52.0237722, "lon": 23.1344242, "way_id": 55414474, "landuse": "residential"}, {"type": "node", "id": 696370968, "lat": 52.0238316, "lon": 23.1364841, "way_id": 55414474, "landuse": "residential"}, {"type": "node", "id": 696370969, "lat": 52.024213, "lon": 23.1364305, "way_id": 55414474, "landuse": "residential"}, {"type": "node", "id": 1380343204, "lat": 52.0240554, "lon": 23.112412, "way_id": 332723235, "landuse": "residential"}, {"type": "node", "id": 1380343385, "lat": 52.044091, "lon": 23.1315459, "way_id": 332372981, "landuse": "residential"}, {"type": "node", "id": 1380343638, "lat": 52.04477, "lon": 23.12871, "way_id": 332373592, "landuse": "meadow"}, {"type": "node", "id": 1380344933, "lat": 52.04533, "lon": 23.12661, "way_id": 332372981, "landuse": "residential"}, {"type": "node", "id": 1380345641, "lat": 52.0445125, "lon": 23.1296816, "way_id": 332372981, "landuse": "residential"}, {"type": "node", "id": 1380345883, "lat": 52.0239557, "lon": 23.1120493, "way_id": 332723235, "landuse": "residential"}, {"type": "node", "id": 1380346188, "lat": 52.0236328, "lon": 23.1122695, "way_id": 332723235, "landuse": "residential"}, {"type": "node", "id": 1380346208, "lat": 52.0427944, "lon": 23.1006997, "way_id": 332390739, "landuse": "residential"}, {"type": "node", "id": 1380530650, "lat": 52.0431796, "lon": 23.0997265, "way_id": 332390739, "landuse": "residential"}, {"type": "node", "id": 1464789507, "lat": 52.0053887, "lon": 23.0871441, "way_id": 332746851, "landuse": "residential"}, {"type": "node", "id": 2276781210, "lat": 52.0420884, "lon": 23.1212695, "way_id": 779912704, "landuse": "residential"}, {"type": "node", "id": 2490769140, "lat": 52.0498, "lon": 23.1052999, "way_id": 241437561, "landuse": "residential"}, {"type": "node", "id": 2490769148, "lat": 52.0503045, "lon": 23.1081249, "way_id": 241437561, "landuse": "residential"}, {"type": "node", "id": 2490769163, "lat": 52.0508488, "lon": 23.1078679, "way_id": 241437561, "landuse": "residential"}, {"type": "node", "id": 2490769164, "lat": 52.0509358, "lon": 23.1083546, "way_id": 241437561, "landuse": "residential"}, {"type": "node", "id": 2490769166, "lat": 52.0510128, "lon": 23.1075455, "way_id": 241437561, "landuse": "residential"}, {"type": "node", "id": 2490769168, "lat": 52.05114, "lon": 23.1082582, "way_id": 241437561, "landuse": "residential"}, {"type": "node", "id": 2490769170, "lat": 52.0506178, "lon": 23.1049137, "way_id": 241437561, "landuse": "residential"}, {"type": "node", "id": 2490769172, "lat": 52.0511959, "lon": 23.1050727, "way_id": 241437561, "landuse": "residential"}, {"type": "node", "id": 2490769173, "lat": 52.050689, "lon": 23.1053121, "way_id": 241437561, "landuse": "residential"}, {"type": "node", "id": 2490769175, "lat": 52.0513623, "lon": 23.1073805, "way_id": 241437561, "landuse": "residential"}, {"type": "node", "id": 2943666992, "lat": 52.0509813, "lon": 23.1204404, "way_id": 290858484, "landuse": "meadow"}, {"type": "node", "id": 2943666994, "lat": 52.0514563, "lon": 23.1205987, "way_id": 290858484, "landuse": "meadow"}, {"type": "node", "id": 2943666995, "lat": 52.0514975, "lon": 23.1205343, "way_id": 290858484, "landuse": "meadow"}, {"type": "node", "id": 2943666997, "lat": 52.0509813, "lon": 23.120258, "way_id": 290858484, "landuse": "meadow"}, {"type": "node", "id": 2943667002, "lat": 52.0515041, "lon": 23.1204647, "way_id": 290858484, "landuse": "meadow"}, {"type": "node", "id": 2943667006, "lat": 52.0514167, "lon": 23.1203465, "way_id": 290858484, "landuse": "meadow"}, {"type": "node", "id": 2943667007, "lat": 52.0509648, "lon": 23.1203036, "way_id": 290858484, "landuse": "meadow"}, {"type": "node", "id": 2943667008, "lat": 52.0510307, "lon": 23.1202419, "way_id": 290858484, "landuse": "meadow"}, {"type": "node", "id": 2943667009, "lat": 52.0510093, "lon": 23.120486, "way_id": 290858484, "landuse": "meadow"}, {"type": "node", "id": 2943667015, "lat": 52.0514761, "lon": 23.1203868, "way_id": 290858484, "landuse": "meadow"}, {"type": "node", "id": 2943667030, "lat": 52.0514299, "lon": 23.1206067, "way_id": 290858484, "landuse": "meadow"}, {"type": "node", "id": 2943749068, "lat": 52.0508443, "lon": 23.1199763, "way_id": 388226291, "landuse": "residential"}, {"type": "node", "id": 2943749077, "lat": 52.0508707, "lon": 23.1209528, "way_id": 388226291, "landuse": "residential"}, {"type": "node", "id": 3033445919, "lat": 52.0403241, "lon": 23.1387268, "way_id": 332389585, "landuse": "residential"}, {"type": "node", "id": 3240189916, "lat": 52.0220396, "lon": 23.0959537, "way_id": 332723236, "landuse": "residential"}, {"type": "node", "id": 3366951438, "lat": 52.0344202, "lon": 23.0948723, "way_id": 331920624, "landuse": "residential"}, {"type": "node", "id": 3366951439, "lat": 52.0346663, "lon": 23.0934767, "way_id": 331920624, "landuse": "residential"}, {"type": "node", "id": 3366951441, "lat": 52.0363799, "lon": 23.1019382, "way_id": 331920624, "landuse": "residential"}, {"type": "node", "id": 3366951479, "lat": 52.037088, "lon": 23.0975786, "way_id": 331920624, "landuse": "residential"}, {"type": "node", "id": 3366951489, "lat": 52.0371811, "lon": 23.1022702, "way_id": 331920624, "landuse": "residential"}, {"type": "node", "id": 3366951604, "lat": 52.0374924, "lon": 23.097303, "way_id": 331920624, "landuse": "residential"}, {"type": "node", "id": 3366951607, "lat": 52.037664, "lon": 23.0963666, "way_id": 331920624, "landuse": "residential"}, {"type": "node", "id": 3366951611, "lat": 52.0378499, "lon": 23.0974458, "way_id": 331920624, "landuse": "residential"}, {"type": "node", "id": 3366951614, "lat": 52.0378826, "lon": 23.0979173, "way_id": 331920624, "landuse": "residential"}, {"type": "node", "id": 3390223548, "lat": 52.0273586, "lon": 23.0993752, "way_id": 331920619, "landuse": "residential"}, {"type": "node", "id": 3390223551, "lat": 52.0277594, "lon": 23.0959053, "way_id": 331920619, "landuse": "residential"}, {"type": "node", "id": 3390223555, "lat": 52.0283566, "lon": 23.0961313, "way_id": 331920619, "landuse": "residential"}, {"type": "node", "id": 3390223558, "lat": 52.0285202, "lon": 23.0943897, "way_id": 331920619, "landuse": "residential"}, {"type": "node", "id": 3390223567, "lat": 52.0290437, "lon": 23.1114603, "way_id": 331920619, "landuse": "residential"}, {"type": "node", "id": 3390223577, "lat": 52.0295917, "lon": 23.0937249, "way_id": 331920619, "landuse": "residential"}, {"type": "node", "id": 3390223580, "lat": 52.0299107, "lon": 23.0911856, "way_id": 331920619, "landuse": "residential"}, {"type": "node", "id": 3390223585, "lat": 52.0303279, "lon": 23.0950943, "way_id": 331920619, "landuse": "residential"}, {"type": "node", "id": 3390223586, "lat": 52.0304342, "lon": 23.0941769, "way_id": 331920619, "landuse": "residential"}, {"type": "node", "id": 3390223588, "lat": 52.0305815, "lon": 23.1106892, "way_id": 331920619, "landuse": "residential"}, {"type": "node", "id": 3390223589, "lat": 52.0307825, "lon": 23.1116628, "way_id": 331920619, "landuse": "residential"}, {"type": "node", "id": 3390224395, "lat": 52.0315712, "lon": 23.0918902, "way_id": 331920619, "landuse": "residential"}, {"type": "node", "id": 3390224398, "lat": 52.0317593, "lon": 23.0906538, "way_id": 331920619, "landuse": "residential"}, {"type": "node", "id": 3390224406, "lat": 52.0321434, "lon": 23.1015186, "way_id": 331920624, "landuse": "residential"}, {"type": "node", "id": 3390224407, "lat": 52.0323564, "lon": 23.0908931, "way_id": 331920619, "landuse": "residential"}, {"type": "node", "id": 3390224415, "lat": 52.0326431, "lon": 23.0898472, "way_id": 331920624, "landuse": "residential"}, {"type": "node", "id": 3390224424, "lat": 52.0341931, "lon": 23.0912386, "way_id": 331920624, "landuse": "residential"}, {"type": "node", "id": 3390224425, "lat": 52.0342856, "lon": 23.0905805, "way_id": 331920624, "landuse": "residential"}, {"type": "node", "id": 3390224426, "lat": 52.0349796, "lon": 23.091577, "way_id": 331920624, "landuse": "residential"}, {"type": "node", "id": 3390224427, "lat": 52.0369608, "lon": 23.1035304, "way_id": 331920624, "landuse": "residential"}, {"type": "node", "id": 3390224428, "lat": 52.0379613, "lon": 23.0974856, "way_id": 331920624, "landuse": "residential"}, {"type": "node", "id": 3393064773, "lat": 52.039174, "lon": 23.1205757, "way_id": 779912704, "landuse": "residential"}, {"type": "node", "id": 3393064811, "lat": 52.0393209, "lon": 23.1206697, "way_id": 779912704, "landuse": "residential"}, {"type": "node", "id": 3393064882, "lat": 52.0397187, "lon": 23.1202969, "way_id": 779912704, "landuse": "residential"}, {"type": "node", "id": 3393065180, "lat": 52.0406411, "lon": 23.1199628, "way_id": 779912704, "landuse": "residential"}, {"type": "node", "id": 3394915032, "lat": 52.0394385, "lon": 23.1308066, "way_id": 332372980, "landuse": "residential"}, {"type": "node", "id": 3394915033, "lat": 52.0397246, "lon": 23.1300381, "way_id": 332372980, "landuse": "residential"}, {"type": "node", "id": 3394915034, "lat": 52.040019, "lon": 23.1290405, "way_id": 332372980, "landuse": "residential"}, {"type": "node", "id": 3394915035, "lat": 52.0410887, "lon": 23.1252724, "way_id": 332372980, "landuse": "residential"}, {"type": "node", "id": 3394915036, "lat": 52.0415821, "lon": 23.1257173, "way_id": 332373592, "landuse": "meadow"}, {"type": "node", "id": 3394915037, "lat": 52.0416899, "lon": 23.1231827, "way_id": 332373592, "landuse": "meadow"}, {"type": "node", "id": 3394915038, "lat": 52.0419221, "lon": 23.1223266, "way_id": 452034362, "landuse": "residential"}, {"type": "node", "id": 3394915039, "lat": 52.0420158, "lon": 23.1332072, "way_id": 332372980, "landuse": "residential"}, {"type": "node", "id": 3394915040, "lat": 52.0422082, "lon": 23.123567, "way_id": 332373592, "landuse": "meadow"}, {"type": "node", "id": 3394915041, "lat": 52.0422828, "lon": 23.1263172, "way_id": 332373592, "landuse": "meadow"}, {"type": "node", "id": 3394915042, "lat": 52.042403, "lon": 23.1259532, "way_id": 332373592, "landuse": "meadow"}, {"type": "node", "id": 3394915043, "lat": 52.042515, "lon": 23.1202977, "way_id": 452034362, "landuse": "residential"}, {"type": "node", "id": 3394915044, "lat": 52.0424081, "lon": 23.1335873, "way_id": 332372980, "landuse": "residential"}, {"type": "node", "id": 3394915045, "lat": 52.0426186, "lon": 23.1201494, "way_id": 452034362, "landuse": "residential"}, {"type": "node", "id": 3394915046, "lat": 52.042884, "lon": 23.1263577, "way_id": 332373592, "landuse": "meadow"}, {"type": "node", "id": 3394915047, "lat": 52.0429255, "lon": 23.1196033, "way_id": 332373145, "landuse": "meadow"}, {"type": "node", "id": 3394915048, "lat": 52.0430333, "lon": 23.1259195, "way_id": 332373592, "landuse": "meadow"}, {"type": "node", "id": 3394915049, "lat": 52.043763, "lon": 23.1186057, "way_id": 332372982, "landuse": "residential"}, {"type": "node", "id": 3394915050, "lat": 52.0438418, "lon": 23.1279012, "way_id": 332373592, "landuse": "meadow"}, {"type": "node", "id": 3394915051, "lat": 52.0438873, "lon": 23.1223064, "way_id": 452034362, "landuse": "residential"}, {"type": "node", "id": 3394915052, "lat": 52.0439703, "lon": 23.1180327, "way_id": 332372982, "landuse": "residential"}, {"type": "node", "id": 3394915053, "lat": 52.0441361, "lon": 23.1269037, "way_id": 332373592, "landuse": "meadow"}, {"type": "node", "id": 3394915054, "lat": 52.0441734, "lon": 23.1206819, "way_id": 332373145, "landuse": "meadow"}, {"type": "node", "id": 3394915055, "lat": 52.0442024, "lon": 23.1214436, "way_id": 452034362, "landuse": "residential"}, {"type": "node", "id": 3394915056, "lat": 52.0446479, "lon": 23.11919, "way_id": 332373145, "landuse": "meadow"}, {"type": "node", "id": 3394915057, "lat": 52.044617, "lon": 23.1276249, "way_id": 332373592, "landuse": "meadow"}, {"type": "node", "id": 3394915058, "lat": 52.0448451, "lon": 23.1269441, "way_id": 332373592, "landuse": "meadow"}, {"type": "node", "id": 3394915059, "lat": 52.0449694, "lon": 23.1233175, "way_id": 452034362, "landuse": "residential"}, {"type": "node", "id": 3394915060, "lat": 52.0449738, "lon": 23.1279459, "way_id": 332373592, "landuse": "meadow"}, {"type": "node", "id": 3394915061, "lat": 52.04517, "lon": 23.1272101, "way_id": 332373592, "landuse": "meadow"}, {"type": "node", "id": 3394915062, "lat": 52.0452987, "lon": 23.1272505, "way_id": 332372981, "landuse": "residential"}, {"type": "node", "id": 3394915063, "lat": 52.045326, "lon": 23.1223806, "way_id": 452034362, "landuse": "residential"}, {"type": "node", "id": 3394915064, "lat": 52.0453925, "lon": 23.1311495, "way_id": 332372981, "landuse": "residential"}, {"type": "node", "id": 3394915065, "lat": 52.045457, "lon": 23.1266976, "way_id": 332372981, "landuse": "residential"}, {"type": "node", "id": 3394915066, "lat": 52.0455125, "lon": 23.1199876, "way_id": 332373145, "landuse": "meadow"}, {"type": "node", "id": 3394915067, "lat": 52.0456127, "lon": 23.1255006, "way_id": 452034362, "landuse": "residential"}, {"type": "node", "id": 3394915068, "lat": 52.0456211, "lon": 23.129567, "way_id": 332372981, "landuse": "residential"}, {"type": "node", "id": 3394915069, "lat": 52.0456798, "lon": 23.1256967, "way_id": 332372981, "landuse": "residential"}, {"type": "node", "id": 3394915070, "lat": 52.0458381, "lon": 23.1297196, "way_id": 332372981, "landuse": "residential"}, {"type": "node", "id": 3394915071, "lat": 52.0458442, "lon": 23.1184776, "way_id": 332373145, "landuse": "meadow"}, {"type": "node", "id": 3394915072, "lat": 52.0458498, "lon": 23.1250579, "way_id": 388226292, "landuse": "residential"}, {"type": "node", "id": 3394915073, "lat": 52.0460315, "lon": 23.1242476, "way_id": 388226292, "landuse": "residential"}, {"type": "node", "id": 3394915074, "lat": 52.0460609, "lon": 23.1271552, "way_id": 332372981, "landuse": "residential"}, {"type": "node", "id": 3394915075, "lat": 52.0461136, "lon": 23.1279464, "way_id": 332372981, "landuse": "residential"}, {"type": "node", "id": 3394915076, "lat": 52.0462066, "lon": 23.1231305, "way_id": 332373145, "landuse": "meadow"}, {"type": "node", "id": 3394915078, "lat": 52.0463188, "lon": 23.12624, "way_id": 332372981, "landuse": "residential"}, {"type": "node", "id": 3394915079, "lat": 52.0465299, "lon": 23.1256299, "way_id": 388226292, "landuse": "residential"}, {"type": "node", "id": 3394915080, "lat": 52.0467586, "lon": 23.1248864, "way_id": 388226292, "landuse": "residential"}, {"type": "node", "id": 3394915082, "lat": 52.0475149, "lon": 23.1337615, "way_id": 332372981, "landuse": "residential"}, {"type": "node", "id": 3394915083, "lat": 52.0476849, "lon": 23.1332277, "way_id": 332372981, "landuse": "residential"}, {"type": "node", "id": 3394915084, "lat": 52.0483063, "lon": 23.1229035, "way_id": 388226291, "landuse": "residential"}, {"type": "node", "id": 3394915085, "lat": 52.0486137, "lon": 23.119754, "way_id": 388226293, "landuse": "meadow"}, {"type": "node", "id": 3394915086, "lat": 52.0483937, "lon": 23.1191827, "way_id": 388226293, "landuse": "meadow"}, {"type": "node", "id": 3394915088, "lat": 52.0494748, "lon": 23.1198302, "way_id": 388226293, "landuse": "meadow"}, {"type": "node", "id": 3394915089, "lat": 52.05003, "lon": 23.1406062, "way_id": 332372981, "landuse": "residential"}, {"type": "node", "id": 3394915090, "lat": 52.0503934, "lon": 23.1222267, "way_id": 388226291, "landuse": "residential"}, {"type": "node", "id": 3394915091, "lat": 52.051009, "lon": 23.1369646, "way_id": 332372981, "landuse": "residential"}, {"type": "node", "id": 3394915092, "lat": 52.0511438, "lon": 23.1255155, "way_id": 388226291, "landuse": "residential"}, {"type": "node", "id": 3394915393, "lat": 52.0517301, "lon": 23.1234087, "way_id": 388226291, "landuse": "residential"}, {"type": "node", "id": 3394915628, "lat": 52.0493594, "lon": 23.1213361, "way_id": 388226293, "landuse": "meadow"}, {"type": "node", "id": 3395089820, "lat": 52.0499887, "lon": 23.1408962, "way_id": 779927525, "landuse": "residential"}, {"type": "node", "id": 3395089821, "lat": 52.0408309, "lon": 23.1374262, "way_id": 332389585, "landuse": "residential"}, {"type": "node", "id": 3395089822, "lat": 52.0539351, "lon": 23.1395347, "way_id": 332389586, "landuse": "residential"}, {"type": "node", "id": 3395089823, "lat": 52.0448401, "lon": 23.1408536, "way_id": 779927525, "landuse": "residential"}, {"type": "node", "id": 3395089824, "lat": 52.0509876, "lon": 23.1426697, "way_id": 332389586, "landuse": "residential"}, {"type": "node", "id": 3395089826, "lat": 52.0421138, "lon": 23.1334954, "way_id": 332389585, "landuse": "residential"}, {"type": "node", "id": 3395089827, "lat": 52.0541132, "lon": 23.1344927, "way_id": 332389586, "landuse": "residential"}, {"type": "node", "id": 3395089829, "lat": 52.0538494, "lon": 23.1430859, "way_id": 332389586, "landuse": "residential"}, {"type": "node", "id": 3395089830, "lat": 52.0555844, "lon": 23.1380219, "way_id": 332389586, "landuse": "residential"}, {"type": "node", "id": 3395089831, "lat": 52.0473059, "lon": 23.1488065, "way_id": 332389586, "landuse": "residential"}, {"type": "node", "id": 3395089832, "lat": 52.0548208, "lon": 23.1438713, "way_id": 332389586, "landuse": "residential"}, {"type": "node", "id": 3395089833, "lat": 52.0560066, "lon": 23.136735, "way_id": 332389586, "landuse": "residential"}, {"type": "node", "id": 3395089834, "lat": 52.055215, "lon": 23.1391592, "way_id": 332389586, "landuse": "residential"}, {"type": "node", "id": 3395089835, "lat": 52.0460958, "lon": 23.1372133, "way_id": 779927525, "landuse": "residential"}, {"type": "node", "id": 3395089836, "lat": 52.0494556, "lon": 23.143558, "way_id": 332389586, "landuse": "residential"}, {"type": "node", "id": 3395089837, "lat": 52.0522594, "lon": 23.1399424, "way_id": 332389586, "landuse": "residential"}, {"type": "node", "id": 3395089839, "lat": 52.0485187, "lon": 23.1495554, "way_id": 332389586, "landuse": "residential"}, {"type": "node", "id": 3395089840, "lat": 52.0536531, "lon": 23.1406419, "way_id": 332389586, "landuse": "residential"}, {"type": "node", "id": 3395089841, "lat": 52.0417784, "lon": 23.1344358, "way_id": 332389585, "landuse": "residential"}, {"type": "node", "id": 3395089843, "lat": 52.0543837, "lon": 23.1450171, "way_id": 332389586, "landuse": "residential"}, {"type": "node", "id": 3395089844, "lat": 52.0490003, "lon": 23.1448133, "way_id": 332389586, "landuse": "residential"}, {"type": "node", "id": 3395089845, "lat": 52.0526041, "lon": 23.1391077, "way_id": 332389586, "landuse": "residential"}, {"type": "node", "id": 3395089846, "lat": 52.0536069, "lon": 23.1458454, "way_id": 332389586, "landuse": "residential"}, {"type": "node", "id": 3395089847, "lat": 52.0439833, "lon": 23.1420469, "way_id": 332389585, "landuse": "residential"}, {"type": "node", "id": 3395089848, "lat": 52.0478734, "lon": 23.1493108, "way_id": 332389586, "landuse": "residential"}, {"type": "node", "id": 3395089849, "lat": 52.0528201, "lon": 23.1451137, "way_id": 332389586, "landuse": "residential"}, {"type": "node", "id": 3395089851, "lat": 52.050509, "lon": 23.140974, "way_id": 332389586, "landuse": "residential"}, {"type": "node", "id": 3395089852, "lat": 52.0517118, "lon": 23.1394381, "way_id": 332389586, "landuse": "residential"}, {"type": "node", "id": 3395089853, "lat": 52.053376, "lon": 23.1441073, "way_id": 332389586, "landuse": "residential"}, {"type": "node", "id": 3395089854, "lat": 52.0531104, "lon": 23.1377001, "way_id": 332389586, "landuse": "residential"}, {"type": "node", "id": 3395089855, "lat": 52.0542732, "lon": 23.1382601, "way_id": 332389586, "landuse": "residential"}, {"type": "node", "id": 3395089856, "lat": 52.0535277, "lon": 23.1398802, "way_id": 332389586, "landuse": "residential"}, {"type": "node", "id": 3395089857, "lat": 52.0544893, "lon": 23.1413157, "way_id": 332389586, "landuse": "residential"}, {"type": "node", "id": 3395089858, "lat": 52.051588, "lon": 23.1419508, "way_id": 332389586, "landuse": "residential"}, {"type": "node", "id": 3395089859, "lat": 52.0531302, "lon": 23.1424422, "way_id": 332389586, "landuse": "residential"}, {"type": "node", "id": 3395089860, "lat": 52.0491175, "lon": 23.1432334, "way_id": 779927525, "landuse": "residential"}, {"type": "node", "id": 3395089861, "lat": 52.0462216, "lon": 23.1410183, "way_id": 779927525, "landuse": "residential"}, {"type": "node", "id": 3395089862, "lat": 52.0533298, "lon": 23.140599, "way_id": 332389586, "landuse": "residential"}, {"type": "node", "id": 3395089863, "lat": 52.0528729, "lon": 23.1402428, "way_id": 332389586, "landuse": "residential"}, {"type": "node", "id": 3395089864, "lat": 52.0545681, "lon": 23.1372162, "way_id": 332389586, "landuse": "residential"}, {"type": "node", "id": 3395089865, "lat": 52.0483748, "lon": 23.1502013, "way_id": 332389586, "landuse": "residential"}, {"type": "node", "id": 3395089866, "lat": 52.0523913, "lon": 23.1418736, "way_id": 332389586, "landuse": "residential"}, {"type": "node", "id": 3395089867, "lat": 52.0487047, "lon": 23.1478302, "way_id": 332389586, "landuse": "residential"}, {"type": "node", "id": 3395089868, "lat": 52.0459865, "lon": 23.1418592, "way_id": 779927525, "landuse": "residential"}, {"type": "node", "id": 3395089869, "lat": 52.0538576, "lon": 23.1451266, "way_id": 332389586, "landuse": "residential"}, {"type": "node", "id": 3395089870, "lat": 52.0489542, "lon": 23.1499524, "way_id": 332389586, "landuse": "residential"}, {"type": "node", "id": 3395089871, "lat": 52.0477348, "lon": 23.1496541, "way_id": 332389586, "landuse": "residential"}, {"type": "node", "id": 3395089872, "lat": 52.0479248, "lon": 23.1472273, "way_id": 332389586, "landuse": "residential"}, {"type": "node", "id": 3395089875, "lat": 52.0537586, "lon": 23.1440108, "way_id": 332389586, "landuse": "residential"}, {"type": "node", "id": 3395089876, "lat": 52.0549379, "lon": 23.1358981, "way_id": 332389586, "landuse": "residential"}, {"type": "node", "id": 3395089877, "lat": 52.0549115, "lon": 23.1401891, "way_id": 332389586, "landuse": "residential"}, {"type": "node", "id": 3395089878, "lat": 52.0540737, "lon": 23.1432039, "way_id": 332389586, "landuse": "residential"}, {"type": "node", "id": 3395089879, "lat": 52.0471528, "lon": 23.1382351, "way_id": 779927525, "landuse": "residential"}, {"type": "node", "id": 3395089880, "lat": 52.0441634, "lon": 23.1400048, "way_id": 332389585, "landuse": "residential"}, {"type": "node", "id": 3395089881, "lat": 52.049866, "lon": 23.1438069, "way_id": 332389586, "landuse": "residential"}, {"type": "node", "id": 3395089882, "lat": 52.051819, "lon": 23.1413071, "way_id": 332389586, "landuse": "residential"}, {"type": "node", "id": 3395089883, "lat": 52.0494701, "lon": 23.1451695, "way_id": 332389586, "landuse": "residential"}, {"type": "node", "id": 3395089884, "lat": 52.052901, "lon": 23.1433027, "way_id": 332389586, "landuse": "residential"}, {"type": "node", "id": 3395089886, "lat": 52.0551358, "lon": 23.1353832, "way_id": 332389586, "landuse": "residential"}, {"type": "node", "id": 3395089887, "lat": 52.0445669, "lon": 23.1400883, "way_id": 332389585, "landuse": "residential"}, {"type": "node", "id": 3395089888, "lat": 52.0526024, "lon": 23.1372494, "way_id": 332389586, "landuse": "residential"}, {"type": "node", "id": 3395089889, "lat": 52.0529917, "lon": 23.1445451, "way_id": 332389586, "landuse": "residential"}, {"type": "node", "id": 3395089891, "lat": 52.0532308, "lon": 23.1445365, "way_id": 332389586, "landuse": "residential"}, {"type": "node", "id": 3395098987, "lat": 52.0388052, "lon": 23.0872539, "way_id": 627150003, "landuse": "residential"}, {"type": "node", "id": 3395098988, "lat": 52.0389324, "lon": 23.0889505, "way_id": 627150004, "landuse": "residential"}, {"type": "node", "id": 3395098990, "lat": 52.0427968, "lon": 23.0994116, "way_id": 332390739, "landuse": "residential"}, {"type": "node", "id": 3395098991, "lat": 52.0386686, "lon": 23.0879713, "way_id": 627150003, "landuse": "residential"}, {"type": "node", "id": 3395098992, "lat": 52.0379329, "lon": 23.0876152, "way_id": 627150003, "landuse": "residential"}, {"type": "node", "id": 3395101693, "lat": 52.0374348, "lon": 23.0946783, "way_id": 332390738, "landuse": "residential"}, {"type": "node", "id": 3395101694, "lat": 52.0391067, "lon": 23.0874022, "way_id": 627150003, "landuse": "residential"}, {"type": "node", "id": 3395101695, "lat": 52.0427265, "lon": 23.1006176, "way_id": 332390739, "landuse": "residential"}, {"type": "node", "id": 3395101697, "lat": 52.0378724, "lon": 23.0879622, "way_id": 627150003, "landuse": "residential"}, {"type": "node", "id": 3395101698, "lat": 52.0380968, "lon": 23.0940555, "way_id": 332390738, "landuse": "residential"}, {"type": "node", "id": 3395101699, "lat": 52.037567, "lon": 23.0878408, "way_id": 627150003, "landuse": "residential"}, {"type": "node", "id": 3395101700, "lat": 52.0434939, "lon": 23.0965016, "way_id": 332390739, "landuse": "residential"}, {"type": "node", "id": 3395101701, "lat": 52.0382641, "lon": 23.0900863, "way_id": 627150004, "landuse": "residential"}, {"type": "node", "id": 3395101703, "lat": 52.0379956, "lon": 23.0904564, "way_id": 627150002, "landuse": "residential"}, {"type": "node", "id": 3395101704, "lat": 52.0384027, "lon": 23.0878332, "way_id": 627150003, "landuse": "residential"}, {"type": "node", "id": 3395101705, "lat": 52.0377393, "lon": 23.0928823, "way_id": 332390738, "landuse": "residential"}, {"type": "node", "id": 3395101706, "lat": 52.0382565, "lon": 23.093114, "way_id": 332390738, "landuse": "residential"}, {"type": "node", "id": 3395101707, "lat": 52.038663, "lon": 23.0902817, "way_id": 627150004, "landuse": "residential"}, {"type": "node", "id": 3395101708, "lat": 52.0375033, "lon": 23.0902038, "way_id": 627150002, "landuse": "residential"}, {"type": "node", "id": 3395101709, "lat": 52.0380923, "lon": 23.0886062, "way_id": 627150002, "landuse": "residential"}, {"type": "node", "id": 3395101710, "lat": 52.0381999, "lon": 23.0950211, "way_id": 332390738, "landuse": "residential"}, {"type": "node", "id": 3395101712, "lat": 52.0382095, "lon": 23.0905542, "way_id": 627150004, "landuse": "residential"}, {"type": "node", "id": 3395101713, "lat": 52.04289, "lon": 23.0982182, "way_id": 332390739, "landuse": "residential"}, {"type": "node", "id": 3395101714, "lat": 52.0383448, "lon": 23.0941666, "way_id": 332390738, "landuse": "residential"}, {"type": "node", "id": 3395101716, "lat": 52.0431304, "lon": 23.0984237, "way_id": 332390739, "landuse": "residential"}, {"type": "node", "id": 3395139766, "lat": 52.035905, "lon": 23.1357569, "way_id": 332394240, "landuse": "residential"}, {"type": "node", "id": 3395139767, "lat": 52.0363151, "lon": 23.138496, "way_id": 332394240, "landuse": "residential"}, {"type": "node", "id": 3395139776, "lat": 52.039386, "lon": 23.1390845, "way_id": 332393258, "landuse": "residential"}, {"type": "node", "id": 3395139790, "lat": 52.0390428, "lon": 23.1400823, "way_id": 332393258, "landuse": "residential"}, {"type": "node", "id": 3395140808, "lat": 52.0360167, "lon": 23.1386178, "way_id": 332394240, "landuse": "residential"}, {"type": "node", "id": 3395143637, "lat": 52.0331094, "lon": 23.1358229, "way_id": 779920918, "landuse": "residential"}, {"type": "node", "id": 3395143643, "lat": 52.0352875, "lon": 23.1389987, "way_id": 332394240, "landuse": "residential"}, {"type": "node", "id": 3395143648, "lat": 52.0357795, "lon": 23.1351439, "way_id": 332394240, "landuse": "residential"}, {"type": "node", "id": 3395143650, "lat": 52.0328454, "lon": 23.1358766, "way_id": 779920918, "landuse": "residential"}, {"type": "node", "id": 3395143651, "lat": 52.0360313, "lon": 23.1387978, "way_id": 332394240, "landuse": "residential"}, {"type": "node", "id": 3395143656, "lat": 52.0356011, "lon": 23.1352167, "way_id": 332394240, "landuse": "residential"}, {"type": "node", "id": 3395143658, "lat": 52.0347603, "lon": 23.1354266, "way_id": 779920918, "landuse": "residential"}, {"type": "node", "id": 3395143660, "lat": 52.0338355, "lon": 23.1356727, "way_id": 779920918, "landuse": "residential"}, {"type": "node", "id": 3395143661, "lat": 52.032555, "lon": 23.1360375, "way_id": 779920918, "landuse": "residential"}, {"type": "node", "id": 3395143662, "lat": 52.0351687, "lon": 23.1381296, "way_id": 332394240, "landuse": "residential"}, {"type": "node", "id": 3395143664, "lat": 52.0355911, "lon": 23.1380331, "way_id": 332394240, "landuse": "residential"}, {"type": "node", "id": 3395143668, "lat": 52.0330282, "lon": 23.1383243, "way_id": 779920918, "landuse": "residential"}, {"type": "node", "id": 3395143669, "lat": 52.0349377, "lon": 23.1376897, "way_id": 779920918, "landuse": "residential"}, {"type": "node", "id": 3397964634, "lat": 52.0209011, "lon": 23.1745246, "way_id": 332701895, "landuse": "residential"}, {"type": "node", "id": 3397964640, "lat": 52.0214561, "lon": 23.172755, "way_id": 332701895, "landuse": "residential"}, {"type": "node", "id": 3397964645, "lat": 52.0215496, "lon": 23.1729658, "way_id": 332701895, "landuse": "residential"}, {"type": "node", "id": 3397964668, "lat": 52.0219297, "lon": 23.1714952, "way_id": 332701895, "landuse": "residential"}, {"type": "node", "id": 3397964677, "lat": 52.0220172, "lon": 23.1715688, "way_id": 332701895, "landuse": "residential"}, {"type": "node", "id": 3397972403, "lat": 52.0228618, "lon": 23.1694413, "way_id": 332701895, "landuse": "residential"}, {"type": "node", "id": 3397972410, "lat": 52.0230156, "lon": 23.1688482, "way_id": 332701895, "landuse": "residential"}, {"type": "node", "id": 3397972474, "lat": 52.0238904, "lon": 23.1694217, "way_id": 332701895, "landuse": "residential"}, {"type": "node", "id": 3397972481, "lat": 52.0239748, "lon": 23.1677354, "way_id": 332701895, "landuse": "residential"}, {"type": "node", "id": 3398420912, "lat": 52.016069, "lon": 23.1816482, "way_id": 332701895, "landuse": "residential"}, {"type": "node", "id": 3398420913, "lat": 52.0161622, "lon": 23.1827219, "way_id": 332701895, "landuse": "residential"}, {"type": "node", "id": 3398420914, "lat": 52.01623, "lon": 23.1856404, "way_id": 332701895, "landuse": "residential"}, {"type": "node", "id": 3398420915, "lat": 52.0162977, "lon": 23.1891645, "way_id": 332701895, "landuse": "residential"}, {"type": "node", "id": 3398420916, "lat": 52.0164164, "lon": 23.1824191, "way_id": 332701895, "landuse": "residential"}, {"type": "node", "id": 3398420918, "lat": 52.0164502, "lon": 23.1872097, "way_id": 332701895, "landuse": "residential"}, {"type": "node", "id": 3398420920, "lat": 52.0165265, "lon": 23.1829697, "way_id": 332701895, "landuse": "residential"}, {"type": "node", "id": 3398420922, "lat": 52.0166451, "lon": 23.1865765, "way_id": 332701895, "landuse": "residential"}, {"type": "node", "id": 3398420923, "lat": 52.0166536, "lon": 23.1875539, "way_id": 332701895, "landuse": "residential"}, {"type": "node", "id": 3398420925, "lat": 52.0168569, "lon": 23.1846767, "way_id": 332701895, "landuse": "residential"}, {"type": "node", "id": 3398420926, "lat": 52.0170518, "lon": 23.1845528, "way_id": 332701895, "landuse": "residential"}, {"type": "node", "id": 3398420927, "lat": 52.0170857, "lon": 23.1823915, "way_id": 332701895, "landuse": "residential"}, {"type": "node", "id": 3398420928, "lat": 52.0171111, "lon": 23.1901006, "way_id": 332701895, "landuse": "residential"}, {"type": "node", "id": 3398420929, "lat": 52.017145, "lon": 23.1879806, "way_id": 332701895, "landuse": "residential"}, {"type": "node", "id": 3398420930, "lat": 52.0172127, "lon": 23.1843601, "way_id": 332701895, "landuse": "residential"}, {"type": "node", "id": 3398420931, "lat": 52.0175008, "lon": 23.188724, "way_id": 332701895, "landuse": "residential"}, {"type": "node", "id": 3398420932, "lat": 52.0177973, "lon": 23.1861635, "way_id": 332701895, "landuse": "residential"}, {"type": "node", "id": 3398420933, "lat": 52.0178142, "lon": 23.1837957, "way_id": 332701895, "landuse": "residential"}, {"type": "node", "id": 3398420934, "lat": 52.0178651, "lon": 23.1828045, "way_id": 332701895, "landuse": "residential"}, {"type": "node", "id": 3398420935, "lat": 52.018013, "lon": 23.1762931, "way_id": 332701895, "landuse": "residential"}, {"type": "node", "id": 3398420936, "lat": 52.0180515, "lon": 23.1767474, "way_id": 332701895, "landuse": "residential"}, {"type": "node", "id": 3398420937, "lat": 52.0181531, "lon": 23.1833965, "way_id": 332701895, "landuse": "residential"}, {"type": "node", "id": 3398420938, "lat": 52.0183425, "lon": 23.1755144, "way_id": 332701895, "landuse": "residential"}, {"type": "node", "id": 3398420939, "lat": 52.0183649, "lon": 23.1822814, "way_id": 332701895, "landuse": "residential"}, {"type": "node", "id": 3398420940, "lat": 52.0185103, "lon": 23.1757869, "way_id": 332701895, "landuse": "residential"}, {"type": "node", "id": 3398420941, "lat": 52.0187559, "lon": 23.1753781, "way_id": 332701895, "landuse": "residential"}, {"type": "node", "id": 3398420942, "lat": 52.0190681, "lon": 23.1836443, "way_id": 332701895, "landuse": "residential"}, {"type": "node", "id": 3398420947, "lat": 52.0196604, "lon": 23.1768771, "way_id": 332701895, "landuse": "residential"}, {"type": "node", "id": 3398420960, "lat": 52.0198581, "lon": 23.1763126, "way_id": 332701895, "landuse": "residential"}, {"type": "node", "id": 3398420979, "lat": 52.0199719, "lon": 23.1773833, "way_id": 332701895, "landuse": "residential"}, {"type": "node", "id": 3398421024, "lat": 52.0201935, "lon": 23.1767311, "way_id": 332701895, "landuse": "residential"}, {"type": "node", "id": 3398421027, "lat": 52.0202033, "lon": 23.1811801, "way_id": 332701895, "landuse": "residential"}, {"type": "node", "id": 3398421086, "lat": 52.0203711, "lon": 23.1743034, "way_id": 332701895, "landuse": "residential"}, {"type": "node", "id": 3398421091, "lat": 52.0203852, "lon": 23.17714, "way_id": 332701895, "landuse": "residential"}, {"type": "node", "id": 3398421116, "lat": 52.0204931, "lon": 23.1781913, "way_id": 332701895, "landuse": "residential"}, {"type": "node", "id": 3398421123, "lat": 52.0205337, "lon": 23.1815931, "way_id": 332701895, "landuse": "residential"}, {"type": "node", "id": 3398421145, "lat": 52.0206847, "lon": 23.1777046, "way_id": 332701895, "landuse": "residential"}, {"type": "node", "id": 3398421187, "lat": 52.0208405, "lon": 23.1754852, "way_id": 332701895, "landuse": "residential"}, {"type": "node", "id": 3398421759, "lat": 52.0224821, "lon": 23.1759489, "way_id": 332701895, "landuse": "residential"}, {"type": "node", "id": 3398421788, "lat": 52.0226345, "lon": 23.1762243, "way_id": 332701895, "landuse": "residential"}, {"type": "node", "id": 3398421929, "lat": 52.0227629, "lon": 23.1907032, "way_id": 332701894, "landuse": "residential"}, {"type": "node", "id": 3398421979, "lat": 52.0229832, "lon": 23.1895468, "way_id": 332701894, "landuse": "residential"}, {"type": "node", "id": 3398422051, "lat": 52.0233305, "lon": 23.1878673, "way_id": 332701894, "landuse": "residential"}, {"type": "node", "id": 3398422059, "lat": 52.0234054, "lon": 23.1741043, "way_id": 332701895, "landuse": "residential"}, {"type": "node", "id": 3398422064, "lat": 52.0234321, "lon": 23.1898359, "way_id": 332701894, "landuse": "residential"}, {"type": "node", "id": 3398422071, "lat": 52.0235846, "lon": 23.1921349, "way_id": 332701894, "landuse": "residential"}, {"type": "node", "id": 3398422100, "lat": 52.023806, "lon": 23.1707376, "way_id": 332701895, "landuse": "residential"}, {"type": "node", "id": 3398422104, "lat": 52.0238726, "lon": 23.1880463, "way_id": 332701894, "landuse": "residential"}, {"type": "node", "id": 3398422126, "lat": 52.0239319, "lon": 23.1911024, "way_id": 332701894, "landuse": "residential"}, {"type": "node", "id": 3398422132, "lat": 52.0239498, "lon": 23.1660651, "way_id": 332701895, "landuse": "residential"}, {"type": "node", "id": 3398422141, "lat": 52.0239737, "lon": 23.1703871, "way_id": 332701895, "landuse": "residential"}, {"type": "node", "id": 3398422190, "lat": 52.0241, "lon": 23.1749715, "way_id": 332701895, "landuse": "residential"}, {"type": "node", "id": 3398422310, "lat": 52.0244769, "lon": 23.1711075, "way_id": 332701895, "landuse": "residential"}, {"type": "node", "id": 3398422488, "lat": 52.0247875, "lon": 23.1945853, "way_id": 332701894, "landuse": "residential"}, {"type": "node", "id": 3398422489, "lat": 52.0247883, "lon": 23.1684792, "way_id": 332701895, "landuse": "residential"}, {"type": "node", "id": 3398422654, "lat": 52.025067, "lon": 23.192892, "way_id": 332701894, "landuse": "residential"}, {"type": "node", "id": 3398422695, "lat": 52.0251477, "lon": 23.1679925, "way_id": 332701895, "landuse": "residential"}, {"type": "node", "id": 3398422761, "lat": 52.0252605, "lon": 23.1729617, "way_id": 332701895, "landuse": "residential"}, {"type": "node", "id": 3398422857, "lat": 52.0254228, "lon": 23.1825674, "way_id": 332701894, "landuse": "residential"}, {"type": "node", "id": 3398423118, "lat": 52.025555, "lon": 23.1697447, "way_id": 332701895, "landuse": "residential"}, {"type": "node", "id": 3398423156, "lat": 52.025643, "lon": 23.1949982, "way_id": 332701894, "landuse": "residential"}, {"type": "node", "id": 3398423643, "lat": 52.0261427, "lon": 23.1824985, "way_id": 332701894, "landuse": "residential"}, {"type": "node", "id": 3398423826, "lat": 52.0264816, "lon": 23.1810531, "way_id": 332701894, "landuse": "residential"}, {"type": "node", "id": 3398423996, "lat": 52.026634, "lon": 23.1811494, "way_id": 332701894, "landuse": "residential"}, {"type": "node", "id": 3398424113, "lat": 52.0269305, "lon": 23.1791671, "way_id": 332701894, "landuse": "residential"}, {"type": "node", "id": 3398424452, "lat": 52.0272439, "lon": 23.195012, "way_id": 332701894, "landuse": "residential"}, {"type": "node", "id": 3398424853, "lat": 52.0277267, "lon": 23.1795663, "way_id": 332701894, "landuse": "residential"}, {"type": "node", "id": 3398425155, "lat": 52.0283873, "lon": 23.1781897, "way_id": 332701894, "landuse": "residential"}, {"type": "node", "id": 3398425156, "lat": 52.0288193, "lon": 23.1862016, "way_id": 332701894, "landuse": "residential"}, {"type": "node", "id": 3398425157, "lat": 52.0293275, "lon": 23.1783136, "way_id": 332701894, "landuse": "residential"}, {"type": "node", "id": 3398425158, "lat": 52.0293698, "lon": 23.1776941, "way_id": 332701894, "landuse": "residential"}, {"type": "node", "id": 3398425159, "lat": 52.029734, "lon": 23.1861879, "way_id": 332701894, "landuse": "residential"}, {"type": "node", "id": 3398425160, "lat": 52.0297425, "lon": 23.1873167, "way_id": 332701894, "landuse": "residential"}, {"type": "node", "id": 3398425161, "lat": 52.0299204, "lon": 23.1776804, "way_id": 332701894, "landuse": "residential"}, {"type": "node", "id": 3398425162, "lat": 52.0300559, "lon": 23.185651, "way_id": 332701894, "landuse": "residential"}, {"type": "node", "id": 3398425163, "lat": 52.0301236, "lon": 23.1767305, "way_id": 332701894, "landuse": "residential"}, {"type": "node", "id": 3398425164, "lat": 52.0302846, "lon": 23.1847149, "way_id": 332701894, "landuse": "residential"}, {"type": "node", "id": 3398425165, "lat": 52.0306488, "lon": 23.1820442, "way_id": 332701894, "landuse": "residential"}, {"type": "node", "id": 3398425166, "lat": 52.030708, "lon": 23.185651, "way_id": 332701894, "landuse": "residential"}, {"type": "node", "id": 3398425167, "lat": 52.0307335, "lon": 23.1872479, "way_id": 332701894, "landuse": "residential"}, {"type": "node", "id": 3398425168, "lat": 52.0310214, "lon": 23.1846461, "way_id": 332701894, "landuse": "residential"}, {"type": "node", "id": 3398425169, "lat": 52.0310384, "lon": 23.1839027, "way_id": 332701894, "landuse": "residential"}, {"type": "node", "id": 3398425170, "lat": 52.0311739, "lon": 23.179704, "way_id": 332701894, "landuse": "residential"}, {"type": "node", "id": 3398425173, "lat": 52.0315973, "lon": 23.1809154, "way_id": 332701894, "landuse": "residential"}, {"type": "node", "id": 3398425174, "lat": 52.0316058, "lon": 23.1819479, "way_id": 332701894, "landuse": "residential"}, {"type": "node", "id": 3398425175, "lat": 52.0319615, "lon": 23.1838751, "way_id": 332701894, "landuse": "residential"}, {"type": "node", "id": 3398425176, "lat": 52.03197, "lon": 23.1851416, "way_id": 332701894, "landuse": "residential"}, {"type": "node", "id": 3398425181, "lat": 52.0322495, "lon": 23.1795939, "way_id": 332701894, "landuse": "residential"}, {"type": "node", "id": 3398425184, "lat": 52.0325544, "lon": 23.1766754, "way_id": 332701894, "landuse": "residential"}, {"type": "node", "id": 3398425185, "lat": 52.0327746, "lon": 23.1808466, "way_id": 332701894, "landuse": "residential"}, {"type": "node", "id": 3398425186, "lat": 52.032783, "lon": 23.1850315, "way_id": 332701894, "landuse": "residential"}, {"type": "node", "id": 3398425203, "lat": 52.0358403, "lon": 23.1699988, "way_id": 332701893, "landuse": "residential"}, {"type": "node", "id": 3398425204, "lat": 52.0358741, "lon": 23.1719123, "way_id": 332701893, "landuse": "residential"}, {"type": "node", "id": 3398425213, "lat": 52.0381098, "lon": 23.1734541, "way_id": 332701892, "landuse": "residential"}, {"type": "node", "id": 3398425214, "lat": 52.0381098, "lon": 23.1751198, "way_id": 332701892, "landuse": "residential"}, {"type": "node", "id": 3398425215, "lat": 52.0386094, "lon": 23.1696684, "way_id": 332701893, "landuse": "residential"}, {"type": "node", "id": 3398425216, "lat": 52.0386263, "lon": 23.1718022, "way_id": 332701893, "landuse": "residential"}, {"type": "node", "id": 3398425217, "lat": 52.0388042, "lon": 23.1777905, "way_id": 332701892, "landuse": "residential"}, {"type": "node", "id": 3398425219, "lat": 52.0388465, "lon": 23.1760009, "way_id": 332701892, "landuse": "residential"}, {"type": "node", "id": 3398425221, "lat": 52.040159, "lon": 23.1759045, "way_id": 332701892, "landuse": "residential"}, {"type": "node", "id": 3398425222, "lat": 52.0403368, "lon": 23.1749133, "way_id": 332701892, "landuse": "residential"}, {"type": "node", "id": 3398425223, "lat": 52.0403792, "lon": 23.173344, "way_id": 332701892, "landuse": "residential"}, {"type": "node", "id": 3398425224, "lat": 52.0406925, "lon": 23.1690902, "way_id": 332701892, "landuse": "residential"}, {"type": "node", "id": 3398425225, "lat": 52.0408618, "lon": 23.1757118, "way_id": 332701892, "landuse": "residential"}, {"type": "node", "id": 3398425226, "lat": 52.0409126, "lon": 23.174872, "way_id": 332701892, "landuse": "residential"}, {"type": "node", "id": 3398425227, "lat": 52.0412344, "lon": 23.1745279, "way_id": 332701892, "landuse": "residential"}, {"type": "node", "id": 3398425228, "lat": 52.0412429, "lon": 23.174872, "way_id": 332701892, "landuse": "residential"}, {"type": "node", "id": 3398425229, "lat": 52.0416493, "lon": 23.1776391, "way_id": 332701892, "landuse": "residential"}, {"type": "node", "id": 3398425230, "lat": 52.0416578, "lon": 23.175698, "way_id": 332701892, "landuse": "residential"}, {"type": "node", "id": 3398425231, "lat": 52.0425384, "lon": 23.1718435, "way_id": 332701892, "landuse": "residential"}, {"type": "node", "id": 3398425232, "lat": 52.0426569, "lon": 23.1744591, "way_id": 332701892, "landuse": "residential"}, {"type": "node", "id": 3398425233, "lat": 52.0426908, "lon": 23.1674658, "way_id": 332701892, "landuse": "residential"}, {"type": "node", "id": 3398425234, "lat": 52.0452055, "lon": 23.1654697, "way_id": 332701892, "landuse": "residential"}, {"type": "node", "id": 3398425235, "lat": 52.0452648, "lon": 23.1664884, "way_id": 332701892, "landuse": "residential"}, {"type": "node", "id": 3398425236, "lat": 52.0456288, "lon": 23.1710313, "way_id": 332701892, "landuse": "residential"}, {"type": "node", "id": 3398425237, "lat": 52.0456966, "lon": 23.1720087, "way_id": 332701892, "landuse": "residential"}, {"type": "node", "id": 3398425238, "lat": 52.0463485, "lon": 23.1695996, "way_id": 332701892, "landuse": "residential"}, {"type": "node", "id": 3398425239, "lat": 52.0464586, "lon": 23.1718159, "way_id": 332701892, "landuse": "residential"}, {"type": "node", "id": 3398425240, "lat": 52.0469327, "lon": 23.1694619, "way_id": 332701892, "landuse": "residential"}, {"type": "node", "id": 3398425241, "lat": 52.0470343, "lon": 23.1706871, "way_id": 332701892, "landuse": "residential"}, {"type": "node", "id": 3398425242, "lat": 52.0481264, "lon": 23.1691866, "way_id": 332701892, "landuse": "residential"}, {"type": "node", "id": 3398425243, "lat": 52.0481942, "lon": 23.1703705, "way_id": 332701892, "landuse": "residential"}, {"type": "node", "id": 3398425244, "lat": 52.048482, "lon": 23.1690627, "way_id": 332701892, "landuse": "residential"}, {"type": "node", "id": 3398425245, "lat": 52.0485921, "lon": 23.1702466, "way_id": 332701892, "landuse": "residential"}, {"type": "node", "id": 3398425246, "lat": 52.0488461, "lon": 23.1690076, "way_id": 332701892, "landuse": "residential"}, {"type": "node", "id": 3398425247, "lat": 52.0489138, "lon": 23.170164, "way_id": 332701892, "landuse": "residential"}, {"type": "node", "id": 3398425248, "lat": 52.0494302, "lon": 23.1688011, "way_id": 332701892, "landuse": "residential"}, {"type": "node", "id": 3398425249, "lat": 52.049608, "lon": 23.1716095, "way_id": 332701892, "landuse": "residential"}, {"type": "node", "id": 3398425250, "lat": 52.0497011, "lon": 23.1619593, "way_id": 332701892, "landuse": "residential"}, {"type": "node", "id": 3398425251, "lat": 52.050463, "lon": 23.1713617, "way_id": 332701892, "landuse": "residential"}, {"type": "node", "id": 3398594752, "lat": 52.0217024, "lon": 23.0959311, "way_id": 332723236, "landuse": "residential"}, {"type": "node", "id": 3398595318, "lat": 52.0224733, "lon": 23.1054322, "way_id": 332723236, "landuse": "residential"}, {"type": "node", "id": 3398595939, "lat": 52.0228573, "lon": 23.1053155, "way_id": 332723236, "landuse": "residential"}, {"type": "node", "id": 3398596357, "lat": 52.0238155, "lon": 23.1154753, "way_id": 332723235, "landuse": "residential"}, {"type": "node", "id": 3398596358, "lat": 52.0238186, "lon": 23.1162818, "way_id": 332723235, "landuse": "residential"}, {"type": "node", "id": 3398596363, "lat": 52.0238467, "lon": 23.1166926, "way_id": 332723235, "landuse": "residential"}, {"type": "node", "id": 3398596366, "lat": 52.0238685, "lon": 23.1143036, "way_id": 332723235, "landuse": "residential"}, {"type": "node", "id": 3398596390, "lat": 52.024062, "lon": 23.1131015, "way_id": 332723235, "landuse": "residential"}, {"type": "node", "id": 3398596504, "lat": 52.0246082, "lon": 23.1189346, "way_id": 332723235, "landuse": "residential"}, {"type": "node", "id": 3398596507, "lat": 52.0247768, "lon": 23.1192846, "way_id": 332723235, "landuse": "residential"}, {"type": "node", "id": 3398596515, "lat": 52.0249703, "lon": 23.1194672, "way_id": 332723235, "landuse": "residential"}, {"type": "node", "id": 3398596516, "lat": 52.025145, "lon": 23.1195027, "way_id": 332723235, "landuse": "residential"}, {"type": "node", "id": 3398596517, "lat": 52.0251638, "lon": 23.1125638, "way_id": 332723235, "landuse": "residential"}, {"type": "node", "id": 3398596518, "lat": 52.0251825, "lon": 23.1171694, "way_id": 332723235, "landuse": "residential"}, {"type": "node", "id": 3398596523, "lat": 52.0251981, "lon": 23.1146434, "way_id": 332723235, "landuse": "residential"}, {"type": "node", "id": 3398596528, "lat": 52.0252137, "lon": 23.1132688, "way_id": 332723235, "landuse": "residential"}, {"type": "node", "id": 3398596604, "lat": 52.0257724, "lon": 23.1170071, "way_id": 332723235, "landuse": "residential"}, {"type": "node", "id": 3398596606, "lat": 52.0257973, "lon": 23.119523, "way_id": 332723235, "landuse": "residential"}, {"type": "node", "id": 3398596607, "lat": 52.0258067, "lon": 23.1130862, "way_id": 332723235, "landuse": "residential"}, {"type": "node", "id": 3398596614, "lat": 52.025841, "lon": 23.1134819, "way_id": 332723235, "landuse": "residential"}, {"type": "node", "id": 3398596645, "lat": 52.0263185, "lon": 23.1133652, "way_id": 332723235, "landuse": "residential"}, {"type": "node", "id": 3398596660, "lat": 52.0263903, "lon": 23.1144202, "way_id": 332723235, "landuse": "residential"}, {"type": "node", "id": 3398623400, "lat": 52.0032424, "lon": 23.0812019, "way_id": 332726501, "landuse": "residential"}, {"type": "node", "id": 3398623401, "lat": 52.0033788, "lon": 23.0839153, "way_id": 332726501, "landuse": "residential"}, {"type": "node", "id": 3398623402, "lat": 52.0037244, "lon": 23.0811339, "way_id": 332726501, "landuse": "residential"}, {"type": "node", "id": 3398623403, "lat": 52.0037503, "lon": 23.0814983, "way_id": 332726501, "landuse": "residential"}, {"type": "node", "id": 3398623404, "lat": 52.0041742, "lon": 23.0814284, "way_id": 332726501, "landuse": "residential"}, {"type": "node", "id": 3398623405, "lat": 52.0042172, "lon": 23.0819573, "way_id": 332726501, "landuse": "residential"}, {"type": "node", "id": 3398623406, "lat": 52.0046042, "lon": 23.0819274, "way_id": 332726501, "landuse": "residential"}, {"type": "node", "id": 3398623407, "lat": 52.0047087, "lon": 23.0836737, "way_id": 332726501, "landuse": "residential"}, {"type": "node", "id": 3398623410, "lat": 52.0073281, "lon": 23.073373, "way_id": 332726499, "landuse": "residential"}, {"type": "node", "id": 3398623411, "lat": 52.0074546, "lon": 23.0745128, "way_id": 332726499, "landuse": "residential"}, {"type": "node", "id": 3398623412, "lat": 52.0075652, "lon": 23.0762791, "way_id": 332726499, "landuse": "residential"}, {"type": "node", "id": 3398623413, "lat": 52.0076266, "lon": 23.0744629, "way_id": 332726499, "landuse": "residential"}, {"type": "node", "id": 3398623414, "lat": 52.0078416, "lon": 23.0761893, "way_id": 332726499, "landuse": "residential"}, {"type": "node", "id": 3398623415, "lat": 52.0079337, "lon": 23.0792829, "way_id": 332726499, "landuse": "residential"}, {"type": "node", "id": 3398623417, "lat": 52.0083699, "lon": 23.0755806, "way_id": 332726499, "landuse": "residential"}, {"type": "node", "id": 3398623418, "lat": 52.0083799, "lon": 23.0815665, "way_id": 332726499, "landuse": "residential"}, {"type": "node", "id": 3398623419, "lat": 52.008419, "lon": 23.0792829, "way_id": 332726499, "landuse": "residential"}, {"type": "node", "id": 3398623420, "lat": 52.0084252, "lon": 23.0740737, "way_id": 332726499, "landuse": "residential"}, {"type": "node", "id": 3398623421, "lat": 52.0084804, "lon": 23.0828455, "way_id": 332726499, "landuse": "residential"}, {"type": "node", "id": 3398623422, "lat": 52.0085357, "lon": 23.0803207, "way_id": 332726499, "landuse": "residential"}, {"type": "node", "id": 3398623423, "lat": 52.0086524, "lon": 23.0815282, "way_id": 332726499, "landuse": "residential"}, {"type": "node", "id": 3398623424, "lat": 52.0088736, "lon": 23.0740238, "way_id": 332726499, "landuse": "residential"}, {"type": "node", "id": 3398623425, "lat": 52.0089227, "lon": 23.080201, "way_id": 332726499, "landuse": "residential"}, {"type": "node", "id": 3398623426, "lat": 52.0090578, "lon": 23.0754408, "way_id": 332726499, "landuse": "residential"}, {"type": "node", "id": 3398623428, "lat": 52.0098072, "lon": 23.0801511, "way_id": 332726499, "landuse": "residential"}, {"type": "node", "id": 3398623429, "lat": 52.0100468, "lon": 23.0825561, "way_id": 332726499, "landuse": "residential"}, {"type": "node", "id": 3398786308, "lat": 52.0036591, "lon": 23.0888838, "way_id": 332746851, "landuse": "residential"}, {"type": "node", "id": 3398786314, "lat": 52.0037182, "lon": 23.0900359, "way_id": 332746851, "landuse": "residential"}, {"type": "node", "id": 3398786529, "lat": 52.0052739, "lon": 23.0898096, "way_id": 332746851, "landuse": "residential"}, {"type": "node", "id": 3398786542, "lat": 52.005314, "lon": 23.0907903, "way_id": 332746851, "landuse": "residential"}, {"type": "node", "id": 3398815352, "lat": 52.0045715, "lon": 23.0846366, "way_id": 332746851, "landuse": "residential"}, {"type": "node", "id": 3398815353, "lat": 52.0056013, "lon": 23.0844507, "way_id": 332746851, "landuse": "residential"}, {"type": "node", "id": 3398815354, "lat": 52.0062224, "lon": 23.0853535, "way_id": 332746851, "landuse": "residential"}, {"type": "node", "id": 3398815359, "lat": 52.0096056, "lon": 23.0849021, "way_id": 332746851, "landuse": "residential"}, {"type": "node", "id": 3398815360, "lat": 52.009671, "lon": 23.0856721, "way_id": 332746851, "landuse": "residential"}, {"type": "node", "id": 3398815363, "lat": 52.0101939, "lon": 23.0855659, "way_id": 332746851, "landuse": "residential"}, {"type": "node", "id": 3398815365, "lat": 52.0113053, "lon": 23.0957352, "way_id": 332746851, "landuse": "residential"}, {"type": "node", "id": 3398815367, "lat": 52.0116117, "lon": 23.1083009, "way_id": 332746851, "landuse": "residential"}, {"type": "node", "id": 3398815368, "lat": 52.0117465, "lon": 23.1083728, "way_id": 332746851, "landuse": "residential"}, {"type": "node", "id": 3398815369, "lat": 52.0142305, "lon": 23.0952838, "way_id": 332746851, "landuse": "residential"}, {"type": "node", "id": 3398815370, "lat": 52.0145737, "lon": 23.0975142, "way_id": 332746851, "landuse": "residential"}, {"type": "node", "id": 3398815371, "lat": 52.0159627, "lon": 23.0973814, "way_id": 332746851, "landuse": "residential"}, {"type": "node", "id": 3398815372, "lat": 52.0168778, "lon": 23.10465, "way_id": 332746851, "landuse": "residential"}, {"type": "node", "id": 3398815373, "lat": 52.0172332, "lon": 23.1045637, "way_id": 332746851, "landuse": "residential"}, {"type": "node", "id": 3398815374, "lat": 52.0172537, "lon": 23.1089315, "way_id": 332746851, "landuse": "residential"}, {"type": "node", "id": 3398815375, "lat": 52.0172986, "lon": 23.1082876, "way_id": 332746851, "landuse": "residential"}, {"type": "node", "id": 3398815376, "lat": 52.0176622, "lon": 23.1081482, "way_id": 332746851, "landuse": "residential"}, {"type": "node", "id": 3408749688, "lat": 52.0572275, "lon": 23.0967272, "way_id": 333821281, "landuse": "residential"}, {"type": "node", "id": 3408750393, "lat": 52.0535727, "lon": 23.1023057, "way_id": 333821281, "landuse": "residential"}, {"type": "node", "id": 3408750395, "lat": 52.0569637, "lon": 23.0979396, "way_id": 333821281, "landuse": "residential"}, {"type": "node", "id": 3408750397, "lat": 52.0563785, "lon": 23.0965754, "way_id": 333821281, "landuse": "residential"}, {"type": "node", "id": 3408750400, "lat": 52.0586346, "lon": 23.0963287, "way_id": 333821281, "landuse": "residential"}, {"type": "node", "id": 3408750401, "lat": 52.0591337, "lon": 23.0957509, "way_id": 333821281, "landuse": "residential"}, {"type": "node", "id": 3408750402, "lat": 52.0633289, "lon": 23.0885626, "way_id": 333821281, "landuse": "residential"}, {"type": "node", "id": 3408750403, "lat": 52.057755, "lon": 23.0948711, "way_id": 333821281, "landuse": "residential"}, {"type": "node", "id": 3408750404, "lat": 52.0610862, "lon": 23.1042905, "way_id": 333821281, "landuse": "residential"}, {"type": "node", "id": 3408750406, "lat": 52.0526029, "lon": 23.105417, "way_id": 333821281, "landuse": "residential"}, {"type": "node", "id": 3408750408, "lat": 52.0651831, "lon": 23.0946583, "way_id": 333821281, "landuse": "residential"}, {"type": "node", "id": 3408750409, "lat": 52.0550525, "lon": 23.1069502, "way_id": 333821281, "landuse": "residential"}, {"type": "node", "id": 3408750410, "lat": 52.0594242, "lon": 23.0862352, "way_id": 333821281, "landuse": "residential"}, {"type": "node", "id": 3408750411, "lat": 52.0636848, "lon": 23.0846627, "way_id": 333821281, "landuse": "residential"}, {"type": "node", "id": 3408750412, "lat": 52.0566455, "lon": 23.1035514, "way_id": 333821281, "landuse": "residential"}, {"type": "node", "id": 3408750413, "lat": 52.0517056, "lon": 23.107477, "way_id": 333821281, "landuse": "residential"}, {"type": "node", "id": 3408750414, "lat": 52.0551119, "lon": 23.1031307, "way_id": 333821281, "landuse": "residential"}, {"type": "node", "id": 3408750415, "lat": 52.0555457, "lon": 23.0852252, "way_id": 333821281, "landuse": "residential"}, {"type": "node", "id": 3408750417, "lat": 52.0606773, "lon": 23.1013723, "way_id": 333821281, "landuse": "residential"}, {"type": "node", "id": 3408750419, "lat": 52.0573681, "lon": 23.0729183, "way_id": 333821281, "landuse": "residential"}, {"type": "node", "id": 3408750420, "lat": 52.0512649, "lon": 23.1047739, "way_id": 333821281, "landuse": "residential"}, {"type": "node", "id": 3408750421, "lat": 52.0572848, "lon": 23.1077488, "way_id": 473825969, "landuse": "residential"}, {"type": "node", "id": 3408750422, "lat": 52.0631508, "lon": 23.0924464, "way_id": 333821281, "landuse": "residential"}, {"type": "node", "id": 3408750423, "lat": 52.062267, "lon": 23.1001814, "way_id": 333821281, "landuse": "residential"}, {"type": "node", "id": 3408750424, "lat": 52.0553484, "lon": 23.1085324, "way_id": 333821281, "landuse": "residential"}, {"type": "node", "id": 3408750425, "lat": 52.0573199, "lon": 23.0961479, "way_id": 333821281, "landuse": "residential"}, {"type": "node", "id": 3408750428, "lat": 52.0652418, "lon": 23.0745041, "way_id": 333821281, "landuse": "residential"}, {"type": "node", "id": 3408750429, "lat": 52.0626241, "lon": 23.0940954, "way_id": 333821281, "landuse": "residential"}, {"type": "node", "id": 3408750432, "lat": 52.0568911, "lon": 23.0989154, "way_id": 333821281, "landuse": "residential"}, {"type": "node", "id": 3408750433, "lat": 52.063131, "lon": 23.093176, "way_id": 333821281, "landuse": "residential"}, {"type": "node", "id": 3408750434, "lat": 52.0515803, "lon": 23.1045373, "way_id": 333821281, "landuse": "residential"}, {"type": "node", "id": 3408750435, "lat": 52.056238, "lon": 23.0977465, "way_id": 333821281, "landuse": "residential"}, {"type": "node", "id": 3408750437, "lat": 52.0588104, "lon": 23.0922426, "way_id": 333821281, "landuse": "residential"}, {"type": "node", "id": 3408750439, "lat": 52.0593777, "lon": 23.0924142, "way_id": 333821281, "landuse": "residential"}, {"type": "node", "id": 3408750441, "lat": 52.0514219, "lon": 23.1033357, "way_id": 333821281, "landuse": "residential"}, {"type": "node", "id": 3408750442, "lat": 52.0627234, "lon": 23.1036725, "way_id": 333821281, "landuse": "residential"}, {"type": "node", "id": 3408750443, "lat": 52.0625308, "lon": 23.1000097, "way_id": 333821281, "landuse": "residential"}, {"type": "node", "id": 3408750444, "lat": 52.0581333, "lon": 23.1009528, "way_id": 333821281, "landuse": "residential"}, {"type": "node", "id": 3408750445, "lat": 52.0592085, "lon": 23.0940756, "way_id": 333821281, "landuse": "residential"}, {"type": "node", "id": 3408750446, "lat": 52.0629068, "lon": 23.0885304, "way_id": 333821281, "landuse": "residential"}, {"type": "node", "id": 3408750447, "lat": 52.0528206, "lon": 23.1068547, "way_id": 333821281, "landuse": "residential"}, {"type": "node", "id": 3408750448, "lat": 52.0651996, "lon": 23.0964747, "way_id": 333821281, "landuse": "residential"}, {"type": "node", "id": 3408750449, "lat": 52.0537198, "lon": 23.1028411, "way_id": 333821281, "landuse": "residential"}, {"type": "node", "id": 3408750450, "lat": 52.0537377, "lon": 23.1046982, "way_id": 333821281, "landuse": "residential"}, {"type": "node", "id": 3408750451, "lat": 52.0583223, "lon": 23.0993338, "way_id": 333821281, "landuse": "residential"}, {"type": "node", "id": 3408750453, "lat": 52.0548988, "lon": 23.1021555, "way_id": 333821281, "landuse": "residential"}, {"type": "node", "id": 3408750455, "lat": 52.0583487, "lon": 23.09559, "way_id": 333821281, "landuse": "residential"}, {"type": "node", "id": 3408750456, "lat": 52.0542608, "lon": 23.1073257, "way_id": 333821281, "landuse": "residential"}, {"type": "node", "id": 3408750457, "lat": 52.057843, "lon": 23.0938074, "way_id": 333821281, "landuse": "residential"}, {"type": "node", "id": 3408750459, "lat": 52.0639813, "lon": 23.0847276, "way_id": 333821281, "landuse": "residential"}, {"type": "node", "id": 3408750463, "lat": 52.0623395, "lon": 23.0985726, "way_id": 333821281, "landuse": "residential"}, {"type": "node", "id": 3408750466, "lat": 52.0625925, "lon": 23.0923161, "way_id": 333821281, "landuse": "residential"}, {"type": "node", "id": 3408750468, "lat": 52.0583685, "lon": 23.0950428, "way_id": 333821281, "landuse": "residential"}, {"type": "node", "id": 3408750469, "lat": 52.0626825, "lon": 23.0932296, "way_id": 333821281, "landuse": "residential"}, {"type": "node", "id": 3408793036, "lat": 52.0511817, "lon": 23.1063695, "way_id": 241437561, "landuse": "residential"}, {"type": "node", "id": 3408793041, "lat": 52.0514084, "lon": 23.1062625, "way_id": 241437561, "landuse": "residential"}, {"type": "node", "id": 3810556659, "lat": 52.0075579, "lon": 23.1634332, "way_id": 377671768, "landuse": "meadow"}, {"type": "node", "id": 3810556660, "lat": 52.0071956, "lon": 23.1665081, "way_id": 377671768, "landuse": "meadow"}, {"type": "node", "id": 3810556661, "lat": 52.0067066, "lon": 23.1663561, "way_id": 377671768, "landuse": "meadow"}, {"type": "node", "id": 3810556662, "lat": 52.007069, "lon": 23.1632811, "way_id": 377671768, "landuse": "meadow"}, {"type": "node", "id": 3914433301, "lat": 52.0455901, "lon": 23.1255891, "way_id": 332373592, "landuse": "meadow"}, {"type": "node", "id": 3914433302, "lat": 52.0458041, "lon": 23.1250339, "way_id": 388226292, "landuse": "residential"}, {"type": "node", "id": 3914433304, "lat": 52.0462047, "lon": 23.1231358, "way_id": 452034362, "landuse": "residential"}, {"type": "node", "id": 3914433306, "lat": 52.0462599, "lon": 23.1231522, "way_id": 388226291, "landuse": "residential"}, {"type": "node", "id": 3914433311, "lat": 52.0465727, "lon": 23.1233881, "way_id": 388226291, "landuse": "residential"}, {"type": "node", "id": 3914433312, "lat": 52.0465909, "lon": 23.1215744, "way_id": 332373145, "landuse": "meadow"}, {"type": "node", "id": 3914433321, "lat": 52.047241, "lon": 23.1193857, "way_id": 388226293, "landuse": "meadow"}, {"type": "node", "id": 3914433322, "lat": 52.046371, "lon": 23.1188263, "way_id": 332373145, "landuse": "meadow"}, {"type": "node", "id": 3914433323, "lat": 52.0473651, "lon": 23.1188982, "way_id": 388226293, "landuse": "meadow"}, {"type": "node", "id": 4023473244, "lat": 52.0416377, "lon": 23.1350708, "way_id": 332389585, "landuse": "residential"}, {"type": "node", "id": 4026455157, "lat": 52.0394525, "lon": 23.120246, "way_id": 779912704, "landuse": "residential"}, {"type": "node", "id": 4026455159, "lat": 52.0398821, "lon": 23.1203289, "way_id": 779912704, "landuse": "residential"}, {"type": "node", "id": 4026455160, "lat": 52.0401324, "lon": 23.1202946, "way_id": 779912704, "landuse": "residential"}, {"type": "node", "id": 4026455161, "lat": 52.0405257, "lon": 23.1202998, "way_id": 779912704, "landuse": "residential"}, {"type": "node", "id": 4228311740, "lat": 52.0462906, "lon": 23.1407469, "way_id": 779927525, "landuse": "residential"}, {"type": "node", "id": 4228311760, "lat": 52.0470695, "lon": 23.1413973, "way_id": 779927525, "landuse": "residential"}, {"type": "node", "id": 4228311763, "lat": 52.0477362, "lon": 23.142003, "way_id": 779927525, "landuse": "residential"}, {"type": "node", "id": 4420220684, "lat": 52.0448549, "lon": 23.1232105, "way_id": 452034362, "landuse": "residential"}, {"type": "node", "id": 4488338908, "lat": 52.0453783, "lon": 23.1263985, "way_id": 332373592, "landuse": "meadow"}, {"type": "node", "id": 4507301948, "lat": 52.0464297, "lon": 23.1206509, "way_id": 332373145, "landuse": "meadow"}, {"type": "node", "id": 4507301949, "lat": 52.0466707, "lon": 23.1204982, "way_id": 332373145, "landuse": "meadow"}, {"type": "node", "id": 4511081563, "lat": 52.039481, "lon": 23.1404852, "way_id": 332393258, "landuse": "residential"}, {"type": "node", "id": 4511081564, "lat": 52.0390926, "lon": 23.1414204, "way_id": 332393258, "landuse": "residential"}, {"type": "node", "id": 4511081565, "lat": 52.0385415, "lon": 23.1409701, "way_id": 332393258, "landuse": "residential"}, {"type": "node", "id": 4678650800, "lat": 52.0601828, "lon": 23.1084964, "way_id": 473825969, "landuse": "residential"}, {"type": "node", "id": 4678650801, "lat": 52.0595837, "lon": 23.1147753, "way_id": 473825969, "landuse": "residential"}, {"type": "node", "id": 4678650802, "lat": 52.0572507, "lon": 23.1142252, "way_id": 473825969, "landuse": "residential"}, {"type": "node", "id": 4678650803, "lat": 52.0567113, "lon": 23.1078232, "way_id": 473825969, "landuse": "residential"}, {"type": "node", "id": 4884318549, "lat": 52.0244084, "lon": 23.1308515, "way_id": 55414473, "landuse": "residential"}, {"type": "node", "id": 4884318550, "lat": 52.0241614, "lon": 23.1308998, "way_id": 55414473, "landuse": "residential"}, {"type": "node", "id": 4884318552, "lat": 52.0241786, "lon": 23.1308964, "way_id": 55414473, "landuse": "residential"}, {"type": "node", "id": 4884333016, "lat": 52.0326649, "lon": 23.1359766, "way_id": 779920918, "landuse": "residential"}, {"type": "node", "id": 5226875175, "lat": 52.0565221, "lon": 23.1096138, "way_id": 473825969, "landuse": "residential"}, {"type": "node", "id": 5226875176, "lat": 52.0568118, "lon": 23.1076244, "way_id": 473825969, "landuse": "residential"}, {"type": "node", "id": 5311675617, "lat": 52.0242035, "lon": 23.135557, "way_id": 55414474, "landuse": "residential"}, {"type": "node", "id": 5630723134, "lat": 52.0480668, "lon": 23.1229705, "way_id": 388226291, "landuse": "residential"}, {"type": "node", "id": 5640287793, "lat": 52.0315149, "lon": 23.1106524, "way_id": 331920619, "landuse": "residential"}, {"type": "node", "id": 5640288784, "lat": 52.0415158, "lon": 23.1350655, "way_id": 332393258, "landuse": "residential"}, {"type": "node", "id": 5640288785, "lat": 52.0416786, "lon": 23.1343329, "way_id": 332393258, "landuse": "residential"}, {"type": "node", "id": 5640288786, "lat": 52.0419684, "lon": 23.1333558, "way_id": 332393258, "landuse": "residential"}, {"type": "node", "id": 5640288792, "lat": 52.0426536, "lon": 23.1326826, "way_id": 332372980, "landuse": "residential"}, {"type": "node", "id": 5640288793, "lat": 52.0422311, "lon": 23.1323581, "way_id": 332372980, "landuse": "residential"}, {"type": "node", "id": 5640288794, "lat": 52.0421801, "lon": 23.1325451, "way_id": 332372980, "landuse": "residential"}, {"type": "node", "id": 5640288795, "lat": 52.0425169, "lon": 23.1332092, "way_id": 332372980, "landuse": "residential"}, {"type": "node", "id": 5640288796, "lat": 52.0440683, "lon": 23.1297389, "way_id": 332372980, "landuse": "residential"}, {"type": "node", "id": 5640288797, "lat": 52.0443883, "lon": 23.1299973, "way_id": 332372980, "landuse": "residential"}, {"type": "node", "id": 5640288798, "lat": 52.0455607, "lon": 23.1320012, "way_id": 332372981, "landuse": "residential"}, {"type": "node", "id": 5640288799, "lat": 52.0451338, "lon": 23.131953, "way_id": 332372981, "landuse": "residential"}, {"type": "node", "id": 5640288800, "lat": 52.0453513, "lon": 23.1323784, "way_id": 332372981, "landuse": "residential"}, {"type": "node", "id": 5640288801, "lat": 52.0448047, "lon": 23.1320686, "way_id": 332372981, "landuse": "residential"}, {"type": "node", "id": 5640288802, "lat": 52.0448652, "lon": 23.1318367, "way_id": 332372981, "landuse": "residential"}, {"type": "node", "id": 5640288803, "lat": 52.0436142, "lon": 23.1310405, "way_id": 332372980, "landuse": "residential"}, {"type": "node", "id": 5640288804, "lat": 52.0442203, "lon": 23.1312293, "way_id": 332372981, "landuse": "residential"}, {"type": "node", "id": 5640288805, "lat": 52.0439568, "lon": 23.1313432, "way_id": 332372980, "landuse": "residential"}, {"type": "node", "id": 5640288806, "lat": 52.0441789, "lon": 23.1315249, "way_id": 332372981, "landuse": "residential"}, {"type": "node", "id": 5640288808, "lat": 52.0439973, "lon": 23.1314588, "way_id": 332372980, "landuse": "residential"}, {"type": "node", "id": 5640288809, "lat": 52.0432523, "lon": 23.1343476, "way_id": 332372980, "landuse": "residential"}, {"type": "node", "id": 5640288810, "lat": 52.0433707, "lon": 23.1343803, "way_id": 332372981, "landuse": "residential"}, {"type": "node", "id": 5752290438, "lat": 52.0451911, "lon": 23.1271308, "way_id": 332373592, "landuse": "meadow"}, {"type": "node", "id": 5832461902, "lat": 52.0443323, "lon": 23.0974209, "way_id": 332390739, "landuse": "residential"}, {"type": "node", "id": 5832461903, "lat": 52.0443102, "lon": 23.0973654, "way_id": 332390739, "landuse": "residential"}, {"type": "node", "id": 5832461908, "lat": 52.0428814, "lon": 23.1005267, "way_id": 332390739, "landuse": "residential"}, {"type": "node", "id": 5918645770, "lat": 52.0169594, "lon": 23.1086001, "way_id": 332746851, "landuse": "residential"}, {"type": "node", "id": 5918645771, "lat": 52.016903, "lon": 23.1084425, "way_id": 332746851, "landuse": "residential"}, {"type": "node", "id": 5918645772, "lat": 52.0167281, "lon": 23.1081679, "way_id": 332746851, "landuse": "residential"}, {"type": "node", "id": 5918645773, "lat": 52.016603, "lon": 23.1080677, "way_id": 332746851, "landuse": "residential"}, {"type": "node", "id": 5918645774, "lat": 52.0164432, "lon": 23.1078716, "way_id": 332746851, "landuse": "residential"}, {"type": "node", "id": 5918645775, "lat": 52.0162301, "lon": 23.1082129, "way_id": 332746851, "landuse": "residential"}, {"type": "node", "id": 5918645776, "lat": 52.0162478, "lon": 23.1086471, "way_id": 332746851, "landuse": "residential"}, {"type": "node", "id": 5918645777, "lat": 52.0160811, "lon": 23.1087608, "way_id": 332746851, "landuse": "residential"}, {"type": "node", "id": 5918647967, "lat": 52.0170289, "lon": 23.1083151, "way_id": 332746851, "landuse": "residential"}, {"type": "node", "id": 5918647968, "lat": 52.0169286, "lon": 23.108084, "way_id": 332746851, "landuse": "residential"}, {"type": "node", "id": 5920437001, "lat": 52.0420448, "lon": 23.1335665, "way_id": 332389585, "landuse": "residential"}, {"type": "node", "id": 5920443252, "lat": 52.0375497, "lon": 23.0884818, "way_id": 627150002, "landuse": "residential"}, {"type": "node", "id": 5920443253, "lat": 52.0376062, "lon": 23.0884214, "way_id": 627150002, "landuse": "residential"}, {"type": "node", "id": 5920443254, "lat": 52.0388601, "lon": 23.0887388, "way_id": 627150003, "landuse": "residential"}, {"type": "node", "id": 5920443255, "lat": 52.037631, "lon": 23.0882557, "way_id": 627150003, "landuse": "residential"}, {"type": "node", "id": 5920443256, "lat": 52.0375605, "lon": 23.0880833, "way_id": 627150003, "landuse": "residential"}, {"type": "node", "id": 5920443257, "lat": 52.0392601, "lon": 23.0873157, "way_id": 627150004, "landuse": "residential"}, {"type": "node", "id": 5920443258, "lat": 52.0393187, "lon": 23.087103, "way_id": 627150004, "landuse": "residential"}, {"type": "node", "id": 5920443259, "lat": 52.0393949, "lon": 23.0870346, "way_id": 627150004, "landuse": "residential"}, {"type": "node", "id": 5920443260, "lat": 52.0398575, "lon": 23.0872217, "way_id": 627150004, "landuse": "residential"}, {"type": "node", "id": 5920443261, "lat": 52.0399137, "lon": 23.0873523, "way_id": 627150004, "landuse": "residential"}, {"type": "node", "id": 5920443262, "lat": 52.0399835, "lon": 23.0874668, "way_id": 627150004, "landuse": "residential"}, {"type": "node", "id": 5920443263, "lat": 52.0399822, "lon": 23.0876057, "way_id": 627150004, "landuse": "residential"}, {"type": "node", "id": 5920443264, "lat": 52.039301, "lon": 23.0910725, "way_id": 627150004, "landuse": "residential"}, {"type": "node", "id": 5920443266, "lat": 52.0380125, "lon": 23.0890608, "way_id": 627150002, "landuse": "residential"}, {"type": "node", "id": 5920443267, "lat": 52.0381265, "lon": 23.08955, "way_id": 627150002, "landuse": "residential"}, {"type": "node", "id": 5920448045, "lat": 52.0337621, "lon": 23.0916219, "way_id": 331920624, "landuse": "residential"}, {"type": "node", "id": 5920448046, "lat": 52.0348076, "lon": 23.0920874, "way_id": 331920624, "landuse": "residential"}, {"type": "node", "id": 5920448047, "lat": 52.0336081, "lon": 23.0915807, "way_id": 331920624, "landuse": "residential"}, {"type": "node", "id": 5920448048, "lat": 52.0334773, "lon": 23.0923987, "way_id": 331920624, "landuse": "residential"}, {"type": "node", "id": 5920448049, "lat": 52.0339748, "lon": 23.0926064, "way_id": 331920624, "landuse": "residential"}, {"type": "node", "id": 5920448050, "lat": 52.0340397, "lon": 23.0921799, "way_id": 331920624, "landuse": "residential"}, {"type": "node", "id": 5920448051, "lat": 52.034685, "lon": 23.0924513, "way_id": 331920624, "landuse": "residential"}, {"type": "node", "id": 5920448052, "lat": 52.0353238, "lon": 23.0931834, "way_id": 331920624, "landuse": "residential"}, {"type": "node", "id": 5920448053, "lat": 52.0352376, "lon": 23.0937212, "way_id": 331920624, "landuse": "residential"}, {"type": "node", "id": 5920448054, "lat": 52.0346145, "lon": 23.0928824, "way_id": 331920624, "landuse": "residential"}, {"type": "node", "id": 7035764640, "lat": 52.0642482, "lon": 23.0748559, "way_id": 333821281, "landuse": "residential"}, {"type": "node", "id": 7035764641, "lat": 52.06433, "lon": 23.0742855, "way_id": 333821281, "landuse": "residential"}, {"type": "node", "id": 7158684332, "lat": 52.0595429, "lon": 23.1148526, "way_id": 473825969, "landuse": "residential"}, {"type": "node", "id": 7158684333, "lat": 52.0601391, "lon": 23.1155894, "way_id": 473825969, "landuse": "residential"}, {"type": "node", "id": 7158684334, "lat": 52.0601742, "lon": 23.1149097, "way_id": 473825969, "landuse": "residential"}, {"type": "node", "id": 7158684335, "lat": 52.0594961, "lon": 23.1154754, "way_id": 473825969, "landuse": "residential"}, {"type": "node", "id": 7278379206, "lat": 52.0325996, "lon": 23.1145897, "way_id": 779431748, "landuse": "residential"}, {"type": "node", "id": 7278379207, "lat": 52.0330287, "lon": 23.1145341, "way_id": 779431748, "landuse": "residential"}, {"type": "node", "id": 7278379208, "lat": 52.0337314, "lon": 23.1138921, "way_id": 779431748, "landuse": "residential"}, {"type": "node", "id": 7278379209, "lat": 52.0336706, "lon": 23.1137192, "way_id": 779431748, "landuse": "residential"}, {"type": "node", "id": 7278379210, "lat": 52.0340732, "lon": 23.1132315, "way_id": 779431748, "landuse": "residential"}, {"type": "node", "id": 7278379211, "lat": 52.0339897, "lon": 23.1128487, "way_id": 779431748, "landuse": "residential"}, {"type": "node", "id": 7278379212, "lat": 52.0347696, "lon": 23.1121172, "way_id": 779431748, "landuse": "residential"}, {"type": "node", "id": 7278379213, "lat": 52.0349695, "lon": 23.1120122, "way_id": 779431748, "landuse": "residential"}, {"type": "node", "id": 7278379214, "lat": 52.035243, "lon": 23.1120585, "way_id": 779431748, "landuse": "residential"}, {"type": "node", "id": 7278379215, "lat": 52.0355259, "lon": 23.1125925, "way_id": 779431748, "landuse": "residential"}, {"type": "node", "id": 7278379216, "lat": 52.0358468, "lon": 23.1122375, "way_id": 779431748, "landuse": "residential"}, {"type": "node", "id": 7278379217, "lat": 52.0364374, "lon": 23.1134784, "way_id": 779431748, "landuse": "residential"}, {"type": "node", "id": 7278379218, "lat": 52.0363994, "lon": 23.1137007, "way_id": 779431748, "landuse": "residential"}, {"type": "node", "id": 7278379219, "lat": 52.0360063, "lon": 23.1140372, "way_id": 779431748, "landuse": "residential"}, {"type": "node", "id": 7278379220, "lat": 52.0326983, "lon": 23.1162164, "way_id": 779431748, "landuse": "residential"}, {"type": "node", "id": 7278379221, "lat": 52.0325293, "lon": 23.1160714, "way_id": 779431748, "landuse": "residential"}, {"type": "node", "id": 7278379222, "lat": 52.0359304, "lon": 23.1142748, "way_id": 779431749, "landuse": "residential"}, {"type": "node", "id": 7278379223, "lat": 52.0325692, "lon": 23.1164757, "way_id": 779431749, "landuse": "residential"}, {"type": "node", "id": 7278379224, "lat": 52.0304289, "lon": 23.1177568, "way_id": 779431749, "landuse": "residential"}, {"type": "node", "id": 7278379225, "lat": 52.0301763, "lon": 23.1179914, "way_id": 779431749, "landuse": "residential"}, {"type": "node", "id": 7278379226, "lat": 52.0294888, "lon": 23.119044, "way_id": 779431749, "landuse": "residential"}, {"type": "node", "id": 7278379227, "lat": 52.0291564, "lon": 23.1192384, "way_id": 779431749, "landuse": "residential"}, {"type": "node", "id": 7278379228, "lat": 52.029354, "lon": 23.1205689, "way_id": 779431749, "landuse": "residential"}, {"type": "node", "id": 7278379229, "lat": 52.029692, "lon": 23.1204948, "way_id": 779431749, "landuse": "residential"}, {"type": "node", "id": 7278379230, "lat": 52.0300624, "lon": 23.1218499, "way_id": 779431749, "landuse": "residential"}, {"type": "node", "id": 7278379231, "lat": 52.0309379, "lon": 23.1238841, "way_id": 779431749, "landuse": "residential"}, {"type": "node", "id": 7278379232, "lat": 52.0312246, "lon": 23.1245046, "way_id": 779431749, "landuse": "residential"}, {"type": "node", "id": 7278379233, "lat": 52.0321164, "lon": 23.1234755, "way_id": 779431749, "landuse": "residential"}, {"type": "node", "id": 7278379235, "lat": 52.0328626, "lon": 23.1265866, "way_id": 779910398, "landuse": "residential"}, {"type": "node", "id": 7278379236, "lat": 52.0335282, "lon": 23.1291657, "way_id": 779910398, "landuse": "residential"}, {"type": "node", "id": 7278379237, "lat": 52.0346429, "lon": 23.1284063, "way_id": 779910398, "landuse": "residential"}, {"type": "node", "id": 7278379238, "lat": 52.0343514, "lon": 23.1270219, "way_id": 779910398, "landuse": "residential"}, {"type": "node", "id": 7278379239, "lat": 52.0341885, "lon": 23.1263625, "way_id": 779910398, "landuse": "residential"}, {"type": "node", "id": 7278379245, "lat": 52.0365418, "lon": 23.1244891, "way_id": 779431749, "landuse": "residential"}, {"type": "node", "id": 7278379246, "lat": 52.0365988, "lon": 23.124912, "way_id": 779431749, "landuse": "residential"}, {"type": "node", "id": 7278379247, "lat": 52.0366577, "lon": 23.1250479, "way_id": 779431749, "landuse": "residential"}, {"type": "node", "id": 7278379248, "lat": 52.037102, "lon": 23.1241187, "way_id": 779431749, "landuse": "residential"}, {"type": "node", "id": 7278379249, "lat": 52.0373963, "lon": 23.1235878, "way_id": 779431749, "landuse": "residential"}, {"type": "node", "id": 7278379250, "lat": 52.037702, "lon": 23.122779, "way_id": 779431749, "landuse": "residential"}, {"type": "node", "id": 7278379251, "lat": 52.0384995, "lon": 23.119899, "way_id": 779431749, "landuse": "residential"}, {"type": "node", "id": 7278379252, "lat": 52.0385527, "lon": 23.1195564, "way_id": 779431749, "landuse": "residential"}, {"type": "node", "id": 7278379253, "lat": 52.0384919, "lon": 23.1189884, "way_id": 779431749, "landuse": "residential"}, {"type": "node", "id": 7278379254, "lat": 52.0381445, "lon": 23.1181365, "way_id": 779431749, "landuse": "residential"}, {"type": "node", "id": 7278379255, "lat": 52.0377647, "lon": 23.1169202, "way_id": 779431749, "landuse": "residential"}, {"type": "node", "id": 7278379256, "lat": 52.0376508, "lon": 23.1164294, "way_id": 779431749, "landuse": "residential"}, {"type": "node", "id": 7278379257, "lat": 52.0369653, "lon": 23.1145835, "way_id": 779431749, "landuse": "residential"}, {"type": "node", "id": 7278379258, "lat": 52.0366425, "lon": 23.1139137, "way_id": 779431749, "landuse": "residential"}, {"type": "node", "id": 7282379684, "lat": 52.0352832, "lon": 23.1281406, "way_id": 779912703, "landuse": "residential"}, {"type": "node", "id": 7282417078, "lat": 52.0336898, "lon": 23.1246798, "way_id": 779910398, "landuse": "residential"}, {"type": "node", "id": 7282417079, "lat": 52.0340358, "lon": 23.1258083, "way_id": 779910398, "landuse": "residential"}, {"type": "node", "id": 7282417080, "lat": 52.0354946, "lon": 23.1253879, "way_id": 779431749, "landuse": "residential"}, {"type": "node", "id": 7282417081, "lat": 52.034494, "lon": 23.1224508, "way_id": 779431749, "landuse": "residential"}, {"type": "node", "id": 7282417082, "lat": 52.0333213, "lon": 23.1235966, "way_id": 779431749, "landuse": "residential"}, {"type": "node", "id": 7282417083, "lat": 52.0328941, "lon": 23.1240809, "way_id": 779431749, "landuse": "residential"}, {"type": "node", "id": 7282417084, "lat": 52.0327093, "lon": 23.1235931, "way_id": 779431749, "landuse": "residential"}, {"type": "node", "id": 7282426720, "lat": 52.0393859, "lon": 23.1309356, "way_id": 332393258, "landuse": "residential"}, {"type": "node", "id": 7282426721, "lat": 52.0389213, "lon": 23.1315342, "way_id": 332393258, "landuse": "residential"}, {"type": "node", "id": 7282426722, "lat": 52.0375713, "lon": 23.1330947, "way_id": 332393258, "landuse": "residential"}, {"type": "node", "id": 7282426723, "lat": 52.0383361, "lon": 23.141004, "way_id": 332393258, "landuse": "residential"}, {"type": "node", "id": 7282429685, "lat": 52.0323334, "lon": 23.1238743, "way_id": 779431749, "landuse": "residential"}, {"type": "node", "id": 7282429686, "lat": 52.0326025, "lon": 23.1258847, "way_id": 779910398, "landuse": "residential"}, {"type": "node", "id": 7282447985, "lat": 52.0361412, "lon": 23.1275528, "way_id": 779912703, "landuse": "residential"}, {"type": "node", "id": 7282447986, "lat": 52.0369993, "lon": 23.1299844, "way_id": 779912703, "landuse": "residential"}, {"type": "node", "id": 7282447987, "lat": 52.0371855, "lon": 23.130647, "way_id": 779912703, "landuse": "residential"}, {"type": "node", "id": 7282447988, "lat": 52.0372623, "lon": 23.1310639, "way_id": 779912703, "landuse": "residential"}, {"type": "node", "id": 7282447989, "lat": 52.0374584, "lon": 23.1330145, "way_id": 779912703, "landuse": "residential"}, {"type": "node", "id": 7282447990, "lat": 52.0373149, "lon": 23.1331356, "way_id": 779912703, "landuse": "residential"}, {"type": "node", "id": 7282447991, "lat": 52.0371538, "lon": 23.1332728, "way_id": 779912703, "landuse": "residential"}, {"type": "node", "id": 7282447992, "lat": 52.0363051, "lon": 23.1343168, "way_id": 779912703, "landuse": "residential"}, {"type": "node", "id": 7282447993, "lat": 52.0359373, "lon": 23.1344813, "way_id": 779912703, "landuse": "residential"}, {"type": "node", "id": 7282447994, "lat": 52.0354388, "lon": 23.1325389, "way_id": 779912703, "landuse": "residential"}, {"type": "node", "id": 7282447995, "lat": 52.0353467, "lon": 23.131992, "way_id": 779912703, "landuse": "residential"}, {"type": "node", "id": 7282447996, "lat": 52.0352656, "lon": 23.1311334, "way_id": 779912703, "landuse": "residential"}, {"type": "node", "id": 7282447997, "lat": 52.0351681, "lon": 23.1304636, "way_id": 779912703, "landuse": "residential"}, {"type": "node", "id": 7282447998, "lat": 52.0347462, "lon": 23.1285397, "way_id": 779912703, "landuse": "residential"}, {"type": "node", "id": 7282447999, "lat": 52.036344, "lon": 23.1270344, "way_id": 779912704, "landuse": "residential"}, {"type": "node", "id": 7282448000, "lat": 52.0364787, "lon": 23.126174, "way_id": 779912704, "landuse": "residential"}, {"type": "node", "id": 7282448001, "lat": 52.0366278, "lon": 23.1252967, "way_id": 779912704, "landuse": "residential"}, {"type": "node", "id": 7282448002, "lat": 52.0366656, "lon": 23.1251836, "way_id": 779912704, "landuse": "residential"}, {"type": "node", "id": 7282448003, "lat": 52.0368913, "lon": 23.1246857, "way_id": 779912704, "landuse": "residential"}, {"type": "node", "id": 7282448004, "lat": 52.0371812, "lon": 23.1241343, "way_id": 779912704, "landuse": "residential"}, {"type": "node", "id": 7282448005, "lat": 52.0374266, "lon": 23.1236961, "way_id": 779912704, "landuse": "residential"}, {"type": "node", "id": 7282448006, "lat": 52.0375603, "lon": 23.1234147, "way_id": 779912704, "landuse": "residential"}, {"type": "node", "id": 7282448007, "lat": 52.0377006, "lon": 23.1230762, "way_id": 779912704, "landuse": "residential"}, {"type": "node", "id": 7282448008, "lat": 52.0378343, "lon": 23.1226237, "way_id": 779912704, "landuse": "residential"}, {"type": "node", "id": 7282448009, "lat": 52.0385575, "lon": 23.1200051, "way_id": 779912704, "landuse": "residential"}, {"type": "node", "id": 7282448010, "lat": 52.0386101, "lon": 23.1197486, "way_id": 779912704, "landuse": "residential"}, {"type": "node", "id": 7282448011, "lat": 52.038632, "lon": 23.1194885, "way_id": 779912704, "landuse": "residential"}, {"type": "node", "id": 7282448012, "lat": 52.0386145, "lon": 23.1191821, "way_id": 779912704, "landuse": "residential"}, {"type": "node", "id": 7282448013, "lat": 52.0387109, "lon": 23.1191607, "way_id": 779912704, "landuse": "residential"}, {"type": "node", "id": 7282448014, "lat": 52.0389805, "lon": 23.12034, "way_id": 779912704, "landuse": "residential"}, {"type": "node", "id": 7282448015, "lat": 52.0417088, "lon": 23.1226344, "way_id": 779912704, "landuse": "residential"}, {"type": "node", "id": 7282448016, "lat": 52.0407008, "lon": 23.1262435, "way_id": 779912704, "landuse": "residential"}, {"type": "node", "id": 7282448017, "lat": 52.040291, "lon": 23.127633, "way_id": 779912704, "landuse": "residential"}, {"type": "node", "id": 7282448018, "lat": 52.0395722, "lon": 23.1301233, "way_id": 779912704, "landuse": "residential"}, {"type": "node", "id": 7282448019, "lat": 52.0392741, "lon": 23.1308501, "way_id": 779912704, "landuse": "residential"}, {"type": "node", "id": 7282448020, "lat": 52.0388512, "lon": 23.1313988, "way_id": 779912704, "landuse": "residential"}, {"type": "node", "id": 7282448021, "lat": 52.0375384, "lon": 23.1328702, "way_id": 779912704, "landuse": "residential"}, {"type": "node", "id": 7282448022, "lat": 52.0373675, "lon": 23.1310211, "way_id": 779912704, "landuse": "residential"}, {"type": "node", "id": 7282448023, "lat": 52.0373149, "lon": 23.1306221, "way_id": 779912704, "landuse": "residential"}, {"type": "node", "id": 7282448024, "lat": 52.0371308, "lon": 23.1300592, "way_id": 779912704, "landuse": "residential"}, {"type": "node", "id": 7282448025, "lat": 52.0362278, "lon": 23.1274477, "way_id": 779912704, "landuse": "residential"}, {"type": "node", "id": 7282490563, "lat": 52.0351479, "lon": 23.1353434, "way_id": 332394240, "landuse": "residential"}, {"type": "node", "id": 7282490564, "lat": 52.0352209, "lon": 23.1347377, "way_id": 779920919, "landuse": "residential"}, {"type": "node", "id": 7282490565, "lat": 52.0350898, "lon": 23.1348549, "way_id": 779920919, "landuse": "residential"}, {"type": "node", "id": 7282490566, "lat": 52.0349816, "lon": 23.1334105, "way_id": 779920919, "landuse": "residential"}, {"type": "node", "id": 7282490567, "lat": 52.0347291, "lon": 23.1325044, "way_id": 779920919, "landuse": "residential"}, {"type": "node", "id": 7282490568, "lat": 52.0348209, "lon": 23.1335704, "way_id": 779920919, "landuse": "residential"}, {"type": "node", "id": 7282490569, "lat": 52.0347389, "lon": 23.1317528, "way_id": 779920919, "landuse": "residential"}, {"type": "node", "id": 7282490570, "lat": 52.0345159, "lon": 23.1320033, "way_id": 779920919, "landuse": "residential"}, {"type": "node", "id": 7282490571, "lat": 52.0337027, "lon": 23.1300472, "way_id": 779920919, "landuse": "residential"}, {"type": "node", "id": 7282490572, "lat": 52.0345684, "lon": 23.1339808, "way_id": 779920919, "landuse": "residential"}, {"type": "node", "id": 7282490573, "lat": 52.0347291, "lon": 23.1338475, "way_id": 779920919, "landuse": "residential"}, {"type": "node", "id": 7282490574, "lat": 52.0340503, "lon": 23.1295782, "way_id": 779920919, "landuse": "residential"}, {"type": "node", "id": 7282490575, "lat": 52.0349209, "lon": 23.1345431, "way_id": 779920919, "landuse": "residential"}, {"type": "node", "id": 7282490576, "lat": 52.0345651, "lon": 23.1348443, "way_id": 779920919, "landuse": "residential"}, {"type": "node", "id": 7282490577, "lat": 52.0346389, "lon": 23.135196, "way_id": 779920919, "landuse": "residential"}, {"type": "node", "id": 7282490578, "lat": 52.0327354, "lon": 23.1356358, "way_id": 779920919, "landuse": "residential"}, {"type": "node", "id": 7282490579, "lat": 52.0319091, "lon": 23.1307215, "way_id": 779920919, "landuse": "residential"}, {"type": "node", "id": 7282490580, "lat": 52.0327453, "lon": 23.130375, "way_id": 779920919, "landuse": "residential"}, {"type": "node", "id": 7282490581, "lat": 52.0326403, "lon": 23.1295941, "way_id": 779920919, "landuse": "residential"}, {"type": "node", "id": 7282490582, "lat": 52.0330732, "lon": 23.1295515, "way_id": 779920919, "landuse": "residential"}, {"type": "node", "id": 7282490583, "lat": 52.0334388, "lon": 23.1293783, "way_id": 779920919, "landuse": "residential"}, {"type": "node", "id": 7282490584, "lat": 52.0346668, "lon": 23.1285948, "way_id": 779920919, "landuse": "residential"}, {"type": "node", "id": 7282502977, "lat": 52.0203445, "lon": 23.1285928, "way_id": 779926147, "landuse": "residential"}, {"type": "node", "id": 7282502978, "lat": 52.0203631, "lon": 23.1275726, "way_id": 779926147, "landuse": "residential"}, {"type": "node", "id": 7282502979, "lat": 52.0203401, "lon": 23.1265215, "way_id": 779926147, "landuse": "residential"}, {"type": "node", "id": 7282502980, "lat": 52.0203366, "lon": 23.1260879, "way_id": 779926147, "landuse": "residential"}, {"type": "node", "id": 7282502981, "lat": 52.0203348, "lon": 23.1255307, "way_id": 779926147, "landuse": "residential"}, {"type": "node", "id": 7282502982, "lat": 52.0203171, "lon": 23.1250253, "way_id": 779926147, "landuse": "residential"}, {"type": "node", "id": 7282502983, "lat": 52.0205133, "lon": 23.1249592, "way_id": 779926147, "landuse": "residential"}, {"type": "node", "id": 7282502984, "lat": 52.0205822, "lon": 23.1256399, "way_id": 779926147, "landuse": "residential"}, {"type": "node", "id": 7282523585, "lat": 52.0351324, "lon": 23.1306815, "way_id": 779920919, "landuse": "residential"}, {"type": "node", "id": 7282523586, "lat": 52.0351783, "lon": 23.1310333, "way_id": 779920919, "landuse": "residential"}, {"type": "node", "id": 7282523587, "lat": 52.0352832, "lon": 23.132022, "way_id": 779920919, "landuse": "residential"}, {"type": "node", "id": 7282523588, "lat": 52.0353734, "lon": 23.132571, "way_id": 779920919, "landuse": "residential"}, {"type": "node", "id": 7282523589, "lat": 52.0354439, "lon": 23.1328801, "way_id": 779920919, "landuse": "residential"}, {"type": "node", "id": 7282523590, "lat": 52.0358833, "lon": 23.1346177, "way_id": 779920919, "landuse": "residential"}, {"type": "node", "id": 7282523591, "lat": 52.0358374, "lon": 23.134799, "way_id": 779920919, "landuse": "residential"}, {"type": "node", "id": 7282523592, "lat": 52.0356406, "lon": 23.1349375, "way_id": 779920919, "landuse": "residential"}, {"type": "node", "id": 7282523593, "lat": 52.035116, "lon": 23.1350894, "way_id": 779920919, "landuse": "residential"}, {"type": "node", "id": 7282570085, "lat": 52.0206352, "lon": 23.1263751, "way_id": 779926147, "landuse": "residential"}, {"type": "node", "id": 7282570086, "lat": 52.0207041, "lon": 23.129715, "way_id": 779926147, "landuse": "residential"}, {"type": "node", "id": 7282570087, "lat": 52.0205999, "lon": 23.1300194, "way_id": 779926147, "landuse": "residential"}, {"type": "node", "id": 7282570088, "lat": 52.0203843, "lon": 23.1300338, "way_id": 779926147, "landuse": "residential"}, {"type": "node", "id": 7282570089, "lat": 52.0242085, "lon": 23.1291694, "way_id": 779926148, "landuse": "residential"}, {"type": "node", "id": 7282570090, "lat": 52.0241908, "lon": 23.1285002, "way_id": 779926148, "landuse": "residential"}, {"type": "node", "id": 7282570091, "lat": 52.0256098, "lon": 23.1286122, "way_id": 779926148, "landuse": "residential"}, {"type": "node", "id": 7282570092, "lat": 52.0256504, "lon": 23.1299218, "way_id": 779926148, "landuse": "residential"}, {"type": "node", "id": 7282570093, "lat": 52.0236395, "lon": 23.1300711, "way_id": 779926148, "landuse": "residential"}, {"type": "node", "id": 7282570094, "lat": 52.0236112, "lon": 23.1292096, "way_id": 779926148, "landuse": "residential"}, {"type": "node", "id": 7282570099, "lat": 52.0235847, "lon": 23.1282188, "way_id": 779926150, "landuse": "residential"}, {"type": "node", "id": 7282570100, "lat": 52.0241867, "lon": 23.1281607, "way_id": 779926150, "landuse": "residential"}, {"type": "node", "id": 7282570101, "lat": 52.0242279, "lon": 23.12734, "way_id": 779926150, "landuse": "residential"}, {"type": "node", "id": 7282570102, "lat": 52.0241148, "lon": 23.1265301, "way_id": 779926150, "landuse": "residential"}, {"type": "node", "id": 7282570103, "lat": 52.0239205, "lon": 23.1258122, "way_id": 779926150, "landuse": "residential"}, {"type": "node", "id": 7282570104, "lat": 52.0239311, "lon": 23.1247151, "way_id": 779926150, "landuse": "residential"}, {"type": "node", "id": 7282570105, "lat": 52.0234787, "lon": 23.1247439, "way_id": 779926150, "landuse": "residential"}, {"type": "node", "id": 7282570106, "lat": 52.020717, "lon": 23.1263675, "way_id": 779926151, "landuse": "residential"}, {"type": "node", "id": 7282570107, "lat": 52.020661, "lon": 23.1256574, "way_id": 779926151, "landuse": "residential"}, {"type": "node", "id": 7282570108, "lat": 52.0205956, "lon": 23.1249868, "way_id": 779926151, "landuse": "residential"}, {"type": "node", "id": 7282570109, "lat": 52.0204257, "lon": 23.1237943, "way_id": 779926151, "landuse": "residential"}, {"type": "node", "id": 7282570110, "lat": 52.0225488, "lon": 23.1214638, "way_id": 779926151, "landuse": "residential"}, {"type": "node", "id": 7282570111, "lat": 52.0228363, "lon": 23.1212059, "way_id": 779926151, "landuse": "residential"}, {"type": "node", "id": 7282570112, "lat": 52.022982, "lon": 23.1211725, "way_id": 779926151, "landuse": "residential"}, {"type": "node", "id": 7282570113, "lat": 52.0231108, "lon": 23.1213455, "way_id": 779926151, "landuse": "residential"}, {"type": "node", "id": 7282570114, "lat": 52.0232378, "lon": 23.1214122, "way_id": 779926151, "landuse": "residential"}, {"type": "node", "id": 7282570115, "lat": 52.0232639, "lon": 23.1224682, "way_id": 779926151, "landuse": "residential"}, {"type": "node", "id": 7282570116, "lat": 52.0232564, "lon": 23.1227504, "way_id": 779926151, "landuse": "residential"}, {"type": "node", "id": 7282570117, "lat": 52.0232079, "lon": 23.1231085, "way_id": 779926151, "landuse": "residential"}, {"type": "node", "id": 7282570118, "lat": 52.0226944, "lon": 23.1246591, "way_id": 779926151, "landuse": "residential"}, {"type": "node", "id": 7282570119, "lat": 52.0208346, "lon": 23.1294535, "way_id": 779926151, "landuse": "residential"}, {"type": "node", "id": 7282570120, "lat": 52.0207879, "lon": 23.1294383, "way_id": 779926151, "landuse": "residential"}, {"type": "node", "id": 7282570121, "lat": 52.0210083, "lon": 23.1303183, "way_id": 779926152, "landuse": "residential"}, {"type": "node", "id": 7282570122, "lat": 52.0208421, "lon": 23.1298722, "way_id": 779926152, "landuse": "residential"}, {"type": "node", "id": 7282570123, "lat": 52.020829, "lon": 23.1297266, "way_id": 779926152, "landuse": "residential"}, {"type": "node", "id": 7282570124, "lat": 52.0227579, "lon": 23.1247137, "way_id": 779926152, "landuse": "residential"}, {"type": "node", "id": 7282570125, "lat": 52.0230828, "lon": 23.1237457, "way_id": 779926152, "landuse": "residential"}, {"type": "node", "id": 7282570126, "lat": 52.0233311, "lon": 23.1237214, "way_id": 779926152, "landuse": "residential"}, {"type": "node", "id": 7282570127, "lat": 52.0235272, "lon": 23.1300877, "way_id": 779926152, "landuse": "residential"}, {"type": "node", "id": 7282570128, "lat": 52.0219625, "lon": 23.1302181, "way_id": 779926152, "landuse": "residential"}, {"type": "node", "id": 7282570129, "lat": 52.0210774, "lon": 23.1303577, "way_id": 779926152, "landuse": "residential"}, {"type": "node", "id": 7282570130, "lat": 52.0210699, "lon": 23.1305307, "way_id": 779926153, "landuse": "residential"}, {"type": "node", "id": 7282570131, "lat": 52.0210101, "lon": 23.1305762, "way_id": 779926153, "landuse": "residential"}, {"type": "node", "id": 7282570132, "lat": 52.0210363, "lon": 23.1314926, "way_id": 779926153, "landuse": "residential"}, {"type": "node", "id": 7282570133, "lat": 52.0212641, "lon": 23.1314805, "way_id": 779926153, "landuse": "residential"}, {"type": "node", "id": 7282570134, "lat": 52.0213463, "lon": 23.1340112, "way_id": 779926153, "landuse": "residential"}, {"type": "node", "id": 7282570135, "lat": 52.0221118, "lon": 23.1339565, "way_id": 779926153, "landuse": "residential"}, {"type": "node", "id": 7282570136, "lat": 52.0219737, "lon": 23.1303881, "way_id": 779926153, "landuse": "residential"}, {"type": "node", "id": 7282570137, "lat": 52.0220782, "lon": 23.1303334, "way_id": 779926154, "landuse": "residential"}, {"type": "node", "id": 7282570138, "lat": 52.0235328, "lon": 23.1302515, "way_id": 779926154, "landuse": "residential"}, {"type": "node", "id": 7282570139, "lat": 52.0237176, "lon": 23.1360837, "way_id": 779926154, "landuse": "residential"}, {"type": "node", "id": 7282570140, "lat": 52.0222612, "lon": 23.1357286, "way_id": 779926154, "landuse": "residential"}, {"type": "node", "id": 7282572796, "lat": 52.0452633, "lon": 23.1395512, "way_id": 779927525, "landuse": "residential"}, {"type": "node", "id": 7282572797, "lat": 52.0449132, "lon": 23.1393794, "way_id": 332389585, "landuse": "residential"}, {"type": "node", "id": 7282572798, "lat": 52.0458337, "lon": 23.1369495, "way_id": 332389585, "landuse": "residential"}, {"type": "node", "id": 7282572799, "lat": 52.0433377, "lon": 23.136634, "way_id": 332389585, "landuse": "residential"}, {"type": "node", "id": 7282572800, "lat": 52.0418737, "lon": 23.1352915, "way_id": 332389585, "landuse": "residential"}, {"type": "node", "id": 7282572801, "lat": 52.0417978, "lon": 23.1355274, "way_id": 332389585, "landuse": "residential"}, {"type": "node", "id": 7282572802, "lat": 52.0422397, "lon": 23.1365977, "way_id": 332389585, "landuse": "residential"}, {"type": "node", "id": 7282572803, "lat": 52.043052, "lon": 23.1374685, "way_id": 332389585, "landuse": "residential"}, {"type": "node", "id": 7282572804, "lat": 52.0415545, "lon": 23.1353133, "way_id": 332389585, "landuse": "residential"}, {"type": "node", "id": 7282572805, "lat": 52.0413939, "lon": 23.1358104, "way_id": 332389585, "landuse": "residential"}, {"type": "node", "id": 7282572806, "lat": 52.0407634, "lon": 23.1373778, "way_id": 332393258, "landuse": "residential"}, {"type": "node", "id": 7282572807, "lat": 52.0398807, "lon": 23.1395475, "way_id": 332393258, "landuse": "residential"}, {"type": "node", "id": 7443172439, "lat": 52.0360589, "lon": 23.1345694, "way_id": 779912703, "landuse": "residential"}, {"type": "node", "id": 7556673735, "lat": 52.0327883, "lon": 23.1359082, "way_id": 779920918, "landuse": "residential"}]