[{"type": "node", "id": 436550996, "lat": 51.1931969, "lon": 16.1301251, "way_id": 430489757, "landuse": "residential"}, {"type": "node", "id": 470560180, "lat": 51.2073577, "lon": 16.1889181, "way_id": 39269750, "landuse": "meadow"}, {"type": "node", "id": 470560181, "lat": 51.2073193, "lon": 16.1881454, "way_id": 39269750, "landuse": "meadow"}, {"type": "node", "id": 470560182, "lat": 51.2077603, "lon": 16.1880082, "way_id": 39269750, "landuse": "meadow"}, {"type": "node", "id": 470560184, "lat": 51.2077603, "lon": 16.1885428, "way_id": 39269750, "landuse": "meadow"}, {"type": "node", "id": 470560185, "lat": 51.2076783, "lon": 16.1886053, "way_id": 39269750, "landuse": "meadow"}, {"type": "node", "id": 470560186, "lat": 51.2075827, "lon": 16.1886745, "way_id": 39269750, "landuse": "meadow"}, {"type": "node", "id": 470560192, "lat": 51.2075663, "lon": 16.1888265, "way_id": 39269750, "landuse": "meadow"}, {"type": "node", "id": 470560195, "lat": 51.2074175, "lon": 16.1888145, "way_id": 39269750, "landuse": "meadow"}, {"type": "node", "id": 470560199, "lat": 51.2075298, "lon": 16.188874, "way_id": 39269750, "landuse": "meadow"}, {"type": "node", "id": 472627635, "lat": 51.2040727, "lon": 16.1872626, "way_id": 39465150, "landuse": "meadow"}, {"type": "node", "id": 472627636, "lat": 51.203303, "lon": 16.187263, "way_id": 39465150, "landuse": "meadow"}, {"type": "node", "id": 472627637, "lat": 51.2033233, "lon": 16.1869651, "way_id": 39465150, "landuse": "meadow"}, {"type": "node", "id": 472627638, "lat": 51.2040737, "lon": 16.1870548, "way_id": 39465150, "landuse": "meadow"}, {"type": "node", "id": 472627639, "lat": 51.2035845, "lon": 16.1870297, "way_id": 39465150, "landuse": "meadow"}, {"type": "node", "id": 472627640, "lat": 51.2035392, "lon": 16.1860698, "way_id": 39465150, "landuse": "meadow"}, {"type": "node", "id": 472627641, "lat": 51.2035908, "lon": 16.1860483, "way_id": 39465150, "landuse": "meadow"}, {"type": "node", "id": 472627643, "lat": 51.2034924, "lon": 16.1862456, "way_id": 39465150, "landuse": "meadow"}, {"type": "node", "id": 473079836, "lat": 51.2118353, "lon": 16.1725842, "way_id": 39493072, "landuse": "meadow"}, {"type": "node", "id": 473079837, "lat": 51.2117936, "lon": 16.1740057, "way_id": 39493072, "landuse": "meadow"}, {"type": "node", "id": 473079838, "lat": 51.2117881, "lon": 16.1741936, "way_id": 39493072, "landuse": "meadow"}, {"type": "node", "id": 473079839, "lat": 51.2114126, "lon": 16.1741656, "way_id": 39493072, "landuse": "meadow"}, {"type": "node", "id": 473079840, "lat": 51.2114436, "lon": 16.173109, "way_id": 39493072, "landuse": "meadow"}, {"type": "node", "id": 473079841, "lat": 51.2114598, "lon": 16.1725562, "way_id": 39493072, "landuse": "meadow"}, {"type": "node", "id": 500860996, "lat": 51.2040089, "lon": 16.1860366, "way_id": 41077991, "landuse": "meadow"}, {"type": "node", "id": 500860997, "lat": 51.2040089, "lon": 16.1861248, "way_id": 41077991, "landuse": "meadow"}, {"type": "node", "id": 500860998, "lat": 51.2038172, "lon": 16.1861265, "way_id": 41077991, "landuse": "meadow"}, {"type": "node", "id": 500860999, "lat": 51.2038194, "lon": 16.1859704, "way_id": 41077991, "landuse": "meadow"}, {"type": "node", "id": 500861001, "lat": 51.2035736, "lon": 16.1859786, "way_id": 41077991, "landuse": "meadow"}, {"type": "node", "id": 500861002, "lat": 51.2038539, "lon": 16.1850493, "way_id": 41077991, "landuse": "meadow"}, {"type": "node", "id": 500861003, "lat": 51.2040076, "lon": 16.1850472, "way_id": 41077991, "landuse": "meadow"}, {"type": "node", "id": 500861004, "lat": 51.2040062, "lon": 16.1851827, "way_id": 41077991, "landuse": "meadow"}, {"type": "node", "id": 500861005, "lat": 51.2038593, "lon": 16.1851827, "way_id": 41077991, "landuse": "meadow"}, {"type": "node", "id": 500861006, "lat": 51.2038607, "lon": 16.1860366, "way_id": 41077991, "landuse": "meadow"}, {"type": "node", "id": 500861085, "lat": 51.208235, "lon": 16.1799429, "way_id": 41078008, "landuse": "meadow"}, {"type": "node", "id": 500861086, "lat": 51.2081982, "lon": 16.1806277, "way_id": 41078008, "landuse": "meadow"}, {"type": "node", "id": 500861088, "lat": 51.2081797, "lon": 16.1808714, "way_id": 41078008, "landuse": "meadow"}, {"type": "node", "id": 500861089, "lat": 51.207735, "lon": 16.1808126, "way_id": 41078008, "landuse": "meadow"}, {"type": "node", "id": 500861090, "lat": 51.2077377, "lon": 16.1799429, "way_id": 41078008, "landuse": "meadow"}, {"type": "node", "id": 500861118, "lat": 51.2099386, "lon": 16.1828231, "way_id": 685413549, "landuse": "residential"}, {"type": "node", "id": 510903998, "lat": 51.2110548, "lon": 16.1886124, "way_id": 41605614, "landuse": "meadow"}, {"type": "node", "id": 510903999, "lat": 51.2111266, "lon": 16.1910156, "way_id": 41605614, "landuse": "meadow"}, {"type": "node", "id": 510904001, "lat": 51.2102416, "lon": 16.1909756, "way_id": 41605614, "landuse": "meadow"}, {"type": "node", "id": 510904002, "lat": 51.2103423, "lon": 16.1885464, "way_id": 41605614, "landuse": "meadow"}, {"type": "node", "id": 510904022, "lat": 51.2098625, "lon": 16.1900914, "way_id": 41605614, "landuse": "meadow"}, {"type": "node", "id": 510904023, "lat": 51.2098906, "lon": 16.1885143, "way_id": 41605614, "landuse": "meadow"}, {"type": "node", "id": 681477967, "lat": 51.208407, "lon": 16.1777589, "way_id": 54044284, "landuse": "meadow"}, {"type": "node", "id": 681477968, "lat": 51.2085798, "lon": 16.1777863, "way_id": 54044284, "landuse": "meadow"}, {"type": "node", "id": 681477973, "lat": 51.208356, "lon": 16.1784076, "way_id": 54044284, "landuse": "meadow"}, {"type": "node", "id": 681477974, "lat": 51.2084935, "lon": 16.1784214, "way_id": 54044284, "landuse": "meadow"}, {"type": "node", "id": 681477975, "lat": 51.2085364, "lon": 16.1783459, "way_id": 54044284, "landuse": "meadow"}, {"type": "node", "id": 686987284, "lat": 51.2075713, "lon": 16.1778491, "way_id": 54542931, "landuse": "meadow"}, {"type": "node", "id": 686987291, "lat": 51.2074894, "lon": 16.1779275, "way_id": 54542931, "landuse": "meadow"}, {"type": "node", "id": 686987293, "lat": 51.2076039, "lon": 16.1778831, "way_id": 54542931, "landuse": "meadow"}, {"type": "node", "id": 686987295, "lat": 51.207581, "lon": 16.1779653, "way_id": 54542931, "landuse": "meadow"}, {"type": "node", "id": 686987296, "lat": 51.2075873, "lon": 16.1780549, "way_id": 54542931, "landuse": "meadow"}, {"type": "node", "id": 686987297, "lat": 51.2079217, "lon": 16.1778994, "way_id": 54542931, "landuse": "meadow"}, {"type": "node", "id": 686987300, "lat": 51.2080922, "lon": 16.1781455, "way_id": 54542931, "landuse": "meadow"}, {"type": "node", "id": 761235720, "lat": 51.2081082, "lon": 16.1779229, "way_id": 54542931, "landuse": "meadow"}, {"type": "node", "id": 761235753, "lat": 51.2080142, "lon": 16.1778654, "way_id": 54542931, "landuse": "meadow"}, {"type": "node", "id": 828845945, "lat": 51.1623265, "lon": 16.1845944, "way_id": 697616253, "landuse": "meadow"}, {"type": "node", "id": 1729254252, "lat": 51.1970285, "lon": 16.1995221, "way_id": 391372451, "landuse": "meadow"}, {"type": "node", "id": 1732938188, "lat": 51.1961758, "lon": 16.2006902, "way_id": 391372451, "landuse": "meadow"}, {"type": "node", "id": 1732938189, "lat": 51.196341, "lon": 16.1993042, "way_id": 391372451, "landuse": "meadow"}, {"type": "node", "id": 1770678176, "lat": 51.1936224, "lon": 16.1953147, "way_id": 391372451, "landuse": "meadow"}, {"type": "node", "id": 1770678178, "lat": 51.1936307, "lon": 16.195358, "way_id": 391372451, "landuse": "meadow"}, {"type": "node", "id": 1828982396, "lat": 51.1939235, "lon": 16.1307851, "way_id": 430489757, "landuse": "residential"}, {"type": "node", "id": 2002820237, "lat": 51.1933172, "lon": 16.129631, "way_id": 430489757, "landuse": "residential"}, {"type": "node", "id": 2002820243, "lat": 51.1944565, "lon": 16.1318213, "way_id": 430489757, "landuse": "residential"}, {"type": "node", "id": 2047234658, "lat": 51.1973621, "lon": 16.1330703, "way_id": 194209669, "landuse": "meadow"}, {"type": "node", "id": 2047234662, "lat": 51.1972706, "lon": 16.1337424, "way_id": 194209669, "landuse": "meadow"}, {"type": "node", "id": 2047234666, "lat": 51.1975003, "lon": 16.1324905, "way_id": 194209669, "landuse": "meadow"}, {"type": "node", "id": 2047234670, "lat": 51.1975633, "lon": 16.1319803, "way_id": 194209669, "landuse": "meadow"}, {"type": "node", "id": 2047234674, "lat": 51.1972695, "lon": 16.1338102, "way_id": 194209669, "landuse": "meadow"}, {"type": "node", "id": 2047234678, "lat": 51.1976476, "lon": 16.1316096, "way_id": 194209669, "landuse": "meadow"}, {"type": "node", "id": 2047234682, "lat": 51.1977275, "lon": 16.1315161, "way_id": 194209669, "landuse": "meadow"}, {"type": "node", "id": 2047234685, "lat": 51.1976006, "lon": 16.1338482, "way_id": 194209669, "landuse": "meadow"}, {"type": "node", "id": 2047234690, "lat": 51.1976433, "lon": 16.1338177, "way_id": 194209669, "landuse": "meadow"}, {"type": "node", "id": 2047234694, "lat": 51.1979347, "lon": 16.1315005, "way_id": 194209669, "landuse": "meadow"}, {"type": "node", "id": 2047234698, "lat": 51.1977297, "lon": 16.1332406, "way_id": 194209669, "landuse": "meadow"}, {"type": "node", "id": 2047234722, "lat": 51.1981435, "lon": 16.1315644, "way_id": 194209669, "landuse": "meadow"}, {"type": "node", "id": 2047234726, "lat": 51.1977766, "lon": 16.1331852, "way_id": 194209669, "landuse": "meadow"}, {"type": "node", "id": 2047234730, "lat": 51.1982711, "lon": 16.1332975, "way_id": 194209669, "landuse": "meadow"}, {"type": "node", "id": 2047234734, "lat": 51.1982804, "lon": 16.1316153, "way_id": 194209669, "landuse": "meadow"}, {"type": "node", "id": 2047234737, "lat": 51.1983355, "lon": 16.1325355, "way_id": 194209669, "landuse": "meadow"}, {"type": "node", "id": 2047234739, "lat": 51.198312, "lon": 16.1317626, "way_id": 194209669, "landuse": "meadow"}, {"type": "node", "id": 2047234741, "lat": 51.1983062, "lon": 16.1324603, "way_id": 194209669, "landuse": "meadow"}, {"type": "node", "id": 2080573842, "lat": 51.1962157, "lon": 16.1583205, "way_id": 197858569, "landuse": "residential"}, {"type": "node", "id": 2080573898, "lat": 51.1964283, "lon": 16.1583211, "way_id": 197858569, "landuse": "residential"}, {"type": "node", "id": 2080573899, "lat": 51.1964477, "lon": 16.158322, "way_id": 197858569, "landuse": "residential"}, {"type": "node", "id": 2080573919, "lat": 51.1965389, "lon": 16.1568839, "way_id": 197858569, "landuse": "residential"}, {"type": "node", "id": 2080573945, "lat": 51.1966731, "lon": 16.1583233, "way_id": 197858569, "landuse": "residential"}, {"type": "node", "id": 2080573962, "lat": 51.1967726, "lon": 16.1577542, "way_id": 197858569, "landuse": "residential"}, {"type": "node", "id": 2080573964, "lat": 51.1968002, "lon": 16.1583309, "way_id": 197858569, "landuse": "residential"}, {"type": "node", "id": 2080573968, "lat": 51.1968288, "lon": 16.1577621, "way_id": 197858569, "landuse": "residential"}, {"type": "node", "id": 2169257869, "lat": 51.1773785, "lon": 16.1442819, "way_id": 206875363, "landuse": "residential"}, {"type": "node", "id": 2169257870, "lat": 51.1775632, "lon": 16.1419734, "way_id": 206875363, "landuse": "residential"}, {"type": "node", "id": 2169257872, "lat": 51.1776908, "lon": 16.1417216, "way_id": 206875363, "landuse": "residential"}, {"type": "node", "id": 2169257874, "lat": 51.1780769, "lon": 16.1417163, "way_id": 206875363, "landuse": "residential"}, {"type": "node", "id": 2169257877, "lat": 51.178275, "lon": 16.1410039, "way_id": 206875363, "landuse": "residential"}, {"type": "node", "id": 2169257881, "lat": 51.1785806, "lon": 16.1449353, "way_id": 206875363, "landuse": "residential"}, {"type": "node", "id": 2169257887, "lat": 51.179054, "lon": 16.1418663, "way_id": 206875363, "landuse": "residential"}, {"type": "node", "id": 2267914209, "lat": 51.2168163, "lon": 16.2426912, "way_id": 217510621, "landuse": "residential"}, {"type": "node", "id": 2267914210, "lat": 51.2168249, "lon": 16.2446026, "way_id": 217510621, "landuse": "residential"}, {"type": "node", "id": 2267914211, "lat": 51.2172908, "lon": 16.2689758, "way_id": 217510621, "landuse": "residential"}, {"type": "node", "id": 2267914212, "lat": 51.2174908, "lon": 16.2267294, "way_id": 217510621, "landuse": "residential"}, {"type": "node", "id": 2267914213, "lat": 51.2175524, "lon": 16.2426736, "way_id": 217510621, "landuse": "residential"}, {"type": "node", "id": 2267914214, "lat": 51.2176823, "lon": 16.2543723, "way_id": 217510621, "landuse": "residential"}, {"type": "node", "id": 2267914215, "lat": 51.2177688, "lon": 16.2493493, "way_id": 217510621, "landuse": "residential"}, {"type": "node", "id": 2267914216, "lat": 51.2178081, "lon": 16.2529282, "way_id": 217510621, "landuse": "residential"}, {"type": "node", "id": 2267914217, "lat": 51.2163457, "lon": 16.2276459, "way_id": 217510621, "landuse": "residential"}, {"type": "node", "id": 2267914218, "lat": 51.2178553, "lon": 16.2647824, "way_id": 217510621, "landuse": "residential"}, {"type": "node", "id": 2267914220, "lat": 51.217934, "lon": 16.2547113, "way_id": 217510621, "landuse": "residential"}, {"type": "node", "id": 2267914221, "lat": 51.2163986, "lon": 16.2292767, "way_id": 217510621, "landuse": "residential"}, {"type": "node", "id": 2267914222, "lat": 51.2179576, "lon": 16.2433343, "way_id": 217510621, "landuse": "residential"}, {"type": "node", "id": 2267914224, "lat": 51.2178952, "lon": 16.2466793, "way_id": 217510621, "landuse": "residential"}, {"type": "node", "id": 2267914225, "lat": 51.2179246, "lon": 16.2349676, "way_id": 217510621, "landuse": "residential"}, {"type": "node", "id": 2267914226, "lat": 51.218052, "lon": 16.2472773, "way_id": 217510621, "landuse": "residential"}, {"type": "node", "id": 2267914227, "lat": 51.218107, "lon": 16.2506553, "way_id": 217510621, "landuse": "residential"}, {"type": "node", "id": 2267914228, "lat": 51.2176981, "lon": 16.2381387, "way_id": 217510621, "landuse": "residential"}, {"type": "node", "id": 2267914229, "lat": 51.2182093, "lon": 16.2496507, "way_id": 217510621, "landuse": "residential"}, {"type": "node", "id": 2267914230, "lat": 51.2171564, "lon": 16.2350336, "way_id": 217510621, "landuse": "residential"}, {"type": "node", "id": 2267914231, "lat": 51.2182636, "lon": 16.2688307, "way_id": 217510621, "landuse": "residential"}, {"type": "node", "id": 2267914232, "lat": 51.2183186, "lon": 16.2659299, "way_id": 217510621, "landuse": "residential"}, {"type": "node", "id": 2267914233, "lat": 51.218369, "lon": 16.2596013, "way_id": 217510621, "landuse": "residential"}, {"type": "node", "id": 2267914234, "lat": 51.2175063, "lon": 16.227585, "way_id": 217510621, "landuse": "residential"}, {"type": "node", "id": 2267914235, "lat": 51.218413, "lon": 16.2650509, "way_id": 217510621, "landuse": "residential"}, {"type": "node", "id": 2267914236, "lat": 51.2182345, "lon": 16.2693169, "way_id": 217510621, "landuse": "residential"}, {"type": "node", "id": 2267914238, "lat": 51.2184452, "lon": 16.2435352, "way_id": 217510621, "landuse": "residential"}, {"type": "node", "id": 2267914239, "lat": 51.2185789, "lon": 16.2413879, "way_id": 217510621, "landuse": "residential"}, {"type": "node", "id": 2267914240, "lat": 51.2186183, "lon": 16.2405717, "way_id": 217510621, "landuse": "residential"}, {"type": "node", "id": 2267914241, "lat": 51.2187048, "lon": 16.2581521, "way_id": 217510621, "landuse": "residential"}, {"type": "node", "id": 2267914242, "lat": 51.2187834, "lon": 16.2623463, "way_id": 217510621, "landuse": "residential"}, {"type": "node", "id": 2267914243, "lat": 51.2189243, "lon": 16.2634561, "way_id": 217510621, "landuse": "residential"}, {"type": "node", "id": 2267914244, "lat": 51.2189329, "lon": 16.2548244, "way_id": 217510621, "landuse": "residential"}, {"type": "node", "id": 2267914245, "lat": 51.2193074, "lon": 16.2626129, "way_id": 217510621, "landuse": "residential"}, {"type": "node", "id": 2267914246, "lat": 51.2194563, "lon": 16.2598952, "way_id": 217510621, "landuse": "residential"}, {"type": "node", "id": 2267914247, "lat": 51.2195936, "lon": 16.2605631, "way_id": 217510621, "landuse": "residential"}, {"type": "node", "id": 2267914248, "lat": 51.2204659, "lon": 16.2566875, "way_id": 217510621, "landuse": "residential"}, {"type": "node", "id": 2267914250, "lat": 51.2205856, "lon": 16.2585454, "way_id": 217510621, "landuse": "residential"}, {"type": "node", "id": 2267914251, "lat": 51.2204279, "lon": 16.2600159, "way_id": 217510621, "landuse": "residential"}, {"type": "node", "id": 2267914252, "lat": 51.2230832, "lon": 16.2333814, "way_id": 217510621, "landuse": "residential"}, {"type": "node", "id": 2267914253, "lat": 51.221029, "lon": 16.2550164, "way_id": 217510621, "landuse": "residential"}, {"type": "node", "id": 2267914254, "lat": 51.2222857, "lon": 16.2544048, "way_id": 217510621, "landuse": "residential"}, {"type": "node", "id": 2267914255, "lat": 51.2234907, "lon": 16.2377467, "way_id": 217510621, "landuse": "residential"}, {"type": "node", "id": 2267914257, "lat": 51.2232948, "lon": 16.2394393, "way_id": 217510621, "landuse": "residential"}, {"type": "node", "id": 2267914258, "lat": 51.2241715, "lon": 16.2541139, "way_id": 217510621, "landuse": "residential"}, {"type": "node", "id": 2267914259, "lat": 51.2233049, "lon": 16.2417092, "way_id": 217510621, "landuse": "residential"}, {"type": "node", "id": 2267914260, "lat": 51.2257758, "lon": 16.2551185, "way_id": 217510621, "landuse": "residential"}, {"type": "node", "id": 2267914262, "lat": 51.2266077, "lon": 16.2543016, "way_id": 217510621, "landuse": "residential"}, {"type": "node", "id": 2267914264, "lat": 51.2265191, "lon": 16.2482944, "way_id": 217510621, "landuse": "residential"}, {"type": "node", "id": 2267914265, "lat": 51.2250545, "lon": 16.2432596, "way_id": 217510621, "landuse": "residential"}, {"type": "node", "id": 2267914266, "lat": 51.2270098, "lon": 16.2525766, "way_id": 217510621, "landuse": "residential"}, {"type": "node", "id": 2267914267, "lat": 51.2270507, "lon": 16.2546304, "way_id": 217510621, "landuse": "residential"}, {"type": "node", "id": 2267914268, "lat": 51.2271756, "lon": 16.2580569, "way_id": 217510621, "landuse": "residential"}, {"type": "node", "id": 2267914269, "lat": 51.2275163, "lon": 16.2448728, "way_id": 217510621, "landuse": "residential"}, {"type": "node", "id": 2267914271, "lat": 51.2274266, "lon": 16.2528403, "way_id": 217510621, "landuse": "residential"}, {"type": "node", "id": 2267914272, "lat": 51.2268681, "lon": 16.2444303, "way_id": 217510621, "landuse": "residential"}, {"type": "node", "id": 2267914273, "lat": 51.2277496, "lon": 16.251777, "way_id": 217510621, "landuse": "residential"}, {"type": "node", "id": 2267914274, "lat": 51.2275121, "lon": 16.2496892, "way_id": 217510621, "landuse": "residential"}, {"type": "node", "id": 2267914275, "lat": 51.2278189, "lon": 16.2465054, "way_id": 217510621, "landuse": "residential"}, {"type": "node", "id": 2267914276, "lat": 51.2279947, "lon": 16.2451625, "way_id": 217510621, "landuse": "residential"}, {"type": "node", "id": 2267914277, "lat": 51.2281801, "lon": 16.2552178, "way_id": 217510621, "landuse": "residential"}, {"type": "node", "id": 2267914278, "lat": 51.2289866, "lon": 16.2595005, "way_id": 217510621, "landuse": "residential"}, {"type": "node", "id": 2267914279, "lat": 51.2292938, "lon": 16.2658181, "way_id": 217510621, "landuse": "residential"}, {"type": "node", "id": 2267914280, "lat": 51.2290489, "lon": 16.2556881, "way_id": 217510621, "landuse": "residential"}, {"type": "node", "id": 2267914281, "lat": 51.2300295, "lon": 16.2564066, "way_id": 217510621, "landuse": "residential"}, {"type": "node", "id": 2267914282, "lat": 51.2300804, "lon": 16.2678487, "way_id": 217510621, "landuse": "residential"}, {"type": "node", "id": 2267914284, "lat": 51.2306192, "lon": 16.2574614, "way_id": 217510621, "landuse": "residential"}, {"type": "node", "id": 2267914286, "lat": 51.2307608, "lon": 16.2567205, "way_id": 217510621, "landuse": "residential"}, {"type": "node", "id": 2267914288, "lat": 51.2304735, "lon": 16.2686674, "way_id": 217510621, "landuse": "residential"}, {"type": "node", "id": 2267914290, "lat": 51.2330016, "lon": 16.2713053, "way_id": 217510621, "landuse": "residential"}, {"type": "node", "id": 2267914292, "lat": 51.2314057, "lon": 16.2705877, "way_id": 217510621, "landuse": "residential"}, {"type": "node", "id": 2267914294, "lat": 51.2319874, "lon": 16.2578884, "way_id": 217510621, "landuse": "residential"}, {"type": "node", "id": 2267914296, "lat": 51.2331971, "lon": 16.2702608, "way_id": 217510621, "landuse": "residential"}, {"type": "node", "id": 2267914298, "lat": 51.2319009, "lon": 16.2670419, "way_id": 217510621, "landuse": "residential"}, {"type": "node", "id": 2267918401, "lat": 51.217912, "lon": 16.2284118, "way_id": 217510621, "landuse": "residential"}, {"type": "node", "id": 2267918402, "lat": 51.2189861, "lon": 16.2322922, "way_id": 217510621, "landuse": "residential"}, {"type": "node", "id": 2267918403, "lat": 51.2189164, "lon": 16.2284059, "way_id": 217510621, "landuse": "residential"}, {"type": "node", "id": 2267918404, "lat": 51.2189437, "lon": 16.2267247, "way_id": 217510621, "landuse": "residential"}, {"type": "node", "id": 2267918406, "lat": 51.2200478, "lon": 16.2613976, "way_id": 217510621, "landuse": "residential"}, {"type": "node", "id": 2267918407, "lat": 51.2200164, "lon": 16.2341722, "way_id": 217510621, "landuse": "residential"}, {"type": "node", "id": 2267918408, "lat": 51.220569, "lon": 16.2343019, "way_id": 217510621, "landuse": "residential"}, {"type": "node", "id": 2267918409, "lat": 51.2210728, "lon": 16.2333158, "way_id": 217510621, "landuse": "residential"}, {"type": "node", "id": 2267918410, "lat": 51.2212353, "lon": 16.2348468, "way_id": 217510621, "landuse": "residential"}, {"type": "node", "id": 2267918411, "lat": 51.2216254, "lon": 16.2370525, "way_id": 217510621, "landuse": "residential"}, {"type": "node", "id": 2267918412, "lat": 51.2219179, "lon": 16.2328487, "way_id": 217510621, "landuse": "residential"}, {"type": "node", "id": 2267918413, "lat": 51.2219667, "lon": 16.2389728, "way_id": 217510621, "landuse": "residential"}, {"type": "node", "id": 2267918414, "lat": 51.2221942, "lon": 16.2412304, "way_id": 217510621, "landuse": "residential"}, {"type": "node", "id": 2267918415, "lat": 51.2222755, "lon": 16.2293456, "way_id": 217510621, "landuse": "residential"}, {"type": "node", "id": 2267918416, "lat": 51.2237355, "lon": 16.2301033, "way_id": 217510621, "landuse": "residential"}, {"type": "node", "id": 2267918417, "lat": 51.2243719, "lon": 16.2423462, "way_id": 217510621, "landuse": "residential"}, {"type": "node", "id": 2267918418, "lat": 51.2269558, "lon": 16.2462905, "way_id": 217510621, "landuse": "residential"}, {"type": "node", "id": 2267918419, "lat": 51.2280771, "lon": 16.2508056, "way_id": 217510621, "landuse": "residential"}, {"type": "node", "id": 2267918420, "lat": 51.227496, "lon": 16.2548546, "way_id": 217510621, "landuse": "residential"}, {"type": "node", "id": 2267918421, "lat": 51.2294583, "lon": 16.2628461, "way_id": 217510621, "landuse": "residential"}, {"type": "node", "id": 2267918423, "lat": 51.2294908, "lon": 16.2608999, "way_id": 217510621, "landuse": "residential"}, {"type": "node", "id": 2267918424, "lat": 51.2301733, "lon": 16.2607702, "way_id": 217510621, "landuse": "residential"}, {"type": "node", "id": 2267918425, "lat": 51.230222, "lon": 16.2581752, "way_id": 217510621, "landuse": "residential"}, {"type": "node", "id": 2267918426, "lat": 51.2305795, "lon": 16.2639879, "way_id": 217510621, "landuse": "residential"}, {"type": "node", "id": 2267918427, "lat": 51.2307095, "lon": 16.2632613, "way_id": 217510621, "landuse": "residential"}, {"type": "node", "id": 2267918428, "lat": 51.2322553, "lon": 16.2646845, "way_id": 217510621, "landuse": "residential"}, {"type": "node", "id": 2267918429, "lat": 51.2324319, "lon": 16.2586942, "way_id": 217510621, "landuse": "residential"}, {"type": "node", "id": 2267918430, "lat": 51.2334872, "lon": 16.2675377, "way_id": 217510621, "landuse": "residential"}, {"type": "node", "id": 2302571093, "lat": 51.207259, "lon": 16.1359097, "way_id": 343480920, "landuse": "residential"}, {"type": "node", "id": 2302571094, "lat": 51.2073061, "lon": 16.1328789, "way_id": 343480920, "landuse": "residential"}, {"type": "node", "id": 2302571097, "lat": 51.2088677, "lon": 16.1330497, "way_id": 343480920, "landuse": "residential"}, {"type": "node", "id": 2336253691, "lat": 51.1614057, "lon": 16.1867689, "way_id": 697616253, "landuse": "meadow"}, {"type": "node", "id": 2336418628, "lat": 51.1936285, "lon": 16.1952649, "way_id": 391372451, "landuse": "meadow"}, {"type": "node", "id": 2336418644, "lat": 51.1937466, "lon": 16.1953182, "way_id": 391372451, "landuse": "meadow"}, {"type": "node", "id": 2336418646, "lat": 51.1940075, "lon": 16.1954577, "way_id": 391372451, "landuse": "meadow"}, {"type": "node", "id": 2336418648, "lat": 51.1942631, "lon": 16.1955375, "way_id": 391372451, "landuse": "meadow"}, {"type": "node", "id": 2336418650, "lat": 51.194381, "lon": 16.1955546, "way_id": 391372451, "landuse": "meadow"}, {"type": "node", "id": 2336418652, "lat": 51.1947008, "lon": 16.1956772, "way_id": 391372451, "landuse": "meadow"}, {"type": "node", "id": 2336418653, "lat": 51.1948491, "lon": 16.1957456, "way_id": 391372451, "landuse": "meadow"}, {"type": "node", "id": 2336418655, "lat": 51.194967, "lon": 16.1958141, "way_id": 391372451, "landuse": "meadow"}, {"type": "node", "id": 2336418657, "lat": 51.1950653, "lon": 16.1958454, "way_id": 391372451, "landuse": "meadow"}, {"type": "node", "id": 2336418659, "lat": 51.1951761, "lon": 16.195874, "way_id": 391372451, "landuse": "meadow"}, {"type": "node", "id": 2336418662, "lat": 51.1953637, "lon": 16.1959139, "way_id": 391372451, "landuse": "meadow"}, {"type": "node", "id": 2336418803, "lat": 51.1956174, "lon": 16.195988, "way_id": 391372451, "landuse": "meadow"}, {"type": "node", "id": 2336418804, "lat": 51.1958586, "lon": 16.1960906, "way_id": 391372451, "landuse": "meadow"}, {"type": "node", "id": 2336418805, "lat": 51.196107, "lon": 16.1962018, "way_id": 391372451, "landuse": "meadow"}, {"type": "node", "id": 2336418806, "lat": 51.1962285, "lon": 16.1962075, "way_id": 391372451, "landuse": "meadow"}, {"type": "node", "id": 2336418807, "lat": 51.1963357, "lon": 16.1962503, "way_id": 391372451, "landuse": "meadow"}, {"type": "node", "id": 2336418809, "lat": 51.1966305, "lon": 16.1963644, "way_id": 391372451, "landuse": "meadow"}, {"type": "node", "id": 2336418811, "lat": 51.1967484, "lon": 16.1963929, "way_id": 391372451, "landuse": "meadow"}, {"type": "node", "id": 2336418812, "lat": 51.1969664, "lon": 16.1964699, "way_id": 391372451, "landuse": "meadow"}, {"type": "node", "id": 2336418814, "lat": 51.1972237, "lon": 16.1965753, "way_id": 391372451, "landuse": "meadow"}, {"type": "node", "id": 2336418817, "lat": 51.1975042, "lon": 16.1966552, "way_id": 391372451, "landuse": "meadow"}, {"type": "node", "id": 2336418930, "lat": 51.1978008, "lon": 16.1967493, "way_id": 391372451, "landuse": "meadow"}, {"type": "node", "id": 2647695499, "lat": 51.1845418, "lon": 16.1655667, "way_id": 259367817, "landuse": "meadow"}, {"type": "node", "id": 2647695500, "lat": 51.1869087, "lon": 16.1666878, "way_id": 259367817, "landuse": "meadow"}, {"type": "node", "id": 2647695501, "lat": 51.1852983, "lon": 16.1618277, "way_id": 259367817, "landuse": "meadow"}, {"type": "node", "id": 2647695502, "lat": 51.1854732, "lon": 16.1617097, "way_id": 259367817, "landuse": "meadow"}, {"type": "node", "id": 2647695503, "lat": 51.1844745, "lon": 16.1653789, "way_id": 259367817, "landuse": "meadow"}, {"type": "node", "id": 2647695504, "lat": 51.1872587, "lon": 16.1630229, "way_id": 259367817, "landuse": "meadow"}, {"type": "node", "id": 2647695505, "lat": 51.1870231, "lon": 16.1666235, "way_id": 259367817, "landuse": "meadow"}, {"type": "node", "id": 2647695884, "lat": 51.1855955, "lon": 16.1663054, "way_id": 259367876, "landuse": "meadow"}, {"type": "node", "id": 2647695887, "lat": 51.1869, "lon": 16.1669401, "way_id": 259367876, "landuse": "meadow"}, {"type": "node", "id": 2647695888, "lat": 51.1853454, "lon": 16.1676427, "way_id": 259367876, "landuse": "meadow"}, {"type": "node", "id": 2647695889, "lat": 51.1868011, "lon": 16.1683132, "way_id": 259367876, "landuse": "meadow"}, {"type": "node", "id": 2647739923, "lat": 51.1987528, "lon": 16.2102894, "way_id": 259374156, "landuse": "residential"}, {"type": "node", "id": 2647739924, "lat": 51.2019622, "lon": 16.207343, "way_id": 259374156, "landuse": "residential"}, {"type": "node", "id": 2647739925, "lat": 51.1972065, "lon": 16.2059496, "way_id": 259374156, "landuse": "residential"}, {"type": "node", "id": 2647739926, "lat": 51.201136, "lon": 16.2109438, "way_id": 259374156, "landuse": "residential"}, {"type": "node", "id": 2647739927, "lat": 51.1969644, "lon": 16.2057886, "way_id": 259374156, "landuse": "residential"}, {"type": "node", "id": 2647739928, "lat": 51.2016906, "lon": 16.2091467, "way_id": 259374156, "landuse": "residential"}, {"type": "node", "id": 2647739929, "lat": 51.1976636, "lon": 16.2009499, "way_id": 259374156, "landuse": "residential"}, {"type": "node", "id": 2647739930, "lat": 51.1985006, "lon": 16.208444, "way_id": 259374156, "landuse": "residential"}, {"type": "node", "id": 2647739931, "lat": 51.1974717, "lon": 16.2015346, "way_id": 259374156, "landuse": "residential"}, {"type": "node", "id": 2647739932, "lat": 51.1997444, "lon": 16.2115929, "way_id": 259374156, "landuse": "residential"}, {"type": "node", "id": 2647739933, "lat": 51.1967224, "lon": 16.2071995, "way_id": 259374156, "landuse": "residential"}, {"type": "node", "id": 2647739934, "lat": 51.2016032, "lon": 16.207355, "way_id": 259374156, "landuse": "residential"}, {"type": "node", "id": 2647739935, "lat": 51.2000738, "lon": 16.2117592, "way_id": 259374156, "landuse": "residential"}, {"type": "node", "id": 2647739936, "lat": 51.1979352, "lon": 16.2096765, "way_id": 259374156, "landuse": "residential"}, {"type": "node", "id": 2647739937, "lat": 51.1981611, "lon": 16.2089536, "way_id": 259374156, "landuse": "residential"}, {"type": "node", "id": 2647739938, "lat": 51.1978552, "lon": 16.2087659, "way_id": 259374156, "landuse": "residential"}, {"type": "node", "id": 2647739939, "lat": 51.1990183, "lon": 16.2103108, "way_id": 259374156, "landuse": "residential"}, {"type": "node", "id": 2647739940, "lat": 51.1978647, "lon": 16.2076058, "way_id": 259374156, "landuse": "residential"}, {"type": "node", "id": 2647739941, "lat": 51.1962551, "lon": 16.2099353, "way_id": 259374156, "landuse": "residential"}, {"type": "node", "id": 2647739942, "lat": 51.2000093, "lon": 16.2007984, "way_id": 259374156, "landuse": "residential"}, {"type": "node", "id": 2647739943, "lat": 51.1987057, "lon": 16.1996571, "way_id": 259374156, "landuse": "residential"}, {"type": "node", "id": 2647739944, "lat": 51.2011763, "lon": 16.2035087, "way_id": 259374156, "landuse": "residential"}, {"type": "node", "id": 2647739945, "lat": 51.2011151, "lon": 16.2013509, "way_id": 259374156, "landuse": "residential"}, {"type": "node", "id": 2647739946, "lat": 51.2019662, "lon": 16.2107883, "way_id": 259374156, "landuse": "residential"}, {"type": "node", "id": 2647739947, "lat": 51.1990418, "lon": 16.2104825, "way_id": 259374156, "landuse": "residential"}, {"type": "node", "id": 2647739948, "lat": 51.2018546, "lon": 16.2039473, "way_id": 259374156, "landuse": "residential"}, {"type": "node", "id": 2647739949, "lat": 51.2020637, "lon": 16.2091682, "way_id": 259374156, "landuse": "residential"}, {"type": "node", "id": 2647739950, "lat": 51.1979191, "lon": 16.2098656, "way_id": 259374156, "landuse": "residential"}, {"type": "node", "id": 2647739951, "lat": 51.1978519, "lon": 16.2096617, "way_id": 259374156, "landuse": "residential"}, {"type": "node", "id": 2647739952, "lat": 51.1972334, "lon": 16.2104342, "way_id": 259374156, "landuse": "residential"}, {"type": "node", "id": 2647739953, "lat": 51.2004166, "lon": 16.2117431, "way_id": 259374156, "landuse": "residential"}, {"type": "node", "id": 2647739954, "lat": 51.1981578, "lon": 16.2003276, "way_id": 259374156, "landuse": "residential"}, {"type": "node", "id": 2647739955, "lat": 51.1963392, "lon": 16.2086854, "way_id": 259374156, "landuse": "residential"}, {"type": "node", "id": 2647739956, "lat": 51.2003461, "lon": 16.2036375, "way_id": 259374156, "landuse": "residential"}, {"type": "node", "id": 2647739957, "lat": 51.1972468, "lon": 16.2044368, "way_id": 259374156, "landuse": "residential"}, {"type": "node", "id": 2647739958, "lat": 51.1984032, "lon": 16.205971, "way_id": 259374156, "landuse": "residential"}, {"type": "node", "id": 2647739959, "lat": 51.1973376, "lon": 16.2040237, "way_id": 259374156, "landuse": "residential"}, {"type": "node", "id": 2647739960, "lat": 51.1977865, "lon": 16.2029838, "way_id": 259374156, "landuse": "residential"}, {"type": "node", "id": 2647739961, "lat": 51.2002889, "lon": 16.2042115, "way_id": 259374156, "landuse": "residential"}, {"type": "node", "id": 2647739962, "lat": 51.1987393, "lon": 16.2032781, "way_id": 259374156, "landuse": "residential"}, {"type": "node", "id": 2647739963, "lat": 51.198463, "lon": 16.2038185, "way_id": 259374156, "landuse": "residential"}, {"type": "node", "id": 2647739964, "lat": 51.1964467, "lon": 16.2083904, "way_id": 259374156, "landuse": "residential"}, {"type": "node", "id": 2647739965, "lat": 51.2011487, "lon": 16.2117042, "way_id": 259374156, "landuse": "residential"}, {"type": "node", "id": 2647739966, "lat": 51.1989914, "lon": 16.1994586, "way_id": 259374156, "landuse": "residential"}, {"type": "node", "id": 2647739967, "lat": 51.2006714, "lon": 16.2007823, "way_id": 259374156, "landuse": "residential"}, {"type": "node", "id": 2647739968, "lat": 51.1978344, "lon": 16.2103417, "way_id": 259374156, "landuse": "residential"}, {"type": "node", "id": 2647739969, "lat": 51.1991023, "lon": 16.2112871, "way_id": 259374156, "landuse": "residential"}, {"type": "node", "id": 2647797886, "lat": 51.2084474, "lon": 16.2081616, "way_id": 259378408, "landuse": "residential"}, {"type": "node", "id": 2647797888, "lat": 51.2092627, "lon": 16.1989865, "way_id": 259378408, "landuse": "residential"}, {"type": "node", "id": 2647797891, "lat": 51.2080005, "lon": 16.207035, "way_id": 259378408, "landuse": "residential"}, {"type": "node", "id": 2647797894, "lat": 51.2082828, "lon": 16.2068902, "way_id": 259378408, "landuse": "residential"}, {"type": "node", "id": 2647797897, "lat": 51.2104154, "lon": 16.2009445, "way_id": 259378408, "landuse": "residential"}, {"type": "node", "id": 2647797900, "lat": 51.2066415, "lon": 16.1994961, "way_id": 259378408, "landuse": "residential"}, {"type": "node", "id": 2647797902, "lat": 51.2073081, "lon": 16.20858, "way_id": 259378408, "landuse": "residential"}, {"type": "node", "id": 2647797905, "lat": 51.2071085, "lon": 16.2002525, "way_id": 259378408, "landuse": "residential"}, {"type": "node", "id": 2647797907, "lat": 51.2100505, "lon": 16.198173, "way_id": 259378408, "landuse": "residential"}, {"type": "node", "id": 2647797910, "lat": 51.2056318, "lon": 16.2076589, "way_id": 259378408, "landuse": "residential"}, {"type": "node", "id": 2647797911, "lat": 51.2110741, "lon": 16.2028221, "way_id": 259378408, "landuse": "residential"}, {"type": "node", "id": 2647797914, "lat": 51.2067356, "lon": 16.208798, "way_id": 259378408, "landuse": "residential"}, {"type": "node", "id": 2647797916, "lat": 51.204998, "lon": 16.1993245, "way_id": 259378408, "landuse": "residential"}, {"type": "node", "id": 2647797919, "lat": 51.2098341, "lon": 16.1986217, "way_id": 259378408, "landuse": "residential"}, {"type": "node", "id": 2647797921, "lat": 51.2055372, "lon": 16.2050629, "way_id": 259378408, "landuse": "residential"}, {"type": "node", "id": 2647797923, "lat": 51.2106487, "lon": 16.2037466, "way_id": 259378408, "landuse": "residential"}, {"type": "node", "id": 2647797925, "lat": 51.2054114, "lon": 16.1994479, "way_id": 259378408, "landuse": "residential"}, {"type": "node", "id": 2647797928, "lat": 51.2059424, "lon": 16.2094525, "way_id": 259378408, "landuse": "residential"}, {"type": "node", "id": 2647797929, "lat": 51.2104995, "lon": 16.2028489, "way_id": 259378408, "landuse": "residential"}, {"type": "node", "id": 2647797931, "lat": 51.2049958, "lon": 16.2015365, "way_id": 259378408, "landuse": "residential"}, {"type": "node", "id": 2647797932, "lat": 51.2055737, "lon": 16.2060242, "way_id": 259378408, "landuse": "residential"}, {"type": "node", "id": 2647797934, "lat": 51.2100626, "lon": 16.2052146, "way_id": 259378408, "landuse": "residential"}, {"type": "node", "id": 2647797937, "lat": 51.2085079, "lon": 16.1993746, "way_id": 259378408, "landuse": "residential"}, {"type": "node", "id": 2647797939, "lat": 51.20933, "lon": 16.2069527, "way_id": 259378408, "landuse": "residential"}, {"type": "node", "id": 2647797941, "lat": 51.2042653, "lon": 16.1995122, "way_id": 259378408, "landuse": "residential"}, {"type": "node", "id": 2647797952, "lat": 51.2080596, "lon": 16.2075106, "way_id": 259378408, "landuse": "residential"}, {"type": "node", "id": 2647797954, "lat": 51.2067603, "lon": 16.208977, "way_id": 259378408, "landuse": "residential"}, {"type": "node", "id": 2647797957, "lat": 51.2058037, "lon": 16.2094614, "way_id": 259378408, "landuse": "residential"}, {"type": "node", "id": 2647797958, "lat": 51.2068532, "lon": 16.2000701, "way_id": 259378408, "landuse": "residential"}, {"type": "node", "id": 2647797960, "lat": 51.2104927, "lon": 16.2035892, "way_id": 259378408, "landuse": "residential"}, {"type": "node", "id": 2647797961, "lat": 51.209822, "lon": 16.1983822, "way_id": 259378408, "landuse": "residential"}, {"type": "node", "id": 2647797963, "lat": 51.205104, "lon": 16.2015438, "way_id": 259378408, "landuse": "residential"}, {"type": "node", "id": 2647797964, "lat": 51.2088393, "lon": 16.2058637, "way_id": 259378408, "landuse": "residential"}, {"type": "node", "id": 2647797966, "lat": 51.2089065, "lon": 16.2066147, "way_id": 259378408, "landuse": "residential"}, {"type": "node", "id": 2647797967, "lat": 51.2054441, "lon": 16.2034784, "way_id": 259378408, "landuse": "residential"}, {"type": "node", "id": 2647797968, "lat": 51.2099631, "lon": 16.2036394, "way_id": 259378408, "landuse": "residential"}, {"type": "node", "id": 2647797970, "lat": 51.2055172, "lon": 16.2086246, "way_id": 259378408, "landuse": "residential"}, {"type": "node", "id": 2647797971, "lat": 51.2054976, "lon": 16.2080784, "way_id": 259378408, "landuse": "residential"}, {"type": "node", "id": 2647797973, "lat": 51.2043303, "lon": 16.1995195, "way_id": 259378408, "landuse": "residential"}, {"type": "node", "id": 2647797974, "lat": 51.2056492, "lon": 16.2074517, "way_id": 259378408, "landuse": "residential"}, {"type": "node", "id": 2647797975, "lat": 51.2054641, "lon": 16.2082711, "way_id": 259378408, "landuse": "residential"}, {"type": "node", "id": 2647797977, "lat": 51.2054008, "lon": 16.2031545, "way_id": 259378408, "landuse": "residential"}, {"type": "node", "id": 2647797978, "lat": 51.2094711, "lon": 16.207693, "way_id": 259378408, "landuse": "residential"}, {"type": "node", "id": 2647797980, "lat": 51.205147, "lon": 16.2018475, "way_id": 259378408, "landuse": "residential"}, {"type": "node", "id": 2647797981, "lat": 51.2068566, "lon": 16.1995659, "way_id": 259378408, "landuse": "residential"}, {"type": "node", "id": 2647797983, "lat": 51.2052911, "lon": 16.202567, "way_id": 259378408, "landuse": "residential"}, {"type": "node", "id": 2647797984, "lat": 51.2056205, "lon": 16.2068329, "way_id": 259378408, "landuse": "residential"}, {"type": "node", "id": 2647797986, "lat": 51.2077067, "lon": 16.2000004, "way_id": 259378408, "landuse": "residential"}, {"type": "node", "id": 2647797988, "lat": 51.2042182, "lon": 16.1991153, "way_id": 259378408, "landuse": "residential"}, {"type": "node", "id": 2647797991, "lat": 51.2054742, "lon": 16.2084541, "way_id": 259378408, "landuse": "residential"}, {"type": "node", "id": 2647797993, "lat": 51.2054872, "lon": 16.2041965, "way_id": 259378408, "landuse": "residential"}, {"type": "node", "id": 2647797995, "lat": 51.2089334, "lon": 16.2079612, "way_id": 259378408, "landuse": "residential"}, {"type": "node", "id": 2647797997, "lat": 51.208315, "lon": 16.1997483, "way_id": 259378408, "landuse": "residential"}, {"type": "node", "id": 2647798000, "lat": 51.2102743, "lon": 16.1981604, "way_id": 259378408, "landuse": "residential"}, {"type": "node", "id": 2647837741, "lat": 51.2043137, "lon": 16.2077497, "way_id": 259380835, "landuse": "farmland"}, {"type": "node", "id": 2647837743, "lat": 51.2047865, "lon": 16.2076175, "way_id": 259380835, "landuse": "farmland"}, {"type": "node", "id": 2647837748, "lat": 51.2033813, "lon": 16.2105202, "way_id": 813559952, "landuse": "residential"}, {"type": "node", "id": 2647837792, "lat": 51.2032839, "lon": 16.2095055, "way_id": 813559952, "landuse": "residential"}, {"type": "node", "id": 2647837799, "lat": 51.2046736, "lon": 16.2085353, "way_id": 259380835, "landuse": "farmland"}, {"type": "node", "id": 2647837809, "lat": 51.2047173, "lon": 16.2085085, "way_id": 259380835, "landuse": "farmland"}, {"type": "node", "id": 2647837927, "lat": 51.2045714, "lon": 16.2090176, "way_id": 259380835, "landuse": "farmland"}, {"type": "node", "id": 2647837943, "lat": 51.204114, "lon": 16.2083851, "way_id": 259380830, "landuse": "farmland"}, {"type": "node", "id": 2647837959, "lat": 51.2043661, "lon": 16.2083959, "way_id": 259380835, "landuse": "farmland"}, {"type": "node", "id": 2647837963, "lat": 51.2050385, "lon": 16.2096417, "way_id": 813559952, "landuse": "residential"}, {"type": "node", "id": 2647837973, "lat": 51.2039429, "lon": 16.2061235, "way_id": 259380830, "landuse": "farmland"}, {"type": "node", "id": 2647837977, "lat": 51.2028808, "lon": 16.2082317, "way_id": 259380829, "landuse": "farmland"}, {"type": "node", "id": 2647837993, "lat": 51.2050192, "lon": 16.2095817, "way_id": 813559952, "landuse": "residential"}, {"type": "node", "id": 2647838022, "lat": 51.2037273, "lon": 16.2104859, "way_id": 813559952, "landuse": "residential"}, {"type": "node", "id": 2647838029, "lat": 51.2039526, "lon": 16.2093561, "way_id": 813559952, "landuse": "residential"}, {"type": "node", "id": 2647838052, "lat": 51.2041812, "lon": 16.206116, "way_id": 259380830, "landuse": "farmland"}, {"type": "node", "id": 2647838074, "lat": 51.2038653, "lon": 16.2079506, "way_id": 259380829, "landuse": "farmland"}, {"type": "node", "id": 2647838081, "lat": 51.2048237, "lon": 16.2096357, "way_id": 813559952, "landuse": "residential"}, {"type": "node", "id": 2647838086, "lat": 51.204721, "lon": 16.2090069, "way_id": 259380835, "landuse": "farmland"}, {"type": "node", "id": 2647838096, "lat": 51.2029678, "lon": 16.209576, "way_id": 259380829, "landuse": "farmland"}, {"type": "node", "id": 2647838100, "lat": 51.2044114, "lon": 16.2089779, "way_id": 259380835, "landuse": "farmland"}, {"type": "node", "id": 2647838101, "lat": 51.2045543, "lon": 16.2089135, "way_id": 259380835, "landuse": "farmland"}, {"type": "node", "id": 2647838109, "lat": 51.2040777, "lon": 16.2104139, "way_id": 813559952, "landuse": "residential"}, {"type": "node", "id": 2649416988, "lat": 51.205487, "lon": 16.211172, "way_id": 259512160, "landuse": "residential"}, {"type": "node", "id": 2649424153, "lat": 51.2050934, "lon": 16.2101244, "way_id": 259512160, "landuse": "residential"}, {"type": "node", "id": 2649424155, "lat": 51.2059189, "lon": 16.2096188, "way_id": 259512160, "landuse": "residential"}, {"type": "node", "id": 2649424157, "lat": 51.2057878, "lon": 16.2097959, "way_id": 259512160, "landuse": "residential"}, {"type": "node", "id": 2649424158, "lat": 51.2054434, "lon": 16.210034, "way_id": 259512160, "landuse": "residential"}, {"type": "node", "id": 2649424160, "lat": 51.2066275, "lon": 16.2092913, "way_id": 259512160, "landuse": "residential"}, {"type": "node", "id": 2649431361, "lat": 51.2087989, "lon": 16.2113408, "way_id": 259512160, "landuse": "residential"}, {"type": "node", "id": 2649431362, "lat": 51.2080347, "lon": 16.2089719, "way_id": 259512160, "landuse": "residential"}, {"type": "node", "id": 2649431363, "lat": 51.2071642, "lon": 16.2090953, "way_id": 259512160, "landuse": "residential"}, {"type": "node", "id": 2649431364, "lat": 51.2105196, "lon": 16.2099836, "way_id": 259512160, "landuse": "residential"}, {"type": "node", "id": 2649431365, "lat": 51.2060835, "lon": 16.211829, "way_id": 259512160, "landuse": "residential"}, {"type": "node", "id": 2649431367, "lat": 51.2052043, "lon": 16.2112234, "way_id": 259512160, "landuse": "residential"}, {"type": "node", "id": 2649431368, "lat": 51.2071387, "lon": 16.2116037, "way_id": 259512160, "landuse": "residential"}, {"type": "node", "id": 2649431369, "lat": 51.2074748, "lon": 16.2117753, "way_id": 259512160, "landuse": "residential"}, {"type": "node", "id": 2649431370, "lat": 51.2056332, "lon": 16.2118182, "way_id": 259512160, "landuse": "residential"}, {"type": "node", "id": 2649431371, "lat": 51.209053, "lon": 16.2087895, "way_id": 259512160, "landuse": "residential"}, {"type": "node", "id": 2649431372, "lat": 51.2092089, "lon": 16.2111423, "way_id": 259512160, "landuse": "residential"}, {"type": "node", "id": 2649431373, "lat": 51.2073639, "lon": 16.2115929, "way_id": 259512160, "landuse": "residential"}, {"type": "node", "id": 2649431375, "lat": 51.2056533, "lon": 16.2110887, "way_id": 259512160, "landuse": "residential"}, {"type": "node", "id": 2649431376, "lat": 51.2070479, "lon": 16.2117753, "way_id": 259512160, "landuse": "residential"}, {"type": "node", "id": 2649431377, "lat": 51.2104846, "lon": 16.208532, "way_id": 259512160, "landuse": "residential"}, {"type": "node", "id": 2649431378, "lat": 51.2077873, "lon": 16.2118397, "way_id": 259512160, "landuse": "residential"}, {"type": "node", "id": 2649431379, "lat": 51.2097332, "lon": 16.2110672, "way_id": 259512160, "landuse": "residential"}, {"type": "node", "id": 2649431380, "lat": 51.210486, "lon": 16.2110887, "way_id": 259512160, "landuse": "residential"}, {"type": "node", "id": 2649431383, "lat": 51.2082175, "lon": 16.211727, "way_id": 259512160, "landuse": "residential"}, {"type": "node", "id": 2649431385, "lat": 51.2105666, "lon": 16.2108795, "way_id": 259512160, "landuse": "residential"}, {"type": "node", "id": 2649432232, "lat": 51.2043297, "lon": 16.2103083, "way_id": 813559952, "landuse": "residential"}, {"type": "node", "id": 2649450847, "lat": 51.2099671, "lon": 16.2203579, "way_id": 259515766, "landuse": "farmland"}, {"type": "node", "id": 2649450849, "lat": 51.2092358, "lon": 16.2207983, "way_id": 259515765, "landuse": "farmland"}, {"type": "node", "id": 2649450855, "lat": 51.2093064, "lon": 16.2209538, "way_id": 259515765, "landuse": "farmland"}, {"type": "node", "id": 2649450859, "lat": 51.208977, "lon": 16.2228421, "way_id": 259515765, "landuse": "farmland"}, {"type": "node", "id": 2649450864, "lat": 51.2088446, "lon": 16.2283081, "way_id": 259515765, "landuse": "farmland"}, {"type": "node", "id": 2649450871, "lat": 51.2113328, "lon": 16.2217531, "way_id": 259515766, "landuse": "farmland"}, {"type": "node", "id": 2649450886, "lat": 51.2093161, "lon": 16.2281933, "way_id": 259515765, "landuse": "farmland"}, {"type": "node", "id": 2649450888, "lat": 51.2087606, "lon": 16.225387, "way_id": 259515765, "landuse": "farmland"}, {"type": "node", "id": 2649450917, "lat": 51.2093111, "lon": 16.2228818, "way_id": 259515765, "landuse": "farmland"}, {"type": "node", "id": 2649450921, "lat": 51.2104725, "lon": 16.2219033, "way_id": 259515766, "landuse": "farmland"}, {"type": "node", "id": 2649450922, "lat": 51.2100726, "lon": 16.2218765, "way_id": 259515766, "landuse": "farmland"}, {"type": "node", "id": 2649450924, "lat": 51.2088124, "lon": 16.2254439, "way_id": 259515765, "landuse": "farmland"}, {"type": "node", "id": 2649450938, "lat": 51.2113597, "lon": 16.2203423, "way_id": 259515766, "landuse": "farmland"}, {"type": "node", "id": 2649450945, "lat": 51.2093198, "lon": 16.226388, "way_id": 259515765, "landuse": "farmland"}, {"type": "node", "id": 2649450946, "lat": 51.2106404, "lon": 16.2203697, "way_id": 259515766, "landuse": "farmland"}, {"type": "node", "id": 2649450948, "lat": 51.2089901, "lon": 16.2205858, "way_id": 259515765, "landuse": "farmland"}, {"type": "node", "id": 2649450962, "lat": 51.2085287, "lon": 16.2253602, "way_id": 259515765, "landuse": "farmland"}, {"type": "node", "id": 2649450966, "lat": 51.2084763, "lon": 16.2253098, "way_id": 259515765, "landuse": "farmland"}, {"type": "node", "id": 2649450967, "lat": 51.2084864, "lon": 16.2228797, "way_id": 259515765, "landuse": "farmland"}, {"type": "node", "id": 2649457428, "lat": 51.2038959, "lon": 16.208444, "way_id": 259380829, "landuse": "farmland"}, {"type": "node", "id": 2649457429, "lat": 51.2041914, "lon": 16.2083884, "way_id": 259380830, "landuse": "farmland"}, {"type": "node", "id": 2649457430, "lat": 51.2042787, "lon": 16.2101098, "way_id": 813559952, "landuse": "residential"}, {"type": "node", "id": 2649457431, "lat": 51.2044385, "lon": 16.2100528, "way_id": 813559952, "landuse": "residential"}, {"type": "node", "id": 2649457432, "lat": 51.2039812, "lon": 16.2096404, "way_id": 813559952, "landuse": "residential"}, {"type": "node", "id": 2649457433, "lat": 51.2042436, "lon": 16.2096022, "way_id": 813559952, "landuse": "residential"}, {"type": "node", "id": 2649457434, "lat": 51.2044736, "lon": 16.2096109, "way_id": 813559952, "landuse": "residential"}, {"type": "node", "id": 2649457435, "lat": 51.2033304, "lon": 16.2104036, "way_id": 813559952, "landuse": "residential"}, {"type": "node", "id": 2649457436, "lat": 51.2044081, "lon": 16.2096297, "way_id": 813559952, "landuse": "residential"}, {"type": "node", "id": 2649472584, "lat": 51.1943812, "lon": 16.1905612, "way_id": 663042936, "landuse": "brownfield"}, {"type": "node", "id": 2649472585, "lat": 51.1942938, "lon": 16.1900569, "way_id": 663042936, "landuse": "brownfield"}, {"type": "node", "id": 2649472592, "lat": 51.1952451, "lon": 16.1914949, "way_id": 663042936, "landuse": "brownfield"}, {"type": "node", "id": 2649472596, "lat": 51.1909643, "lon": 16.1916244, "way_id": 685413549, "landuse": "residential"}, {"type": "node", "id": 2649472597, "lat": 51.193276, "lon": 16.1924189, "way_id": 663042936, "landuse": "brownfield"}, {"type": "node", "id": 2649472613, "lat": 51.1910409, "lon": 16.1903384, "way_id": 685413549, "landuse": "residential"}, {"type": "node", "id": 2649472616, "lat": 51.1951016, "lon": 16.1906951, "way_id": 663042936, "landuse": "brownfield"}, {"type": "node", "id": 2649472618, "lat": 51.1933267, "lon": 16.1894279, "way_id": 663042936, "landuse": "brownfield"}, {"type": "node", "id": 2649577170, "lat": 51.1985408, "lon": 16.2121134, "way_id": 259528525, "landuse": "farmland"}, {"type": "node", "id": 2649577172, "lat": 51.2017442, "lon": 16.216303, "way_id": 259528524, "landuse": "residential"}, {"type": "node", "id": 2649577174, "lat": 51.200213, "lon": 16.2154911, "way_id": 259528524, "landuse": "residential"}, {"type": "node", "id": 2649577176, "lat": 51.1957005, "lon": 16.2160509, "way_id": 259528524, "landuse": "residential"}, {"type": "node", "id": 2649577179, "lat": 51.2025423, "lon": 16.2219177, "way_id": 259528524, "landuse": "residential"}, {"type": "node", "id": 2649577182, "lat": 51.1981107, "lon": 16.2189852, "way_id": 259528524, "landuse": "residential"}, {"type": "node", "id": 2649577184, "lat": 51.1977255, "lon": 16.2193803, "way_id": 259528524, "landuse": "residential"}, {"type": "node", "id": 2649577186, "lat": 51.1984501, "lon": 16.2148439, "way_id": 259528524, "landuse": "residential"}, {"type": "node", "id": 2649577189, "lat": 51.1962215, "lon": 16.2108259, "way_id": 259528524, "landuse": "residential"}, {"type": "node", "id": 2649577192, "lat": 51.1963365, "lon": 16.2132306, "way_id": 259528525, "landuse": "farmland"}, {"type": "node", "id": 2649577195, "lat": 51.2025677, "lon": 16.2228583, "way_id": 259528524, "landuse": "residential"}, {"type": "node", "id": 2649577198, "lat": 51.1958618, "lon": 16.21096, "way_id": 259528524, "landuse": "residential"}, {"type": "node", "id": 2649577200, "lat": 51.2024265, "lon": 16.2163566, "way_id": 259528524, "landuse": "residential"}, {"type": "node", "id": 2649577202, "lat": 51.2004501, "lon": 16.2225364, "way_id": 259528524, "landuse": "residential"}, {"type": "node", "id": 2649577204, "lat": 51.1993457, "lon": 16.2206892, "way_id": 259528524, "landuse": "residential"}, {"type": "node", "id": 2649577206, "lat": 51.1966754, "lon": 16.2176977, "way_id": 259528524, "landuse": "residential"}, {"type": "node", "id": 2649577208, "lat": 51.1991694, "lon": 16.219012, "way_id": 259528524, "landuse": "residential"}, {"type": "node", "id": 2649577210, "lat": 51.1984266, "lon": 16.2119954, "way_id": 259528525, "landuse": "farmland"}, {"type": "node", "id": 2649577212, "lat": 51.1960346, "lon": 16.2147776, "way_id": 259528524, "landuse": "residential"}, {"type": "node", "id": 2649577214, "lat": 51.1972804, "lon": 16.215096, "way_id": 259528524, "landuse": "residential"}, {"type": "node", "id": 2649577216, "lat": 51.2012636, "lon": 16.2157665, "way_id": 259528524, "landuse": "residential"}, {"type": "node", "id": 2649577218, "lat": 51.2010518, "lon": 16.2229763, "way_id": 259528524, "landuse": "residential"}, {"type": "node", "id": 2649577220, "lat": 51.1938078, "lon": 16.2126766, "way_id": 259528523, "landuse": "farmland"}, {"type": "node", "id": 2649577222, "lat": 51.2009207, "lon": 16.2210505, "way_id": 259528524, "landuse": "residential"}, {"type": "node", "id": 2649577224, "lat": 51.1991555, "lon": 16.2206859, "way_id": 259528524, "landuse": "residential"}, {"type": "node", "id": 2649577226, "lat": 51.1951071, "lon": 16.2130332, "way_id": 685413550, "landuse": "residential"}, {"type": "node", "id": 2649577229, "lat": 51.1952803, "lon": 16.213551, "way_id": 259528524, "landuse": "residential"}, {"type": "node", "id": 2649577231, "lat": 51.1953912, "lon": 16.2112712, "way_id": 685413550, "landuse": "residential"}, {"type": "node", "id": 2649577234, "lat": 51.1966573, "lon": 16.2115862, "way_id": 259528525, "landuse": "farmland"}, {"type": "node", "id": 2649577235, "lat": 51.1981107, "lon": 16.2136851, "way_id": 259528525, "landuse": "farmland"}, {"type": "node", "id": 2649577237, "lat": 51.2024617, "lon": 16.2229905, "way_id": 259528524, "landuse": "residential"}, {"type": "node", "id": 2649577239, "lat": 51.1954786, "lon": 16.2152247, "way_id": 259528524, "landuse": "residential"}, {"type": "node", "id": 2649577241, "lat": 51.1932061, "lon": 16.2112926, "way_id": 259528523, "landuse": "farmland"}, {"type": "node", "id": 2649577243, "lat": 51.195287, "lon": 16.2145435, "way_id": 259528524, "landuse": "residential"}, {"type": "node", "id": 2649577245, "lat": 51.2024971, "lon": 16.2206052, "way_id": 259528524, "landuse": "residential"}, {"type": "node", "id": 2649577247, "lat": 51.2007661, "lon": 16.2164425, "way_id": 259528524, "landuse": "residential"}, {"type": "node", "id": 2649577248, "lat": 51.1955559, "lon": 16.2157075, "way_id": 259528524, "landuse": "residential"}, {"type": "node", "id": 2649577250, "lat": 51.1933708, "lon": 16.2108205, "way_id": 259528523, "landuse": "farmland"}, {"type": "node", "id": 2649577252, "lat": 51.192843, "lon": 16.2124138, "way_id": 259528523, "landuse": "farmland"}, {"type": "node", "id": 2649577254, "lat": 51.2002163, "lon": 16.2149278, "way_id": 259528524, "landuse": "residential"}, {"type": "node", "id": 2649577264, "lat": 51.2009106, "lon": 16.2206911, "way_id": 259528524, "landuse": "residential"}, {"type": "node", "id": 2649577267, "lat": 51.1967628, "lon": 16.2110459, "way_id": 259528524, "landuse": "residential"}, {"type": "node", "id": 2715375591, "lat": 51.196413, "lon": 16.1568543, "way_id": 197858569, "landuse": "residential"}, {"type": "node", "id": 2715375605, "lat": 51.196534, "lon": 16.1569792, "way_id": 197858569, "landuse": "residential"}, {"type": "node", "id": 2715375623, "lat": 51.1966142, "lon": 16.1572144, "way_id": 197858569, "landuse": "residential"}, {"type": "node", "id": 2715375630, "lat": 51.1966374, "lon": 16.1569951, "way_id": 197858569, "landuse": "residential"}, {"type": "node", "id": 2715375688, "lat": 51.1967898, "lon": 16.1574757, "way_id": 197858569, "landuse": "residential"}, {"type": "node", "id": 2715375691, "lat": 51.1968063, "lon": 16.1572581, "way_id": 197858569, "landuse": "residential"}, {"type": "node", "id": 2788446410, "lat": 51.1930931, "lon": 16.1306763, "way_id": 430489757, "landuse": "residential"}, {"type": "node", "id": 2788446413, "lat": 51.1932754, "lon": 16.1297086, "way_id": 430489757, "landuse": "residential"}, {"type": "node", "id": 2788446421, "lat": 51.1937902, "lon": 16.1310051, "way_id": 430489757, "landuse": "residential"}, {"type": "node", "id": 2898502879, "lat": 51.2090735, "lon": 16.2282641, "way_id": 259515765, "landuse": "farmland"}, {"type": "node", "id": 2920204769, "lat": 51.1967903, "lon": 16.1574691, "way_id": 197858569, "landuse": "residential"}, {"type": "node", "id": 2920204770, "lat": 51.1967919, "lon": 16.1574486, "way_id": 197858569, "landuse": "residential"}, {"type": "node", "id": 2920204771, "lat": 51.1967953, "lon": 16.157403, "way_id": 197858569, "landuse": "residential"}, {"type": "node", "id": 2920204774, "lat": 51.1968006, "lon": 16.1573337, "way_id": 197858569, "landuse": "residential"}, {"type": "node", "id": 2922022544, "lat": 51.1968, "lon": 16.1573418, "way_id": 197858569, "landuse": "residential"}, {"type": "node", "id": 2973735787, "lat": 51.2076207, "lon": 16.1778528, "way_id": 54542931, "landuse": "meadow"}, {"type": "node", "id": 3502564867, "lat": 51.1669972, "lon": 16.1486916, "way_id": 685413548, "landuse": "residential"}, {"type": "node", "id": 3502564868, "lat": 51.1662561, "lon": 16.1533093, "way_id": 685413548, "landuse": "residential"}, {"type": "node", "id": 3502564869, "lat": 51.1661321, "lon": 16.1416986, "way_id": 685413548, "landuse": "residential"}, {"type": "node", "id": 3502564873, "lat": 51.166647, "lon": 16.1442599, "way_id": 685413548, "landuse": "residential"}, {"type": "node", "id": 3502564874, "lat": 51.1680324, "lon": 16.1539272, "way_id": 685413548, "landuse": "residential"}, {"type": "node", "id": 3502564875, "lat": 51.1691357, "lon": 16.1631265, "way_id": 685413548, "landuse": "residential"}, {"type": "node", "id": 3502564876, "lat": 51.1689668, "lon": 16.1647345, "way_id": 685413548, "landuse": "residential"}, {"type": "node", "id": 3502564878, "lat": 51.169074, "lon": 16.1613385, "way_id": 685413548, "landuse": "residential"}, {"type": "node", "id": 3502564880, "lat": 51.1694922, "lon": 16.1666894, "way_id": 685413548, "landuse": "residential"}, {"type": "node", "id": 3502564881, "lat": 51.1707701, "lon": 16.1512055, "way_id": 685413548, "landuse": "residential"}, {"type": "node", "id": 3502564882, "lat": 51.1699065, "lon": 16.157395, "way_id": 685413548, "landuse": "residential"}, {"type": "node", "id": 3502564883, "lat": 51.1691613, "lon": 16.1522832, "way_id": 685413548, "landuse": "residential"}, {"type": "node", "id": 3502564884, "lat": 51.170688, "lon": 16.1524752, "way_id": 685413548, "landuse": "residential"}, {"type": "node", "id": 3502564885, "lat": 51.1703207, "lon": 16.1448605, "way_id": 685413548, "landuse": "residential"}, {"type": "node", "id": 3502564886, "lat": 51.1708393, "lon": 16.1462369, "way_id": 685413548, "landuse": "residential"}, {"type": "node", "id": 3502564887, "lat": 51.1704853, "lon": 16.1423633, "way_id": 685413548, "landuse": "residential"}, {"type": "node", "id": 3502564888, "lat": 51.1706084, "lon": 16.1679416, "way_id": 685413548, "landuse": "residential"}, {"type": "node", "id": 3502564889, "lat": 51.1708549, "lon": 16.1505757, "way_id": 685413548, "landuse": "residential"}, {"type": "node", "id": 3502564891, "lat": 51.1704224, "lon": 16.1536075, "way_id": 685413548, "landuse": "residential"}, {"type": "node", "id": 3502564893, "lat": 51.1711456, "lon": 16.1508021, "way_id": 685413548, "landuse": "residential"}, {"type": "node", "id": 3502564894, "lat": 51.1705551, "lon": 16.1536979, "way_id": 685413548, "landuse": "residential"}, {"type": "node", "id": 3502564895, "lat": 51.1713155, "lon": 16.1543075, "way_id": 685413548, "landuse": "residential"}, {"type": "node", "id": 3502564896, "lat": 51.1718699, "lon": 16.146274, "way_id": 685413548, "landuse": "residential"}, {"type": "node", "id": 3502564897, "lat": 51.1724599, "lon": 16.1685354, "way_id": 685413548, "landuse": "residential"}, {"type": "node", "id": 3502564898, "lat": 51.1726439, "lon": 16.1685401, "way_id": 685413548, "landuse": "residential"}, {"type": "node", "id": 3502564899, "lat": 51.1731466, "lon": 16.1685683, "way_id": 685413548, "landuse": "residential"}, {"type": "node", "id": 3502564901, "lat": 51.1728041, "lon": 16.145302, "way_id": 685413548, "landuse": "residential"}, {"type": "node", "id": 3502564902, "lat": 51.1729744, "lon": 16.1455066, "way_id": 685413548, "landuse": "residential"}, {"type": "node", "id": 3502564903, "lat": 51.1727159, "lon": 16.1524444, "way_id": 685413548, "landuse": "residential"}, {"type": "node", "id": 3502564904, "lat": 51.1737146, "lon": 16.1684779, "way_id": 685413548, "landuse": "residential"}, {"type": "node", "id": 3502564905, "lat": 51.1735847, "lon": 16.1478184, "way_id": 685413548, "landuse": "residential"}, {"type": "node", "id": 3502564906, "lat": 51.1742425, "lon": 16.1534118, "way_id": 685413548, "landuse": "residential"}, {"type": "node", "id": 3502564907, "lat": 51.1740756, "lon": 16.1714826, "way_id": 685413548, "landuse": "residential"}, {"type": "node", "id": 3502564908, "lat": 51.1741013, "lon": 16.1714572, "way_id": 685413548, "landuse": "residential"}, {"type": "node", "id": 3502564909, "lat": 51.1723604, "lon": 16.1532622, "way_id": 685413548, "landuse": "residential"}, {"type": "node", "id": 3502564910, "lat": 51.1741843, "lon": 16.1541972, "way_id": 685413548, "landuse": "residential"}, {"type": "node", "id": 3502564911, "lat": 51.1742446, "lon": 16.1716264, "way_id": 685413548, "landuse": "residential"}, {"type": "node", "id": 3502564912, "lat": 51.1742962, "lon": 16.1735121, "way_id": 685413548, "landuse": "residential"}, {"type": "node", "id": 3502564913, "lat": 51.1744049, "lon": 16.1720537, "way_id": 685413548, "landuse": "residential"}, {"type": "node", "id": 3502564914, "lat": 51.1745522, "lon": 16.1507398, "way_id": 685413548, "landuse": "residential"}, {"type": "node", "id": 3502564915, "lat": 51.1746574, "lon": 16.1683708, "way_id": 685413548, "landuse": "residential"}, {"type": "node", "id": 3502564916, "lat": 51.1746063, "lon": 16.1713107, "way_id": 685413548, "landuse": "residential"}, {"type": "node", "id": 3502564917, "lat": 51.1746113, "lon": 16.1678019, "way_id": 685413548, "landuse": "residential"}, {"type": "node", "id": 3502564918, "lat": 51.1749765, "lon": 16.1675051, "way_id": 685413548, "landuse": "residential"}, {"type": "node", "id": 3502564919, "lat": 51.1753159, "lon": 16.1519889, "way_id": 685413548, "landuse": "residential"}, {"type": "node", "id": 3502564920, "lat": 51.1754656, "lon": 16.1707958, "way_id": 685413548, "landuse": "residential"}, {"type": "node", "id": 3502564921, "lat": 51.1754884, "lon": 16.1733904, "way_id": 685413548, "landuse": "residential"}, {"type": "node", "id": 3502564922, "lat": 51.1758115, "lon": 16.1700811, "way_id": 685413548, "landuse": "residential"}, {"type": "node", "id": 3502564923, "lat": 51.1758261, "lon": 16.1528647, "way_id": 685413548, "landuse": "residential"}, {"type": "node", "id": 3502564924, "lat": 51.1759875, "lon": 16.1692756, "way_id": 685413548, "landuse": "residential"}, {"type": "node", "id": 3502564925, "lat": 51.1764801, "lon": 16.152954, "way_id": 685413548, "landuse": "residential"}, {"type": "node", "id": 3502564926, "lat": 51.1765515, "lon": 16.1733254, "way_id": 685413548, "landuse": "residential"}, {"type": "node", "id": 3502564927, "lat": 51.1768143, "lon": 16.1747611, "way_id": 685413548, "landuse": "residential"}, {"type": "node", "id": 3502564928, "lat": 51.1771309, "lon": 16.1529139, "way_id": 685413548, "landuse": "residential"}, {"type": "node", "id": 3502564929, "lat": 51.1780075, "lon": 16.1749152, "way_id": 685413548, "landuse": "residential"}, {"type": "node", "id": 3502564930, "lat": 51.1782573, "lon": 16.152326, "way_id": 685413548, "landuse": "residential"}, {"type": "node", "id": 3502564931, "lat": 51.1783672, "lon": 16.1665516, "way_id": 685413548, "landuse": "residential"}, {"type": "node", "id": 3502564932, "lat": 51.178374, "lon": 16.1668334, "way_id": 685413548, "landuse": "residential"}, {"type": "node", "id": 3502564933, "lat": 51.1783964, "lon": 16.1703828, "way_id": 685413548, "landuse": "residential"}, {"type": "node", "id": 3502564934, "lat": 51.1784196, "lon": 16.1730255, "way_id": 685413548, "landuse": "residential"}, {"type": "node", "id": 3502564935, "lat": 51.1784301, "lon": 16.1658311, "way_id": 685413548, "landuse": "residential"}, {"type": "node", "id": 3502564936, "lat": 51.1784483, "lon": 16.1698997, "way_id": 685413548, "landuse": "residential"}, {"type": "node", "id": 3502564937, "lat": 51.1783082, "lon": 16.1520209, "way_id": 685413548, "landuse": "residential"}, {"type": "node", "id": 3502564938, "lat": 51.1785454, "lon": 16.1654565, "way_id": 685413548, "landuse": "residential"}, {"type": "node", "id": 3502564939, "lat": 51.1785709, "lon": 16.172331, "way_id": 685413548, "landuse": "residential"}, {"type": "node", "id": 3502564940, "lat": 51.1790451, "lon": 16.1640747, "way_id": 685413548, "landuse": "residential"}, {"type": "node", "id": 3502564941, "lat": 51.1786364, "lon": 16.1516759, "way_id": 685413548, "landuse": "residential"}, {"type": "node", "id": 3502564942, "lat": 51.1794944, "lon": 16.1614671, "way_id": 685413548, "landuse": "residential"}, {"type": "node", "id": 3502564943, "lat": 51.1797251, "lon": 16.1597848, "way_id": 685413548, "landuse": "residential"}, {"type": "node", "id": 3502564944, "lat": 51.1793491, "lon": 16.1518514, "way_id": 685413548, "landuse": "residential"}, {"type": "node", "id": 3502564945, "lat": 51.1799561, "lon": 16.1490784, "way_id": 685413548, "landuse": "residential"}, {"type": "node", "id": 3502564946, "lat": 51.1809807, "lon": 16.1558223, "way_id": 685413548, "landuse": "residential"}, {"type": "node", "id": 3502564947, "lat": 51.1810171, "lon": 16.155642, "way_id": 685413548, "landuse": "residential"}, {"type": "node", "id": 3502564948, "lat": 51.1810997, "lon": 16.1602263, "way_id": 685413548, "landuse": "residential"}, {"type": "node", "id": 3502564949, "lat": 51.1812087, "lon": 16.1546904, "way_id": 685413548, "landuse": "residential"}, {"type": "node", "id": 3502564950, "lat": 51.1816942, "lon": 16.1472296, "way_id": 685413548, "landuse": "residential"}, {"type": "node", "id": 3502564951, "lat": 51.181662, "lon": 16.1523255, "way_id": 685413548, "landuse": "residential"}, {"type": "node", "id": 3502564952, "lat": 51.1824732, "lon": 16.160705, "way_id": 685413548, "landuse": "residential"}, {"type": "node", "id": 3502564953, "lat": 51.1822999, "lon": 16.1522862, "way_id": 685413548, "landuse": "residential"}, {"type": "node", "id": 3502564954, "lat": 51.1826049, "lon": 16.1569418, "way_id": 685413548, "landuse": "residential"}, {"type": "node", "id": 3502564955, "lat": 51.1835185, "lon": 16.1619254, "way_id": 685413548, "landuse": "residential"}, {"type": "node", "id": 3502564956, "lat": 51.1832951, "lon": 16.2185774, "way_id": 685413550, "landuse": "residential"}, {"type": "node", "id": 3502564957, "lat": 51.183321, "lon": 16.1496316, "way_id": 685413548, "landuse": "residential"}, {"type": "node", "id": 3502564958, "lat": 51.183698, "lon": 16.1609081, "way_id": 685413548, "landuse": "residential"}, {"type": "node", "id": 3502564959, "lat": 51.1836895, "lon": 16.2179531, "way_id": 685413550, "landuse": "residential"}, {"type": "node", "id": 3502564960, "lat": 51.1834888, "lon": 16.2203406, "way_id": 685413550, "landuse": "residential"}, {"type": "node", "id": 3502564961, "lat": 51.1837205, "lon": 16.1498489, "way_id": 685413548, "landuse": "residential"}, {"type": "node", "id": 3502564962, "lat": 51.1842314, "lon": 16.1581632, "way_id": 685413548, "landuse": "residential"}, {"type": "node", "id": 3502564963, "lat": 51.1842981, "lon": 16.2166969, "way_id": 685413550, "landuse": "residential"}, {"type": "node", "id": 3502564964, "lat": 51.1844439, "lon": 16.2201436, "way_id": 685413550, "landuse": "residential"}, {"type": "node", "id": 3502564965, "lat": 51.185119, "lon": 16.1509321, "way_id": 685413548, "landuse": "residential"}, {"type": "node", "id": 3502564966, "lat": 51.1849239, "lon": 16.2161514, "way_id": 685413550, "landuse": "residential"}, {"type": "node", "id": 3502564967, "lat": 51.1850313, "lon": 16.1588003, "way_id": 685413548, "landuse": "residential"}, {"type": "node", "id": 3502564968, "lat": 51.1850552, "lon": 16.1613596, "way_id": 685413548, "landuse": "residential"}, {"type": "node", "id": 3502564969, "lat": 51.1852273, "lon": 16.1597277, "way_id": 685413548, "landuse": "residential"}, {"type": "node", "id": 3502564970, "lat": 51.1854177, "lon": 16.2207963, "way_id": 685413550, "landuse": "residential"}, {"type": "node", "id": 3502564971, "lat": 51.1855206, "lon": 16.2063585, "way_id": 685413550, "landuse": "residential"}, {"type": "node", "id": 3502564972, "lat": 51.185522, "lon": 16.1613358, "way_id": 685413548, "landuse": "residential"}, {"type": "node", "id": 3502564973, "lat": 51.1855674, "lon": 16.1615514, "way_id": 685413548, "landuse": "residential"}, {"type": "node", "id": 3502564974, "lat": 51.1856522, "lon": 16.2091963, "way_id": 685413550, "landuse": "residential"}, {"type": "node", "id": 3502564976, "lat": 51.1857914, "lon": 16.15141, "way_id": 685413548, "landuse": "residential"}, {"type": "node", "id": 3502564977, "lat": 51.1858087, "lon": 16.2213006, "way_id": 685413550, "landuse": "residential"}, {"type": "node", "id": 3502564978, "lat": 51.185901, "lon": 16.2142627, "way_id": 685413550, "landuse": "residential"}, {"type": "node", "id": 3502564979, "lat": 51.1859992, "lon": 16.2050084, "way_id": 685413550, "landuse": "residential"}, {"type": "node", "id": 3502564980, "lat": 51.1860639, "lon": 16.210391, "way_id": 685413550, "landuse": "residential"}, {"type": "node", "id": 3502564981, "lat": 51.1860954, "lon": 16.2117103, "way_id": 685413550, "landuse": "residential"}, {"type": "node", "id": 3502564982, "lat": 51.1867604, "lon": 16.1532688, "way_id": 685413547, "landuse": "residential"}, {"type": "node", "id": 3502564983, "lat": 51.1862604, "lon": 16.2208041, "way_id": 685413550, "landuse": "residential"}, {"type": "node", "id": 3502564984, "lat": 51.1865744, "lon": 16.154477, "way_id": 685413547, "landuse": "residential"}, {"type": "node", "id": 3502564989, "lat": 51.1868589, "lon": 16.218564, "way_id": 685413550, "landuse": "residential"}, {"type": "node", "id": 3502564990, "lat": 51.1868989, "lon": 16.220247, "way_id": 685413550, "landuse": "residential"}, {"type": "node", "id": 3502564992, "lat": 51.1871108, "lon": 16.2034168, "way_id": 685413550, "landuse": "residential"}, {"type": "node", "id": 3502564994, "lat": 51.1871308, "lon": 16.1513274, "way_id": 685413548, "landuse": "residential"}, {"type": "node", "id": 3502564995, "lat": 51.1871843, "lon": 16.2185444, "way_id": 685413550, "landuse": "residential"}, {"type": "node", "id": 3502564996, "lat": 51.1865234, "lon": 16.1555996, "way_id": 685413547, "landuse": "residential"}, {"type": "node", "id": 3502564997, "lat": 51.1876602, "lon": 16.2179972, "way_id": 685413550, "landuse": "residential"}, {"type": "node", "id": 3502565001, "lat": 51.1878858, "lon": 16.2172057, "way_id": 685413550, "landuse": "residential"}, {"type": "node", "id": 3502565010, "lat": 51.188271, "lon": 16.2038548, "way_id": 685413550, "landuse": "residential"}, {"type": "node", "id": 3502565011, "lat": 51.1884399, "lon": 16.216524, "way_id": 685413550, "landuse": "residential"}, {"type": "node", "id": 3502565013, "lat": 51.1885624, "lon": 16.2165063, "way_id": 685413550, "landuse": "residential"}, {"type": "node", "id": 3502565014, "lat": 51.1886087, "lon": 16.2153194, "way_id": 685413550, "landuse": "residential"}, {"type": "node", "id": 3502565016, "lat": 51.1888346, "lon": 16.2140857, "way_id": 685413550, "landuse": "residential"}, {"type": "node", "id": 3502565018, "lat": 51.1888614, "lon": 16.2071729, "way_id": 685413550, "landuse": "residential"}, {"type": "node", "id": 3502565019, "lat": 51.1888864, "lon": 16.205545, "way_id": 685413550, "landuse": "residential"}, {"type": "node", "id": 3502565023, "lat": 51.1890092, "lon": 16.2133638, "way_id": 685413550, "landuse": "residential"}, {"type": "node", "id": 3502565024, "lat": 51.1891124, "lon": 16.2043117, "way_id": 685413550, "landuse": "residential"}, {"type": "node", "id": 3502565025, "lat": 51.1891751, "lon": 16.1723934, "way_id": 685413549, "landuse": "residential"}, {"type": "node", "id": 3502565026, "lat": 51.1891828, "lon": 16.207255, "way_id": 685413550, "landuse": "residential"}, {"type": "node", "id": 3502565029, "lat": 51.1892928, "lon": 16.1928633, "way_id": 663042935, "landuse": "brownfield"}, {"type": "node", "id": 3502565030, "lat": 51.1893257, "lon": 16.2132431, "way_id": 685413550, "landuse": "residential"}, {"type": "node", "id": 3502565031, "lat": 51.1893403, "lon": 16.1686587, "way_id": 685413549, "landuse": "residential"}, {"type": "node", "id": 3502565032, "lat": 51.1893419, "lon": 16.1687242, "way_id": 685413549, "landuse": "residential"}, {"type": "node", "id": 3502565045, "lat": 51.1903526, "lon": 16.2080992, "way_id": 685413550, "landuse": "residential"}, {"type": "node", "id": 3502565046, "lat": 51.1904146, "lon": 16.1665796, "way_id": 685413549, "landuse": "residential"}, {"type": "node", "id": 3502565047, "lat": 51.1910112, "lon": 16.1569609, "way_id": 343480920, "landuse": "residential"}, {"type": "node", "id": 3502565050, "lat": 51.1907456, "lon": 16.2138688, "way_id": 685413550, "landuse": "residential"}, {"type": "node", "id": 3502565052, "lat": 51.1904788, "lon": 16.1851234, "way_id": 685413549, "landuse": "residential"}, {"type": "node", "id": 3502565053, "lat": 51.1911814, "lon": 16.1682046, "way_id": 685413549, "landuse": "residential"}, {"type": "node", "id": 3502565054, "lat": 51.1913576, "lon": 16.2100712, "way_id": 685413550, "landuse": "residential"}, {"type": "node", "id": 3502565057, "lat": 51.1905509, "lon": 16.1915688, "way_id": 685413549, "landuse": "residential"}, {"type": "node", "id": 3502565059, "lat": 51.1916514, "lon": 16.1579762, "way_id": 343480920, "landuse": "residential"}, {"type": "node", "id": 3502565061, "lat": 51.1919081, "lon": 16.2144085, "way_id": 685413550, "landuse": "residential"}, {"type": "node", "id": 3502565063, "lat": 51.1919294, "lon": 16.209935, "way_id": 685413550, "landuse": "residential"}, {"type": "node", "id": 3502565068, "lat": 51.1921219, "lon": 16.2142175, "way_id": 685413550, "landuse": "residential"}, {"type": "node", "id": 3502565069, "lat": 51.1925334, "lon": 16.1581095, "way_id": 343480920, "landuse": "residential"}, {"type": "node", "id": 3502565070, "lat": 51.1926185, "lon": 16.1484982, "way_id": 343480920, "landuse": "residential"}, {"type": "node", "id": 3502565071, "lat": 51.1926899, "lon": 16.2096859, "way_id": 685413550, "landuse": "residential"}, {"type": "node", "id": 3502565072, "lat": 51.1928006, "lon": 16.1475021, "way_id": 343480920, "landuse": "residential"}, {"type": "node", "id": 3502565073, "lat": 51.1927727, "lon": 16.1595859, "way_id": 343480920, "landuse": "residential"}, {"type": "node", "id": 3502565074, "lat": 51.1933676, "lon": 16.1866577, "way_id": 685413549, "landuse": "residential"}, {"type": "node", "id": 3502565075, "lat": 51.1928644, "lon": 16.1585974, "way_id": 343480920, "landuse": "residential"}, {"type": "node", "id": 3502565076, "lat": 51.1932489, "lon": 16.1908115, "way_id": 685413549, "landuse": "residential"}, {"type": "node", "id": 3502565078, "lat": 51.1933086, "lon": 16.1890249, "way_id": 685413549, "landuse": "residential"}, {"type": "node", "id": 3502565079, "lat": 51.1934903, "lon": 16.1852093, "way_id": 685413549, "landuse": "residential"}, {"type": "node", "id": 3502565081, "lat": 51.1932613, "lon": 16.2095494, "way_id": 685413550, "landuse": "residential"}, {"type": "node", "id": 3502565082, "lat": 51.19277, "lon": 16.2125018, "way_id": 685413550, "landuse": "residential"}, {"type": "node", "id": 3502565083, "lat": 51.1933409, "lon": 16.1603101, "way_id": 343480920, "landuse": "residential"}, {"type": "node", "id": 3502565084, "lat": 51.1934554, "lon": 16.1697932, "way_id": 685413549, "landuse": "residential"}, {"type": "node", "id": 3502565086, "lat": 51.193553, "lon": 16.1475259, "way_id": 343480920, "landuse": "residential"}, {"type": "node", "id": 3502565087, "lat": 51.1933798, "lon": 16.2107058, "way_id": 685413550, "landuse": "residential"}, {"type": "node", "id": 3502565088, "lat": 51.1937003, "lon": 16.1852287, "way_id": 685413549, "landuse": "residential"}, {"type": "node", "id": 3502565089, "lat": 51.1940559, "lon": 16.2091334, "way_id": 685413550, "landuse": "residential"}, {"type": "node", "id": 3502565090, "lat": 51.1941587, "lon": 16.1461671, "way_id": 343480920, "landuse": "residential"}, {"type": "node", "id": 3502565091, "lat": 51.1941827, "lon": 16.144539, "way_id": 343480920, "landuse": "residential"}, {"type": "node", "id": 3502565092, "lat": 51.1943382, "lon": 16.2172098, "way_id": 685413550, "landuse": "residential"}, {"type": "node", "id": 3502565093, "lat": 51.1941097, "lon": 16.16047, "way_id": 343480920, "landuse": "residential"}, {"type": "node", "id": 3502565094, "lat": 51.1945542, "lon": 16.211053, "way_id": 685413550, "landuse": "residential"}, {"type": "node", "id": 3502565095, "lat": 51.1946303, "lon": 16.216074, "way_id": 685413550, "landuse": "residential"}, {"type": "node", "id": 3502565096, "lat": 51.1945277, "lon": 16.1708102, "way_id": 685413549, "landuse": "residential"}, {"type": "node", "id": 3502565097, "lat": 51.1946656, "lon": 16.2202396, "way_id": 685413550, "landuse": "residential"}, {"type": "node", "id": 3502565098, "lat": 51.1947209, "lon": 16.1851665, "way_id": 685413549, "landuse": "residential"}, {"type": "node", "id": 3502565099, "lat": 51.1947427, "lon": 16.2181005, "way_id": 685413550, "landuse": "residential"}, {"type": "node", "id": 3502565102, "lat": 51.1947783, "lon": 16.2142353, "way_id": 685413550, "landuse": "residential"}, {"type": "node", "id": 3502565103, "lat": 51.1948054, "lon": 16.2207395, "way_id": 685413550, "landuse": "residential"}, {"type": "node", "id": 3502565104, "lat": 51.1948233, "lon": 16.2188071, "way_id": 685413550, "landuse": "residential"}, {"type": "node", "id": 3502565106, "lat": 51.1948037, "lon": 16.209523, "way_id": 685413550, "landuse": "residential"}, {"type": "node", "id": 3502565108, "lat": 51.195163, "lon": 16.2096785, "way_id": 685413550, "landuse": "residential"}, {"type": "node", "id": 3502565109, "lat": 51.195198, "lon": 16.1442731, "way_id": 343480920, "landuse": "residential"}, {"type": "node", "id": 3502565111, "lat": 51.1952146, "lon": 16.2218331, "way_id": 685413550, "landuse": "residential"}, {"type": "node", "id": 3502565113, "lat": 51.1952432, "lon": 16.185643, "way_id": 685413549, "landuse": "residential"}, {"type": "node", "id": 3502565114, "lat": 51.1953659, "lon": 16.143297, "way_id": 343480920, "landuse": "residential"}, {"type": "node", "id": 3502565115, "lat": 51.1956386, "lon": 16.1699933, "way_id": 685413549, "landuse": "residential"}, {"type": "node", "id": 3502565116, "lat": 51.1955905, "lon": 16.1607222, "way_id": 343480920, "landuse": "residential"}, {"type": "node", "id": 3502565117, "lat": 51.1956755, "lon": 16.2224153, "way_id": 685413550, "landuse": "residential"}, {"type": "node", "id": 3502565119, "lat": 51.1957978, "lon": 16.2098592, "way_id": 685413550, "landuse": "residential"}, {"type": "node", "id": 3502565120, "lat": 51.1957725, "lon": 16.222376, "way_id": 685413550, "landuse": "residential"}, {"type": "node", "id": 3502565123, "lat": 51.1962095, "lon": 16.1859908, "way_id": 685413549, "landuse": "residential"}, {"type": "node", "id": 3502565124, "lat": 51.1962274, "lon": 16.2080486, "way_id": 685413550, "landuse": "residential"}, {"type": "node", "id": 3502565126, "lat": 51.1962721, "lon": 16.2079058, "way_id": 685413550, "landuse": "residential"}, {"type": "node", "id": 3502565127, "lat": 51.1959284, "lon": 16.2077344, "way_id": 685413550, "landuse": "residential"}, {"type": "node", "id": 3502565128, "lat": 51.1964026, "lon": 16.2046837, "way_id": 685413550, "landuse": "residential"}, {"type": "node", "id": 3502565129, "lat": 51.196797, "lon": 16.1706106, "way_id": 685413549, "landuse": "residential"}, {"type": "node", "id": 3502565130, "lat": 51.1964519, "lon": 16.2245345, "way_id": 685413550, "landuse": "residential"}, {"type": "node", "id": 3502565134, "lat": 51.1968694, "lon": 16.1868653, "way_id": 685413549, "landuse": "residential"}, {"type": "node", "id": 3502565136, "lat": 51.1970435, "lon": 16.2021031, "way_id": 685413550, "landuse": "residential"}, {"type": "node", "id": 3502565137, "lat": 51.1970541, "lon": 16.1706909, "way_id": 685413549, "landuse": "residential"}, {"type": "node", "id": 3502565138, "lat": 51.1971885, "lon": 16.2001629, "way_id": 685413550, "landuse": "residential"}, {"type": "node", "id": 3502565140, "lat": 51.197393, "lon": 16.2264231, "way_id": 685413550, "landuse": "residential"}, {"type": "node", "id": 3502565141, "lat": 51.197565, "lon": 16.1654238, "way_id": 343480920, "landuse": "residential"}, {"type": "node", "id": 3502565142, "lat": 51.1976483, "lon": 16.195357, "way_id": 685413550, "landuse": "residential"}, {"type": "node", "id": 3502565143, "lat": 51.197664, "lon": 16.1880367, "way_id": 685413549, "landuse": "residential"}, {"type": "node", "id": 3502565144, "lat": 51.1976741, "lon": 16.1964322, "way_id": 685413550, "landuse": "residential"}, {"type": "node", "id": 3502565145, "lat": 51.1976771, "lon": 16.1992186, "way_id": 685413550, "landuse": "residential"}, {"type": "node", "id": 3502565146, "lat": 51.1977577, "lon": 16.1426023, "way_id": 343480920, "landuse": "residential"}, {"type": "node", "id": 3502565147, "lat": 51.1979616, "lon": 16.1833606, "way_id": 685413549, "landuse": "residential"}, {"type": "node", "id": 3502565148, "lat": 51.1977348, "lon": 16.1964437, "way_id": 685413550, "landuse": "residential"}, {"type": "node", "id": 3502565150, "lat": 51.1979794, "lon": 16.1810444, "way_id": 685413549, "landuse": "residential"}, {"type": "node", "id": 3502565151, "lat": 51.1979349, "lon": 16.1966615, "way_id": 685413550, "landuse": "residential"}, {"type": "node", "id": 3502565152, "lat": 51.1979545, "lon": 16.1643728, "way_id": 343480920, "landuse": "residential"}, {"type": "node", "id": 3502565153, "lat": 51.1979846, "lon": 16.1669231, "way_id": 343480920, "landuse": "residential"}, {"type": "node", "id": 3502565155, "lat": 51.1980668, "lon": 16.1407549, "way_id": 343480920, "landuse": "residential"}, {"type": "node", "id": 3502565156, "lat": 51.1979776, "lon": 16.1805335, "way_id": 685413549, "landuse": "residential"}, {"type": "node", "id": 3502565157, "lat": 51.198139, "lon": 16.1945141, "way_id": 685413550, "landuse": "residential"}, {"type": "node", "id": 3502565159, "lat": 51.1983636, "lon": 16.1641042, "way_id": 343480920, "landuse": "residential"}, {"type": "node", "id": 3502565160, "lat": 51.1986237, "lon": 16.1805302, "way_id": 685413549, "landuse": "residential"}, {"type": "node", "id": 3502565161, "lat": 51.1986257, "lon": 16.2268677, "way_id": 685413550, "landuse": "residential"}, {"type": "node", "id": 3502565162, "lat": 51.1986454, "lon": 16.1863507, "way_id": 685413549, "landuse": "residential"}, {"type": "node", "id": 3502565163, "lat": 51.1986689, "lon": 16.1661696, "way_id": 343480920, "landuse": "residential"}, {"type": "node", "id": 3502565165, "lat": 51.1988323, "lon": 16.1729197, "way_id": 685413549, "landuse": "residential"}, {"type": "node", "id": 3502565168, "lat": 51.1989233, "lon": 16.1991429, "way_id": 685413550, "landuse": "residential"}, {"type": "node", "id": 3502565169, "lat": 51.1989473, "lon": 16.1856203, "way_id": 685413549, "landuse": "residential"}, {"type": "node", "id": 3502565170, "lat": 51.1990704, "lon": 16.174837, "way_id": 685413549, "landuse": "residential"}, {"type": "node", "id": 3502565171, "lat": 51.1991823, "lon": 16.1970082, "way_id": 685413550, "landuse": "residential"}, {"type": "node", "id": 3502565172, "lat": 51.1993255, "lon": 16.1396713, "way_id": 343480920, "landuse": "residential"}, {"type": "node", "id": 3502565173, "lat": 51.1994785, "lon": 16.1944327, "way_id": 685413550, "landuse": "residential"}, {"type": "node", "id": 3502565174, "lat": 51.1996853, "lon": 16.1642152, "way_id": 343480920, "landuse": "residential"}, {"type": "node", "id": 3502565175, "lat": 51.1996395, "lon": 16.1804678, "way_id": 685413549, "landuse": "residential"}, {"type": "node", "id": 3502565176, "lat": 51.1997468, "lon": 16.1869951, "way_id": 685413549, "landuse": "residential"}, {"type": "node", "id": 3502565177, "lat": 51.2000711, "lon": 16.137797, "way_id": 343480920, "landuse": "residential"}, {"type": "node", "id": 3502565178, "lat": 51.2002466, "lon": 16.1358529, "way_id": 343480920, "landuse": "residential"}, {"type": "node", "id": 3502565179, "lat": 51.199916, "lon": 16.1860696, "way_id": 685413549, "landuse": "residential"}, {"type": "node", "id": 3502565180, "lat": 51.2000241, "lon": 16.2274321, "way_id": 685413550, "landuse": "residential"}, {"type": "node", "id": 3502565181, "lat": 51.2002511, "lon": 16.1946909, "way_id": 685413550, "landuse": "residential"}, {"type": "node", "id": 3502565182, "lat": 51.2003106, "lon": 16.189197, "way_id": 685413549, "landuse": "residential"}, {"type": "node", "id": 3502565183, "lat": 51.2003451, "lon": 16.187975, "way_id": 685413549, "landuse": "residential"}, {"type": "node", "id": 3502565184, "lat": 51.200412, "lon": 16.1804405, "way_id": 685413549, "landuse": "residential"}, {"type": "node", "id": 3502565185, "lat": 51.2004495, "lon": 16.1645012, "way_id": 343480920, "landuse": "residential"}, {"type": "node", "id": 3502565186, "lat": 51.2005321, "lon": 16.1330819, "way_id": 343480920, "landuse": "residential"}, {"type": "node", "id": 3502565187, "lat": 51.2006133, "lon": 16.1752505, "way_id": 685413549, "landuse": "residential"}, {"type": "node", "id": 3502565190, "lat": 51.2007839, "lon": 16.1902866, "way_id": 685413549, "landuse": "residential"}, {"type": "node", "id": 3502565191, "lat": 51.2008444, "lon": 16.195468, "way_id": 685413550, "landuse": "residential"}, {"type": "node", "id": 3502565192, "lat": 51.2008728, "lon": 16.1860113, "way_id": 685413549, "landuse": "residential"}, {"type": "node", "id": 3502565193, "lat": 51.2008945, "lon": 16.2263424, "way_id": 685413550, "landuse": "residential"}, {"type": "node", "id": 3502565194, "lat": 51.2011219, "lon": 16.1804046, "way_id": 685413549, "landuse": "residential"}, {"type": "node", "id": 3502565196, "lat": 51.2011609, "lon": 16.1812166, "way_id": 685413549, "landuse": "residential"}, {"type": "node", "id": 3502565197, "lat": 51.2011106, "lon": 16.1852852, "way_id": 685413549, "landuse": "residential"}, {"type": "node", "id": 3502565198, "lat": 51.2011143, "lon": 16.184663, "way_id": 685413549, "landuse": "residential"}, {"type": "node", "id": 3502565199, "lat": 51.2011233, "lon": 16.1831497, "way_id": 685413549, "landuse": "residential"}, {"type": "node", "id": 3502565200, "lat": 51.2011975, "lon": 16.1968697, "way_id": 685413550, "landuse": "residential"}, {"type": "node", "id": 3502565202, "lat": 51.201451, "lon": 16.191466, "way_id": 685413549, "landuse": "residential"}, {"type": "node", "id": 3502565203, "lat": 51.2015423, "lon": 16.2261737, "way_id": 685413550, "landuse": "residential"}, {"type": "node", "id": 3502565207, "lat": 51.2019161, "lon": 16.1975377, "way_id": 685413550, "landuse": "residential"}, {"type": "node", "id": 3502565208, "lat": 51.2020138, "lon": 16.1750632, "way_id": 685413549, "landuse": "residential"}, {"type": "node", "id": 3502565209, "lat": 51.2021625, "lon": 16.2248396, "way_id": 685413550, "landuse": "residential"}, {"type": "node", "id": 3502565210, "lat": 51.2022088, "lon": 16.2044336, "way_id": 685413550, "landuse": "residential"}, {"type": "node", "id": 3502565211, "lat": 51.2022234, "lon": 16.1652397, "way_id": 343480920, "landuse": "residential"}, {"type": "node", "id": 3502565212, "lat": 51.2022367, "lon": 16.2002635, "way_id": 685413550, "landuse": "residential"}, {"type": "node", "id": 3502565215, "lat": 51.2023361, "lon": 16.2240227, "way_id": 685413550, "landuse": "residential"}, {"type": "node", "id": 3502565216, "lat": 51.2023513, "lon": 16.1995798, "way_id": 685413550, "landuse": "residential"}, {"type": "node", "id": 3502565217, "lat": 51.2023771, "lon": 16.1981197, "way_id": 685413550, "landuse": "residential"}, {"type": "node", "id": 3502565219, "lat": 51.2024126, "lon": 16.1996003, "way_id": 685413550, "landuse": "residential"}, {"type": "node", "id": 3502565220, "lat": 51.2024813, "lon": 16.1918101, "way_id": 685413549, "landuse": "residential"}, {"type": "node", "id": 3502565225, "lat": 51.2026005, "lon": 16.2074599, "way_id": 685413550, "landuse": "residential"}, {"type": "node", "id": 3502565226, "lat": 51.2027539, "lon": 16.2112123, "way_id": 685413550, "landuse": "residential"}, {"type": "node", "id": 3502565228, "lat": 51.2026951, "lon": 16.1323321, "way_id": 343480920, "landuse": "residential"}, {"type": "node", "id": 3502565229, "lat": 51.2029693, "lon": 16.1723104, "way_id": 343480920, "landuse": "residential"}, {"type": "node", "id": 3502565233, "lat": 51.2030718, "lon": 16.1951295, "way_id": 685413549, "landuse": "residential"}, {"type": "node", "id": 3502565235, "lat": 51.2032588, "lon": 16.1922712, "way_id": 685413549, "landuse": "residential"}, {"type": "node", "id": 3502565236, "lat": 51.203271, "lon": 16.1927789, "way_id": 685413549, "landuse": "residential"}, {"type": "node", "id": 3502565237, "lat": 51.203191, "lon": 16.2118257, "way_id": 685413550, "landuse": "residential"}, {"type": "node", "id": 3502565239, "lat": 51.2034549, "lon": 16.1739076, "way_id": 685413549, "landuse": "residential"}, {"type": "node", "id": 3502565240, "lat": 51.2037219, "lon": 16.1955979, "way_id": 685413549, "landuse": "residential"}, {"type": "node", "id": 3502565242, "lat": 51.2038694, "lon": 16.1725605, "way_id": 343480920, "landuse": "residential"}, {"type": "node", "id": 3502565243, "lat": 51.2040168, "lon": 16.1733647, "way_id": 685413549, "landuse": "residential"}, {"type": "node", "id": 3502565244, "lat": 51.2040871, "lon": 16.1342672, "way_id": 343480920, "landuse": "residential"}, {"type": "node", "id": 3502565493, "lat": 51.2052428, "lon": 16.1950991, "way_id": 685413549, "landuse": "residential"}, {"type": "node", "id": 3502565497, "lat": 51.2072774, "lon": 16.1388486, "way_id": 343480920, "landuse": "residential"}, {"type": "node", "id": 3502565515, "lat": 51.2053471, "lon": 16.2235617, "way_id": 685413550, "landuse": "residential"}, {"type": "node", "id": 3502565571, "lat": 51.205583, "lon": 16.2227338, "way_id": 685413550, "landuse": "residential"}, {"type": "node", "id": 3502565657, "lat": 51.206057, "lon": 16.2217, "way_id": 685413550, "landuse": "residential"}, {"type": "node", "id": 3502565739, "lat": 51.2075594, "lon": 16.1379709, "way_id": 343480920, "landuse": "residential"}, {"type": "node", "id": 3502565746, "lat": 51.2064938, "lon": 16.2207472, "way_id": 685413550, "landuse": "residential"}, {"type": "node", "id": 3502565859, "lat": 51.2071381, "lon": 16.1362732, "way_id": 343480920, "landuse": "residential"}, {"type": "node", "id": 3502565954, "lat": 51.2071537, "lon": 16.1948813, "way_id": 685413549, "landuse": "residential"}, {"type": "node", "id": 3502566083, "lat": 51.2073369, "lon": 16.2203958, "way_id": 685413550, "landuse": "residential"}, {"type": "node", "id": 3502566103, "lat": 51.2082594, "lon": 16.2224711, "way_id": 685413550, "landuse": "residential"}, {"type": "node", "id": 3502566105, "lat": 51.2083169, "lon": 16.2203824, "way_id": 685413550, "landuse": "residential"}, {"type": "node", "id": 3502566106, "lat": 51.2083654, "lon": 16.1948077, "way_id": 685413549, "landuse": "residential"}, {"type": "node", "id": 3502566107, "lat": 51.208412, "lon": 16.2208353, "way_id": 685413550, "landuse": "residential"}, {"type": "node", "id": 3502566108, "lat": 51.2085075, "lon": 16.1954091, "way_id": 685413549, "landuse": "residential"}, {"type": "node", "id": 3502566111, "lat": 51.2086645, "lon": 16.1966198, "way_id": 685413549, "landuse": "residential"}, {"type": "node", "id": 3502566113, "lat": 51.2088586, "lon": 16.2208084, "way_id": 685413550, "landuse": "residential"}, {"type": "node", "id": 3502566115, "lat": 51.2089682, "lon": 16.2227337, "way_id": 685413550, "landuse": "residential"}, {"type": "node", "id": 3502566116, "lat": 51.2097116, "lon": 16.1280005, "way_id": 665935603, "landuse": "residential"}, {"type": "node", "id": 3502566117, "lat": 51.2089158, "lon": 16.220341, "way_id": 685413550, "landuse": "residential"}, {"type": "node", "id": 3502566118, "lat": 51.2091843, "lon": 16.1969946, "way_id": 685413549, "landuse": "residential"}, {"type": "node", "id": 3502566119, "lat": 51.2092111, "lon": 16.1981116, "way_id": 685413549, "landuse": "residential"}, {"type": "node", "id": 3502566120, "lat": 51.2097133, "lon": 16.1287193, "way_id": 665935603, "landuse": "residential"}, {"type": "node", "id": 3502566126, "lat": 51.2098262, "lon": 16.2239022, "way_id": 685413550, "landuse": "residential"}, {"type": "node", "id": 3502566127, "lat": 51.2102458, "lon": 16.1907546, "way_id": 685413549, "landuse": "residential"}, {"type": "node", "id": 3502566128, "lat": 51.2097425, "lon": 16.1907119, "way_id": 685413549, "landuse": "residential"}, {"type": "node", "id": 3502566131, "lat": 51.2102614, "lon": 16.1901202, "way_id": 685413549, "landuse": "residential"}, {"type": "node", "id": 3502566133, "lat": 51.2097765, "lon": 16.1900865, "way_id": 685413549, "landuse": "residential"}, {"type": "node", "id": 3502566134, "lat": 51.2099488, "lon": 16.1825299, "way_id": 685413549, "landuse": "residential"}, {"type": "node", "id": 3502566135, "lat": 51.2103539, "lon": 16.1960403, "way_id": 685413549, "landuse": "residential"}, {"type": "node", "id": 3502566137, "lat": 51.2101796, "lon": 16.1941966, "way_id": 685413549, "landuse": "residential"}, {"type": "node", "id": 3502566138, "lat": 51.2106384, "lon": 16.2231416, "way_id": 685413550, "landuse": "residential"}, {"type": "node", "id": 3502566140, "lat": 51.2098476, "lon": 16.1961148, "way_id": 685413549, "landuse": "residential"}, {"type": "node", "id": 3502566141, "lat": 51.2097835, "lon": 16.1942272, "way_id": 685413549, "landuse": "residential"}, {"type": "node", "id": 3502566142, "lat": 51.2089003, "lon": 16.1347533, "way_id": 343480920, "landuse": "residential"}, {"type": "node", "id": 3502566143, "lat": 51.2110535, "lon": 16.2217944, "way_id": 685413550, "landuse": "residential"}, {"type": "node", "id": 3502566145, "lat": 51.2111007, "lon": 16.1824738, "way_id": 685413549, "landuse": "residential"}, {"type": "node", "id": 3502566146, "lat": 51.2111046, "lon": 16.2205849, "way_id": 685413550, "landuse": "residential"}, {"type": "node", "id": 3502566147, "lat": 51.2111404, "lon": 16.2120272, "way_id": 685413550, "landuse": "residential"}, {"type": "node", "id": 3502566148, "lat": 51.2113787, "lon": 16.2113011, "way_id": 685413550, "landuse": "residential"}, {"type": "node", "id": 3502566149, "lat": 51.2114096, "lon": 16.2206547, "way_id": 685413550, "landuse": "residential"}, {"type": "node", "id": 3502566150, "lat": 51.2116871, "lon": 16.1452467, "way_id": 343480920, "landuse": "residential"}, {"type": "node", "id": 3502566151, "lat": 51.2118082, "lon": 16.1444142, "way_id": 343480920, "landuse": "residential"}, {"type": "node", "id": 3502566153, "lat": 51.2120494, "lon": 16.1386031, "way_id": 343480920, "landuse": "residential"}, {"type": "node", "id": 3502566154, "lat": 51.212256, "lon": 16.1345372, "way_id": 343480920, "landuse": "residential"}, {"type": "node", "id": 3502566155, "lat": 51.2121885, "lon": 16.1360825, "way_id": 343480920, "landuse": "residential"}, {"type": "node", "id": 3502566156, "lat": 51.2091961, "lon": 16.1336464, "way_id": 343480920, "landuse": "residential"}, {"type": "node", "id": 3502566157, "lat": 51.2111227, "lon": 16.1347209, "way_id": 343480920, "landuse": "residential"}, {"type": "node", "id": 3502566158, "lat": 51.2111395, "lon": 16.1343139, "way_id": 343480920, "landuse": "residential"}, {"type": "node", "id": 3502566159, "lat": 51.2121611, "lon": 16.143172, "way_id": 343480920, "landuse": "residential"}, {"type": "node", "id": 3502566160, "lat": 51.212187, "lon": 16.221116, "way_id": 685413550, "landuse": "residential"}, {"type": "node", "id": 3502566161, "lat": 51.2122417, "lon": 16.2126724, "way_id": 685413550, "landuse": "residential"}, {"type": "node", "id": 3502566162, "lat": 51.212307, "lon": 16.2154143, "way_id": 685413550, "landuse": "residential"}, {"type": "node", "id": 3502566163, "lat": 51.2124676, "lon": 16.1687818, "way_id": 343480920, "landuse": "residential"}, {"type": "node", "id": 3502566164, "lat": 51.2120314, "lon": 16.1394775, "way_id": 343480920, "landuse": "residential"}, {"type": "node", "id": 3502566167, "lat": 51.2125512, "lon": 16.1467362, "way_id": 343480920, "landuse": "residential"}, {"type": "node", "id": 3502566169, "lat": 51.2127104, "lon": 16.142121, "way_id": 343480920, "landuse": "residential"}, {"type": "node", "id": 3502566170, "lat": 51.2127464, "lon": 16.1682056, "way_id": 343480920, "landuse": "residential"}, {"type": "node", "id": 3502566171, "lat": 51.2128049, "lon": 16.1706256, "way_id": 343480920, "landuse": "residential"}, {"type": "node", "id": 3502566173, "lat": 51.2129292, "lon": 16.2174104, "way_id": 685413550, "landuse": "residential"}, {"type": "node", "id": 3502566174, "lat": 51.2129345, "lon": 16.2230034, "way_id": 685413550, "landuse": "residential"}, {"type": "node", "id": 3502566175, "lat": 51.2131799, "lon": 16.1587697, "way_id": 685413545, "landuse": "residential"}, {"type": "node", "id": 3502566177, "lat": 51.2133347, "lon": 16.1831155, "way_id": 685413549, "landuse": "residential"}, {"type": "node", "id": 3502566178, "lat": 51.2134218, "lon": 16.2193132, "way_id": 685413550, "landuse": "residential"}, {"type": "node", "id": 3502566181, "lat": 51.2134971, "lon": 16.1847511, "way_id": 685413549, "landuse": "residential"}, {"type": "node", "id": 3502566183, "lat": 51.2135086, "lon": 16.2229689, "way_id": 685413550, "landuse": "residential"}, {"type": "node", "id": 3502566184, "lat": 51.2136342, "lon": 16.166194, "way_id": 685413545, "landuse": "residential"}, {"type": "node", "id": 3502566185, "lat": 51.2136011, "lon": 16.1603374, "way_id": 685413545, "landuse": "residential"}, {"type": "node", "id": 3502566191, "lat": 51.2140947, "lon": 16.1807304, "way_id": 685413549, "landuse": "residential"}, {"type": "node", "id": 3502566192, "lat": 51.2141901, "lon": 16.1770653, "way_id": 685413549, "landuse": "residential"}, {"type": "node", "id": 3502566193, "lat": 51.2141992, "lon": 16.2197744, "way_id": 685413550, "landuse": "residential"}, {"type": "node", "id": 3502566194, "lat": 51.2142102, "lon": 16.1775695, "way_id": 685413549, "landuse": "residential"}, {"type": "node", "id": 3502566199, "lat": 51.2143988, "lon": 16.1827455, "way_id": 685413549, "landuse": "residential"}, {"type": "node", "id": 3502566202, "lat": 51.2145139, "lon": 16.1848743, "way_id": 685413549, "landuse": "residential"}, {"type": "node", "id": 3502566203, "lat": 51.2144893, "lon": 16.1589163, "way_id": 685413545, "landuse": "residential"}, {"type": "node", "id": 3502566204, "lat": 51.2146194, "lon": 16.2240203, "way_id": 685413550, "landuse": "residential"}, {"type": "node", "id": 3502566205, "lat": 51.2147243, "lon": 16.1599356, "way_id": 685413545, "landuse": "residential"}, {"type": "node", "id": 3502566206, "lat": 51.2147812, "lon": 16.156332, "way_id": 685413545, "landuse": "residential"}, {"type": "node", "id": 3502566207, "lat": 51.2149044, "lon": 16.159647, "way_id": 685413545, "landuse": "residential"}, {"type": "node", "id": 3502566208, "lat": 51.2148215, "lon": 16.1668664, "way_id": 685413545, "landuse": "residential"}, {"type": "node", "id": 3502566209, "lat": 51.2148609, "lon": 16.2207516, "way_id": 685413550, "landuse": "residential"}, {"type": "node", "id": 3502566210, "lat": 51.2151072, "lon": 16.1689927, "way_id": 685413545, "landuse": "residential"}, {"type": "node", "id": 3502566211, "lat": 51.2151748, "lon": 16.1717852, "way_id": 685413545, "landuse": "residential"}, {"type": "node", "id": 3502566212, "lat": 51.2152669, "lon": 16.155285, "way_id": 685413545, "landuse": "residential"}, {"type": "node", "id": 3502566213, "lat": 51.2153087, "lon": 16.2234707, "way_id": 685413550, "landuse": "residential"}, {"type": "node", "id": 3502566214, "lat": 51.2154085, "lon": 16.1741946, "way_id": 685413545, "landuse": "residential"}, {"type": "node", "id": 3502566215, "lat": 51.2157887, "lon": 16.1753827, "way_id": 685413545, "landuse": "residential"}, {"type": "node", "id": 3502566216, "lat": 51.2162234, "lon": 16.155226, "way_id": 685413545, "landuse": "residential"}, {"type": "node", "id": 3502566217, "lat": 51.2162471, "lon": 16.1760065, "way_id": 685413545, "landuse": "residential"}, {"type": "node", "id": 3502566218, "lat": 51.2157757, "lon": 16.1633022, "way_id": 685413545, "landuse": "residential"}, {"type": "node", "id": 3502566219, "lat": 51.2174242, "lon": 16.165878, "way_id": 685413545, "landuse": "residential"}, {"type": "node", "id": 3502566220, "lat": 51.2169739, "lon": 16.1545695, "way_id": 685413545, "landuse": "residential"}, {"type": "node", "id": 3502566221, "lat": 51.2170677, "lon": 16.1742429, "way_id": 685413545, "landuse": "residential"}, {"type": "node", "id": 3502566222, "lat": 51.2171069, "lon": 16.1758679, "way_id": 685413545, "landuse": "residential"}, {"type": "node", "id": 3502566223, "lat": 51.2171186, "lon": 16.1631545, "way_id": 685413545, "landuse": "residential"}, {"type": "node", "id": 3502566224, "lat": 51.2176299, "lon": 16.1676514, "way_id": 685413545, "landuse": "residential"}, {"type": "node", "id": 3502566225, "lat": 51.2180877, "lon": 16.1662476, "way_id": 685413545, "landuse": "residential"}, {"type": "node", "id": 3502566226, "lat": 51.2181095, "lon": 16.1539913, "way_id": 685413545, "landuse": "residential"}, {"type": "node", "id": 3502566227, "lat": 51.2182059, "lon": 16.1737667, "way_id": 685413545, "landuse": "residential"}, {"type": "node", "id": 3502566228, "lat": 51.2180905, "lon": 16.1629477, "way_id": 685413545, "landuse": "residential"}, {"type": "node", "id": 3502566229, "lat": 51.218802, "lon": 16.1720011, "way_id": 685413545, "landuse": "residential"}, {"type": "node", "id": 3502566230, "lat": 51.219042, "lon": 16.1660873, "way_id": 685413545, "landuse": "residential"}, {"type": "node", "id": 3502566231, "lat": 51.2192327, "lon": 16.1529047, "way_id": 685413545, "landuse": "residential"}, {"type": "node", "id": 3502566232, "lat": 51.219674, "lon": 16.1524244, "way_id": 685413545, "landuse": "residential"}, {"type": "node", "id": 3502566233, "lat": 51.2197168, "lon": 16.1728601, "way_id": 685413545, "landuse": "residential"}, {"type": "node", "id": 3502566234, "lat": 51.2197584, "lon": 16.1666535, "way_id": 685413545, "landuse": "residential"}, {"type": "node", "id": 3502566235, "lat": 51.21994, "lon": 16.1688801, "way_id": 685413545, "landuse": "residential"}, {"type": "node", "id": 3502566236, "lat": 51.2199572, "lon": 16.1521164, "way_id": 685413545, "landuse": "residential"}, {"type": "node", "id": 3502566237, "lat": 51.2190315, "lon": 16.1618464, "way_id": 685413545, "landuse": "residential"}, {"type": "node", "id": 3502566238, "lat": 51.2200372, "lon": 16.1521114, "way_id": 685413545, "landuse": "residential"}, {"type": "node", "id": 3502566239, "lat": 51.2202269, "lon": 16.1675403, "way_id": 685413545, "landuse": "residential"}, {"type": "node", "id": 3502566240, "lat": 51.2202271, "lon": 16.1701846, "way_id": 685413545, "landuse": "residential"}, {"type": "node", "id": 3502566241, "lat": 51.2203596, "lon": 16.1730244, "way_id": 685413545, "landuse": "residential"}, {"type": "node", "id": 3502566242, "lat": 51.2205829, "lon": 16.1716886, "way_id": 685413545, "landuse": "residential"}, {"type": "node", "id": 3502566243, "lat": 51.2202007, "lon": 16.1625151, "way_id": 685413545, "landuse": "residential"}, {"type": "node", "id": 3502566244, "lat": 51.2212474, "lon": 16.1674777, "way_id": 685413545, "landuse": "residential"}, {"type": "node", "id": 3502566245, "lat": 51.2214851, "lon": 16.1667512, "way_id": 685413545, "landuse": "residential"}, {"type": "node", "id": 3502566246, "lat": 51.2216985, "lon": 16.1650089, "way_id": 685413545, "landuse": "residential"}, {"type": "node", "id": 3502566247, "lat": 51.2218459, "lon": 16.1684577, "way_id": 685413545, "landuse": "residential"}, {"type": "node", "id": 3502566248, "lat": 51.2220718, "lon": 16.1698681, "way_id": 685413545, "landuse": "residential"}, {"type": "node", "id": 3502566249, "lat": 51.2221719, "lon": 16.1660987, "way_id": 685413545, "landuse": "residential"}, {"type": "node", "id": 3502566250, "lat": 51.2223624, "lon": 16.1519624, "way_id": 685413545, "landuse": "residential"}, {"type": "node", "id": 3502566251, "lat": 51.2225353, "lon": 16.1784852, "way_id": 685413545, "landuse": "residential"}, {"type": "node", "id": 3502566252, "lat": 51.2225575, "lon": 16.1714654, "way_id": 685413545, "landuse": "residential"}, {"type": "node", "id": 3502566253, "lat": 51.2223718, "lon": 16.1774099, "way_id": 685413545, "landuse": "residential"}, {"type": "node", "id": 3502566254, "lat": 51.2227028, "lon": 16.1793198, "way_id": 685413545, "landuse": "residential"}, {"type": "node", "id": 3502566255, "lat": 51.222859, "lon": 16.1733799, "way_id": 685413545, "landuse": "residential"}, {"type": "node", "id": 3502566256, "lat": 51.2229795, "lon": 16.1757115, "way_id": 685413545, "landuse": "residential"}, {"type": "node", "id": 3502566257, "lat": 51.2236808, "lon": 16.1756686, "way_id": 685413545, "landuse": "residential"}, {"type": "node", "id": 3502566258, "lat": 51.2237761, "lon": 16.17553, "way_id": 685413545, "landuse": "residential"}, {"type": "node", "id": 3502566259, "lat": 51.2242917, "lon": 16.1745126, "way_id": 685413545, "landuse": "residential"}, {"type": "node", "id": 3502566261, "lat": 51.224487, "lon": 16.1749007, "way_id": 685413545, "landuse": "residential"}, {"type": "node", "id": 3502566268, "lat": 51.2254445, "lon": 16.1552258, "way_id": 685413545, "landuse": "residential"}, {"type": "node", "id": 3502566269, "lat": 51.2260178, "lon": 16.1563277, "way_id": 685413545, "landuse": "residential"}, {"type": "node", "id": 3502566270, "lat": 51.2267958, "lon": 16.1671368, "way_id": 685413545, "landuse": "residential"}, {"type": "node", "id": 3502566271, "lat": 51.2268349, "lon": 16.166117, "way_id": 685413545, "landuse": "residential"}, {"type": "node", "id": 3502566272, "lat": 51.2270658, "lon": 16.1677306, "way_id": 685413545, "landuse": "residential"}, {"type": "node", "id": 3502566273, "lat": 51.2266341, "lon": 16.1570861, "way_id": 685413545, "landuse": "residential"}, {"type": "node", "id": 3502566274, "lat": 51.2272542, "lon": 16.1649722, "way_id": 685413545, "landuse": "residential"}, {"type": "node", "id": 3502566277, "lat": 51.2276207, "lon": 16.1752053, "way_id": 685413545, "landuse": "residential"}, {"type": "node", "id": 3502566278, "lat": 51.2274238, "lon": 16.1575905, "way_id": 685413545, "landuse": "residential"}, {"type": "node", "id": 3502566279, "lat": 51.2275871, "lon": 16.1717423, "way_id": 685413545, "landuse": "residential"}, {"type": "node", "id": 3502566280, "lat": 51.2280237, "lon": 16.1703675, "way_id": 685413545, "landuse": "residential"}, {"type": "node", "id": 3502566281, "lat": 51.2280491, "lon": 16.1634994, "way_id": 685413545, "landuse": "residential"}, {"type": "node", "id": 3502566282, "lat": 51.2280784, "lon": 16.1653904, "way_id": 685413545, "landuse": "residential"}, {"type": "node", "id": 3502566283, "lat": 51.2282213, "lon": 16.1706097, "way_id": 685413545, "landuse": "residential"}, {"type": "node", "id": 3502566284, "lat": 51.2282452, "lon": 16.1636906, "way_id": 685413545, "landuse": "residential"}, {"type": "node", "id": 3502566285, "lat": 51.2282818, "lon": 16.1625693, "way_id": 685413545, "landuse": "residential"}, {"type": "node", "id": 3502566286, "lat": 51.2283182, "lon": 16.1581148, "way_id": 685413545, "landuse": "residential"}, {"type": "node", "id": 3502566289, "lat": 51.2284188, "lon": 16.1761414, "way_id": 685413545, "landuse": "residential"}, {"type": "node", "id": 3502566290, "lat": 51.2284884, "lon": 16.1658121, "way_id": 685413545, "landuse": "residential"}, {"type": "node", "id": 3502566291, "lat": 51.2285687, "lon": 16.1612293, "way_id": 685413545, "landuse": "residential"}, {"type": "node", "id": 3502566292, "lat": 51.2285909, "lon": 16.1621437, "way_id": 685413545, "landuse": "residential"}, {"type": "node", "id": 3502566296, "lat": 51.2289474, "lon": 16.1715821, "way_id": 685413545, "landuse": "residential"}, {"type": "node", "id": 3502566297, "lat": 51.2290567, "lon": 16.1761023, "way_id": 685413545, "landuse": "residential"}, {"type": "node", "id": 3502566299, "lat": 51.2290767, "lon": 16.1637411, "way_id": 685413545, "landuse": "residential"}, {"type": "node", "id": 3502566300, "lat": 51.2290772, "lon": 16.169031, "way_id": 685413545, "landuse": "residential"}, {"type": "node", "id": 3502566301, "lat": 51.2291495, "lon": 16.1691014, "way_id": 685413545, "landuse": "residential"}, {"type": "node", "id": 3502566302, "lat": 51.2293299, "lon": 16.1689139, "way_id": 685413545, "landuse": "residential"}, {"type": "node", "id": 3502566303, "lat": 51.2293557, "lon": 16.1779151, "way_id": 685413545, "landuse": "residential"}, {"type": "node", "id": 3502566304, "lat": 51.2293617, "lon": 16.1675895, "way_id": 685413545, "landuse": "residential"}, {"type": "node", "id": 3502566305, "lat": 51.2293934, "lon": 16.1662652, "way_id": 685413545, "landuse": "residential"}, {"type": "node", "id": 3502566306, "lat": 51.2294149, "lon": 16.1780868, "way_id": 685413545, "landuse": "residential"}, {"type": "node", "id": 3502566307, "lat": 51.2294516, "lon": 16.1765868, "way_id": 685413545, "landuse": "residential"}, {"type": "node", "id": 3502566308, "lat": 51.2295135, "lon": 16.1633076, "way_id": 685413545, "landuse": "residential"}, {"type": "node", "id": 3502566309, "lat": 51.2295752, "lon": 16.171137, "way_id": 685413545, "landuse": "residential"}, {"type": "node", "id": 3502566310, "lat": 51.2296508, "lon": 16.1698588, "way_id": 685413545, "landuse": "residential"}, {"type": "node", "id": 3502566311, "lat": 51.2298597, "lon": 16.169695, "way_id": 685413545, "landuse": "residential"}, {"type": "node", "id": 3502566312, "lat": 51.2301437, "lon": 16.1629634, "way_id": 685413545, "landuse": "residential"}, {"type": "node", "id": 3502566313, "lat": 51.2303179, "lon": 16.1672425, "way_id": 685413545, "landuse": "residential"}, {"type": "node", "id": 3502566314, "lat": 51.2303918, "lon": 16.165288, "way_id": 685413545, "landuse": "residential"}, {"type": "node", "id": 3502566315, "lat": 51.2304186, "lon": 16.1637602, "way_id": 685413545, "landuse": "residential"}, {"type": "node", "id": 3502566316, "lat": 51.2305123, "lon": 16.1702653, "way_id": 685413545, "landuse": "residential"}, {"type": "node", "id": 3502566317, "lat": 51.2306114, "lon": 16.1666811, "way_id": 685413545, "landuse": "residential"}, {"type": "node", "id": 3502566318, "lat": 51.2310699, "lon": 16.166774, "way_id": 685413545, "landuse": "residential"}, {"type": "node", "id": 3502566319, "lat": 51.2311132, "lon": 16.1713476, "way_id": 685413545, "landuse": "residential"}, {"type": "node", "id": 3502566320, "lat": 51.2317535, "lon": 16.1714099, "way_id": 685413545, "landuse": "residential"}, {"type": "node", "id": 3502566321, "lat": 51.2317591, "lon": 16.1669739, "way_id": 685413545, "landuse": "residential"}, {"type": "node", "id": 3502566322, "lat": 51.2318265, "lon": 16.1697547, "way_id": 685413545, "landuse": "residential"}, {"type": "node", "id": 3502566323, "lat": 51.2319078, "lon": 16.1698747, "way_id": 685413545, "landuse": "residential"}, {"type": "node", "id": 3502566324, "lat": 51.2320153, "lon": 16.1703289, "way_id": 685413545, "landuse": "residential"}, {"type": "node", "id": 3502566325, "lat": 51.2321214, "lon": 16.170777, "way_id": 685413545, "landuse": "residential"}, {"type": "node", "id": 3502827161, "lat": 51.2020156, "lon": 16.1460253, "way_id": 343449816, "landuse": "residential"}, {"type": "node", "id": 3502827178, "lat": 51.2020902, "lon": 16.1452872, "way_id": 343449816, "landuse": "residential"}, {"type": "node", "id": 3502827198, "lat": 51.2022058, "lon": 16.144436, "way_id": 343449816, "landuse": "residential"}, {"type": "node", "id": 3502827224, "lat": 51.2023848, "lon": 16.1444479, "way_id": 343449816, "landuse": "residential"}, {"type": "node", "id": 3502827240, "lat": 51.2025041, "lon": 16.1461592, "way_id": 343449816, "landuse": "residential"}, {"type": "node", "id": 3502827253, "lat": 51.2026621, "lon": 16.144601, "way_id": 343449816, "landuse": "residential"}, {"type": "node", "id": 3502827256, "lat": 51.2026757, "lon": 16.1445223, "way_id": 343449816, "landuse": "residential"}, {"type": "node", "id": 3502828655, "lat": 51.2119712, "lon": 16.1405261, "way_id": 343480920, "landuse": "residential"}, {"type": "node", "id": 3502828657, "lat": 51.2119836, "lon": 16.1409436, "way_id": 343480920, "landuse": "residential"}, {"type": "node", "id": 3502828680, "lat": 51.2121051, "lon": 16.1413115, "way_id": 343480920, "landuse": "residential"}, {"type": "node", "id": 3502828681, "lat": 51.2121175, "lon": 16.1392238, "way_id": 343449809, "landuse": "residential"}, {"type": "node", "id": 3502828683, "lat": 51.212158, "lon": 16.1385975, "way_id": 343449809, "landuse": "residential"}, {"type": "node", "id": 3502828688, "lat": 51.2122047, "lon": 16.1377077, "way_id": 343449820, "landuse": "residential"}, {"type": "node", "id": 3502828691, "lat": 51.2122327, "lon": 16.1370541, "way_id": 343449820, "landuse": "residential"}, {"type": "node", "id": 3502828694, "lat": 51.2122681, "lon": 16.138579, "way_id": 343449809, "landuse": "residential"}, {"type": "node", "id": 3502828703, "lat": 51.2124561, "lon": 16.1370008, "way_id": 343449820, "landuse": "residential"}, {"type": "node", "id": 3502828709, "lat": 51.2126078, "lon": 16.1399822, "way_id": 343450158, "landuse": "residential"}, {"type": "node", "id": 3502828710, "lat": 51.2126513, "lon": 16.1404587, "way_id": 343450158, "landuse": "residential"}, {"type": "node", "id": 3502828725, "lat": 51.2130198, "lon": 16.1403928, "way_id": 343450158, "landuse": "residential"}, {"type": "node", "id": 3502828726, "lat": 51.2130357, "lon": 16.1410115, "way_id": 343450158, "landuse": "residential"}, {"type": "node", "id": 3502828735, "lat": 51.2132759, "lon": 16.1368055, "way_id": 343449820, "landuse": "residential"}, {"type": "node", "id": 3502828738, "lat": 51.2133163, "lon": 16.1370193, "way_id": 343449820, "landuse": "residential"}, {"type": "node", "id": 3502828740, "lat": 51.2133915, "lon": 16.1403015, "way_id": 343450158, "landuse": "residential"}, {"type": "node", "id": 3502828741, "lat": 51.2133979, "lon": 16.1409557, "way_id": 343450162, "landuse": "residential"}, {"type": "node", "id": 3502828742, "lat": 51.2134328, "lon": 16.1416505, "way_id": 343450162, "landuse": "residential"}, {"type": "node", "id": 3502828749, "lat": 51.213652, "lon": 16.1409151, "way_id": 343450162, "landuse": "residential"}, {"type": "node", "id": 3502828750, "lat": 51.2136552, "lon": 16.1413563, "way_id": 343450162, "landuse": "residential"}, {"type": "node", "id": 3502828755, "lat": 51.2137914, "lon": 16.1340347, "way_id": 343450157, "landuse": "farmland"}, {"type": "node", "id": 3502828756, "lat": 51.2138548, "lon": 16.1345979, "way_id": 343450157, "landuse": "farmland"}, {"type": "node", "id": 3502828757, "lat": 51.2138871, "lon": 16.1346597, "way_id": 343450157, "landuse": "farmland"}, {"type": "node", "id": 3502828760, "lat": 51.2139347, "lon": 16.134926, "way_id": 343450157, "landuse": "farmland"}, {"type": "node", "id": 3502828761, "lat": 51.2139858, "lon": 16.1356722, "way_id": 343450157, "landuse": "farmland"}, {"type": "node", "id": 3502828765, "lat": 51.2140956, "lon": 16.1373594, "way_id": 343449820, "landuse": "residential"}, {"type": "node", "id": 3502828766, "lat": 51.2141094, "lon": 16.140124, "way_id": 343450158, "landuse": "residential"}, {"type": "node", "id": 3502828767, "lat": 51.2141094, "lon": 16.1402052, "way_id": 343450158, "landuse": "residential"}, {"type": "node", "id": 3502828768, "lat": 51.2141103, "lon": 16.13689, "way_id": 343449820, "landuse": "residential"}, {"type": "node", "id": 3502828769, "lat": 51.2141163, "lon": 16.1387904, "way_id": 343449809, "landuse": "residential"}, {"type": "node", "id": 3502828770, "lat": 51.2141228, "lon": 16.1370839, "way_id": 343449820, "landuse": "residential"}, {"type": "node", "id": 3502828771, "lat": 51.214132, "lon": 16.1361514, "way_id": 343450157, "landuse": "farmland"}, {"type": "node", "id": 3502828772, "lat": 51.2141981, "lon": 16.1367954, "way_id": 343450157, "landuse": "farmland"}, {"type": "node", "id": 3502828773, "lat": 51.2142037, "lon": 16.1382545, "way_id": 343449809, "landuse": "residential"}, {"type": "node", "id": 3502828774, "lat": 51.2142037, "lon": 16.1387714, "way_id": 343449809, "landuse": "residential"}, {"type": "node", "id": 3502828776, "lat": 51.2142287, "lon": 16.1373349, "way_id": 343449820, "landuse": "residential"}, {"type": "node", "id": 3502828778, "lat": 51.2142569, "lon": 16.1395817, "way_id": 343450158, "landuse": "residential"}, {"type": "node", "id": 3502828780, "lat": 51.214266, "lon": 16.1397208, "way_id": 343450158, "landuse": "residential"}, {"type": "node", "id": 3502828786, "lat": 51.2144097, "lon": 16.136769, "way_id": 343450157, "landuse": "farmland"}, {"type": "node", "id": 3502828790, "lat": 51.2144726, "lon": 16.137186, "way_id": 343450157, "landuse": "farmland"}, {"type": "node", "id": 3502828798, "lat": 51.2145415, "lon": 16.1398552, "way_id": 343450158, "landuse": "residential"}, {"type": "node", "id": 3502828799, "lat": 51.2145447, "lon": 16.1400327, "way_id": 343450158, "landuse": "residential"}, {"type": "node", "id": 3502828808, "lat": 51.2146212, "lon": 16.1394991, "way_id": 343450158, "landuse": "residential"}, {"type": "node", "id": 3502828830, "lat": 51.2148401, "lon": 16.1394495, "way_id": 343450158, "landuse": "residential"}, {"type": "node", "id": 3502828831, "lat": 51.2148401, "lon": 16.1397944, "way_id": 343450158, "landuse": "residential"}, {"type": "node", "id": 3502828840, "lat": 51.214952, "lon": 16.1371121, "way_id": 343450157, "landuse": "farmland"}, {"type": "node", "id": 3502828858, "lat": 51.2152298, "lon": 16.1337814, "way_id": 343450157, "landuse": "farmland"}, {"type": "node", "id": 3502828870, "lat": 51.2154298, "lon": 16.1367036, "way_id": 343450157, "landuse": "farmland"}, {"type": "node", "id": 3502828871, "lat": 51.2154514, "lon": 16.1370206, "way_id": 343450157, "landuse": "farmland"}, {"type": "node", "id": 3502828872, "lat": 51.2154579, "lon": 16.1371148, "way_id": 343450161, "landuse": "residential"}, {"type": "node", "id": 3502828873, "lat": 51.2154843, "lon": 16.1376321, "way_id": 343450161, "landuse": "residential"}, {"type": "node", "id": 3502828880, "lat": 51.2157621, "lon": 16.1375687, "way_id": 343450161, "landuse": "residential"}, {"type": "node", "id": 3502828881, "lat": 51.2158249, "lon": 16.1380438, "way_id": 343450161, "landuse": "residential"}, {"type": "node", "id": 3502828884, "lat": 51.2159803, "lon": 16.1380702, "way_id": 343450161, "landuse": "residential"}, {"type": "node", "id": 3502828885, "lat": 51.2159836, "lon": 16.1382286, "way_id": 343450161, "landuse": "residential"}, {"type": "node", "id": 3502828886, "lat": 51.2159869, "lon": 16.1367558, "way_id": 343450161, "landuse": "residential"}, {"type": "node", "id": 3502828888, "lat": 51.2160035, "lon": 16.137025, "way_id": 343450161, "landuse": "residential"}, {"type": "node", "id": 3502828890, "lat": 51.2160183, "lon": 16.1336705, "way_id": 343450155, "landuse": "farmland"}, {"type": "node", "id": 3502828892, "lat": 51.2160828, "lon": 16.1382497, "way_id": 343450161, "landuse": "residential"}, {"type": "node", "id": 3502828894, "lat": 51.2161407, "lon": 16.1361937, "way_id": 343450155, "landuse": "farmland"}, {"type": "node", "id": 3502828895, "lat": 51.2161556, "lon": 16.1366397, "way_id": 343450161, "landuse": "residential"}, {"type": "node", "id": 3502828896, "lat": 51.2161556, "lon": 16.1367347, "way_id": 343450161, "landuse": "residential"}, {"type": "node", "id": 3502828910, "lat": 51.2164862, "lon": 16.1335966, "way_id": 343450155, "landuse": "farmland"}, {"type": "node", "id": 3502828920, "lat": 51.216711, "lon": 16.1395904, "way_id": 343450161, "landuse": "residential"}, {"type": "node", "id": 3502828924, "lat": 51.2168036, "lon": 16.1381599, "way_id": 343450161, "landuse": "residential"}, {"type": "node", "id": 3502828927, "lat": 51.2168466, "lon": 16.1366028, "way_id": 343450161, "landuse": "residential"}, {"type": "node", "id": 3502828928, "lat": 51.2168466, "lon": 16.1369195, "way_id": 343450161, "landuse": "residential"}, {"type": "node", "id": 3502828930, "lat": 51.2168547, "lon": 16.1361884, "way_id": 343450155, "landuse": "farmland"}, {"type": "node", "id": 3502828936, "lat": 51.2168863, "lon": 16.1345784, "way_id": 343450155, "landuse": "farmland"}, {"type": "node", "id": 3502828939, "lat": 51.2169193, "lon": 16.1395957, "way_id": 343450161, "landuse": "residential"}, {"type": "node", "id": 3502828944, "lat": 51.2169954, "lon": 16.1381283, "way_id": 343450161, "landuse": "residential"}, {"type": "node", "id": 3502828949, "lat": 51.2170747, "lon": 16.1368825, "way_id": 343450161, "landuse": "residential"}, {"type": "node", "id": 3502828954, "lat": 51.2172334, "lon": 16.1366978, "way_id": 343450161, "landuse": "residential"}, {"type": "node", "id": 3502828963, "lat": 51.2173756, "lon": 16.1364761, "way_id": 343450161, "landuse": "residential"}, {"type": "node", "id": 3502828974, "lat": 51.2174847, "lon": 16.1380702, "way_id": 343450161, "landuse": "residential"}, {"type": "node", "id": 3502828975, "lat": 51.2174847, "lon": 16.1386772, "way_id": 343450161, "landuse": "residential"}, {"type": "node", "id": 3502828982, "lat": 51.2175211, "lon": 16.1361858, "way_id": 343450161, "landuse": "residential"}, {"type": "node", "id": 3502828985, "lat": 51.2175442, "lon": 16.1386825, "way_id": 343450161, "landuse": "residential"}, {"type": "node", "id": 3502828988, "lat": 51.2176055, "lon": 16.1361811, "way_id": 343450168, "landuse": "farmland"}, {"type": "node", "id": 3502828999, "lat": 51.2177178, "lon": 16.1358717, "way_id": 343450168, "landuse": "farmland"}, {"type": "node", "id": 3502829017, "lat": 51.2178748, "lon": 16.138672, "way_id": 343450161, "landuse": "residential"}, {"type": "node", "id": 3502829030, "lat": 51.2179955, "lon": 16.1349374, "way_id": 343450168, "landuse": "farmland"}, {"type": "node", "id": 3502829032, "lat": 51.2177613, "lon": 16.1334439, "way_id": 343450155, "landuse": "farmland"}, {"type": "node", "id": 3502829034, "lat": 51.2177442, "lon": 16.1344846, "way_id": 343450155, "landuse": "farmland"}, {"type": "node", "id": 3502829040, "lat": 51.2176833, "lon": 16.1341225, "way_id": 343450155, "landuse": "farmland"}, {"type": "node", "id": 3502829048, "lat": 51.2177016, "lon": 16.1337389, "way_id": 343450155, "landuse": "farmland"}, {"type": "node", "id": 3502829050, "lat": 51.2182683, "lon": 16.1378749, "way_id": 343450161, "landuse": "residential"}, {"type": "node", "id": 3502829051, "lat": 51.2182881, "lon": 16.1361435, "way_id": 343450168, "landuse": "farmland"}, {"type": "node", "id": 3502829054, "lat": 51.2183642, "lon": 16.136228, "way_id": 343450168, "landuse": "farmland"}, {"type": "node", "id": 3502829068, "lat": 51.2189229, "lon": 16.1377799, "way_id": 343450161, "landuse": "residential"}, {"type": "node", "id": 3502829069, "lat": 51.2189295, "lon": 16.1371755, "way_id": 343450169, "landuse": "farmland"}, {"type": "node", "id": 3502829070, "lat": 51.2189295, "lon": 16.1385242, "way_id": 343450161, "landuse": "residential"}, {"type": "node", "id": 3502829071, "lat": 51.219032, "lon": 16.1371702, "way_id": 343450169, "landuse": "farmland"}, {"type": "node", "id": 3502829072, "lat": 51.2190568, "lon": 16.1362148, "way_id": 343450169, "landuse": "farmland"}, {"type": "node", "id": 3502829073, "lat": 51.219118, "lon": 16.1364048, "way_id": 343450169, "landuse": "farmland"}, {"type": "node", "id": 3502829074, "lat": 51.2191411, "lon": 16.1374922, "way_id": 343450169, "landuse": "farmland"}, {"type": "node", "id": 3502829075, "lat": 51.2192304, "lon": 16.1364259, "way_id": 343450169, "landuse": "farmland"}, {"type": "node", "id": 3502829076, "lat": 51.2193147, "lon": 16.1377297, "way_id": 343450169, "landuse": "farmland"}, {"type": "node", "id": 3502829077, "lat": 51.2195098, "lon": 16.1377139, "way_id": 343450169, "landuse": "farmland"}, {"type": "node", "id": 3502829078, "lat": 51.2196288, "lon": 16.1345045, "way_id": 343450168, "landuse": "farmland"}, {"type": "node", "id": 3502829079, "lat": 51.2196784, "lon": 16.1343937, "way_id": 343450168, "landuse": "farmland"}, {"type": "node", "id": 3502829080, "lat": 51.2198999, "lon": 16.1352224, "way_id": 343450168, "landuse": "farmland"}, {"type": "node", "id": 3502829081, "lat": 51.2201181, "lon": 16.1362148, "way_id": 343450169, "landuse": "farmland"}, {"type": "node", "id": 3502894516, "lat": 51.2007167, "lon": 16.1315101, "way_id": 343480920, "landuse": "residential"}, {"type": "node", "id": 3502894796, "lat": 51.2011383, "lon": 16.1314675, "way_id": 343480920, "landuse": "residential"}, {"type": "node", "id": 3502895181, "lat": 51.2019525, "lon": 16.1316003, "way_id": 343480920, "landuse": "residential"}, {"type": "node", "id": 3503102316, "lat": 51.1956875, "lon": 16.1598098, "way_id": 343480920, "landuse": "residential"}, {"type": "node", "id": 3503102318, "lat": 51.1956912, "lon": 16.1603594, "way_id": 343480920, "landuse": "residential"}, {"type": "node", "id": 3503102320, "lat": 51.1957414, "lon": 16.1593384, "way_id": 343480920, "landuse": "residential"}, {"type": "node", "id": 3503102333, "lat": 51.1960312, "lon": 16.1593747, "way_id": 343480920, "landuse": "residential"}, {"type": "node", "id": 3503102342, "lat": 51.1961704, "lon": 16.1596104, "way_id": 343480920, "landuse": "residential"}, {"type": "node", "id": 3503102364, "lat": 51.1964914, "lon": 16.1598144, "way_id": 343480920, "landuse": "residential"}, {"type": "node", "id": 3503102367, "lat": 51.196507, "lon": 16.1597101, "way_id": 343480920, "landuse": "residential"}, {"type": "node", "id": 3503102376, "lat": 51.1965695, "lon": 16.158595, "way_id": 343480920, "landuse": "residential"}, {"type": "node", "id": 3503102485, "lat": 51.1974246, "lon": 16.1586222, "way_id": 343480920, "landuse": "residential"}, {"type": "node", "id": 3503102696, "lat": 51.1977446, "lon": 16.1591725, "way_id": 343480920, "landuse": "residential"}, {"type": "node", "id": 3503102697, "lat": 51.1977489, "lon": 16.1586952, "way_id": 343480920, "landuse": "residential"}, {"type": "node", "id": 3503102701, "lat": 51.1978989, "lon": 16.1596149, "way_id": 343480920, "landuse": "residential"}, {"type": "node", "id": 3503102707, "lat": 51.197922, "lon": 16.159237, "way_id": 343480920, "landuse": "residential"}, {"type": "node", "id": 3503102710, "lat": 51.1979306, "lon": 16.1601149, "way_id": 343480920, "landuse": "residential"}, {"type": "node", "id": 3503102711, "lat": 51.1979346, "lon": 16.1601771, "way_id": 343480920, "landuse": "residential"}, {"type": "node", "id": 3503102757, "lat": 51.1983633, "lon": 16.1600038, "way_id": 343480920, "landuse": "residential"}, {"type": "node", "id": 3503102762, "lat": 51.198444, "lon": 16.1639658, "way_id": 343480920, "landuse": "residential"}, {"type": "node", "id": 3503102764, "lat": 51.1984747, "lon": 16.1603771, "way_id": 343480920, "landuse": "residential"}, {"type": "node", "id": 3503102771, "lat": 51.1985415, "lon": 16.1604482, "way_id": 343480920, "landuse": "residential"}, {"type": "node", "id": 3503102779, "lat": 51.1986362, "lon": 16.1604837, "way_id": 343480920, "landuse": "residential"}, {"type": "node", "id": 3503102996, "lat": 51.1987253, "lon": 16.1605459, "way_id": 343480920, "landuse": "residential"}, {"type": "node", "id": 3503103023, "lat": 51.1988915, "lon": 16.1641296, "way_id": 343480920, "landuse": "residential"}, {"type": "node", "id": 3503103039, "lat": 51.1989725, "lon": 16.1641543, "way_id": 343480920, "landuse": "residential"}, {"type": "node", "id": 3503103042, "lat": 51.1989764, "lon": 16.1640927, "way_id": 343480920, "landuse": "residential"}, {"type": "node", "id": 3503103212, "lat": 51.1992803, "lon": 16.1620846, "way_id": 343480920, "landuse": "residential"}, {"type": "node", "id": 3503103266, "lat": 51.199487, "lon": 16.1608247, "way_id": 343480920, "landuse": "residential"}, {"type": "node", "id": 3503104597, "lat": 51.2022213, "lon": 16.165309, "way_id": 343480920, "landuse": "residential"}, {"type": "node", "id": 3503104658, "lat": 51.2026644, "lon": 16.1650734, "way_id": 343480920, "landuse": "residential"}, {"type": "node", "id": 3503104670, "lat": 51.2027701, "lon": 16.1655571, "way_id": 343480920, "landuse": "residential"}, {"type": "node", "id": 3503104679, "lat": 51.2029547, "lon": 16.1656672, "way_id": 343480920, "landuse": "residential"}, {"type": "node", "id": 3503104794, "lat": 51.2029739, "lon": 16.1721177, "way_id": 343480920, "landuse": "residential"}, {"type": "node", "id": 3503104804, "lat": 51.2031386, "lon": 16.1717793, "way_id": 343480920, "landuse": "residential"}, {"type": "node", "id": 3503104805, "lat": 51.2031618, "lon": 16.1720934, "way_id": 343480920, "landuse": "residential"}, {"type": "node", "id": 3503104814, "lat": 51.2032274, "lon": 16.1716623, "way_id": 343480920, "landuse": "residential"}, {"type": "node", "id": 3503104828, "lat": 51.203347, "lon": 16.1661252, "way_id": 343480920, "landuse": "residential"}, {"type": "node", "id": 3503104866, "lat": 51.2035863, "lon": 16.1665871, "way_id": 343480920, "landuse": "residential"}, {"type": "node", "id": 3503104867, "lat": 51.2035948, "lon": 16.1671495, "way_id": 343480920, "landuse": "residential"}, {"type": "node", "id": 3503104869, "lat": 51.2036011, "lon": 16.1682615, "way_id": 343480920, "landuse": "residential"}, {"type": "node", "id": 3503104870, "lat": 51.2035994, "lon": 16.167455, "way_id": 343480920, "landuse": "residential"}, {"type": "node", "id": 3503104871, "lat": 51.2036017, "lon": 16.1676096, "way_id": 343480920, "landuse": "residential"}, {"type": "node", "id": 3503105110, "lat": 51.2038603, "lon": 16.1714898, "way_id": 343480920, "landuse": "residential"}, {"type": "node", "id": 3503105169, "lat": 51.2042095, "lon": 16.1672708, "way_id": 343480920, "landuse": "residential"}, {"type": "node", "id": 3503105176, "lat": 51.2042307, "lon": 16.1714529, "way_id": 343480920, "landuse": "residential"}, {"type": "node", "id": 3503105180, "lat": 51.2042635, "lon": 16.1681208, "way_id": 343480920, "landuse": "residential"}, {"type": "node", "id": 3503105398, "lat": 51.204387, "lon": 16.1672708, "way_id": 343480920, "landuse": "residential"}, {"type": "node", "id": 3503105436, "lat": 51.2045261, "lon": 16.1671636, "way_id": 343480920, "landuse": "residential"}, {"type": "node", "id": 3503105441, "lat": 51.2045132, "lon": 16.1713339, "way_id": 343480920, "landuse": "residential"}, {"type": "node", "id": 3503105455, "lat": 51.2045973, "lon": 16.1710772, "way_id": 343480920, "landuse": "residential"}, {"type": "node", "id": 3503105458, "lat": 51.2046108, "lon": 16.1670983, "way_id": 343480920, "landuse": "residential"}, {"type": "node", "id": 3503105599, "lat": 51.2047517, "lon": 16.1708554, "way_id": 343480920, "landuse": "residential"}, {"type": "node", "id": 3503105624, "lat": 51.2048424, "lon": 16.1671784, "way_id": 343480920, "landuse": "residential"}, {"type": "node", "id": 3503105634, "lat": 51.2048964, "lon": 16.1706645, "way_id": 343480920, "landuse": "residential"}, {"type": "node", "id": 3503105678, "lat": 51.2051164, "lon": 16.1706029, "way_id": 343480920, "landuse": "residential"}, {"type": "node", "id": 3503105719, "lat": 51.2053247, "lon": 16.1670244, "way_id": 343480920, "landuse": "residential"}, {"type": "node", "id": 3503105742, "lat": 51.2054637, "lon": 16.1706399, "way_id": 343480920, "landuse": "residential"}, {"type": "node", "id": 3503105757, "lat": 51.2055177, "lon": 16.1669259, "way_id": 343480920, "landuse": "residential"}, {"type": "node", "id": 3503105787, "lat": 51.2056759, "lon": 16.1665871, "way_id": 343480920, "landuse": "residential"}, {"type": "node", "id": 3503105943, "lat": 51.2058727, "lon": 16.1708185, "way_id": 343480920, "landuse": "residential"}, {"type": "node", "id": 3503105944, "lat": 51.205892, "lon": 16.1661622, "way_id": 343480920, "landuse": "residential"}, {"type": "node", "id": 3503105985, "lat": 51.2061297, "lon": 16.1659578, "way_id": 343480920, "landuse": "residential"}, {"type": "node", "id": 3503106052, "lat": 51.2068143, "lon": 16.1680099, "way_id": 343480920, "landuse": "residential"}, {"type": "node", "id": 3503106077, "lat": 51.2070844, "lon": 16.1715206, "way_id": 343480920, "landuse": "residential"}, {"type": "node", "id": 3503106199, "lat": 51.2074838, "lon": 16.1716192, "way_id": 343480920, "landuse": "residential"}, {"type": "node", "id": 3503139184, "lat": 51.1957191, "lon": 16.1439038, "way_id": 343480920, "landuse": "residential"}, {"type": "node", "id": 3503139204, "lat": 51.1958307, "lon": 16.1441479, "way_id": 343480920, "landuse": "residential"}, {"type": "node", "id": 3503139236, "lat": 51.1960663, "lon": 16.1444051, "way_id": 343480920, "landuse": "residential"}, {"type": "node", "id": 3503139283, "lat": 51.1963639, "lon": 16.1442402, "way_id": 343480920, "landuse": "residential"}, {"type": "node", "id": 3503139384, "lat": 51.1968723, "lon": 16.1442006, "way_id": 343480920, "landuse": "residential"}, {"type": "node", "id": 3503139438, "lat": 51.1971079, "lon": 16.1443325, "way_id": 343480920, "landuse": "residential"}, {"type": "node", "id": 3503139443, "lat": 51.1971368, "lon": 16.1437653, "way_id": 343480920, "landuse": "residential"}, {"type": "node", "id": 3503139461, "lat": 51.1973145, "lon": 16.1436532, "way_id": 343480920, "landuse": "residential"}, {"type": "node", "id": 3503139472, "lat": 51.1976286, "lon": 16.1437719, "way_id": 343480920, "landuse": "residential"}, {"type": "node", "id": 3796902618, "lat": 51.1917206, "lon": 16.1330053, "way_id": 430489757, "landuse": "residential"}, {"type": "node", "id": 3796902634, "lat": 51.1922363, "lon": 16.1302198, "way_id": 430489757, "landuse": "residential"}, {"type": "node", "id": 3796905661, "lat": 51.1931115, "lon": 16.130578, "way_id": 430489757, "landuse": "residential"}, {"type": "node", "id": 3826305340, "lat": 51.2046118, "lon": 16.2119415, "way_id": 685413550, "landuse": "residential"}, {"type": "node", "id": 3859804787, "lat": 51.1976365, "lon": 16.1966972, "way_id": 391372451, "landuse": "meadow"}, {"type": "node", "id": 3880413443, "lat": 51.1998778, "lon": 16.1398437, "way_id": 343480920, "landuse": "residential"}, {"type": "node", "id": 3880413445, "lat": 51.1999451, "lon": 16.1393031, "way_id": 343480920, "landuse": "residential"}, {"type": "node", "id": 3904705379, "lat": 51.194274, "lon": 16.1706573, "way_id": 685413549, "landuse": "residential"}, {"type": "node", "id": 3904705380, "lat": 51.1947405, "lon": 16.1708562, "way_id": 685413549, "landuse": "residential"}, {"type": "node", "id": 3904705381, "lat": 51.1946458, "lon": 16.1708357, "way_id": 685413549, "landuse": "residential"}, {"type": "node", "id": 3904705382, "lat": 51.1951681, "lon": 16.1698041, "way_id": 685413549, "landuse": "residential"}, {"type": "node", "id": 3904705383, "lat": 51.1952251, "lon": 16.1702867, "way_id": 685413549, "landuse": "residential"}, {"type": "node", "id": 3904705395, "lat": 51.1949982, "lon": 16.1708708, "way_id": 685413549, "landuse": "residential"}, {"type": "node", "id": 3904705399, "lat": 51.1952377, "lon": 16.1708771, "way_id": 685413549, "landuse": "residential"}, {"type": "node", "id": 3909302265, "lat": 51.2171373, "lon": 16.2331351, "way_id": 217510621, "landuse": "residential"}, {"type": "node", "id": 3909302268, "lat": 51.2179187, "lon": 16.2317466, "way_id": 217510621, "landuse": "residential"}, {"type": "node", "id": 3917907852, "lat": 51.1985989, "lon": 16.2030884, "way_id": 259374156, "landuse": "residential"}, {"type": "node", "id": 3945974187, "lat": 51.1928548, "lon": 16.1998068, "way_id": 391372451, "landuse": "meadow"}, {"type": "node", "id": 3945974206, "lat": 51.1969537, "lon": 16.2001783, "way_id": 391372451, "landuse": "meadow"}, {"type": "node", "id": 3945974208, "lat": 51.1979581, "lon": 16.1992015, "way_id": 685413550, "landuse": "residential"}, {"type": "node", "id": 3967234452, "lat": 51.1894576, "lon": 16.1850049, "way_id": 685413549, "landuse": "residential"}, {"type": "node", "id": 4022499689, "lat": 51.1940671, "lon": 16.1608894, "way_id": 343480920, "landuse": "residential"}, {"type": "node", "id": 4051506786, "lat": 51.2122124, "lon": 16.1726208, "way_id": 402744488, "landuse": "brownfield"}, {"type": "node", "id": 4051506787, "lat": 51.2124596, "lon": 16.173945, "way_id": 402744488, "landuse": "brownfield"}, {"type": "node", "id": 4051506788, "lat": 51.2125037, "lon": 16.1739319, "way_id": 402744488, "landuse": "brownfield"}, {"type": "node", "id": 4051506892, "lat": 51.2126674, "lon": 16.1738835, "way_id": 402744488, "landuse": "brownfield"}, {"type": "node", "id": 4051506899, "lat": 51.2127039, "lon": 16.1733597, "way_id": 402744488, "landuse": "brownfield"}, {"type": "node", "id": 4051506900, "lat": 51.2127728, "lon": 16.1738524, "way_id": 402744488, "landuse": "brownfield"}, {"type": "node", "id": 4051603558, "lat": 51.2120122, "lon": 16.1735097, "way_id": 402752203, "landuse": "brownfield"}, {"type": "node", "id": 4051603559, "lat": 51.2120315, "lon": 16.1732345, "way_id": 402752203, "landuse": "brownfield"}, {"type": "node", "id": 4051603571, "lat": 51.2121309, "lon": 16.1735301, "way_id": 402752203, "landuse": "brownfield"}, {"type": "node", "id": 4051603572, "lat": 51.2121502, "lon": 16.1732545, "way_id": 402752203, "landuse": "brownfield"}, {"type": "node", "id": 4053462825, "lat": 51.2040958, "lon": 16.2159896, "way_id": 402948733, "landuse": "brownfield"}, {"type": "node", "id": 4053462826, "lat": 51.2040958, "lon": 16.2160693, "way_id": 402948733, "landuse": "brownfield"}, {"type": "node", "id": 4053462834, "lat": 51.2041551, "lon": 16.2159888, "way_id": 402948733, "landuse": "brownfield"}, {"type": "node", "id": 4053462835, "lat": 51.2041557, "lon": 16.2160675, "way_id": 402948733, "landuse": "brownfield"}, {"type": "node", "id": 4054081772, "lat": 51.2167868, "lon": 16.189548, "way_id": 403019426, "landuse": "residential"}, {"type": "node", "id": 4054081907, "lat": 51.2171125, "lon": 16.1970181, "way_id": 403019426, "landuse": "residential"}, {"type": "node", "id": 4054081911, "lat": 51.2171509, "lon": 16.1890008, "way_id": 403019426, "landuse": "residential"}, {"type": "node", "id": 4054081923, "lat": 51.2172914, "lon": 16.1904895, "way_id": 403019426, "landuse": "residential"}, {"type": "node", "id": 4054081925, "lat": 51.2173101, "lon": 16.1958272, "way_id": 403019426, "landuse": "residential"}, {"type": "node", "id": 4054081929, "lat": 51.2173911, "lon": 16.1894846, "way_id": 403019426, "landuse": "residential"}, {"type": "node", "id": 4054081930, "lat": 51.2173982, "lon": 16.196724, "way_id": 403019426, "landuse": "residential"}, {"type": "node", "id": 4054081938, "lat": 51.2174379, "lon": 16.1980824, "way_id": 403019426, "landuse": "residential"}, {"type": "node", "id": 4054081939, "lat": 51.2174399, "lon": 16.1937952, "way_id": 403019426, "landuse": "residential"}, {"type": "node", "id": 4054081944, "lat": 51.2174935, "lon": 16.1931551, "way_id": 403019426, "landuse": "residential"}, {"type": "node", "id": 4054081960, "lat": 51.2176436, "lon": 16.1891944, "way_id": 403019426, "landuse": "residential"}, {"type": "node", "id": 4054081966, "lat": 51.2177097, "lon": 16.1956172, "way_id": 403019426, "landuse": "residential"}, {"type": "node", "id": 4054081967, "lat": 51.2177166, "lon": 16.1918376, "way_id": 403019426, "landuse": "residential"}, {"type": "node", "id": 4054081973, "lat": 51.2177346, "lon": 16.1949675, "way_id": 403019426, "landuse": "residential"}, {"type": "node", "id": 4054081979, "lat": 51.2178093, "lon": 16.1895008, "way_id": 403019426, "landuse": "residential"}, {"type": "node", "id": 4054081981, "lat": 51.2178325, "lon": 16.1966673, "way_id": 403019426, "landuse": "residential"}, {"type": "node", "id": 4054081983, "lat": 51.2178411, "lon": 16.1955372, "way_id": 403019426, "landuse": "residential"}, {"type": "node", "id": 4054081985, "lat": 51.2178826, "lon": 16.1929988, "way_id": 403019426, "landuse": "residential"}, {"type": "node", "id": 4054081986, "lat": 51.2178969, "lon": 16.190572, "way_id": 403019426, "landuse": "residential"}, {"type": "node", "id": 4054081997, "lat": 51.2179661, "lon": 16.1928118, "way_id": 403019426, "landuse": "residential"}, {"type": "node", "id": 4054082011, "lat": 51.2180454, "lon": 16.1978029, "way_id": 403019426, "landuse": "residential"}, {"type": "node", "id": 4054082050, "lat": 51.2182307, "lon": 16.1947099, "way_id": 403019426, "landuse": "residential"}, {"type": "node", "id": 4054082051, "lat": 51.218235, "lon": 16.19112, "way_id": 403019426, "landuse": "residential"}, {"type": "node", "id": 4054082059, "lat": 51.2182547, "lon": 16.1889184, "way_id": 403019426, "landuse": "residential"}, {"type": "node", "id": 4054082119, "lat": 51.2185154, "lon": 16.1895146, "way_id": 403019426, "landuse": "residential"}, {"type": "node", "id": 4054082123, "lat": 51.2185254, "lon": 16.1919135, "way_id": 403019426, "landuse": "residential"}, {"type": "node", "id": 4054082125, "lat": 51.2185285, "lon": 16.196208, "way_id": 403019426, "landuse": "residential"}, {"type": "node", "id": 4054082139, "lat": 51.2186019, "lon": 16.1930157, "way_id": 403019426, "landuse": "residential"}, {"type": "node", "id": 4054082140, "lat": 51.2186099, "lon": 16.192458, "way_id": 403019426, "landuse": "residential"}, {"type": "node", "id": 4054082150, "lat": 51.2186684, "lon": 16.1952935, "way_id": 403019426, "landuse": "residential"}, {"type": "node", "id": 4054082158, "lat": 51.2187165, "lon": 16.1961056, "way_id": 403019426, "landuse": "residential"}, {"type": "node", "id": 4054082177, "lat": 51.2188265, "lon": 16.1948878, "way_id": 403019426, "landuse": "residential"}, {"type": "node", "id": 4054082181, "lat": 51.218846, "lon": 16.1940603, "way_id": 403019426, "landuse": "residential"}, {"type": "node", "id": 4054082187, "lat": 51.2188992, "lon": 16.1957363, "way_id": 403019426, "landuse": "residential"}, {"type": "node", "id": 4054082188, "lat": 51.218903, "lon": 16.1968372, "way_id": 403019426, "landuse": "residential"}, {"type": "node", "id": 4054082191, "lat": 51.2189219, "lon": 16.194448, "way_id": 403019426, "landuse": "residential"}, {"type": "node", "id": 4054082193, "lat": 51.2189337, "lon": 16.1939981, "way_id": 403019426, "landuse": "residential"}, {"type": "node", "id": 4054082197, "lat": 51.2190174, "lon": 16.1958997, "way_id": 403019426, "landuse": "residential"}, {"type": "node", "id": 4054082200, "lat": 51.2191026, "lon": 16.1957789, "way_id": 403019426, "landuse": "residential"}, {"type": "node", "id": 4054082202, "lat": 51.2191547, "lon": 16.196314, "way_id": 403019426, "landuse": "residential"}, {"type": "node", "id": 4054082203, "lat": 51.2191818, "lon": 16.1958556, "way_id": 403019426, "landuse": "residential"}, {"type": "node", "id": 4054082212, "lat": 51.2195508, "lon": 16.1976432, "way_id": 403019426, "landuse": "residential"}, {"type": "node", "id": 4054082216, "lat": 51.2195767, "lon": 16.1969365, "way_id": 403019426, "landuse": "residential"}, {"type": "node", "id": 4054082218, "lat": 51.219613, "lon": 16.1955716, "way_id": 403019426, "landuse": "residential"}, {"type": "node", "id": 4054082233, "lat": 51.2198413, "lon": 16.1976445, "way_id": 403019426, "landuse": "residential"}, {"type": "node", "id": 4054082245, "lat": 51.2199607, "lon": 16.1967199, "way_id": 403019426, "landuse": "residential"}, {"type": "node", "id": 4054082249, "lat": 51.2199993, "lon": 16.1960447, "way_id": 403019426, "landuse": "residential"}, {"type": "node", "id": 4054082255, "lat": 51.2200854, "lon": 16.1972032, "way_id": 403019426, "landuse": "residential"}, {"type": "node", "id": 4054082258, "lat": 51.2201706, "lon": 16.1962389, "way_id": 403019426, "landuse": "residential"}, {"type": "node", "id": 4054082260, "lat": 51.220194, "lon": 16.1969672, "way_id": 403019426, "landuse": "residential"}, {"type": "node", "id": 4054082261, "lat": 51.2202197, "lon": 16.1979399, "way_id": 403019426, "landuse": "residential"}, {"type": "node", "id": 4054082266, "lat": 51.2203414, "lon": 16.198448, "way_id": 403019426, "landuse": "residential"}, {"type": "node", "id": 4054082270, "lat": 51.2204608, "lon": 16.1975689, "way_id": 403019426, "landuse": "residential"}, {"type": "node", "id": 4054082278, "lat": 51.220538, "lon": 16.1993042, "way_id": 403019426, "landuse": "residential"}, {"type": "node", "id": 4054082285, "lat": 51.2206436, "lon": 16.2023228, "way_id": 403019426, "landuse": "residential"}, {"type": "node", "id": 4054082300, "lat": 51.2207662, "lon": 16.2029673, "way_id": 403019426, "landuse": "residential"}, {"type": "node", "id": 4054082308, "lat": 51.2208338, "lon": 16.2016175, "way_id": 403019426, "landuse": "residential"}, {"type": "node", "id": 4054082316, "lat": 51.2209099, "lon": 16.2021095, "way_id": 403019426, "landuse": "residential"}, {"type": "node", "id": 4054082319, "lat": 51.2209429, "lon": 16.1979206, "way_id": 403019426, "landuse": "residential"}, {"type": "node", "id": 4054082328, "lat": 51.2209887, "lon": 16.1979443, "way_id": 403019426, "landuse": "residential"}, {"type": "node", "id": 4054082350, "lat": 51.2210878, "lon": 16.1975592, "way_id": 403019426, "landuse": "residential"}, {"type": "node", "id": 4054082356, "lat": 51.2211812, "lon": 16.1990225, "way_id": 403019426, "landuse": "residential"}, {"type": "node", "id": 4054082370, "lat": 51.2212796, "lon": 16.2031371, "way_id": 403019426, "landuse": "residential"}, {"type": "node", "id": 4054082378, "lat": 51.2213108, "lon": 16.20265, "way_id": 403019426, "landuse": "residential"}, {"type": "node", "id": 4054082385, "lat": 51.2213497, "lon": 16.2036787, "way_id": 403019426, "landuse": "residential"}, {"type": "node", "id": 4054082388, "lat": 51.2213876, "lon": 16.2030737, "way_id": 403019426, "landuse": "residential"}, {"type": "node", "id": 4054082389, "lat": 51.2213946, "lon": 16.1977984, "way_id": 403019426, "landuse": "residential"}, {"type": "node", "id": 4054082392, "lat": 51.2214123, "lon": 16.2049032, "way_id": 403019426, "landuse": "residential"}, {"type": "node", "id": 4054082398, "lat": 51.2214415, "lon": 16.2036353, "way_id": 403019426, "landuse": "residential"}, {"type": "node", "id": 4054082401, "lat": 51.2214525, "lon": 16.2014056, "way_id": 403019426, "landuse": "residential"}, {"type": "node", "id": 4054082408, "lat": 51.221514, "lon": 16.2041767, "way_id": 403019426, "landuse": "residential"}, {"type": "node", "id": 4054082417, "lat": 51.2215798, "lon": 16.198024, "way_id": 403019426, "landuse": "residential"}, {"type": "node", "id": 4054082419, "lat": 51.2215855, "lon": 16.2012952, "way_id": 403019426, "landuse": "residential"}, {"type": "node", "id": 4054082431, "lat": 51.2216476, "lon": 16.2061816, "way_id": 403019426, "landuse": "residential"}, {"type": "node", "id": 4054082448, "lat": 51.2217116, "lon": 16.2046765, "way_id": 403019426, "landuse": "residential"}, {"type": "node", "id": 4054082451, "lat": 51.2217183, "lon": 16.204062, "way_id": 403019426, "landuse": "residential"}, {"type": "node", "id": 4054082453, "lat": 51.221722, "lon": 16.197153, "way_id": 403019426, "landuse": "residential"}, {"type": "node", "id": 4054082477, "lat": 51.2218399, "lon": 16.1966113, "way_id": 403019426, "landuse": "residential"}, {"type": "node", "id": 4054082479, "lat": 51.2218509, "lon": 16.2072193, "way_id": 403019426, "landuse": "residential"}, {"type": "node", "id": 4054082626, "lat": 51.2220001, "lon": 16.2047955, "way_id": 403019426, "landuse": "residential"}, {"type": "node", "id": 4054082632, "lat": 51.2220237, "lon": 16.2079746, "way_id": 403019426, "landuse": "residential"}, {"type": "node", "id": 4054082648, "lat": 51.2220895, "lon": 16.2058477, "way_id": 403019426, "landuse": "residential"}, {"type": "node", "id": 4054082656, "lat": 51.2221138, "lon": 16.2056681, "way_id": 403019426, "landuse": "residential"}, {"type": "node", "id": 4054082659, "lat": 51.2221214, "lon": 16.1981238, "way_id": 403019426, "landuse": "residential"}, {"type": "node", "id": 4054082675, "lat": 51.2221981, "lon": 16.2047115, "way_id": 403019426, "landuse": "residential"}, {"type": "node", "id": 4054082678, "lat": 51.2222142, "lon": 16.1973278, "way_id": 403019426, "landuse": "residential"}, {"type": "node", "id": 4054082789, "lat": 51.2222577, "lon": 16.2040179, "way_id": 403019426, "landuse": "residential"}, {"type": "node", "id": 4054082802, "lat": 51.2223653, "lon": 16.2067295, "way_id": 403019426, "landuse": "residential"}, {"type": "node", "id": 4054082808, "lat": 51.2223865, "lon": 16.2065197, "way_id": 403019426, "landuse": "residential"}, {"type": "node", "id": 4054082831, "lat": 51.2225907, "lon": 16.2026141, "way_id": 403019426, "landuse": "residential"}, {"type": "node", "id": 4054082835, "lat": 51.2226075, "lon": 16.2010265, "way_id": 403019426, "landuse": "residential"}, {"type": "node", "id": 4054082839, "lat": 51.2226623, "lon": 16.1999352, "way_id": 403019426, "landuse": "residential"}, {"type": "node", "id": 4054082840, "lat": 51.2226899, "lon": 16.2015864, "way_id": 403019426, "landuse": "residential"}, {"type": "node", "id": 4054082842, "lat": 51.2227031, "lon": 16.2073155, "way_id": 403019426, "landuse": "residential"}, {"type": "node", "id": 4054082844, "lat": 51.2227113, "lon": 16.1969147, "way_id": 403019426, "landuse": "residential"}, {"type": "node", "id": 4054082861, "lat": 51.2228196, "lon": 16.203328, "way_id": 403019426, "landuse": "residential"}, {"type": "node", "id": 4054082991, "lat": 51.222924, "lon": 16.2028137, "way_id": 403019426, "landuse": "residential"}, {"type": "node", "id": 4054082998, "lat": 51.2229476, "lon": 16.201711, "way_id": 403019426, "landuse": "residential"}, {"type": "node", "id": 4054083050, "lat": 51.2230935, "lon": 16.1999507, "way_id": 403019426, "landuse": "residential"}, {"type": "node", "id": 4054083195, "lat": 51.2232066, "lon": 16.2035813, "way_id": 403019426, "landuse": "residential"}, {"type": "node", "id": 4054083209, "lat": 51.2232323, "lon": 16.2038603, "way_id": 403019426, "landuse": "residential"}, {"type": "node", "id": 4054083240, "lat": 51.2233008, "lon": 16.1971745, "way_id": 403019426, "landuse": "residential"}, {"type": "node", "id": 4054083274, "lat": 51.2233618, "lon": 16.2013144, "way_id": 403019426, "landuse": "residential"}, {"type": "node", "id": 4054083419, "lat": 51.2234399, "lon": 16.1968211, "way_id": 403019426, "landuse": "residential"}, {"type": "node", "id": 4054083467, "lat": 51.2235076, "lon": 16.1957745, "way_id": 403019426, "landuse": "residential"}, {"type": "node", "id": 4054083598, "lat": 51.2235411, "lon": 16.2017432, "way_id": 403019426, "landuse": "residential"}, {"type": "node", "id": 4054083617, "lat": 51.2235644, "lon": 16.2042116, "way_id": 403019426, "landuse": "residential"}, {"type": "node", "id": 4054083635, "lat": 51.2235806, "lon": 16.2009068, "way_id": 403019426, "landuse": "residential"}, {"type": "node", "id": 4054083639, "lat": 51.2235842, "lon": 16.2040436, "way_id": 403019426, "landuse": "residential"}, {"type": "node", "id": 4054083856, "lat": 51.223732, "lon": 16.2016634, "way_id": 403019426, "landuse": "residential"}, {"type": "node", "id": 4054083999, "lat": 51.223783, "lon": 16.2007088, "way_id": 403019426, "landuse": "residential"}, {"type": "node", "id": 4054084000, "lat": 51.2237842, "lon": 16.1993667, "way_id": 403019426, "landuse": "residential"}, {"type": "node", "id": 4054084001, "lat": 51.2237862, "lon": 16.1980625, "way_id": 403019426, "landuse": "residential"}, {"type": "node", "id": 4054084033, "lat": 51.2238209, "lon": 16.1990119, "way_id": 403019426, "landuse": "residential"}, {"type": "node", "id": 4054084053, "lat": 51.223845, "lon": 16.1974334, "way_id": 403019426, "landuse": "residential"}, {"type": "node", "id": 4054084066, "lat": 51.2238588, "lon": 16.1957266, "way_id": 403019426, "landuse": "residential"}, {"type": "node", "id": 4054084733, "lat": 51.2240686, "lon": 16.2044882, "way_id": 403019426, "landuse": "residential"}, {"type": "node", "id": 4054084769, "lat": 51.2241224, "lon": 16.2049474, "way_id": 403019426, "landuse": "residential"}, {"type": "node", "id": 4054084778, "lat": 51.2241364, "lon": 16.2031439, "way_id": 403019426, "landuse": "residential"}, {"type": "node", "id": 4054085119, "lat": 51.2242041, "lon": 16.2011988, "way_id": 403019426, "landuse": "residential"}, {"type": "node", "id": 4054085130, "lat": 51.2242241, "lon": 16.1968644, "way_id": 403019426, "landuse": "residential"}, {"type": "node", "id": 4054085321, "lat": 51.2243942, "lon": 16.2023776, "way_id": 403019426, "landuse": "residential"}, {"type": "node", "id": 4054085323, "lat": 51.2243944, "lon": 16.2008915, "way_id": 403019426, "landuse": "residential"}, {"type": "node", "id": 4054085349, "lat": 51.2244399, "lon": 16.2032923, "way_id": 403019426, "landuse": "residential"}, {"type": "node", "id": 4054085355, "lat": 51.2244469, "lon": 16.2050794, "way_id": 403019426, "landuse": "residential"}, {"type": "node", "id": 4054085377, "lat": 51.2244818, "lon": 16.2047948, "way_id": 403019426, "landuse": "residential"}, {"type": "node", "id": 4054085507, "lat": 51.2245418, "lon": 16.1997908, "way_id": 403019426, "landuse": "residential"}, {"type": "node", "id": 4054085588, "lat": 51.2246813, "lon": 16.1999491, "way_id": 403019426, "landuse": "residential"}, {"type": "node", "id": 4054085721, "lat": 51.2247396, "lon": 16.2032817, "way_id": 403019426, "landuse": "residential"}, {"type": "node", "id": 4054085762, "lat": 51.2248139, "lon": 16.2046989, "way_id": 403019426, "landuse": "residential"}, {"type": "node", "id": 4054085919, "lat": 51.2249249, "lon": 16.2032174, "way_id": 403019426, "landuse": "residential"}, {"type": "node", "id": 4054085933, "lat": 51.2249481, "lon": 16.2041865, "way_id": 403019426, "landuse": "residential"}, {"type": "node", "id": 4083478324, "lat": 51.2180111, "lon": 16.2468111, "way_id": 217510621, "landuse": "residential"}, {"type": "node", "id": 4083478522, "lat": 51.2182969, "lon": 16.2676536, "way_id": 217510621, "landuse": "residential"}, {"type": "node", "id": 4083478557, "lat": 51.2183677, "lon": 16.2665046, "way_id": 217510621, "landuse": "residential"}, {"type": "node", "id": 4083478651, "lat": 51.2186064, "lon": 16.2392616, "way_id": 217510621, "landuse": "residential"}, {"type": "node", "id": 4083479300, "lat": 51.2200995, "lon": 16.2610648, "way_id": 217510621, "landuse": "residential"}, {"type": "node", "id": 4083479427, "lat": 51.2203986, "lon": 16.25737, "way_id": 217510621, "landuse": "residential"}, {"type": "node", "id": 4083479431, "lat": 51.2204186, "lon": 16.2581232, "way_id": 217510621, "landuse": "residential"}, {"type": "node", "id": 4083479514, "lat": 51.2205984, "lon": 16.2589882, "way_id": 217510621, "landuse": "residential"}, {"type": "node", "id": 4083479528, "lat": 51.2206277, "lon": 16.2560752, "way_id": 217510621, "landuse": "residential"}, {"type": "node", "id": 4083479723, "lat": 51.2213497, "lon": 16.2548362, "way_id": 217510621, "landuse": "residential"}, {"type": "node", "id": 4083479759, "lat": 51.2215194, "lon": 16.2547162, "way_id": 217510621, "landuse": "residential"}, {"type": "node", "id": 4083481715, "lat": 51.2290552, "lon": 16.262227, "way_id": 217510621, "landuse": "residential"}, {"type": "node", "id": 4083481717, "lat": 51.2290673, "lon": 16.2640166, "way_id": 217510621, "landuse": "residential"}, {"type": "node", "id": 4083481773, "lat": 51.2296105, "lon": 16.2665917, "way_id": 217510621, "landuse": "residential"}, {"type": "node", "id": 4139885351, "lat": 51.246305, "lon": 16.2143429, "way_id": 412617116, "landuse": "residential"}, {"type": "node", "id": 4139885352, "lat": 51.2463071, "lon": 16.2134818, "way_id": 412617116, "landuse": "residential"}, {"type": "node", "id": 4139885371, "lat": 51.2465337, "lon": 16.2130528, "way_id": 412617116, "landuse": "residential"}, {"type": "node", "id": 4139885372, "lat": 51.246538, "lon": 16.2137807, "way_id": 412617116, "landuse": "residential"}, {"type": "node", "id": 4139885399, "lat": 51.2467323, "lon": 16.2137696, "way_id": 412617116, "landuse": "residential"}, {"type": "node", "id": 4139885417, "lat": 51.2468385, "lon": 16.2135046, "way_id": 412617116, "landuse": "residential"}, {"type": "node", "id": 4139885431, "lat": 51.2469727, "lon": 16.2147461, "way_id": 412617116, "landuse": "residential"}, {"type": "node", "id": 4139885439, "lat": 51.2471759, "lon": 16.2151631, "way_id": 412617116, "landuse": "residential"}, {"type": "node", "id": 4139885440, "lat": 51.2471812, "lon": 16.2142866, "way_id": 412617116, "landuse": "residential"}, {"type": "node", "id": 4139885447, "lat": 51.2472919, "lon": 16.2151902, "way_id": 412617116, "landuse": "residential"}, {"type": "node", "id": 4139885467, "lat": 51.2475211, "lon": 16.2155177, "way_id": 412617116, "landuse": "residential"}, {"type": "node", "id": 4139885474, "lat": 51.2476093, "lon": 16.2156698, "way_id": 412617116, "landuse": "residential"}, {"type": "node", "id": 4139889030, "lat": 51.2448854, "lon": 16.2141575, "way_id": 412617116, "landuse": "residential"}, {"type": "node", "id": 4139889032, "lat": 51.2451404, "lon": 16.2144721, "way_id": 412617116, "landuse": "residential"}, {"type": "node", "id": 4139889041, "lat": 51.2453732, "lon": 16.2133505, "way_id": 412617116, "landuse": "residential"}, {"type": "node", "id": 4139889042, "lat": 51.2454184, "lon": 16.2144477, "way_id": 412617116, "landuse": "residential"}, {"type": "node", "id": 4139889043, "lat": 51.245716, "lon": 16.2138532, "way_id": 412617116, "landuse": "residential"}, {"type": "node", "id": 4139889044, "lat": 51.2459386, "lon": 16.215233, "way_id": 412617116, "landuse": "residential"}, {"type": "node", "id": 4139889406, "lat": 51.2478788, "lon": 16.2162803, "way_id": 412617116, "landuse": "residential"}, {"type": "node", "id": 4139889409, "lat": 51.2480738, "lon": 16.2164733, "way_id": 412617116, "landuse": "residential"}, {"type": "node", "id": 4139889411, "lat": 51.2481483, "lon": 16.2170529, "way_id": 412617116, "landuse": "residential"}, {"type": "node", "id": 4139889416, "lat": 51.2482721, "lon": 16.2167515, "way_id": 412617116, "landuse": "residential"}, {"type": "node", "id": 4139889452, "lat": 51.248595, "lon": 16.2170696, "way_id": 412617116, "landuse": "residential"}, {"type": "node", "id": 4139889458, "lat": 51.2488476, "lon": 16.2171283, "way_id": 412617116, "landuse": "residential"}, {"type": "node", "id": 4139889459, "lat": 51.2488511, "lon": 16.2172248, "way_id": 412617116, "landuse": "residential"}, {"type": "node", "id": 4139889460, "lat": 51.2489508, "lon": 16.217315, "way_id": 412617116, "landuse": "residential"}, {"type": "node", "id": 4139894896, "lat": 51.2443884, "lon": 16.2144604, "way_id": 412617116, "landuse": "residential"}, {"type": "node", "id": 4139894945, "lat": 51.2449117, "lon": 16.2147464, "way_id": 412617116, "landuse": "residential"}, {"type": "node", "id": 4139894946, "lat": 51.2450907, "lon": 16.2148349, "way_id": 412617116, "landuse": "residential"}, {"type": "node", "id": 4139894975, "lat": 51.2477452, "lon": 16.2213067, "way_id": 412617116, "landuse": "residential"}, {"type": "node", "id": 4139894988, "lat": 51.2481242, "lon": 16.2200757, "way_id": 412617116, "landuse": "residential"}, {"type": "node", "id": 4139894989, "lat": 51.2482251, "lon": 16.2201626, "way_id": 412617116, "landuse": "residential"}, {"type": "node", "id": 4139894990, "lat": 51.2482765, "lon": 16.2200741, "way_id": 412617116, "landuse": "residential"}, {"type": "node", "id": 4139894991, "lat": 51.2484996, "lon": 16.2196928, "way_id": 412617116, "landuse": "residential"}, {"type": "node", "id": 4139894992, "lat": 51.248691, "lon": 16.2178337, "way_id": 412617116, "landuse": "residential"}, {"type": "node", "id": 4139894993, "lat": 51.2491718, "lon": 16.2185313, "way_id": 412617116, "landuse": "residential"}, {"type": "node", "id": 4139909577, "lat": 51.2431389, "lon": 16.2164869, "way_id": 412617116, "landuse": "residential"}, {"type": "node", "id": 4139909584, "lat": 51.2437984, "lon": 16.216942, "way_id": 412617116, "landuse": "residential"}, {"type": "node", "id": 4139910403, "lat": 51.244211, "lon": 16.2144859, "way_id": 412617116, "landuse": "residential"}, {"type": "node", "id": 4139910409, "lat": 51.2442489, "lon": 16.2145717, "way_id": 412617116, "landuse": "residential"}, {"type": "node", "id": 4139914612, "lat": 51.2451219, "lon": 16.2208307, "way_id": 412617116, "landuse": "residential"}, {"type": "node", "id": 4139914626, "lat": 51.2458589, "lon": 16.221393, "way_id": 412617116, "landuse": "residential"}, {"type": "node", "id": 4139914645, "lat": 51.2462597, "lon": 16.2209289, "way_id": 412617116, "landuse": "residential"}, {"type": "node", "id": 4139914652, "lat": 51.2468113, "lon": 16.2209506, "way_id": 412617116, "landuse": "residential"}, {"type": "node", "id": 4139914657, "lat": 51.2470643, "lon": 16.2214759, "way_id": 412617116, "landuse": "residential"}, {"type": "node", "id": 4139914670, "lat": 51.2473616, "lon": 16.2225712, "way_id": 412617116, "landuse": "residential"}, {"type": "node", "id": 4139948453, "lat": 51.2427594, "lon": 16.2138808, "way_id": 412617116, "landuse": "residential"}, {"type": "node", "id": 4139949868, "lat": 51.2441724, "lon": 16.2144364, "way_id": 412617116, "landuse": "residential"}, {"type": "node", "id": 4139950003, "lat": 51.244453, "lon": 16.217391, "way_id": 412617116, "landuse": "residential"}, {"type": "node", "id": 4139950083, "lat": 51.2450362, "lon": 16.2208204, "way_id": 412617116, "landuse": "residential"}, {"type": "node", "id": 4139970091, "lat": 51.2412429, "lon": 16.2168225, "way_id": 412617116, "landuse": "residential"}, {"type": "node", "id": 4139970092, "lat": 51.2414223, "lon": 16.2157574, "way_id": 412617116, "landuse": "residential"}, {"type": "node", "id": 4139970096, "lat": 51.2418173, "lon": 16.2134542, "way_id": 412617116, "landuse": "residential"}, {"type": "node", "id": 4139970115, "lat": 51.2427088, "lon": 16.2170033, "way_id": 412617116, "landuse": "residential"}, {"type": "node", "id": 4139970122, "lat": 51.2429721, "lon": 16.2163663, "way_id": 412617116, "landuse": "residential"}, {"type": "node", "id": 4139989132, "lat": 51.2408217, "lon": 16.2217724, "way_id": 412617116, "landuse": "residential"}, {"type": "node", "id": 4139989160, "lat": 51.2413414, "lon": 16.2232087, "way_id": 412617116, "landuse": "residential"}, {"type": "node", "id": 4139989162, "lat": 51.241478, "lon": 16.220341, "way_id": 412617116, "landuse": "residential"}, {"type": "node", "id": 4139989163, "lat": 51.2417455, "lon": 16.2200783, "way_id": 412617116, "landuse": "residential"}, {"type": "node", "id": 4139989164, "lat": 51.2417576, "lon": 16.2234946, "way_id": 412617116, "landuse": "residential"}, {"type": "node", "id": 4139989165, "lat": 51.2426469, "lon": 16.2189431, "way_id": 412617116, "landuse": "residential"}, {"type": "node", "id": 4139989166, "lat": 51.2428505, "lon": 16.2238535, "way_id": 412617116, "landuse": "residential"}, {"type": "node", "id": 4139989173, "lat": 51.2432056, "lon": 16.2189625, "way_id": 412617116, "landuse": "residential"}, {"type": "node", "id": 4139989176, "lat": 51.2432443, "lon": 16.2246983, "way_id": 412617116, "landuse": "residential"}, {"type": "node", "id": 4139989181, "lat": 51.2434288, "lon": 16.2249527, "way_id": 412617116, "landuse": "residential"}, {"type": "node", "id": 4139989409, "lat": 51.2440293, "lon": 16.2248786, "way_id": 412617116, "landuse": "residential"}, {"type": "node", "id": 4139989411, "lat": 51.2443958, "lon": 16.2228654, "way_id": 412617116, "landuse": "residential"}, {"type": "node", "id": 4139989413, "lat": 51.2445392, "lon": 16.2243966, "way_id": 412617116, "landuse": "residential"}, {"type": "node", "id": 4139989414, "lat": 51.2446251, "lon": 16.2222978, "way_id": 412617116, "landuse": "residential"}, {"type": "node", "id": 4139989415, "lat": 51.2448631, "lon": 16.2233985, "way_id": 412617116, "landuse": "residential"}, {"type": "node", "id": 4141309844, "lat": 51.2220809, "lon": 16.1762132, "way_id": 685413545, "landuse": "residential"}, {"type": "node", "id": 4141309877, "lat": 51.2231673, "lon": 16.1792513, "way_id": 685413545, "landuse": "residential"}, {"type": "node", "id": 4141309970, "lat": 51.2247423, "lon": 16.1791104, "way_id": 685413545, "landuse": "residential"}, {"type": "node", "id": 4141310059, "lat": 51.2267373, "lon": 16.1787473, "way_id": 685413545, "landuse": "residential"}, {"type": "node", "id": 4141310076, "lat": 51.2268876, "lon": 16.1796679, "way_id": 685413545, "landuse": "residential"}, {"type": "node", "id": 4141310107, "lat": 51.2271049, "lon": 16.1795485, "way_id": 685413545, "landuse": "residential"}, {"type": "node", "id": 4141310113, "lat": 51.2271428, "lon": 16.1797395, "way_id": 685413545, "landuse": "residential"}, {"type": "node", "id": 4141310135, "lat": 51.2272922, "lon": 16.1796659, "way_id": 685413545, "landuse": "residential"}, {"type": "node", "id": 4141310141, "lat": 51.2273415, "lon": 16.1735899, "way_id": 685413545, "landuse": "residential"}, {"type": "node", "id": 4141310148, "lat": 51.2273956, "lon": 16.1803496, "way_id": 685413545, "landuse": "residential"}, {"type": "node", "id": 4141310178, "lat": 51.227538, "lon": 16.1748614, "way_id": 685413545, "landuse": "residential"}, {"type": "node", "id": 4141310217, "lat": 51.2276958, "lon": 16.1736952, "way_id": 685413545, "landuse": "residential"}, {"type": "node", "id": 4141310246, "lat": 51.2278188, "lon": 16.1801796, "way_id": 685413545, "landuse": "residential"}, {"type": "node", "id": 4141310266, "lat": 51.227886, "lon": 16.1807935, "way_id": 685413545, "landuse": "residential"}, {"type": "node", "id": 4141310289, "lat": 51.2279543, "lon": 16.1808121, "way_id": 685413545, "landuse": "residential"}, {"type": "node", "id": 4141310311, "lat": 51.2280264, "lon": 16.178459, "way_id": 685413545, "landuse": "residential"}, {"type": "node", "id": 4141310333, "lat": 51.2281253, "lon": 16.1791202, "way_id": 685413545, "landuse": "residential"}, {"type": "node", "id": 4141310336, "lat": 51.2281331, "lon": 16.18382, "way_id": 412800127, "landuse": "residential"}, {"type": "node", "id": 4141310341, "lat": 51.2281524, "lon": 16.178565, "way_id": 685413545, "landuse": "residential"}, {"type": "node", "id": 4141310347, "lat": 51.2281687, "lon": 16.1794891, "way_id": 685413545, "landuse": "residential"}, {"type": "node", "id": 4141310362, "lat": 51.2282597, "lon": 16.1850236, "way_id": 412800127, "landuse": "residential"}, {"type": "node", "id": 4141310365, "lat": 51.228282, "lon": 16.1800906, "way_id": 685413545, "landuse": "residential"}, {"type": "node", "id": 4141310372, "lat": 51.2283169, "lon": 16.1856192, "way_id": 412800127, "landuse": "residential"}, {"type": "node", "id": 4141310377, "lat": 51.2283538, "lon": 16.1838388, "way_id": 412800127, "landuse": "residential"}, {"type": "node", "id": 4141310510, "lat": 51.228488, "lon": 16.1838789, "way_id": 412800127, "landuse": "residential"}, {"type": "node", "id": 4141310520, "lat": 51.228503, "lon": 16.1876666, "way_id": 412800127, "landuse": "residential"}, {"type": "node", "id": 4141310918, "lat": 51.2288254, "lon": 16.1844924, "way_id": 412800127, "landuse": "residential"}, {"type": "node", "id": 4141310930, "lat": 51.2288693, "lon": 16.1839931, "way_id": 412800127, "landuse": "residential"}, {"type": "node", "id": 4141310931, "lat": 51.2288867, "lon": 16.1851598, "way_id": 412800127, "landuse": "residential"}, {"type": "node", "id": 4141310932, "lat": 51.2288895, "lon": 16.1874041, "way_id": 412800127, "landuse": "residential"}, {"type": "node", "id": 4141310933, "lat": 51.2289196, "lon": 16.1876677, "way_id": 412800127, "landuse": "residential"}, {"type": "node", "id": 4141310938, "lat": 51.2289391, "lon": 16.1845196, "way_id": 412800127, "landuse": "residential"}, {"type": "node", "id": 4141310953, "lat": 51.2293463, "lon": 16.1853156, "way_id": 412800127, "landuse": "residential"}, {"type": "node", "id": 4141310956, "lat": 51.2294578, "lon": 16.1865846, "way_id": 412800127, "landuse": "residential"}, {"type": "node", "id": 4141310957, "lat": 51.2295608, "lon": 16.1875546, "way_id": 412800127, "landuse": "residential"}, {"type": "node", "id": 4141311703, "lat": 51.2401179, "lon": 16.2204471, "way_id": 412617116, "landuse": "residential"}, {"type": "node", "id": 4141311704, "lat": 51.240143, "lon": 16.2200511, "way_id": 412617116, "landuse": "residential"}, {"type": "node", "id": 4141311705, "lat": 51.240415, "lon": 16.2206794, "way_id": 412617116, "landuse": "residential"}, {"type": "node", "id": 4141311706, "lat": 51.240475, "lon": 16.2192461, "way_id": 412617116, "landuse": "residential"}, {"type": "node", "id": 4141311707, "lat": 51.2405947, "lon": 16.2207786, "way_id": 412617116, "landuse": "residential"}, {"type": "node", "id": 4141311708, "lat": 51.2406469, "lon": 16.2209195, "way_id": 412617116, "landuse": "residential"}, {"type": "node", "id": 4141311709, "lat": 51.2408673, "lon": 16.2186763, "way_id": 412617116, "landuse": "residential"}, {"type": "node", "id": 4141311710, "lat": 51.2410032, "lon": 16.2189829, "way_id": 412617116, "landuse": "residential"}, {"type": "node", "id": 4141311713, "lat": 51.2412245, "lon": 16.2196806, "way_id": 412617116, "landuse": "residential"}, {"type": "node", "id": 4141311827, "lat": 51.2431554, "lon": 16.2165433, "way_id": 412617116, "landuse": "residential"}, {"type": "node", "id": 4141311842, "lat": 51.2432446, "lon": 16.2179535, "way_id": 412617116, "landuse": "residential"}, {"type": "node", "id": 4141311850, "lat": 51.2432902, "lon": 16.218902, "way_id": 412617116, "landuse": "residential"}, {"type": "node", "id": 4141311869, "lat": 51.2433974, "lon": 16.2184715, "way_id": 412617116, "landuse": "residential"}, {"type": "node", "id": 4141311901, "lat": 51.2435382, "lon": 16.2181349, "way_id": 412617116, "landuse": "residential"}, {"type": "node", "id": 4141312090, "lat": 51.2441037, "lon": 16.2183928, "way_id": 412617116, "landuse": "residential"}, {"type": "node", "id": 4141312101, "lat": 51.244171, "lon": 16.2180683, "way_id": 412617116, "landuse": "residential"}, {"type": "node", "id": 4141312120, "lat": 51.244277, "lon": 16.2180619, "way_id": 412617116, "landuse": "residential"}, {"type": "node", "id": 4211849832, "lat": 51.232397, "lon": 16.2672316, "way_id": 217510621, "landuse": "residential"}, {"type": "node", "id": 4211849836, "lat": 51.2325028, "lon": 16.2666182, "way_id": 217510621, "landuse": "residential"}, {"type": "node", "id": 4211849883, "lat": 51.2328711, "lon": 16.2667424, "way_id": 217510621, "landuse": "residential"}, {"type": "node", "id": 4211849886, "lat": 51.2329698, "lon": 16.2662165, "way_id": 217510621, "landuse": "residential"}, {"type": "node", "id": 4211849919, "lat": 51.2332695, "lon": 16.2674523, "way_id": 217510621, "landuse": "residential"}, {"type": "node", "id": 4211849924, "lat": 51.2334238, "lon": 16.2681332, "way_id": 217510621, "landuse": "residential"}, {"type": "node", "id": 4211849925, "lat": 51.2334659, "lon": 16.2663981, "way_id": 217510621, "landuse": "residential"}, {"type": "node", "id": 4211849932, "lat": 51.2339375, "lon": 16.2682433, "way_id": 217510621, "landuse": "residential"}, {"type": "node", "id": 4211849933, "lat": 51.2339703, "lon": 16.2678903, "way_id": 217510621, "landuse": "residential"}, {"type": "node", "id": 4211849934, "lat": 51.2339841, "lon": 16.2677419, "way_id": 217510621, "landuse": "residential"}, {"type": "node", "id": 4211849935, "lat": 51.2341107, "lon": 16.2722224, "way_id": 217510621, "landuse": "residential"}, {"type": "node", "id": 4211849952, "lat": 51.2345208, "lon": 16.2681181, "way_id": 217510621, "landuse": "residential"}, {"type": "node", "id": 4211849957, "lat": 51.2346187, "lon": 16.272363, "way_id": 217510621, "landuse": "residential"}, {"type": "node", "id": 4211849959, "lat": 51.2346384, "lon": 16.268005, "way_id": 217510621, "landuse": "residential"}, {"type": "node", "id": 4211849965, "lat": 51.2351083, "lon": 16.2681516, "way_id": 217510621, "landuse": "residential"}, {"type": "node", "id": 4233900938, "lat": 51.1686607, "lon": 16.1408823, "way_id": 685413548, "landuse": "residential"}, {"type": "node", "id": 4297569928, "lat": 51.1925742, "lon": 16.1334503, "way_id": 430489757, "landuse": "residential"}, {"type": "node", "id": 4297569929, "lat": 51.194026, "lon": 16.1341828, "way_id": 430489757, "landuse": "residential"}, {"type": "node", "id": 4297569930, "lat": 51.1932641, "lon": 16.1338538, "way_id": 430489757, "landuse": "residential"}, {"type": "node", "id": 4523596127, "lat": 51.2040958, "lon": 16.2160337, "way_id": 402948733, "landuse": "brownfield"}, {"type": "node", "id": 4523606809, "lat": 51.1948005, "lon": 16.1606278, "way_id": 343480920, "landuse": "residential"}, {"type": "node", "id": 4523606879, "lat": 51.1953583, "lon": 16.1607859, "way_id": 343480920, "landuse": "residential"}, {"type": "node", "id": 4523617494, "lat": 51.1909964, "lon": 16.1564611, "way_id": 343480920, "landuse": "residential"}, {"type": "node", "id": 4524188325, "lat": 51.1702381, "lon": 16.1401276, "way_id": 685413548, "landuse": "residential"}, {"type": "node", "id": 4524190569, "lat": 51.1688812, "lon": 16.1543638, "way_id": 685413548, "landuse": "residential"}, {"type": "node", "id": 4524190578, "lat": 51.1694546, "lon": 16.1520517, "way_id": 685413548, "landuse": "residential"}, {"type": "node", "id": 4524191854, "lat": 51.1705449, "lon": 16.1451691, "way_id": 685413548, "landuse": "residential"}, {"type": "node", "id": 4524200970, "lat": 51.1792244, "lon": 16.1640857, "way_id": 685413548, "landuse": "residential"}, {"type": "node", "id": 4524201600, "lat": 51.1824126, "lon": 16.161581, "way_id": 685413548, "landuse": "residential"}, {"type": "node", "id": 4524221258, "lat": 51.1887108, "lon": 16.1677841, "way_id": 685413549, "landuse": "residential"}, {"type": "node", "id": 4524221259, "lat": 51.1890257, "lon": 16.1659897, "way_id": 685413549, "landuse": "residential"}, {"type": "node", "id": 4524221260, "lat": 51.1893248, "lon": 16.1680193, "way_id": 685413549, "landuse": "residential"}, {"type": "node", "id": 4524221261, "lat": 51.1895078, "lon": 16.1653553, "way_id": 685413549, "landuse": "residential"}, {"type": "node", "id": 4524221266, "lat": 51.1901508, "lon": 16.1662599, "way_id": 685413549, "landuse": "residential"}, {"type": "node", "id": 4524221473, "lat": 51.191445, "lon": 16.1683416, "way_id": 685413549, "landuse": "residential"}, {"type": "node", "id": 4524221996, "lat": 51.1909059, "lon": 16.1677109, "way_id": 685413549, "landuse": "residential"}, {"type": "node", "id": 4524222201, "lat": 51.1916919, "lon": 16.1684592, "way_id": 685413549, "landuse": "residential"}, {"type": "node", "id": 4524222210, "lat": 51.1918072, "lon": 16.1687546, "way_id": 685413549, "landuse": "residential"}, {"type": "node", "id": 4524222211, "lat": 51.1918208, "lon": 16.1689959, "way_id": 685413549, "landuse": "residential"}, {"type": "node", "id": 4524222257, "lat": 51.1920932, "lon": 16.1690825, "way_id": 685413549, "landuse": "residential"}, {"type": "node", "id": 4524222324, "lat": 51.1932212, "lon": 16.1693452, "way_id": 685413549, "landuse": "residential"}, {"type": "node", "id": 4524222332, "lat": 51.1933346, "lon": 16.1697529, "way_id": 685413549, "landuse": "residential"}, {"type": "node", "id": 4524222412, "lat": 51.1928126, "lon": 16.1692498, "way_id": 685413549, "landuse": "residential"}, {"type": "node", "id": 4542408020, "lat": 51.1836036, "lon": 16.1509287, "way_id": 685413548, "landuse": "residential"}, {"type": "node", "id": 4542408021, "lat": 51.1850815, "lon": 16.1515669, "way_id": 685413548, "landuse": "residential"}, {"type": "node", "id": 4542408026, "lat": 51.1862297, "lon": 16.1528087, "way_id": 685413548, "landuse": "residential"}, {"type": "node", "id": 4542408032, "lat": 51.1874011, "lon": 16.1557361, "way_id": 685413547, "landuse": "residential"}, {"type": "node", "id": 4542408036, "lat": 51.1875395, "lon": 16.1545746, "way_id": 685413547, "landuse": "residential"}, {"type": "node", "id": 4542465047, "lat": 51.1816997, "lon": 16.1489653, "way_id": 685413548, "landuse": "residential"}, {"type": "node", "id": 4542465101, "lat": 51.180739, "lon": 16.1494842, "way_id": 685413548, "landuse": "residential"}, {"type": "node", "id": 4542465102, "lat": 51.1809556, "lon": 16.1470507, "way_id": 685413548, "landuse": "residential"}, {"type": "node", "id": 4641478526, "lat": 51.1839207, "lon": 16.220219, "way_id": 685413550, "landuse": "residential"}, {"type": "node", "id": 6207578916, "lat": 51.209792, "lon": 16.1915206, "way_id": 685413549, "landuse": "residential"}, {"type": "node", "id": 6207578917, "lat": 51.2101702, "lon": 16.1915517, "way_id": 685413549, "landuse": "residential"}, {"type": "node", "id": 6208369917, "lat": 51.1904345, "lon": 16.1939334, "way_id": 663042935, "landuse": "brownfield"}, {"type": "node", "id": 6208369918, "lat": 51.1906798, "lon": 16.1887468, "way_id": 685413549, "landuse": "residential"}, {"type": "node", "id": 6208369919, "lat": 51.1902891, "lon": 16.1886804, "way_id": 685413549, "landuse": "residential"}, {"type": "node", "id": 6208941219, "lat": 51.1693023, "lon": 16.1652677, "way_id": 685413548, "landuse": "residential"}, {"type": "node", "id": 6208941220, "lat": 51.169139, "lon": 16.1652145, "way_id": 685413548, "landuse": "residential"}, {"type": "node", "id": 6208941221, "lat": 51.1691724, "lon": 16.1648298, "way_id": 685413548, "landuse": "residential"}, {"type": "node", "id": 6208941222, "lat": 51.1692221, "lon": 16.1661598, "way_id": 685413548, "landuse": "residential"}, {"type": "node", "id": 6208941223, "lat": 51.1694989, "lon": 16.163238, "way_id": 685413548, "landuse": "residential"}, {"type": "node", "id": 6208941224, "lat": 51.1696622, "lon": 16.1620072, "way_id": 685413548, "landuse": "residential"}, {"type": "node", "id": 6208941225, "lat": 51.1693487, "lon": 16.1614273, "way_id": 685413548, "landuse": "residential"}, {"type": "node", "id": 6208941226, "lat": 51.1690129, "lon": 16.1617793, "way_id": 685413548, "landuse": "residential"}, {"type": "node", "id": 6208941227, "lat": 51.1704784, "lon": 16.1564356, "way_id": 685413548, "landuse": "residential"}, {"type": "node", "id": 6208941228, "lat": 51.170367, "lon": 16.1571461, "way_id": 685413548, "landuse": "residential"}, {"type": "node", "id": 6208941229, "lat": 51.1702835, "lon": 16.1571461, "way_id": 685413548, "landuse": "residential"}, {"type": "node", "id": 6208941230, "lat": 51.173701, "lon": 16.1585115, "way_id": 685413548, "landuse": "residential"}, {"type": "node", "id": 6208941231, "lat": 51.1720723, "lon": 16.158012, "way_id": 685413548, "landuse": "residential"}, {"type": "node", "id": 6208941232, "lat": 51.1722113, "lon": 16.1569573, "way_id": 685413548, "landuse": "residential"}, {"type": "node", "id": 6208941233, "lat": 51.173882, "lon": 16.1566354, "way_id": 685413548, "landuse": "residential"}, {"type": "node", "id": 6208941234, "lat": 51.1708821, "lon": 16.1556807, "way_id": 685413548, "landuse": "residential"}, {"type": "node", "id": 6208941235, "lat": 51.1702579, "lon": 16.1574658, "way_id": 685413548, "landuse": "residential"}, {"type": "node", "id": 6208941236, "lat": 51.1717622, "lon": 16.1546319, "way_id": 685413548, "landuse": "residential"}, {"type": "node", "id": 6208941237, "lat": 51.1721737, "lon": 16.1524989, "way_id": 685413548, "landuse": "residential"}, {"type": "node", "id": 6208941238, "lat": 51.1724272, "lon": 16.1526395, "way_id": 685413548, "landuse": "residential"}, {"type": "node", "id": 6208989226, "lat": 51.1729237, "lon": 16.1582722, "way_id": 685413548, "landuse": "residential"}, {"type": "node", "id": 6208989795, "lat": 51.1761824, "lon": 16.1669581, "way_id": 685413548, "landuse": "residential"}, {"type": "node", "id": 6208989796, "lat": 51.1754199, "lon": 16.1667036, "way_id": 685413548, "landuse": "residential"}, {"type": "node", "id": 6208989797, "lat": 51.1753499, "lon": 16.1668535, "way_id": 685413548, "landuse": "residential"}, {"type": "node", "id": 6208989798, "lat": 51.1751445, "lon": 16.1672404, "way_id": 685413548, "landuse": "residential"}, {"type": "node", "id": 6234269536, "lat": 51.2068251, "lon": 16.1370474, "way_id": 343480920, "landuse": "residential"}, {"type": "node", "id": 6234269537, "lat": 51.2091729, "lon": 16.1287225, "way_id": 665935603, "landuse": "residential"}, {"type": "node", "id": 6234269538, "lat": 51.2091712, "lon": 16.1280037, "way_id": 665935603, "landuse": "residential"}, {"type": "node", "id": 6241761145, "lat": 51.2111796, "lon": 16.1912852, "way_id": 666656336, "landuse": "meadow"}, {"type": "node", "id": 6241761146, "lat": 51.2111765, "lon": 16.1916727, "way_id": 666656336, "landuse": "meadow"}, {"type": "node", "id": 6241761147, "lat": 51.2111619, "lon": 16.1919108, "way_id": 666656336, "landuse": "meadow"}, {"type": "node", "id": 6241761148, "lat": 51.2111443, "lon": 16.1920229, "way_id": 666656336, "landuse": "meadow"}, {"type": "node", "id": 6241761149, "lat": 51.2111063, "lon": 16.1921116, "way_id": 666656336, "landuse": "meadow"}, {"type": "node", "id": 6241761150, "lat": 51.2110244, "lon": 16.1921677, "way_id": 666656336, "landuse": "meadow"}, {"type": "node", "id": 6241761151, "lat": 51.2108196, "lon": 16.1922004, "way_id": 666656336, "landuse": "meadow"}, {"type": "node", "id": 6241761152, "lat": 51.2107757, "lon": 16.1924292, "way_id": 666656336, "landuse": "meadow"}, {"type": "node", "id": 6241761153, "lat": 51.2106002, "lon": 16.1925506, "way_id": 666656336, "landuse": "meadow"}, {"type": "node", "id": 6241761154, "lat": 51.2104656, "lon": 16.1926767, "way_id": 666656336, "landuse": "meadow"}, {"type": "node", "id": 6241761155, "lat": 51.2103661, "lon": 16.1926347, "way_id": 666656336, "landuse": "meadow"}, {"type": "node", "id": 6241761156, "lat": 51.2103457, "lon": 16.1919902, "way_id": 666656336, "landuse": "meadow"}, {"type": "node", "id": 6241761157, "lat": 51.2103076, "lon": 16.1919715, "way_id": 666656336, "landuse": "meadow"}, {"type": "node", "id": 6241761158, "lat": 51.2103193, "lon": 16.1913691, "way_id": 666656336, "landuse": "meadow"}, {"type": "node", "id": 6241761159, "lat": 51.2102862, "lon": 16.1913594, "way_id": 666656336, "landuse": "meadow"}, {"type": "node", "id": 6241761160, "lat": 51.2102917, "lon": 16.1912338, "way_id": 666656336, "landuse": "meadow"}, {"type": "node", "id": 6241761161, "lat": 51.2106532, "lon": 16.1912547, "way_id": 666656336, "landuse": "meadow"}, {"type": "node", "id": 6241761165, "lat": 51.2099059, "lon": 16.1942177, "way_id": 685413549, "landuse": "residential"}, {"type": "node", "id": 6241761166, "lat": 51.2099866, "lon": 16.1960943, "way_id": 685413549, "landuse": "residential"}, {"type": "node", "id": 6244367523, "lat": 51.1911523, "lon": 16.1681524, "way_id": 685413549, "landuse": "residential"}, {"type": "node", "id": 6260636556, "lat": 51.1943676, "lon": 16.2056155, "way_id": 668541529, "landuse": "farmland"}, {"type": "node", "id": 6260636557, "lat": 51.1944496, "lon": 16.2054633, "way_id": 668541529, "landuse": "farmland"}, {"type": "node", "id": 6260636558, "lat": 51.1945383, "lon": 16.2054491, "way_id": 668541529, "landuse": "farmland"}, {"type": "node", "id": 6260636559, "lat": 51.1946781, "lon": 16.2054491, "way_id": 668541529, "landuse": "farmland"}, {"type": "node", "id": 6260636560, "lat": 51.1953501, "lon": 16.2055978, "way_id": 668541529, "landuse": "farmland"}, {"type": "node", "id": 6260636561, "lat": 51.1956562, "lon": 16.2056579, "way_id": 668541529, "landuse": "farmland"}, {"type": "node", "id": 6260636562, "lat": 51.1957271, "lon": 16.2057075, "way_id": 668541529, "landuse": "farmland"}, {"type": "node", "id": 6260636563, "lat": 51.1961862, "lon": 16.2062561, "way_id": 668541529, "landuse": "farmland"}, {"type": "node", "id": 6260636564, "lat": 51.1961596, "lon": 16.2064543, "way_id": 668541529, "landuse": "farmland"}, {"type": "node", "id": 6260636565, "lat": 51.1959134, "lon": 16.2077885, "way_id": 668541529, "landuse": "farmland"}, {"type": "node", "id": 6260636566, "lat": 51.1961507, "lon": 16.2078699, "way_id": 668541529, "landuse": "farmland"}, {"type": "node", "id": 6260636567, "lat": 51.1962128, "lon": 16.2079336, "way_id": 668541529, "landuse": "farmland"}, {"type": "node", "id": 6260636568, "lat": 51.1958706, "lon": 16.2095524, "way_id": 685413550, "landuse": "residential"}, {"type": "node", "id": 6260636569, "lat": 51.195787, "lon": 16.2096926, "way_id": 668541529, "landuse": "farmland"}, {"type": "node", "id": 6260636570, "lat": 51.1957183, "lon": 16.2097669, "way_id": 668541529, "landuse": "farmland"}, {"type": "node", "id": 6260636571, "lat": 51.1956584, "lon": 16.2097599, "way_id": 668541529, "landuse": "farmland"}, {"type": "node", "id": 6260636572, "lat": 51.1955497, "lon": 16.2097245, "way_id": 668541529, "landuse": "farmland"}, {"type": "node", "id": 6260636573, "lat": 51.1948111, "lon": 16.2094732, "way_id": 668541529, "landuse": "farmland"}, {"type": "node", "id": 6260636574, "lat": 51.194352, "lon": 16.2092679, "way_id": 668541529, "landuse": "farmland"}, {"type": "node", "id": 6260636575, "lat": 51.193955, "lon": 16.2090414, "way_id": 668541529, "landuse": "farmland"}, {"type": "node", "id": 6260636576, "lat": 51.1937909, "lon": 16.208914, "way_id": 668541529, "landuse": "farmland"}, {"type": "node", "id": 6260636577, "lat": 51.1937598, "lon": 16.2088432, "way_id": 668541529, "landuse": "farmland"}, {"type": "node", "id": 6260636578, "lat": 51.1937731, "lon": 16.2086521, "way_id": 668541529, "landuse": "farmland"}, {"type": "node", "id": 6260636579, "lat": 51.1939949, "lon": 16.2071798, "way_id": 668541529, "landuse": "farmland"}, {"type": "node", "id": 6260636580, "lat": 51.1940925, "lon": 16.2066064, "way_id": 668541529, "landuse": "farmland"}, {"type": "node", "id": 6260636581, "lat": 51.1942123, "lon": 16.2061003, "way_id": 668541529, "landuse": "farmland"}, {"type": "node", "id": 6260636791, "lat": 51.1925771, "lon": 16.2094933, "way_id": 668541533, "landuse": "farmland"}, {"type": "node", "id": 6260636792, "lat": 51.1933201, "lon": 16.2096704, "way_id": 668541533, "landuse": "farmland"}, {"type": "node", "id": 6260636793, "lat": 51.1934394, "lon": 16.2096784, "way_id": 668541533, "landuse": "farmland"}, {"type": "node", "id": 6260636794, "lat": 51.1935772, "lon": 16.208855, "way_id": 668541533, "landuse": "farmland"}, {"type": "node", "id": 6260636795, "lat": 51.1937168, "lon": 16.2078867, "way_id": 668541533, "landuse": "farmland"}, {"type": "node", "id": 6260636796, "lat": 51.1936663, "lon": 16.2078438, "way_id": 668541533, "landuse": "farmland"}, {"type": "node", "id": 6260636797, "lat": 51.193389, "lon": 16.2077955, "way_id": 668541533, "landuse": "farmland"}, {"type": "node", "id": 6260636798, "lat": 51.1930881, "lon": 16.2085278, "way_id": 668541533, "landuse": "farmland"}, {"type": "node", "id": 6260636799, "lat": 51.1928393, "lon": 16.2090266, "way_id": 668541533, "landuse": "farmland"}, {"type": "node", "id": 6260636800, "lat": 51.1925922, "lon": 16.2094048, "way_id": 668541533, "landuse": "farmland"}, {"type": "node", "id": 6423125799, "lat": 51.2125856, "lon": 16.1467928, "way_id": 343480920, "landuse": "residential"}, {"type": "node", "id": 6423125800, "lat": 51.2129438, "lon": 16.1478992, "way_id": 343480920, "landuse": "residential"}, {"type": "node", "id": 6423125801, "lat": 51.2132793, "lon": 16.1493566, "way_id": 343480920, "landuse": "residential"}, {"type": "node", "id": 6423125802, "lat": 51.2133971, "lon": 16.1511649, "way_id": 343480920, "landuse": "residential"}, {"type": "node", "id": 6423125803, "lat": 51.2133962, "lon": 16.1517107, "way_id": 343480920, "landuse": "residential"}, {"type": "node", "id": 6423125804, "lat": 51.2132506, "lon": 16.1531637, "way_id": 343480920, "landuse": "residential"}, {"type": "node", "id": 6423125805, "lat": 51.2130092, "lon": 16.155665, "way_id": 343480920, "landuse": "residential"}, {"type": "node", "id": 6423125806, "lat": 51.2128071, "lon": 16.1592023, "way_id": 343480920, "landuse": "residential"}, {"type": "node", "id": 6423125807, "lat": 51.2127661, "lon": 16.1621232, "way_id": 343480920, "landuse": "residential"}, {"type": "node", "id": 6423125808, "lat": 51.213283, "lon": 16.1669898, "way_id": 343480920, "landuse": "residential"}, {"type": "node", "id": 6423125809, "lat": 51.2131301, "lon": 16.1630938, "way_id": 685413545, "landuse": "residential"}, {"type": "node", "id": 6423125810, "lat": 51.2129879, "lon": 16.1616471, "way_id": 685413545, "landuse": "residential"}, {"type": "node", "id": 6423125811, "lat": 51.2130464, "lon": 16.1602336, "way_id": 685413545, "landuse": "residential"}, {"type": "node", "id": 6423125812, "lat": 51.1919632, "lon": 16.153916, "way_id": 343480920, "landuse": "residential"}, {"type": "node", "id": 6423125813, "lat": 51.1881552, "lon": 16.1542278, "way_id": 685413547, "landuse": "residential"}, {"type": "node", "id": 6423125814, "lat": 51.187095, "lon": 16.1534282, "way_id": 685413547, "landuse": "residential"}, {"type": "node", "id": 6423125815, "lat": 51.187061, "lon": 16.1530596, "way_id": 685413548, "landuse": "residential"}, {"type": "node", "id": 6423125816, "lat": 51.1880899, "lon": 16.1546425, "way_id": 685413547, "landuse": "residential"}, {"type": "node", "id": 6423125817, "lat": 51.2141481, "lon": 16.1761818, "way_id": 685413549, "landuse": "residential"}, {"type": "node", "id": 6423125818, "lat": 51.2137367, "lon": 16.1759583, "way_id": 685413549, "landuse": "residential"}, {"type": "node", "id": 6423125819, "lat": 51.2134399, "lon": 16.1753018, "way_id": 685413549, "landuse": "residential"}, {"type": "node", "id": 6423125820, "lat": 51.2129241, "lon": 16.1734611, "way_id": 685413549, "landuse": "residential"}, {"type": "node", "id": 6423125821, "lat": 51.2122679, "lon": 16.1723112, "way_id": 685413549, "landuse": "residential"}, {"type": "node", "id": 6423125822, "lat": 51.2108665, "lon": 16.1722455, "way_id": 685413549, "landuse": "residential"}, {"type": "node", "id": 6423125823, "lat": 51.2102915, "lon": 16.1724854, "way_id": 685413549, "landuse": "residential"}, {"type": "node", "id": 6423125824, "lat": 51.2096452, "lon": 16.1732262, "way_id": 685413549, "landuse": "residential"}, {"type": "node", "id": 6423125825, "lat": 51.2091053, "lon": 16.1740324, "way_id": 685413549, "landuse": "residential"}, {"type": "node", "id": 6423125826, "lat": 51.2082383, "lon": 16.1733237, "way_id": 685413549, "landuse": "residential"}, {"type": "node", "id": 6423125827, "lat": 51.207787, "lon": 16.173268, "way_id": 685413549, "landuse": "residential"}, {"type": "node", "id": 6423125828, "lat": 51.2068167, "lon": 16.1735018, "way_id": 685413549, "landuse": "residential"}, {"type": "node", "id": 6423125829, "lat": 51.2053378, "lon": 16.172986, "way_id": 343480920, "landuse": "residential"}, {"type": "node", "id": 6423125830, "lat": 51.2075449, "lon": 16.1729986, "way_id": 343480920, "landuse": "residential"}, {"type": "node", "id": 6423125831, "lat": 51.2083041, "lon": 16.1729938, "way_id": 343480920, "landuse": "residential"}, {"type": "node", "id": 6423125832, "lat": 51.2087733, "lon": 16.1729044, "way_id": 343480920, "landuse": "residential"}, {"type": "node", "id": 6423125833, "lat": 51.2097305, "lon": 16.1719286, "way_id": 343480920, "landuse": "residential"}, {"type": "node", "id": 6423125834, "lat": 51.2104311, "lon": 16.1714688, "way_id": 343480920, "landuse": "residential"}, {"type": "node", "id": 6423125835, "lat": 51.2116357, "lon": 16.1713722, "way_id": 343480920, "landuse": "residential"}, {"type": "node", "id": 6423125836, "lat": 51.2129568, "lon": 16.1711038, "way_id": 343480920, "landuse": "residential"}, {"type": "node", "id": 6423125837, "lat": 51.2093678, "lon": 16.2117258, "way_id": 685413550, "landuse": "residential"}, {"type": "node", "id": 6423125838, "lat": 51.2080281, "lon": 16.2124616, "way_id": 685413550, "landuse": "residential"}, {"type": "node", "id": 6423125839, "lat": 51.205737, "lon": 16.2125204, "way_id": 685413550, "landuse": "residential"}, {"type": "node", "id": 6423125840, "lat": 51.2103893, "lon": 16.1976748, "way_id": 685413549, "landuse": "residential"}, {"type": "node", "id": 6423125841, "lat": 51.2093262, "lon": 16.198448, "way_id": 685413549, "landuse": "residential"}, {"type": "node", "id": 6551434134, "lat": 51.161077, "lon": 16.1876047, "way_id": 697616253, "landuse": "meadow"}, {"type": "node", "id": 6551434135, "lat": 51.1608136, "lon": 16.1869506, "way_id": 697616253, "landuse": "meadow"}, {"type": "node", "id": 6551434136, "lat": 51.160856, "lon": 16.1841616, "way_id": 697616253, "landuse": "meadow"}, {"type": "node", "id": 6551434137, "lat": 51.1638648, "lon": 16.187578, "way_id": 697616253, "landuse": "meadow"}, {"type": "node", "id": 6551434138, "lat": 51.1639237, "lon": 16.1872855, "way_id": 697616253, "landuse": "meadow"}, {"type": "node", "id": 6551434139, "lat": 51.1629783, "lon": 16.1869816, "way_id": 697616253, "landuse": "meadow"}, {"type": "node", "id": 6551434140, "lat": 51.1632366, "lon": 16.1850165, "way_id": 697616253, "landuse": "meadow"}, {"type": "node", "id": 6551467566, "lat": 51.1890444, "lon": 16.1742997, "way_id": 685413549, "landuse": "residential"}, {"type": "node", "id": 6551467567, "lat": 51.1891915, "lon": 16.1743499, "way_id": 685413549, "landuse": "residential"}, {"type": "node", "id": 6551467568, "lat": 51.1893652, "lon": 16.1750855, "way_id": 685413549, "landuse": "residential"}, {"type": "node", "id": 6551467569, "lat": 51.1899373, "lon": 16.1760013, "way_id": 685413549, "landuse": "residential"}, {"type": "node", "id": 6844146734, "lat": 51.2110554, "lon": 16.1891042, "way_id": 41605614, "landuse": "meadow"}, {"type": "node", "id": 6844146735, "lat": 51.2111069, "lon": 16.1891058, "way_id": 41605614, "landuse": "meadow"}, {"type": "node", "id": 6844644518, "lat": 51.2110521, "lon": 16.1910122, "way_id": 41605614, "landuse": "meadow"}, {"type": "node", "id": 6844644530, "lat": 51.2098751, "lon": 16.1893825, "way_id": 41605614, "landuse": "meadow"}, {"type": "node", "id": 6844644534, "lat": 51.2098895, "lon": 16.1885737, "way_id": 41605614, "landuse": "meadow"}, {"type": "node", "id": 6844644552, "lat": 51.2110165, "lon": 16.1886089, "way_id": 41605614, "landuse": "meadow"}, {"type": "node", "id": 6844644561, "lat": 51.2103446, "lon": 16.1909803, "way_id": 41605614, "landuse": "meadow"}, {"type": "node", "id": 6844644565, "lat": 51.2102535, "lon": 16.1909745, "way_id": 41605614, "landuse": "meadow"}, {"type": "node", "id": 6845446126, "lat": 51.2011376, "lon": 16.202143, "way_id": 259374156, "landuse": "residential"}, {"type": "node", "id": 6871422786, "lat": 51.2026028, "lon": 16.2230619, "way_id": 685413550, "landuse": "residential"}, {"type": "node", "id": 6871422787, "lat": 51.2038303, "lon": 16.2231283, "way_id": 685413550, "landuse": "residential"}, {"type": "node", "id": 6983125785, "lat": 51.2142028, "lon": 16.1608779, "way_id": 685413545, "landuse": "residential"}, {"type": "node", "id": 6983125786, "lat": 51.2139121, "lon": 16.1594993, "way_id": 685413545, "landuse": "residential"}, {"type": "node", "id": 6983125787, "lat": 51.2197559, "lon": 16.162597, "way_id": 685413545, "landuse": "residential"}, {"type": "node", "id": 6984963083, "lat": 51.2021204, "lon": 16.1450647, "way_id": 343449816, "landuse": "residential"}, {"type": "node", "id": 6984963084, "lat": 51.2021366, "lon": 16.1449457, "way_id": 343449816, "landuse": "residential"}, {"type": "node", "id": 6987679945, "lat": 51.1986176, "lon": 16.2031136, "way_id": 259374156, "landuse": "residential"}, {"type": "node", "id": 7038434590, "lat": 51.2124511, "lon": 16.1729191, "way_id": 402744488, "landuse": "brownfield"}, {"type": "node", "id": 7038434591, "lat": 51.2121953, "lon": 16.173253, "way_id": 402744488, "landuse": "brownfield"}, {"type": "node", "id": 7038434592, "lat": 51.2121695, "lon": 16.173936, "way_id": 402744488, "landuse": "brownfield"}, {"type": "node", "id": 7148782407, "lat": 51.1991527, "lon": 16.2124854, "way_id": 765406065, "landuse": "brownfield"}, {"type": "node", "id": 7148782408, "lat": 51.1990785, "lon": 16.212947, "way_id": 765406065, "landuse": "brownfield"}, {"type": "node", "id": 7148782409, "lat": 51.198635, "lon": 16.2127739, "way_id": 765406065, "landuse": "brownfield"}, {"type": "node", "id": 7148782410, "lat": 51.1987035, "lon": 16.2123214, "way_id": 765406065, "landuse": "brownfield"}, {"type": "node", "id": 7154448804, "lat": 51.2177647, "lon": 16.237206, "way_id": 217510621, "landuse": "residential"}, {"type": "node", "id": 7154448829, "lat": 51.2206516, "lon": 16.2560122, "way_id": 217510621, "landuse": "residential"}, {"type": "node", "id": 7154448860, "lat": 51.2195477, "lon": 16.2601513, "way_id": 217510621, "landuse": "residential"}, {"type": "node", "id": 7154448861, "lat": 51.2194518, "lon": 16.261081, "way_id": 217510621, "landuse": "residential"}, {"type": "node", "id": 7216391088, "lat": 51.2134238, "lon": 16.1408416, "way_id": 343450158, "landuse": "residential"}, {"type": "node", "id": 7459247735, "lat": 51.2277157, "lon": 16.1596676, "way_id": 685413545, "landuse": "residential"}, {"type": "node", "id": 7459247736, "lat": 51.2287145, "lon": 16.1604323, "way_id": 685413545, "landuse": "residential"}, {"type": "node", "id": 7459247737, "lat": 51.2231146, "lon": 16.1521597, "way_id": 685413545, "landuse": "residential"}, {"type": "node", "id": 7459247738, "lat": 51.2233093, "lon": 16.1524215, "way_id": 685413545, "landuse": "residential"}, {"type": "node", "id": 7459247739, "lat": 51.2239448, "lon": 16.1529054, "way_id": 685413545, "landuse": "residential"}, {"type": "node", "id": 7459247740, "lat": 51.2248145, "lon": 16.1542089, "way_id": 685413545, "landuse": "residential"}, {"type": "node", "id": 7599488195, "lat": 51.2050306, "lon": 16.2101425, "way_id": 813559952, "landuse": "residential"}, {"type": "node", "id": 7599488196, "lat": 51.2044291, "lon": 16.2091577, "way_id": 813559952, "landuse": "residential"}, {"type": "node", "id": 7599488197, "lat": 51.2047704, "lon": 16.209071, "way_id": 813559952, "landuse": "residential"}, {"type": "node", "id": 7599488198, "lat": 51.2050693, "lon": 16.209919, "way_id": 813559952, "landuse": "residential"}]